{"type":"FeatureCollection","features":[{"type":"Feature","geometry":{"type":"Point","coordinates":[-0.388583,42.140528]},"properties":{"id":"es-11353","source":"ES","brand":"MOEVE","address":"PASEO RAMON Y CAJAL, 91","municipality":"Huesca","province":"HUESCA","postalCode":"22006","schedule":"L-D: 06:00-22:00","fuels":{"gasoline95":1.769,"gasoline95Premium":1.854,"diesel":1.954,"dieselPremium":2.034},"extra":{"saleType":"P","margin":"I","reportingType":"OM","ideess":"11353","idMunicipio":"3394","idProvincia":"22","idCCAA":"02"}}},{"type":"Feature","geometry":{"type":"Point","coordinates":[-0.425278,42.148056]},"properties":{"id":"es-11354","source":"ES","brand":"CARREFOUR","address":"CALLE DR. ARTERO, 31","municipality":"Huesca","province":"HUESCA","postalCode":"22004","schedule":"L-D: 24H","fuels":{"gasoline95":1.709,"gasoline98":1.869,"diesel":1.879,"dieselPremium":1.919},"extra":{"saleType":"P","margin":"D","reportingType":"dm","ideess":"11354","idMunicipio":"3394","idProvincia":"22","idCCAA":"02"}}},{"type":"Feature","geometry":{"type":"Point","coordinates":[-0.477028,42.091889]},"properties":{"id":"es-11452","source":"ES","brand":"BALLENOIL","address":"AUTOVIA A-23 (MRG.DCHO.) KM. 563,9","municipality":"Huesca","province":"HUESCA","postalCode":"22197","schedule":"L-D: 24H","fuels":{"gasoline95":1.629,"gasoline95Premium":1.639,"diesel":1.749,"dieselPremium":1.759},"extra":{"saleType":"P","margin":"D","reportingType":"OM","ideess":"11452","idMunicipio":"3394","idProvincia":"22","idCCAA":"02"}}},{"type":"Feature","geometry":{"type":"Point","coordinates":[-0.478139,42.092778]},"properties":{"id":"es-11453","source":"ES","brand":"CEPSA","address":"AUTOVIA A-23 (MRG.IZDO.) KM. 563,9","municipality":"Huesca","province":"HUESCA","postalCode":"22197","schedule":"L-D: 06:00-22:00","fuels":{"gasoline95":1.769,"gasoline95Premium":1.854,"diesel":1.954,"dieselPremium":2.034},"extra":{"saleType":"P","margin":"I","reportingType":"OM","ideess":"11453","idMunicipio":"3394","idProvincia":"22","idCCAA":"02"}}},{"type":"Feature","geometry":{"type":"Point","coordinates":[-0.445278,42.250806]},"properties":{"id":"es-11555","source":"ES","brand":"REPSOL","address":"AUTOVIA A-23 KM. 584","municipality":"Nueno","province":"HUESCA","postalCode":"22193","schedule":"L-D: 07:00-23:00","fuels":{"gasoline95":1.818,"gasoline95Premium":1.898,"gasoline98":1.948,"diesel":1.948,"dieselRenewable":2.048,"adblue":0.99},"extra":{"saleType":"P","margin":"D","reportingType":"dm","ideess":"11555","idMunicipio":"3420","idProvincia":"22","idCCAA":"02"}}},{"type":"Feature","geometry":{"type":"Point","coordinates":[-0.939306,42.837667]},"properties":{"id":"es-1176","source":"ES","brand":"PETRONOR","address":"CR NA-137, 28,7","municipality":"Urzainqui","province":"NAVARRA","postalCode":"31416","schedule":"L-D: 08:00-21:00","fuels":{"gasoline95":1.809,"gasoline98":1.979,"diesel":1.939,"dieselPremium":1.999,"dieselB":1.599},"extra":{"saleType":"P","margin":"D","reportingType":"dm","ideess":"1176","idMunicipio":"4854","idProvincia":"31","idCCAA":"15"}}},{"type":"Feature","geometry":{"type":"Point","coordinates":[-0.588028,42.040111]},"properties":{"id":"es-12014","source":"ES","brand":"VIRGEN DE LA CORONA","address":"AVENIDA COOP.SANTIAGO MAXIMO SAMPER, 0","municipality":"Almudévar","province":"HUESCA","postalCode":"22270","schedule":"L-D: 24H","fuels":{"gasoline95":1.54,"diesel":1.71,"dieselPremium":1.74,"dieselB":1.39},"extra":{"saleType":"P","margin":"D","reportingType":"dm","ideess":"12014","idMunicipio":"3313","idProvincia":"22","idCCAA":"02"}}},{"type":"Feature","geometry":{"type":"Point","coordinates":[-0.381278,42.023583]},"properties":{"id":"es-12042","source":"ES","brand":"SECADERO SANTIAGO ALBERO BAJO","address":"CALLE BAJA SAN GREGORIO, S/N","municipality":"Albero Bajo","province":"HUESCA","postalCode":"22255","schedule":"L-D: 24H","fuels":{"diesel":1.7,"dieselB":1.42},"extra":{"saleType":"P","margin":"N","reportingType":"dm","ideess":"12042","idMunicipio":"3304","idProvincia":"22","idCCAA":"02"}}},{"type":"Feature","geometry":{"type":"Point","coordinates":[-0.685917,42.274861]},"properties":{"id":"es-1261","source":"ES","brand":"LABOIL, S.L.","address":"C/ JOAQUIN COSTA, 19 (A-132 km 28,5)","municipality":"Ayerbe","province":"HUESCA","postalCode":"22800","schedule":"L-D: 24H","fuels":{"gasoline95":1.719,"gasoline98":1.839,"diesel":1.859,"dieselPremium":1.919},"extra":{"saleType":"P","margin":"I","reportingType":"dm","ideess":"1261","idMunicipio":"3325","idProvincia":"22","idCCAA":"02"}}},{"type":"Feature","geometry":{"type":"Point","coordinates":[-0.325167,42.142972]},"properties":{"id":"es-1268","source":"ES","brand":"GALP","address":"CARRETERA N-240 (A-1227) KM. 201,6","municipality":"Loporzano","province":"HUESCA","postalCode":"22192","schedule":"L-D: 06:00-22:00","fuels":{"gasoline95":1.729,"gasoline98":1.839,"diesel":1.889,"dieselPremium":1.939},"extra":{"saleType":"P","margin":"N","reportingType":"OM","ideess":"1268","idMunicipio":"3411","idProvincia":"22","idCCAA":"02"}}},{"type":"Feature","geometry":{"type":"Point","coordinates":[-0.425389,42.128778]},"properties":{"id":"es-1269","source":"ES","brand":"ALCAMPO","address":"CARRETERA ZARAGOZA KM. S/N","municipality":"Huesca","province":"HUESCA","postalCode":"22004","schedule":"L-D: 24H","fuels":{"gasoline95":1.546,"diesel":1.732,"dieselPremium":1.772},"extra":{"saleType":"P","margin":"N","reportingType":"dm","ideess":"1269","idMunicipio":"3394","idProvincia":"22","idCCAA":"02"}}},{"type":"Feature","geometry":{"type":"Point","coordinates":[-0.529778,42.577194]},"properties":{"id":"es-1274","source":"ES","brand":"EROSKI","address":"POLIGONO POLIGONO CAMPANCIAN,CALLE DE LA INDUSTRIA, S/N","municipality":"Jaca","province":"HUESCA","postalCode":"22700","schedule":"L-D: 24H","fuels":{"gasoline95":1.689,"diesel":1.884,"dieselPremium":1.964},"extra":{"saleType":"P","margin":"N","reportingType":"dm","ideess":"1274","idMunicipio":"3399","idProvincia":"22","idCCAA":"02"}}},{"type":"Feature","geometry":{"type":"Point","coordinates":[-0.367806,42.773972]},"properties":{"id":"es-1276","source":"ES","brand":"REPSOL","address":"CARRETERA A-136 KM. 94","municipality":"Sallent de Gállego","province":"HUESCA","postalCode":"22640","schedule":"L-D: 07:00-22:00","fuels":{"gasoline95":1.799,"gasoline98":1.929,"diesel":1.975,"dieselPremium":2.105},"extra":{"saleType":"P","margin":"I","reportingType":"dm","ideess":"1276","idMunicipio":"3450","idProvincia":"22","idCCAA":"02"}}},{"type":"Feature","geometry":{"type":"Point","coordinates":[-0.4105,42.141194]},"properties":{"id":"es-1286","source":"ES","brand":"REPSOL","address":"CALLE COSO ALTO, 65","municipality":"Huesca","province":"HUESCA","postalCode":"22003","schedule":"L-V: 07:00-15:00","fuels":{"gasoline95":1.749,"diesel":1.895},"extra":{"saleType":"P","margin":"D","reportingType":"dm","ideess":"1286","idMunicipio":"3394","idProvincia":"22","idCCAA":"02"}}},{"type":"Feature","geometry":{"type":"Point","coordinates":[-0.424583,42.147806]},"properties":{"id":"es-1289","source":"ES","brand":"REPSOL","address":"CARRETERA A-23 KM. 573,8","municipality":"Huesca","province":"HUESCA","postalCode":"22090","schedule":"L-D: 06:00-22:00","fuels":{"gasoline95":1.769,"gasoline98":1.939,"diesel":1.945,"dieselPremium":2.055},"extra":{"saleType":"P","margin":"I","reportingType":"OM","ideess":"1289","idMunicipio":"3394","idProvincia":"22","idCCAA":"02"}}},{"type":"Feature","geometry":{"type":"Point","coordinates":[-0.326889,42.630222]},"properties":{"id":"es-1290","source":"ES","brand":"REPSOL","address":"CALLE CARRETERA FRANCIA PK 136, 2","municipality":"Biescas","province":"HUESCA","postalCode":"22630","schedule":"L-D: 08:00-22:00","fuels":{"gasoline95":1.785,"diesel":1.969,"dieselPremium":2.085},"extra":{"saleType":"P","margin":"D","reportingType":"dm","ideess":"1290","idMunicipio":"3344","idProvincia":"22","idCCAA":"02"}}},{"type":"Feature","geometry":{"type":"Point","coordinates":[-0.748278,42.740833]},"properties":{"id":"es-1301","source":"ES","brand":"MOEVE","address":"CALLE CARRETERA DE OZA, S/N","municipality":"Valle de Hecho","province":"HUESCA","postalCode":"22720","schedule":"L-D: 09:00-13:30 y 16:30-20:00","fuels":{"gasoline95":1.769,"diesel":1.964,"dieselB":1.689},"extra":{"saleType":"P","margin":"I","reportingType":"dm","ideess":"1301","idMunicipio":"3483","idProvincia":"22","idCCAA":"02"}}},{"type":"Feature","geometry":{"type":"Point","coordinates":[-0.524528,42.723056]},"properties":{"id":"es-1302","source":"ES","brand":"MOEVE","address":"CARRETERA N-330 KM. 664,100","municipality":"Canfranc","province":"HUESCA","postalCode":"22880","schedule":"L-D: 07:00-22:00","fuels":{"gasoline95":1.799,"gasoline95Premium":1.899,"diesel":1.979,"dieselPremium":2.099,"adblue":0.899},"extra":{"saleType":"P","margin":"I","reportingType":"dm","ideess":"1302","idMunicipio":"3359","idProvincia":"22","idCCAA":"02"}}},{"type":"Feature","geometry":{"type":"Point","coordinates":[-0.123389,42.606472]},"properties":{"id":"es-1304","source":"ES","brand":"REPSOL","address":"CARRETERA N-260A KM. 478","municipality":"Broto","province":"HUESCA","postalCode":"22370","schedule":"L-D: 08:00-22:00","fuels":{"gasoline95":1.795,"diesel":1.955,"dieselPremium":2.065},"extra":{"saleType":"P","margin":"I","reportingType":"OM","ideess":"1304","idMunicipio":"3353","idProvincia":"22","idCCAA":"02"}}},{"type":"Feature","geometry":{"type":"Point","coordinates":[-0.411306,42.13025]},"properties":{"id":"es-13042","source":"ES","brand":"DIP ENERGY","address":"CALLE ALMUDEVAR, 16","municipality":"Huesca","province":"HUESCA","postalCode":"22004","schedule":"L-D: 24H","fuels":{"gasoline95":1.519,"diesel":1.682},"extra":{"saleType":"P","margin":"D","reportingType":"dm","ideess":"13042","idMunicipio":"3394","idProvincia":"22","idCCAA":"02"}}},{"type":"Feature","geometry":{"type":"Point","coordinates":[-0.399278,42.146889]},"properties":{"id":"es-13043","source":"ES","brand":"EXIBOX","address":"RONDA INDUSTRIA (DE LA), 10","municipality":"Huesca","province":"HUESCA","postalCode":"22006","schedule":"L-D: 07:00-23:00","fuels":{"gasoline95":1.639,"diesel":1.789},"extra":{"saleType":"P","margin":"D","reportingType":"dm","ideess":"13043","idMunicipio":"3394","idProvincia":"22","idCCAA":"02"}}},{"type":"Feature","geometry":{"type":"Point","coordinates":[-0.271806,42.123722]},"properties":{"id":"es-1306","source":"ES","brand":"REPSOL","address":"CARRETERA CR N-240 KM. 196,5","municipality":"Siétamo","province":"HUESCA","postalCode":"22120","schedule":"L-D: 07:00-21:00","fuels":{"gasoline95":1.745,"gasoline98":1.915,"diesel":1.929,"dieselPremium":2.039,"dieselB":1.584},"extra":{"saleType":"P","margin":"D","reportingType":"OM","ideess":"1306","idMunicipio":"3466","idProvincia":"22","idCCAA":"02"}}},{"type":"Feature","geometry":{"type":"Point","coordinates":[-0.308444,42.716]},"properties":{"id":"es-1308","source":"ES","brand":"REPSOL","address":"CARRETERA A-136 KM. 11","municipality":"Sallent de Gállego","province":"HUESCA","postalCode":"22663","schedule":"L-D: 07:00-22:00","fuels":{"gasoline95":1.795,"gasoline98":1.915,"diesel":1.979,"dieselB":1.64,"dieselRenewable":2.099},"extra":{"saleType":"P","margin":"D","reportingType":"OM","ideess":"1308","idMunicipio":"3450","idProvincia":"22","idCCAA":"02"}}},{"type":"Feature","geometry":{"type":"Point","coordinates":[-0.397139,42.434778]},"properties":{"id":"es-1309","source":"ES","brand":"CEPSA","address":"CARRETERA NACIONAL 330 KM. 616,700","municipality":"Sabiñánigo","province":"HUESCA","postalCode":"22621","schedule":"L-D: 24H","fuels":{"gasoline95":1.766,"gasoline98":1.893,"diesel":1.941,"dieselPremium":2.013,"dieselB":1.685},"extra":{"saleType":"P","margin":"I","reportingType":"dm","ideess":"1309","idMunicipio":"3445","idProvincia":"22","idCCAA":"02"}}},{"type":"Feature","geometry":{"type":"Point","coordinates":[-0.786556,42.556611]},"properties":{"id":"es-1313","source":"ES","brand":"MOEVE","address":"CARRETERA N-240 KM. 303,5","municipality":"Puente la Reina de Jaca","province":"HUESCA","postalCode":"22751","schedule":"L-D: 07:00-22:00","fuels":{"gasoline95":1.769,"gasoline95Premium":1.874,"diesel":1.954,"dieselPremium":2.074,"dieselB":1.644},"extra":{"saleType":"P","margin":"I","reportingType":"OM","ideess":"1313","idMunicipio":"3439","idProvincia":"22","idCCAA":"02"}}},{"type":"Feature","geometry":{"type":"Point","coordinates":[-0.413,42.142639]},"properties":{"id":"es-1314","source":"ES","brand":"REPSOL","address":"AVENIDA PAZ LA, 33","municipality":"Huesca","province":"HUESCA","postalCode":"22004","schedule":"L-D: 24H","fuels":{"gasoline95":1.769,"diesel":1.935,"dieselRenewable":2.055},"extra":{"saleType":"P","margin":"I","reportingType":"dm","ideess":"1314","idMunicipio":"3394","idProvincia":"22","idCCAA":"02"}}},{"type":"Feature","geometry":{"type":"Point","coordinates":[-0.361111,42.515028]},"properties":{"id":"es-1315","source":"ES","brand":"REPSOL","address":"CL AVENIDA HUESCA, 22","municipality":"Sabiñánigo","province":"HUESCA","postalCode":"22600","schedule":"L-D: 06:00-22:00","fuels":{"gasoline95":1.795,"gasoline98":1.915,"diesel":1.979,"dieselB":1.64,"dieselRenewable":2.099,"lpg":1.175},"extra":{"saleType":"P","margin":"I","reportingType":"OM","ideess":"1315","idMunicipio":"3445","idProvincia":"22","idCCAA":"02"}}},{"type":"Feature","geometry":{"type":"Point","coordinates":[-0.417278,42.131611]},"properties":{"id":"es-1316","source":"ES","brand":"REPSOL","address":"AVENIDA MARTINEZ DE VELASCO, 53","municipality":"Huesca","province":"HUESCA","postalCode":"22004","schedule":"L-D: 24H","fuels":{"gasoline95":1.775,"gasoline98":1.895,"diesel":1.939,"dieselRenewable":2.059,"lpg":1.189},"extra":{"saleType":"P","margin":"D","reportingType":"OM","ideess":"1316","idMunicipio":"3394","idProvincia":"22","idCCAA":"02"}}},{"type":"Feature","geometry":{"type":"Point","coordinates":[-0.418944,42.131139]},"properties":{"id":"es-1317","source":"ES","brand":"REPSOL","address":"AVENIDA MARTINEZ VELASCO, 53","municipality":"Huesca","province":"HUESCA","postalCode":"22004","schedule":"L-D: 06:00-22:00","fuels":{"gasoline95":1.775,"gasoline98":1.895,"diesel":1.939,"dieselRenewable":2.059},"extra":{"saleType":"P","margin":"I","reportingType":"OM","ideess":"1317","idMunicipio":"3394","idProvincia":"22","idCCAA":"02"}}},{"type":"Feature","geometry":{"type":"Point","coordinates":[-0.570222,42.563667]},"properties":{"id":"es-13232","source":"ES","brand":"HIPER OIL","address":"CALLE RIO ARAGON, 1","municipality":"Jaca","province":"HUESCA","postalCode":"22700","schedule":"L-D: 07:00-23:00","fuels":{"gasoline95":1.779,"diesel":1.949},"extra":{"saleType":"P","margin":"N","reportingType":"dm","ideess":"13232","idMunicipio":"3399","idProvincia":"22","idCCAA":"02"}}},{"type":"Feature","geometry":{"type":"Point","coordinates":[-0.015222,42.052139]},"properties":{"id":"es-1326","source":"ES","brand":"REPSOL","address":"VÍA N-240, 173,50","municipality":"Peraltilla","province":"HUESCA","postalCode":"22311","schedule":"L-V: 07:00-21:00; S: 07:00-14:00","fuels":{"gasoline95":1.739,"gasoline98":1.909,"diesel":1.925,"dieselRenewable":2.045},"extra":{"saleType":"P","margin":"D","reportingType":"OM","ideess":"1326","idMunicipio":"3430","idProvincia":"22","idCCAA":"02"}}},{"type":"Feature","geometry":{"type":"Point","coordinates":[-0.55425,42.566861]},"properties":{"id":"es-1330","source":"ES","brand":"REPSOL","address":"AVENIDA REGIMIENTO GALICIA, 10","municipality":"Jaca","province":"HUESCA","postalCode":"22700","schedule":"L-D: 06:00-23:00","fuels":{"gasoline95":1.795,"gasoline98":1.915,"diesel":1.979,"dieselRenewable":2.099},"extra":{"saleType":"P","margin":"I","reportingType":"OM","ideess":"1330","idMunicipio":"3399","idProvincia":"22","idCCAA":"02"}}},{"type":"Feature","geometry":{"type":"Point","coordinates":[-0.391806,42.115889]},"properties":{"id":"es-1343","source":"ES","brand":"REPSOL","address":"CARRETERA A-131 KM. 2,7","municipality":"Huesca","province":"HUESCA","postalCode":"22090","schedule":"L-D: 06:00-22:00","fuels":{"gasoline95":1.769,"gasoline95Premium":1.829,"diesel":1.935,"dieselB":1.604,"dieselRenewable":2.055},"extra":{"saleType":"P","margin":"D","reportingType":"OM","ideess":"1343","idMunicipio":"3394","idProvincia":"22","idCCAA":"02"}}},{"type":"Feature","geometry":{"type":"Point","coordinates":[-0.388833,42.143639]},"properties":{"id":"es-13438","source":"ES","brand":"LABOIL","address":"POLIGONO RONDA INDUSTRIA (DE LA), 124","municipality":"Huesca","province":"HUESCA","postalCode":"22006","schedule":"L-D: 24H","fuels":{"gasoline95":1.639,"diesel":1.799,"adblue":0.779},"extra":{"saleType":"P","margin":"D","reportingType":"dm","ideess":"13438","idMunicipio":"3394","idProvincia":"22","idCCAA":"02"}}},{"type":"Feature","geometry":{"type":"Point","coordinates":[-0.538194,42.677667]},"properties":{"id":"es-1344","source":"ES","brand":"REPSOL","address":"CARRETERA FRANCIA KM. 658","municipality":"Villanúa","province":"HUESCA","postalCode":"22870","schedule":"L-D: 06:00-22:00","fuels":{"gasoline95":1.795,"diesel":1.979,"dieselRenewable":2.099},"extra":{"saleType":"P","margin":"I","reportingType":"OM","ideess":"1344","idMunicipio":"3491","idProvincia":"22","idCCAA":"02"}}},{"type":"Feature","geometry":{"type":"Point","coordinates":[-0.429917,42.125111]},"properties":{"id":"es-1347","source":"ES","brand":"REPSOL","address":"CARRETERA CR N-330 KM. 569,7","municipality":"Huesca","province":"HUESCA","postalCode":"22004","schedule":"L-D: 06:00-22:00","fuels":{"gasoline95":1.775,"gasoline98":1.895,"diesel":1.939,"dieselB":1.584,"dieselRenewable":2.059},"extra":{"saleType":"P","margin":"I","reportingType":"OM","ideess":"1347","idMunicipio":"3394","idProvincia":"22","idCCAA":"02"}}},{"type":"Feature","geometry":{"type":"Point","coordinates":[-0.575528,42.036194]},"properties":{"id":"es-1349","source":"ES","brand":"REPSOL","address":"CARRETERA A-23 KM. 552,8","municipality":"Almudévar","province":"HUESCA","postalCode":"22270","schedule":"L-D: 06:00-22:00","fuels":{"gasoline95":1.775,"diesel":1.929,"dieselRenewable":2.049},"extra":{"saleType":"P","margin":"I","reportingType":"OM","ideess":"1349","idMunicipio":"3313","idProvincia":"22","idCCAA":"02"}}},{"type":"Feature","geometry":{"type":"Point","coordinates":[-0.360278,42.525611]},"properties":{"id":"es-13838","source":"ES","brand":"RUTA SABIÑANIGO 29","address":"CARRETERA BIESCAS KM. 29","municipality":"Sabiñánigo","province":"HUESCA","postalCode":"22600","schedule":"L-D: 24H","fuels":{"gasoline95":1.739,"diesel":1.889},"extra":{"saleType":"P","margin":"N","reportingType":"dm","ideess":"13838","idMunicipio":"3445","idProvincia":"22","idCCAA":"02"}}},{"type":"Feature","geometry":{"type":"Point","coordinates":[-0.416861,42.128361]},"properties":{"id":"es-14081","source":"ES","brand":"BONAREA","address":"CALLE BALLOBAR, 11","municipality":"Huesca","province":"HUESCA","postalCode":"22004","schedule":"L-D: 24H","fuels":{"gasoline95":1.512,"diesel":1.683,"adblue":0.499},"extra":{"saleType":"P","margin":"N","reportingType":"dm","ideess":"14081","idMunicipio":"3394","idProvincia":"22","idCCAA":"02"}}},{"type":"Feature","geometry":{"type":"Point","coordinates":[-0.548472,42.211917]},"properties":{"id":"es-6903","source":"ES","brand":"REPSOL","address":"A-132 km 14","municipality":"Sotonera (La)","province":"HUESCA","postalCode":"22810","schedule":"L-V: 06:30-22:00; S-D: 07:30-22:00","fuels":{"gasoline95":1.779,"diesel":1.939,"dieselB":1.529,"dieselRenewable":2.039,"adblue":0.959},"extra":{"saleType":"P","margin":"D","reportingType":"dm","ideess":"6903","idMunicipio":"3468","idProvincia":"22","idCCAA":"02"}}},{"type":"Feature","geometry":{"type":"Point","coordinates":[-0.355417,42.53975]},"properties":{"id":"es-8088","source":"ES","brand":"REPSOL","address":"AVENIDA BIESCAS, S/N","municipality":"Sabiñánigo","province":"HUESCA","postalCode":"22600","schedule":"L-D: 07:00-23:00","fuels":{"gasoline95":1.795,"gasoline98":1.915,"diesel":1.979,"dieselPremium":2.039},"extra":{"saleType":"P","margin":"I","reportingType":"OM","ideess":"8088","idMunicipio":"3445","idProvincia":"22","idCCAA":"02"}}},{"type":"Feature","geometry":{"type":"Point","coordinates":[-0.909278,42.050222]},"properties":{"id":"es-8982","source":"ES","brand":"COOP SIERRA DE LUNA","address":"CARRETERA ZUERA-LUNA KM. 24,100","municipality":"Sierra de Luna","province":"ZARAGOZA","postalCode":"50612","schedule":"L-D: 24H","fuels":{"gasoline95":1.535,"diesel":1.7,"dieselB":1.303},"extra":{"saleType":"P","margin":"N","reportingType":"dm","ideess":"8982","idMunicipio":"8054","idProvincia":"50","idCCAA":"02"}}},{"type":"Feature","geometry":{"type":"Point","coordinates":[-0.947806,42.114389]},"properties":{"id":"es-9639","source":"ES","brand":"PETRONOR","address":"AVENIDA GOYA, 10","municipality":"Erla","province":"ZARAGOZA","postalCode":"50611","schedule":"L-S: 07:00-21:00; D: 09:00-21:00","fuels":{"gasoline95":1.769,"diesel":1.889,"dieselB":1.724,"dieselRenewable":2.009},"extra":{"saleType":"P","margin":"D","reportingType":"OM","ideess":"9639","idMunicipio":"7915","idProvincia":"50","idCCAA":"02"}}},{"type":"Feature","geometry":{"type":"Point","coordinates":[-0.9365,42.164278]},"properties":{"id":"es-9925","source":"ES","brand":"COOPERATIVA DE LUNA","address":"VALDANIAS, 2","municipality":"Luna","province":"ZARAGOZA","postalCode":"50610","schedule":"L-D: 24H","fuels":{"diesel":1.76,"dieselB":1.35,"adblue":0.54},"extra":{"saleType":"P","margin":"D","reportingType":"dm","ideess":"9925","idMunicipio":"7962","idProvincia":"50","idCCAA":"02"}}}]}