{"type":"FeatureCollection","features":[{"type":"Feature","geometry":{"type":"Point","coordinates":[-1.909861,36.987694]},"properties":{"id":"es-6852","source":"ES","brand":"BP OIL ESPAÑA","address":"PLAZA POLIGONO INDUSTRIAL, 16","municipality":"Carboneras","province":"ALMERÍA","postalCode":"04140","schedule":"L-D: 06:00-22:00","fuels":{"gasoline95":1.969,"gasoline98":2.109,"diesel":1.955,"dieselPremium":2.045,"adblue":0.999},"extra":{"saleType":"P","margin":"D","reportingType":"dm","ideess":"6852","idMunicipio":"310","idProvincia":"04","idCCAA":"01"}}}]}