{"type":"FeatureCollection","features":[{"type":"Feature","geometry":{"type":"Point","coordinates":[-2.534333,41.471333]},"properties":{"id":"es-11794","source":"ES","brand":"GAMAR","address":"CALLE HAYA, ","municipality":"Almazán","province":"SORIA","postalCode":"42200","schedule":"L-D: 24H","fuels":{"gasoline95":1.749,"diesel":1.749,"dieselPremium":1.779,"adblue":0.659},"extra":{"saleType":"P","margin":"N","reportingType":"dm","ideess":"11794","idMunicipio":"6177","idProvincia":"42","idCCAA":"08"}}},{"type":"Feature","geometry":{"type":"Point","coordinates":[-2.850611,41.798667]},"properties":{"id":"es-12329","source":"ES","brand":"GASOLEOS MARTIN NAVAS SLU","address":"POLIGONO POLIGONO LA NAVA  EN  CABREJAS PINAR, SN","municipality":"Cabrejas del Pinar","province":"SORIA","postalCode":"42147","schedule":"L-D: 24H","fuels":{"gasoline95":1.659,"diesel":1.769},"extra":{"saleType":"P","margin":"D","reportingType":"dm","ideess":"12329","idMunicipio":"6201","idProvincia":"42","idCCAA":"08"}}},{"type":"Feature","geometry":{"type":"Point","coordinates":[-2.413583,41.757861]},"properties":{"id":"es-13476","source":"ES","brand":"COPISO","address":"POLIGONO VALCORBA PARC Nº 52, SUR D-13, 52","municipality":"Soria","province":"SORIA","postalCode":"42005","schedule":"L-D: 24H","fuels":{"gasoline95":1.75,"dieselPremium":1.7,"adblue":0.593},"extra":{"saleType":"P","margin":"D","reportingType":"dm","ideess":"13476","idMunicipio":"6303","idProvincia":"42","idCCAA":"08"}}},{"type":"Feature","geometry":{"type":"Point","coordinates":[-2.481111,41.757333]},"properties":{"id":"es-13521","source":"ES","brand":"+B ENERGIAS","address":"AVENIDA EUROPA  EN  SORIA, 28","municipality":"Soria","province":"SORIA","postalCode":"42005","schedule":"L-D: 24H","fuels":{"gasoline95":1.655,"diesel":1.685,"lpg":0.999,"adblue":0.877},"extra":{"saleType":"P","margin":"D","reportingType":"dm","ideess":"13521","idMunicipio":"6303","idProvincia":"42","idCCAA":"08"}}},{"type":"Feature","geometry":{"type":"Point","coordinates":[-2.292056,41.214861]},"properties":{"id":"es-13615","source":"ES","brand":"GHC SORIA","address":"POLIGONO POLIGONO INDUSTRIAL LA MALITA-PARC. 15 Y 32, 167","municipality":"Arcos de Jalón","province":"SORIA","postalCode":"42250","schedule":"L-V: 24H; S-D: 00:00-16:00","fuels":{"diesel":1.779,"dieselB":1.349,"adblue":0.749},"extra":{"saleType":"P","margin":"D","reportingType":"dm","ideess":"13615","idMunicipio":"6182","idProvincia":"42","idCCAA":"08"}}},{"type":"Feature","geometry":{"type":"Point","coordinates":[-2.537056,41.499889]},"properties":{"id":"es-14668","source":"ES","brand":"ORUCA","address":"AVENIDA SORIA, 40","municipality":"Almazán","province":"SORIA","postalCode":"42200","schedule":"L-D: 24H","fuels":{"gasoline95":1.799,"diesel":1.769,"lpg":0.949,"adblue":0.679},"extra":{"saleType":"P","margin":"D","reportingType":"dm","ideess":"14668","idMunicipio":"6177","idProvincia":"42","idCCAA":"08"}}},{"type":"Feature","geometry":{"type":"Point","coordinates":[-2.002722,41.311611]},"properties":{"id":"es-1489","source":"ES","brand":"MOEVE","address":"AUTOVIA A-2 KM. 197,2","municipality":"Ariza","province":"ZARAGOZA","postalCode":"50220","schedule":"L-D: 24H","fuels":{"gasoline95":1.889,"gasoline95Premium":1.979,"diesel":1.844,"dieselPremium":1.934,"dieselB":1.774},"extra":{"saleType":"P","margin":"D","reportingType":"OM","ideess":"1489","idMunicipio":"7850","idProvincia":"50","idCCAA":"02"}}},{"type":"Feature","geometry":{"type":"Point","coordinates":[-2.001333,41.312611]},"properties":{"id":"es-1490","source":"ES","brand":"MOEVE","address":"AUTOVIA A-2 KM. 197,3","municipality":"Ariza","province":"ZARAGOZA","postalCode":"50220","schedule":"L-D: 24H","fuels":{"gasoline95":1.889,"gasoline95Premium":1.979,"diesel":1.824,"dieselPremium":1.914,"dieselB":1.774},"extra":{"saleType":"P","margin":"I","reportingType":"OM","ideess":"1490","idMunicipio":"7850","idProvincia":"50","idCCAA":"02"}}},{"type":"Feature","geometry":{"type":"Point","coordinates":[-2.485861,41.768778]},"properties":{"id":"es-14960","source":"ES","brand":"PETROPRIX","address":"AVENIDA VALLADOLID  EN  SORIA, 62","municipality":"Soria","province":"SORIA","postalCode":"42005","schedule":"L-D: 24H","fuels":{"gasoline95":1.649,"diesel":1.684},"extra":{"saleType":"P","margin":"D","reportingType":"dm","ideess":"14960","idMunicipio":"6303","idProvincia":"42","idCCAA":"08"}}},{"type":"Feature","geometry":{"type":"Point","coordinates":[-2.122833,41.30725]},"properties":{"id":"es-14989","source":"ES","brand":"BP","address":"AUTOVIA DEL NORDESTE KM. 186","municipality":"Monreal de Ariza","province":"ZARAGOZA","postalCode":"50291","schedule":"L-D: 24H","fuels":{"gasoline95":1.879,"diesel":1.839,"dieselPremium":1.929,"adblue":0.959},"extra":{"saleType":"P","margin":"D","reportingType":"dm","ideess":"14989","idMunicipio":"7983","idProvincia":"50","idCCAA":"02"}}},{"type":"Feature","geometry":{"type":"Point","coordinates":[-2.483722,41.7815]},"properties":{"id":"es-15272","source":"ES","brand":"DPM","address":"POLIGONO LAS CASAS CALLE D, 44","municipality":"Soria","province":"SORIA","postalCode":"42005","schedule":"L: 24H","fuels":{"gasoline95":1.625,"diesel":1.692},"extra":{"saleType":"P","margin":"N","reportingType":"dm","ideess":"15272","idMunicipio":"6303","idProvincia":"42","idCCAA":"08"}}},{"type":"Feature","geometry":{"type":"Point","coordinates":[-2.528056,41.470639]},"properties":{"id":"es-15399","source":"ES","brand":"LA VALENTI","address":"AVENIDA POLIGONO INDUSTRIAL LA DEHESA, 1","municipality":"Almazán","province":"SORIA","postalCode":"42200","schedule":"L-D: 00:00-23:59","fuels":{"gasoline95":1.749,"gasoline98":1.899,"diesel":1.749,"dieselPremium":1.779,"adblue":0.679},"extra":{"saleType":"P","margin":"D","reportingType":"dm","ideess":"15399","idMunicipio":"6177","idProvincia":"42","idCCAA":"08"}}},{"type":"Feature","geometry":{"type":"Point","coordinates":[-2.488389,41.771889]},"properties":{"id":"es-15647","source":"ES","brand":"GASHOME","address":"POLIGONO LAS CASAS CL. I-N, 294","municipality":"Soria","province":"SORIA","postalCode":"42005","schedule":"L-D: 24H","fuels":{"gasoline95":1.719,"diesel":1.679,"adblue":0.669},"extra":{"saleType":"P","margin":"D","reportingType":"dm","ideess":"15647","idMunicipio":"6303","idProvincia":"42","idCCAA":"08"}}},{"type":"Feature","geometry":{"type":"Point","coordinates":[-2.875556,41.928917]},"properties":{"id":"es-15866","source":"ES","brand":"ESTACION DE SERVICIO HERMANOS OLALLA","address":"CARRETERA SO-850, P.KM. 24 KM. 24","municipality":"Covaleda","province":"SORIA","postalCode":"42157","schedule":"L-D: 24H","fuels":{"gasoline95":1.729,"gasoline98":1.769,"diesel":1.669,"adblue":0.65},"extra":{"saleType":"P","margin":"D","reportingType":"dm","ideess":"15866","idMunicipio":"6222","idProvincia":"42","idCCAA":"08"}}},{"type":"Feature","geometry":{"type":"Point","coordinates":[-2.467472,41.260889]},"properties":{"id":"es-16159","source":"ES","brand":"ÁREA 117","address":"CARRETERA SO-P KM. 3046","municipality":"Alcubilla de las Peñas","province":"SORIA","postalCode":"42295","schedule":"L-D: 24H","fuels":{"gasoline95":1.799,"diesel":1.799,"adblue":0.749},"extra":{"saleType":"P","margin":"D","reportingType":"dm","ideess":"16159","idMunicipio":"6165","idProvincia":"42","idCCAA":"08"}}},{"type":"Feature","geometry":{"type":"Point","coordinates":[-2.485194,41.772667]},"properties":{"id":"es-4735","source":"ES","brand":"E. LECLERC","address":"CALLE J, 290","municipality":"Soria","province":"SORIA","postalCode":"42005","schedule":"L-D: 24H","fuels":{"gasoline95":1.759,"gasoline95Premium":1.79,"diesel":1.659,"dieselPremium":1.69,"adblue":0.99},"extra":{"saleType":"P","margin":"N","reportingType":"dm","ideess":"4735","idMunicipio":"6303","idProvincia":"42","idCCAA":"08"}}},{"type":"Feature","geometry":{"type":"Point","coordinates":[-2.204917,41.048]},"properties":{"id":"es-4821","source":"ES","brand":"MAROIL","address":"TRAVESÍA CARRETERA NACIONAL N211 KM22.200, S/N","municipality":"Maranchón","province":"GUADALAJARA","postalCode":"19280","schedule":"L-J: 08:00-13:00; V: 08:00-13:00 y 16:00-19:00; S: 09:00-13:00","fuels":{"gasoline95":1.809,"diesel":1.749},"extra":{"saleType":"P","margin":"I","reportingType":"dm","ideess":"4821","idMunicipio":"2977","idProvincia":"19","idCCAA":"07"}}},{"type":"Feature","geometry":{"type":"Point","coordinates":[-2.481194,41.034056]},"properties":{"id":"es-4867","source":"ES","brand":"REPSOL","address":"CR A-2, 132,2","municipality":"Alcolea del Pinar","province":"GUADALAJARA","postalCode":"19260","schedule":"L-D: 07:00-23:00","fuels":{"gasoline95":1.915,"gasoline98":2.075,"diesel":1.839,"dieselRenewable":1.949},"extra":{"saleType":"P","margin":"D","reportingType":"OM","ideess":"4867","idMunicipio":"2849","idProvincia":"19","idCCAA":"07"}}},{"type":"Feature","geometry":{"type":"Point","coordinates":[-2.868583,41.193722]},"properties":{"id":"es-4878","source":"ES","brand":"REPSOL","address":"CR C-114, 59","municipality":"Atienza","province":"GUADALAJARA","postalCode":"19270","schedule":"L-S: 08:00-16:00; D: 09:00-14:00","fuels":{"gasoline95":1.915,"diesel":1.835,"dieselB":1.599,"dieselRenewable":1.945},"extra":{"saleType":"P","margin":"I","reportingType":"OM","ideess":"4878","idMunicipio":"2874","idProvincia":"19","idCCAA":"07"}}},{"type":"Feature","geometry":{"type":"Point","coordinates":[-2.647839,41.065646]},"properties":{"id":"es-4879","source":"ES","brand":"REPSOL","address":"CR C-204, 19","municipality":"Sigüenza","province":"GUADALAJARA","postalCode":"19250","schedule":"L-D: 07:00-22:00","fuels":{"gasoline95":1.925,"diesel":1.865,"dieselRenewable":1.975},"extra":{"saleType":"P","margin":"I","reportingType":"OM","ideess":"4879","idMunicipio":"3059","idProvincia":"19","idCCAA":"07"}}},{"type":"Feature","geometry":{"type":"Point","coordinates":[-2.463972,41.903806]},"properties":{"id":"es-4933","source":"ES","brand":"E.S. EL VALLE","address":"CARRETERA N-111 KM. 243,8","municipality":"Almarza","province":"SORIA","postalCode":"42169","schedule":"L-D: 08:00-22:00","fuels":{"gasoline95":1.869,"gasoline98":2.029,"diesel":1.849,"dieselPremium":1.939},"extra":{"saleType":"P","margin":"I","reportingType":"dm","ideess":"4933","idMunicipio":"6176","idProvincia":"42","idCCAA":"08"}}},{"type":"Feature","geometry":{"type":"Point","coordinates":[-2.87075,41.495833]},"properties":{"id":"es-4946","source":"ES","brand":"REPSOL","address":"CALLE CL166 KM18,700, ","municipality":"Berlanga de Duero","province":"SORIA","postalCode":"42366","schedule":"L-D: 8:00-22:00","fuels":{"gasoline95":1.879,"diesel":1.849,"dieselPremium":1.899},"extra":{"saleType":"P","margin":"I","reportingType":"dm","ideess":"4946","idMunicipio":"6192","idProvincia":"42","idCCAA":"08"}}},{"type":"Feature","geometry":{"type":"Point","coordinates":[-2.546583,41.015972]},"properties":{"id":"es-5106","source":"ES","brand":"REPSOL","address":"AUTOVIA A-2 KM. 125","municipality":"Saúca","province":"GUADALAJARA","postalCode":"19262","schedule":"L-D: 06:00-22:00","fuels":{"gasoline95":1.915,"gasoline98":2.075,"diesel":1.839,"dieselRenewable":1.949},"extra":{"saleType":"P","margin":"D","reportingType":"OM","ideess":"5106","idMunicipio":"3053","idProvincia":"19","idCCAA":"07"}}},{"type":"Feature","geometry":{"type":"Point","coordinates":[-2.450583,41.039583]},"properties":{"id":"es-5223","source":"ES","brand":"REPSOL","address":"CR A-2, 135","municipality":"Alcolea del Pinar","province":"GUADALAJARA","postalCode":"19260","schedule":"L-V: 06:00-22:00; S: 08:00-21:00; D: 07:00-22:00","fuels":{"gasoline95":1.949,"diesel":1.879,"dieselRenewable":1.979},"extra":{"saleType":"P","margin":"I","reportingType":"dm","ideess":"5223","idMunicipio":"2849","idProvincia":"19","idCCAA":"07"}}},{"type":"Feature","geometry":{"type":"Point","coordinates":[-2.648639,41.063806]},"properties":{"id":"es-5261","source":"ES","brand":"REPSOL","address":"CARRETERA GU-204 KM. 129","municipality":"Sigüenza","province":"GUADALAJARA","postalCode":"19250","schedule":"L-D: 06:30-22:30","fuels":{"gasoline95":1.939,"gasoline98":2.059,"diesel":1.879,"dieselB":1.599,"dieselRenewable":1.989,"adblue":1.2},"extra":{"saleType":"P","margin":"I","reportingType":"dm","ideess":"5261","idMunicipio":"3059","idProvincia":"19","idCCAA":"07"}}},{"type":"Feature","geometry":{"type":"Point","coordinates":[-2.554806,41.01375]},"properties":{"id":"es-5304","source":"ES","brand":"REPSOL","address":"AUTOPISTA A-2 KM. 125","municipality":"Saúca","province":"GUADALAJARA","postalCode":"19262","schedule":"L-D: 07:00-23:00","fuels":{"gasoline95":1.915,"gasoline98":2.075,"diesel":1.839,"dieselRenewable":1.949},"extra":{"saleType":"P","margin":"I","reportingType":"OM","ideess":"5304","idMunicipio":"3053","idProvincia":"19","idCCAA":"07"}}},{"type":"Feature","geometry":{"type":"Point","coordinates":[-2.488556,41.776139]},"properties":{"id":"es-6085","source":"ES","brand":"EUREKA","address":"POLIGONO LAS CASAS CALLE G PARCELA 7, 7","municipality":"Soria","province":"SORIA","postalCode":"42005","schedule":"L-D: 24H","fuels":{"gasoline95":1.729,"diesel":1.669,"adblue":0.669},"extra":{"saleType":"P","margin":"N","reportingType":"dm","ideess":"6085","idMunicipio":"6303","idProvincia":"42","idCCAA":"08"}}},{"type":"Feature","geometry":{"type":"Point","coordinates":[-2.291139,41.217083]},"properties":{"id":"es-6090","source":"ES","brand":"GALP","address":"CARRETERA CTRA. N-II 167,2 KM. 167,2","municipality":"Arcos de Jalón","province":"SORIA","postalCode":"42250","schedule":"L-D: 24H","fuels":{"gasoline95":1.879,"gasoline98":2.019,"diesel":1.839,"dieselPremium":1.929,"adblue":0.799},"extra":{"saleType":"P","margin":"I","reportingType":"OM","ideess":"6090","idMunicipio":"6182","idProvincia":"42","idCCAA":"08"}}},{"type":"Feature","geometry":{"type":"Point","coordinates":[-2.260194,41.223944]},"properties":{"id":"es-6102","source":"ES","brand":"MOEVE","address":"AUTOVIA A-2 KM. 170,2","municipality":"Arcos de Jalón","province":"SORIA","postalCode":"42250","schedule":"L-D: 07:00-22:00","fuels":{"gasoline95":1.869,"gasoline95Premium":1.919,"diesel":1.879,"dieselPremium":1.959},"extra":{"saleType":"P","margin":"D","reportingType":"dm","ideess":"6102","idMunicipio":"6182","idProvincia":"42","idCCAA":"08"}}},{"type":"Feature","geometry":{"type":"Point","coordinates":[-2.775417,41.708]},"properties":{"id":"es-6106","source":"ES","brand":"CEPSA","address":"CARRETERA N-122 KM. 185","municipality":"Calatañazor","province":"SORIA","postalCode":"42193","schedule":"L-D: 07:00-22:00","fuels":{"gasoline95":1.899,"diesel":1.869,"dieselPremium":1.929,"dieselB":1.649},"extra":{"saleType":"P","margin":"D","reportingType":"dm","ideess":"6106","idMunicipio":"6202","idProvincia":"42","idCCAA":"08"}}},{"type":"Feature","geometry":{"type":"Point","coordinates":[-2.475611,41.785083]},"properties":{"id":"es-6128","source":"ES","brand":"ES LAS CASAS","address":"N-111 km 229,1","municipality":"Soria","province":"SORIA","postalCode":"42005","schedule":"L-D: 07:00-23:00","fuels":{"gasoline95":1.859,"gasoline95Premium":1.909,"diesel":1.987,"dieselPremium":2.025},"extra":{"saleType":"P","margin":"I","reportingType":"dm","ideess":"6128","idMunicipio":"6303","idProvincia":"42","idCCAA":"08"}}},{"type":"Feature","geometry":{"type":"Point","coordinates":[-2.493972,41.770444]},"properties":{"id":"es-6131","source":"ES","brand":"MOEVE","address":"AVENIDA VALLADOLID, S/N (N-122 KM 155,4)","municipality":"Soria","province":"SORIA","postalCode":"42001","schedule":"L-D: 24H","fuels":{"gasoline95":1.859,"gasoline98":1.959,"diesel":1.874,"dieselPremium":1.904,"lpg":1.169},"extra":{"saleType":"P","margin":"I","reportingType":"OM","ideess":"6131","idMunicipio":"6303","idProvincia":"42","idCCAA":"08"}}},{"type":"Feature","geometry":{"type":"Point","coordinates":[-2.217778,41.248361]},"properties":{"id":"es-6190","source":"ES","brand":"REPSOL","address":"CR N-2, 174,5","municipality":"Arcos de Jalón","province":"SORIA","postalCode":"42259","schedule":"L-V: 24H; S: 00:00-22:00; D: 08:00-00:00","fuels":{"gasoline95":1.939,"gasoline98":2.039,"diesel":1.849,"dieselB":1.739,"dieselRenewable":1.959},"extra":{"saleType":"P","margin":"I","reportingType":"dm","ideess":"6190","idMunicipio":"6182","idProvincia":"42","idCCAA":"08"}}},{"type":"Feature","geometry":{"type":"Point","coordinates":[-2.403972,41.189222]},"properties":{"id":"es-6207","source":"ES","brand":"REPSOL","address":"AUTOVIA A-2 KM. 154","municipality":"Medinaceli","province":"SORIA","postalCode":"42248","schedule":"L: 07:00-00:00; M-V: 24H; S: 00:00-21:00; D: 08:00-22:00","fuels":{"gasoline95":1.889,"gasoline98":2.049,"diesel":1.849,"dieselPremium":1.949,"lpg":1.189},"extra":{"saleType":"P","margin":"I","reportingType":"OM","ideess":"6207","idMunicipio":"6256","idProvincia":"42","idCCAA":"08"}}},{"type":"Feature","geometry":{"type":"Point","coordinates":[-2.412528,41.762361]},"properties":{"id":"es-6217","source":"ES","brand":"REPSOL","address":"CARRETERA N-122 KM. 147","municipality":"Soria","province":"SORIA","postalCode":"42005","schedule":"L-D: 07:30-21:30","fuels":{"gasoline95":1.919,"diesel":1.865,"dieselRenewable":1.975},"extra":{"saleType":"P","margin":"I","reportingType":"OM","ideess":"6217","idMunicipio":"6303","idProvincia":"42","idCCAA":"08"}}},{"type":"Feature","geometry":{"type":"Point","coordinates":[-2.786306,41.805583]},"properties":{"id":"es-6230","source":"ES","brand":"REPSOL","address":"CARRERA N-234, 376,5","municipality":"Abejar","province":"SORIA","postalCode":"42146","schedule":"L-D: 7:00-23:00","fuels":{"gasoline95":1.905,"gasoline98":2.065,"diesel":1.859,"dieselPremium":1.909},"extra":{"saleType":"P","margin":"D","reportingType":"OM","ideess":"6230","idMunicipio":"6160","idProvincia":"42","idCCAA":"08"}}},{"type":"Feature","geometry":{"type":"Point","coordinates":[-2.044556,41.840889]},"properties":{"id":"es-6232","source":"ES","brand":"REPSOL","address":"CR N-122 112","municipality":"Matalebreras","province":"SORIA","postalCode":"42113","schedule":"L-D: 06:00-22:00","fuels":{"gasoline95":1.905,"gasoline98":2.065,"diesel":1.839,"dieselRenewable":1.949},"extra":{"saleType":"P","margin":"I","reportingType":"OM","ideess":"6232","idMunicipio":"6254","idProvincia":"42","idCCAA":"08"}}},{"type":"Feature","geometry":{"type":"Point","coordinates":[-2.173806,41.2835]},"properties":{"id":"es-6271","source":"ES","brand":"REPSOL","address":"AUTOVIA A-2, 180","municipality":"Santa María de Huerta","province":"SORIA","postalCode":"42260","schedule":"L-V: 07:00-23:00; S: 07:00-21:00; D: 08:00-22:00","fuels":{"gasoline95":1.885,"gasoline98":2.045,"diesel":1.839,"dieselRenewable":1.949},"extra":{"saleType":"P","margin":"D","reportingType":"OM","ideess":"6271","idMunicipio":"6299","idProvincia":"42","idCCAA":"08"}}},{"type":"Feature","geometry":{"type":"Point","coordinates":[-2.528833,41.480917]},"properties":{"id":"es-6275","source":"ES","brand":"REPSOL","address":"CR N-111, 190","municipality":"Almazán","province":"SORIA","postalCode":"42200","schedule":"L-D: 07:00-23:00","fuels":{"gasoline95":1.919,"gasoline98":2.079,"diesel":1.875,"dieselPremium":1.925,"dieselB":1.639},"extra":{"saleType":"P","margin":"D","reportingType":"OM","ideess":"6275","idMunicipio":"6177","idProvincia":"42","idCCAA":"08"}}},{"type":"Feature","geometry":{"type":"Point","coordinates":[-2.421167,41.168972]},"properties":{"id":"es-6354","source":"ES","brand":"REPSOL","address":"N-2 km 150","municipality":"Medinaceli","province":"SORIA","postalCode":"42240","schedule":"L-D: 24H","fuels":{"gasoline95":1.869,"gasoline98":2.036,"diesel":1.809,"dieselRenewable":1.949},"extra":{"saleType":"P","margin":"I","reportingType":"dm","ideess":"6354","idMunicipio":"6256","idProvincia":"42","idCCAA":"08"}}},{"type":"Feature","geometry":{"type":"Point","coordinates":[-2.404778,41.761917]},"properties":{"id":"es-6364","source":"ES","brand":"REPSOL","address":"CR N-122, 146","municipality":"Soria","province":"SORIA","postalCode":"42005","schedule":"L-V: 08:00-21:00","fuels":{"gasoline95":1.895,"gasoline98":2.055,"diesel":1.875,"dieselB":1.655,"dieselRenewable":1.985,"lpg":1.179},"extra":{"saleType":"P","margin":"D","reportingType":"OM","ideess":"6364","idMunicipio":"6303","idProvincia":"42","idCCAA":"08"}}},{"type":"Feature","geometry":{"type":"Point","coordinates":[-2.478111,41.761417]},"properties":{"id":"es-6418","source":"ES","brand":"BALLENOIL","address":"CALLE EDUARDO SAAVEDRA, 24","municipality":"Soria","province":"SORIA","postalCode":"42004","schedule":"L-D: 24H","fuels":{"gasoline95":1.639,"gasoline95Premium":1.659,"diesel":1.624,"dieselPremium":1.644},"extra":{"saleType":"P","margin":"N","reportingType":"OM","ideess":"6418","idMunicipio":"6303","idProvincia":"42","idCCAA":"08"}}},{"type":"Feature","geometry":{"type":"Point","coordinates":[-2.497417,41.77325]},"properties":{"id":"es-8337","source":"ES","brand":"ALCAMPO","address":"ZONA CENTRO COMERCIAL LAS CAMARETAS CALLE A, SN","municipality":"Golmayo","province":"SORIA","postalCode":"42190","schedule":"L-D: 24H","fuels":{"gasoline95":1.639,"gasoline98":1.729,"diesel":1.624,"dieselPremium":1.68},"extra":{"saleType":"P","margin":"N","reportingType":"dm","ideess":"8337","idMunicipio":"6244","idProvincia":"42","idCCAA":"08"}}}]}