{"type":"FeatureCollection","features":[{"type":"Feature","geometry":{"type":"Point","coordinates":[-6.005778,39.009611]},"properties":{"id":"es-10592","source":"ES","brand":"AMALIA DE SAJONIA","address":"CARRETERA VALDEHORNILLOS, S/N KM. S/N","municipality":"Santa Amalia","province":"BADAJOZ","postalCode":"06410","schedule":"L-D: 24H","fuels":{"gasoline95":1.589,"diesel":1.699,"dieselB":1.27},"extra":{"saleType":"P","margin":"D","reportingType":"dm","ideess":"10592","idMunicipio":"751","idProvincia":"06","idCCAA":"11"}}},{"type":"Feature","geometry":{"type":"Point","coordinates":[-6.518028,39.984278]},"properties":{"id":"es-10678","source":"ES","brand":"COPAL","address":"EX-108 km 87.400","municipality":"Coria","province":"CÁCERES","postalCode":"10800","schedule":"L-D: 24H","fuels":{"diesel":1.621,"dieselB":1.359},"extra":{"saleType":"P","margin":"D","reportingType":"dm","ideess":"10678","idMunicipio":"1609","idProvincia":"10","idCCAA":"11"}}},{"type":"Feature","geometry":{"type":"Point","coordinates":[-6.453667,39.456028]},"properties":{"id":"es-10830","source":"ES","brand":"REPSOL","address":"CARRETERA N-521 KM. 54,5","municipality":"Malpartida de Cáceres","province":"CÁCERES","postalCode":"10910","schedule":"L-S: 07:00-22:00; D: 07:00-14:00","fuels":{"gasoline95":1.745,"diesel":1.885,"dieselPremium":1.945},"extra":{"saleType":"P","margin":"D","reportingType":"OM","ideess":"10830","idMunicipio":"1656","idProvincia":"10","idCCAA":"11"}}},{"type":"Feature","geometry":{"type":"Point","coordinates":[-6.276139,39.882972]},"properties":{"id":"es-10880","source":"ES","brand":"REPSOL","address":"CARRETERA A-66 KM. 494","municipality":"Malpartida de Plasencia","province":"CÁCERES","postalCode":"10680","schedule":"L-D: 24H","fuels":{"gasoline95":1.719,"gasoline98":1.839,"diesel":1.899,"dieselB":1.595,"dieselRenewable":2.019,"lpg":1.079},"extra":{"saleType":"P","margin":"D","reportingType":"OM","ideess":"10880","idMunicipio":"1657","idProvincia":"10","idCCAA":"11"}}},{"type":"Feature","geometry":{"type":"Point","coordinates":[-6.246806,39.915806]},"properties":{"id":"es-10994","source":"ES","brand":"REPSOL","address":"CARRETERA N-630 KM. 490","municipality":"Plasencia","province":"CÁCERES","postalCode":"10600","schedule":"L-V: 06:30-23:00; S-D: 07:00-23:00","fuels":{"gasoline95":1.719,"diesel":1.899,"dieselRenewable":2.019},"extra":{"saleType":"P","margin":"D","reportingType":"OM","ideess":"10994","idMunicipio":"1689","idProvincia":"10","idCCAA":"11"}}},{"type":"Feature","geometry":{"type":"Point","coordinates":[-6.440361,39.14375]},"properties":{"id":"es-11323","source":"ES","brand":"IBERDOEX","address":"CARRETERA LA NAVA KM. 0,3","municipality":"Cordobilla de Lácara","province":"BADAJOZ","postalCode":"06487","schedule":"L: 06:00-22:30","fuels":{"gasoline95":1.48,"diesel":1.47,"dieselB":1.14},"extra":{"saleType":"P","margin":"D","reportingType":"dm","ideess":"11323","idMunicipio":"668","idProvincia":"06","idCCAA":"11"}}},{"type":"Feature","geometry":{"type":"Point","coordinates":[-6.997528,39.198917]},"properties":{"id":"es-11788","source":"ES","brand":"REPSOL","address":"CARRETERA EX-110 KM. 34,60","municipality":"Alburquerque","province":"BADAJOZ","postalCode":"06501","schedule":"L-D: 06:30-22:30","fuels":{"gasoline95":1.749,"gasoline98":1.899,"diesel":1.859,"dieselPremium":1.949,"dieselB":1.599},"extra":{"saleType":"P","margin":"D","reportingType":"dm","ideess":"11788","idMunicipio":"635","idProvincia":"06","idCCAA":"11"}}},{"type":"Feature","geometry":{"type":"Point","coordinates":[-6.32775,39.2895]},"properties":{"id":"es-12085","source":"ES","brand":"VALCARCE","address":"AUTOVIA RUTA DE LA PLATA A-66 KM. 576,000","municipality":"Aldea del Cano","province":"CÁCERES","postalCode":"10160","schedule":"L-D: 24H","fuels":{"gasoline95":1.709,"diesel":1.849,"dieselPremium":1.889,"dieselB":1.649,"adblue":0.779},"extra":{"saleType":"P","margin":"I","reportingType":"dm","ideess":"12085","idMunicipio":"1553","idProvincia":"10","idCCAA":"11"}}},{"type":"Feature","geometry":{"type":"Point","coordinates":[-6.367278,39.45575]},"properties":{"id":"es-12656","source":"ES","brand":"PETROCAR","address":"CARRETERA MIAJADAS KM. 1,750","municipality":"Cáceres","province":"CÁCERES","postalCode":"10005","schedule":"L-D: 24H","fuels":{"gasoline95":1.569,"diesel":1.669},"extra":{"saleType":"P","margin":"I","reportingType":"dm","ideess":"12656","idMunicipio":"1579","idProvincia":"10","idCCAA":"11"}}},{"type":"Feature","geometry":{"type":"Point","coordinates":[-6.369667,39.493111]},"properties":{"id":"es-12841","source":"ES","brand":"PETROGOLD","address":"PLAZA JUAN RAMON JIMENEZ, S/N","municipality":"Cáceres","province":"CÁCERES","postalCode":"10001","schedule":"L-D: 24H","fuels":{"gasoline95":1.549,"diesel":1.659,"dieselPremium":1.659},"extra":{"saleType":"P","margin":"N","reportingType":"dm","ideess":"12841","idMunicipio":"1579","idProvincia":"10","idCCAA":"11"}}},{"type":"Feature","geometry":{"type":"Point","coordinates":[-6.419111,39.550472]},"properties":{"id":"es-13245","source":"ES","brand":"COOPRADO","address":"CARRETERA CIRCUNVALACION KM. S/N","municipality":"Casar de Cáceres","province":"CÁCERES","postalCode":"10190","schedule":"L-D: 24H","fuels":{"gasoline95":1.549,"diesel":1.649},"extra":{"saleType":"P","margin":"D","reportingType":"dm","ideess":"13245","idMunicipio":"1591","idProvincia":"10","idCCAA":"11"}}},{"type":"Feature","geometry":{"type":"Point","coordinates":[-6.413389,39.484194]},"properties":{"id":"es-13671","source":"ES","brand":"GASOLINERA CAPELLANÍAS","address":"POLIGONO CAPELLANIAS, 329","municipality":"Cáceres","province":"CÁCERES","postalCode":"10001","schedule":"L-D: 06:00-22:00","fuels":{"gasoline95":1.544,"diesel":1.634,"adblue":0.799},"extra":{"saleType":"P","margin":"N","reportingType":"OM","ideess":"13671","idMunicipio":"1579","idProvincia":"10","idCCAA":"11"}}},{"type":"Feature","geometry":{"type":"Point","coordinates":[-6.051639,39.982389]},"properties":{"id":"es-13753","source":"ES","brand":"COOP. NTRA SRA DEL PRADO S.C","address":"AVENIDA AVDA CIUDAD DE PLASENCIA, S/N","municipality":"Malpartida de Plasencia","province":"CÁCERES","postalCode":"10680","schedule":"L-D: 24H","fuels":{"gasoline95":1.569,"diesel":1.659},"extra":{"saleType":"P","margin":"D","reportingType":"dm","ideess":"13753","idMunicipio":"1657","idProvincia":"10","idCCAA":"11"}}},{"type":"Feature","geometry":{"type":"Point","coordinates":[-6.399917,39.559889]},"properties":{"id":"es-14138","source":"ES","brand":"REPSOL","address":"AUTOVIA A-66 KM 539 KM. 539","municipality":"Casar de Cáceres","province":"CÁCERES","postalCode":"10190","schedule":"L-D: 24H","fuels":{"gasoline95":1.718,"gasoline98":1.838,"diesel":1.898,"dieselB":1.584,"dieselRenewable":2.018,"adblue":1.2},"extra":{"saleType":"P","margin":"D","reportingType":"dm","ideess":"14138","idMunicipio":"1591","idProvincia":"10","idCCAA":"11"}}},{"type":"Feature","geometry":{"type":"Point","coordinates":[-6.392028,39.651417]},"properties":{"id":"es-14150","source":"ES","brand":"REPSOL","address":"CARRETERA A66 KM. 528","municipality":"Santiago del Campo","province":"CÁCERES","postalCode":"10191","schedule":"L-D: 06:00-00:00","fuels":{"gasoline95":1.719,"gasoline98":1.839,"diesel":1.899,"dieselPremium":1.959,"dieselB":1.585},"extra":{"saleType":"P","margin":"I","reportingType":"OM","ideess":"14150","idMunicipio":"1712","idProvincia":"10","idCCAA":"11"}}},{"type":"Feature","geometry":{"type":"Point","coordinates":[-6.392417,39.471417]},"properties":{"id":"es-14223","source":"ES","brand":"BALLENOIL","address":"CALLE MONFRAGUE ESQUINA C\\ GREDOS, S/N","municipality":"Cáceres","province":"CÁCERES","postalCode":"10005","schedule":"L-D: 24H","fuels":{"gasoline95":1.599,"diesel":1.639},"extra":{"saleType":"P","margin":"D","reportingType":"OM","ideess":"14223","idMunicipio":"1579","idProvincia":"10","idCCAA":"11"}}},{"type":"Feature","geometry":{"type":"Point","coordinates":[-6.309,39.919444]},"properties":{"id":"es-14473","source":"ES","brand":"NO","address":"AVENIDA PLASENCIA, S/N","municipality":"Riolobos","province":"CÁCERES","postalCode":"10693","schedule":"L-D: 24H","fuels":{"diesel":1.623,"dieselB":1.315},"extra":{"saleType":"P","margin":"N","reportingType":"dm","ideess":"14473","idMunicipio":"1696","idProvincia":"10","idCCAA":"11"}}},{"type":"Feature","geometry":{"type":"Point","coordinates":[-6.366333,39.490139]},"properties":{"id":"es-14595","source":"ES","brand":"GASOLINERA CÁCERES","address":"CALLE EMILIO CARDENAL, 2","municipality":"Cáceres","province":"CÁCERES","postalCode":"10004","schedule":"L-D: 07:00-22:00","fuels":{"gasoline95":1.534,"diesel":1.624},"extra":{"saleType":"P","margin":"N","reportingType":"OM","ideess":"14595","idMunicipio":"1579","idProvincia":"10","idCCAA":"11"}}},{"type":"Feature","geometry":{"type":"Point","coordinates":[-6.23525,39.182667]},"properties":{"id":"es-14887","source":"ES","brand":"MAGNA OIL","address":"CARRETERA EX-382 KM. 3","municipality":"Alcuéscar","province":"CÁCERES","postalCode":"10160","schedule":"L-D: 24H","fuels":{"gasoline95":1.669,"diesel":1.739},"extra":{"saleType":"P","margin":"D","reportingType":"dm","ideess":"14887","idMunicipio":"1552","idProvincia":"10","idCCAA":"11"}}},{"type":"Feature","geometry":{"type":"Point","coordinates":[-6.377444,39.488694]},"properties":{"id":"es-15114","source":"ES","brand":"Q8","address":"CALLE LOS HALCONES, 10","municipality":"Cáceres","province":"CÁCERES","postalCode":"10001","schedule":"L-D: 24H","fuels":{"gasoline95":1.649,"diesel":1.749},"extra":{"saleType":"P","margin":"N","reportingType":"dm","ideess":"15114","idMunicipio":"1579","idProvincia":"10","idCCAA":"11"}}},{"type":"Feature","geometry":{"type":"Point","coordinates":[-6.316639,39.973528]},"properties":{"id":"es-15240","source":"ES","brand":"SOC COOP NTRA SRA DEL PRADO S.C","address":"PLAZA DE LOS RIOS, 5","municipality":"Galisteo","province":"CÁCERES","postalCode":"10690","schedule":"L: 24H","fuels":{"diesel":1.629,"dieselB":1.239},"extra":{"saleType":"P","margin":"D","reportingType":"dm","ideess":"15240","idMunicipio":"1617","idProvincia":"10","idCCAA":"11"}}},{"type":"Feature","geometry":{"type":"Point","coordinates":[-6.367194,39.455528]},"properties":{"id":"es-15250","source":"ES","brand":"ALIARA ENERGIA GNV","address":"CARRETERA MEDELLIN KM. 1","municipality":"Cáceres","province":"CÁCERES","postalCode":"10005","schedule":"L-D: 24H","fuels":{"cng":1.649},"extra":{"saleType":"P","margin":"N","reportingType":"dm","ideess":"15250","idMunicipio":"1579","idProvincia":"10","idCCAA":"11"}}},{"type":"Feature","geometry":{"type":"Point","coordinates":[-6.853222,39.128778]},"properties":{"id":"es-15316","source":"ES","brand":"ESTACIÓN DE SERVICIO","address":"RONDA CIRCUNVALACIÓN, S/N","municipality":"Villar del Rey","province":"BADAJOZ","postalCode":"06192","schedule":"L-D: 09:30-14:00 y 17:30-23:00","fuels":{"gasoline95":1.629,"diesel":1.697},"extra":{"saleType":"P","margin":"D","reportingType":"dm","ideess":"15316","idMunicipio":"787","idProvincia":"06","idCCAA":"11"}}},{"type":"Feature","geometry":{"type":"Point","coordinates":[-6.3835,39.462083]},"properties":{"id":"es-5816","source":"ES","brand":"REPSOL","address":"AV. ALEMANIA- POL IND FRATRES PARC. 40","municipality":"Cáceres","province":"CÁCERES","postalCode":"10005","schedule":"L-D: 06:00-23:00","fuels":{"gasoline95":1.745,"gasoline98":1.915,"diesel":1.879,"dieselPremium":1.939},"extra":{"saleType":"P","margin":"D","reportingType":"OM","ideess":"5816","idMunicipio":"1579","idProvincia":"10","idCCAA":"11"}}},{"type":"Feature","geometry":{"type":"Point","coordinates":[-6.502139,39.451028]},"properties":{"id":"es-5830","source":"ES","brand":"GALP MALPARTIDA","address":"NACIONAL V km 58,8","municipality":"Malpartida de Cáceres","province":"CÁCERES","postalCode":"10910","schedule":"L-D: 07:00-22:00","fuels":{"gasoline95":1.639,"diesel":1.749,"dieselPremium":1.759,"adblue":0.8},"extra":{"saleType":"P","margin":"D","reportingType":"dm","ideess":"5830","idMunicipio":"1656","idProvincia":"10","idCCAA":"11"}}},{"type":"Feature","geometry":{"type":"Point","coordinates":[-6.240583,39.379639]},"properties":{"id":"es-5831","source":"ES","brand":"GALP 3 TORRES","address":"CARRETERA EX 206 KM. 16","municipality":"Torreorgaz","province":"CÁCERES","postalCode":"10182","schedule":"L-D: 07:00-22:00","fuels":{"gasoline95":1.679,"diesel":1.829,"dieselPremium":1.839,"adblue":0.8},"extra":{"saleType":"P","margin":"D","reportingType":"dm","ideess":"5831","idMunicipio":"1735","idProvincia":"10","idCCAA":"11"}}},{"type":"Feature","geometry":{"type":"Point","coordinates":[-6.543944,39.708444]},"properties":{"id":"es-5832","source":"ES","brand":"IBERDOEX","address":"CARRERA EX302  PK 9,400, ","municipality":"Garrovillas de Alconétar","province":"CÁCERES","postalCode":"10940","schedule":"L-V: 07:00-21:00; S-D: 08:00-14:30 y 17:30-20:00","fuels":{"gasoline95":1.719,"diesel":1.909,"dieselB":1.605},"extra":{"saleType":"P","margin":"I","reportingType":"dm","ideess":"5832","idMunicipio":"1623","idProvincia":"10","idCCAA":"11"}}},{"type":"Feature","geometry":{"type":"Point","coordinates":[-6.500417,39.982444]},"properties":{"id":"es-5842","source":"ES","brand":"Q8","address":"CARRETERA EX-108 KM. 86,9","municipality":"Coria","province":"CÁCERES","postalCode":"10800","schedule":"L-D: 06:00-00:00","fuels":{"gasoline95":1.699,"diesel":1.869,"dieselPremium":1.939,"dieselB":1.359,"adblue":0.999},"extra":{"saleType":"P","margin":"N","reportingType":"dm","ideess":"5842","idMunicipio":"1609","idProvincia":"10","idCCAA":"11"}}},{"type":"Feature","geometry":{"type":"Point","coordinates":[-6.396306,39.468194]},"properties":{"id":"es-5854","source":"ES","brand":"CARREFOUR","address":"CARRETERA CTRA. VALENCIA- ALCÁNTARA, KM. S/N","municipality":"Cáceres","province":"CÁCERES","postalCode":"10001","schedule":"L-D: 24H","fuels":{"gasoline95":1.699,"diesel":1.829,"dieselPremium":1.869},"extra":{"saleType":"P","margin":"N","reportingType":"dm","ideess":"5854","idMunicipio":"1579","idProvincia":"10","idCCAA":"11"}}},{"type":"Feature","geometry":{"type":"Point","coordinates":[-6.41175,39.546833]},"properties":{"id":"es-5875","source":"ES","brand":"CEPSA","address":"CARRETERA CACERES- CASAR DE CACERES KM. 8,3","municipality":"Casar de Cáceres","province":"CÁCERES","postalCode":"10190","schedule":"L-D: 07:00-22:00","fuels":{"gasoline95":1.699,"gasoline98":1.819,"diesel":1.899,"dieselPremium":1.979},"extra":{"saleType":"P","margin":"D","reportingType":"dm","ideess":"5875","idMunicipio":"1591","idProvincia":"10","idCCAA":"11"}}},{"type":"Feature","geometry":{"type":"Point","coordinates":[-6.620972,39.175361]},"properties":{"id":"es-5881","source":"ES","brand":"REPSOL","address":"CR EX-100, 40,6","municipality":"Puebla de Obando","province":"BADAJOZ","postalCode":"06191","schedule":"L-S: 06:00-21:00","fuels":{"gasoline95":1.679,"diesel":1.885,"dieselPremium":1.995},"extra":{"saleType":"P","margin":"I","reportingType":"OM","ideess":"5881","idMunicipio":"734","idProvincia":"06","idCCAA":"11"}}},{"type":"Feature","geometry":{"type":"Point","coordinates":[-6.295278,39.982139]},"properties":{"id":"es-5894","source":"ES","brand":"CEPSA","address":"CARRETERA EX-108 KM. 65,500","municipality":"Galisteo","province":"CÁCERES","postalCode":"10691","schedule":"L-V: 07:00-22:00; S-D: 07:00-21:30","fuels":{"gasoline95":1.729,"gasoline95Premium":1.819,"diesel":1.919,"dieselPremium":1.999,"dieselB":1.729},"extra":{"saleType":"P","margin":"I","reportingType":"dm","ideess":"5894","idMunicipio":"1617","idProvincia":"10","idCCAA":"11"}}},{"type":"Feature","geometry":{"type":"Point","coordinates":[-6.348778,39.38325]},"properties":{"id":"es-5903","source":"ES","brand":"REPSOL","address":"AUTOVIA A-66 KM. 564","municipality":"Cáceres","province":"CÁCERES","postalCode":"10164","schedule":"L: 06:30-22:30","fuels":{"gasoline95":1.725,"gasoline98":1.895,"diesel":1.859,"dieselRenewable":1.979,"lpg":1.089},"extra":{"saleType":"P","margin":"D","reportingType":"OM","ideess":"5903","idMunicipio":"1579","idProvincia":"10","idCCAA":"11"}}},{"type":"Feature","geometry":{"type":"Point","coordinates":[-6.012,39.7715]},"properties":{"id":"es-5927","source":"ES","brand":"CEPSA","address":"CARRETERA EX-208 KM. 40","municipality":"Torrejón el Rubio","province":"CÁCERES","postalCode":"10694","schedule":"L-D: 08:00-19:00","fuels":{"gasoline95":1.699,"diesel":1.839,"dieselPremium":1.949},"extra":{"saleType":"P","margin":"D","reportingType":"dm","ideess":"5927","idMunicipio":"1731","idProvincia":"10","idCCAA":"11"}}},{"type":"Feature","geometry":{"type":"Point","coordinates":[-6.574694,39.478417]},"properties":{"id":"es-5944","source":"ES","brand":"CEPSA","address":"CARRETERA EX-207 KM. 5,6","municipality":"Arroyo de la Luz","province":"CÁCERES","postalCode":"10900","schedule":"L-D: 07:00-22:00","fuels":{"gasoline95":1.692,"gasoline98":1.793,"diesel":1.836,"dieselPremium":1.917,"dieselB":1.684},"extra":{"saleType":"P","margin":"I","reportingType":"dm","ideess":"5944","idMunicipio":"1563","idProvincia":"10","idCCAA":"11"}}},{"type":"Feature","geometry":{"type":"Point","coordinates":[-6.104111,39.259944]},"properties":{"id":"es-5945","source":"ES","brand":"REPSOL","address":"CARRETERA CACERES-MIAJADAS  CC-520 KM. 34,770","municipality":"Torre de Santa María","province":"CÁCERES","postalCode":"10186","schedule":"L-D: 06:30-22:30","fuels":{"gasoline95":1.705,"gasoline98":1.875,"diesel":1.859,"dieselB":1.569,"dieselRenewable":1.979},"extra":{"saleType":"P","margin":"D","reportingType":"OM","ideess":"5945","idMunicipio":"1728","idProvincia":"10","idCCAA":"11"}}},{"type":"Feature","geometry":{"type":"Point","coordinates":[-6.362583,39.482028]},"properties":{"id":"es-5946","source":"ES","brand":"REPSOL","address":"CR N-521, 45","municipality":"Cáceres","province":"CÁCERES","postalCode":"10004","schedule":"L-D: 06:00-23:00","fuels":{"gasoline95":1.749,"gasoline98":1.869,"diesel":1.895,"dieselPremium":1.955,"lpg":1.085},"extra":{"saleType":"P","margin":"I","reportingType":"OM","ideess":"5946","idMunicipio":"1579","idProvincia":"10","idCCAA":"11"}}},{"type":"Feature","geometry":{"type":"Point","coordinates":[-6.685389,39.115667]},"properties":{"id":"es-5964","source":"ES","brand":"CEPSA","address":"CARRETERA EX-100 KM. 50","municipality":"Roca de la Sierra (La)","province":"BADAJOZ","postalCode":"06190","schedule":"L-D: 06:00-21:00","fuels":{"gasoline95":1.759,"gasoline98":1.884,"diesel":1.936,"dieselPremium":2.016},"extra":{"saleType":"P","margin":"D","reportingType":"dm","ideess":"5964","idMunicipio":"745","idProvincia":"06","idCCAA":"11"}}},{"type":"Feature","geometry":{"type":"Point","coordinates":[-6.091111,39.006222]},"properties":{"id":"es-7507","source":"ES","brand":"REPSOL","address":"AUTOVIA MADRID-LISBOA KM. 314","municipality":"Guareña","province":"BADAJOZ","postalCode":"06470","schedule":"L-J: 07:00-22:00; V: 07:00-23:00; S: 07:00-22:00; D: 07:00-23:00","fuels":{"gasoline95":1.739,"gasoline98":1.859,"diesel":1.855,"dieselPremium":1.935},"extra":{"saleType":"P","margin":"D","reportingType":"OM","ideess":"7507","idMunicipio":"689","idProvincia":"06","idCCAA":"11"}}},{"type":"Feature","geometry":{"type":"Point","coordinates":[-6.437028,39.547833]},"properties":{"id":"es-7509","source":"ES","brand":"REPSOL","address":"CARRETERA N-630  KM.542.600 KM. ","municipality":"Casar de Cáceres","province":"CÁCERES","postalCode":"10190","schedule":"L-V: 06:00-22:00; S-D: 07:00-22:00","fuels":{"gasoline95":1.729,"diesel":1.885,"dieselPremium":1.945},"extra":{"saleType":"P","margin":"I","reportingType":"OM","ideess":"7509","idMunicipio":"1591","idProvincia":"10","idCCAA":"11"}}},{"type":"Feature","geometry":{"type":"Point","coordinates":[-6.435667,39.387639]},"properties":{"id":"es-7511","source":"ES","brand":"GALP","address":"CARRETERA EX100 KM. 8","municipality":"Cáceres","province":"CÁCERES","postalCode":"10002","schedule":"L-V: 07:00-22:00; S-D: 08:00-22:00","fuels":{"gasoline95":1.689,"diesel":1.829},"extra":{"saleType":"P","margin":"I","reportingType":"dm","ideess":"7511","idMunicipio":"1579","idProvincia":"10","idCCAA":"11"}}},{"type":"Feature","geometry":{"type":"Point","coordinates":[-6.006278,39.007111]},"properties":{"id":"es-7529","source":"ES","brand":"REPSOL","address":"CARRETERA CR N-430, 92,3 KM. 92,3","municipality":"Santa Amalia","province":"BADAJOZ","postalCode":"06410","schedule":"L-D: 06:00-23:59","fuels":{"gasoline95":1.675,"gasoline98":1.845,"diesel":1.885,"dieselPremium":1.945},"extra":{"saleType":"P","margin":"I","reportingType":"OM","ideess":"7529","idMunicipio":"751","idProvincia":"06","idCCAA":"11"}}},{"type":"Feature","geometry":{"type":"Point","coordinates":[-6.264417,39.164306]},"properties":{"id":"es-7533","source":"ES","brand":"REPSOL","address":"CR N-630, 590,5","municipality":"Alcuéscar","province":"CÁCERES","postalCode":"10160","schedule":"L-D: 07:00-22:59","fuels":{"gasoline95":1.725,"gasoline98":1.895,"diesel":1.859,"dieselPremium":1.919},"extra":{"saleType":"P","margin":"D","reportingType":"OM","ideess":"7533","idMunicipio":"1552","idProvincia":"10","idCCAA":"11"}}},{"type":"Feature","geometry":{"type":"Point","coordinates":[-6.883111,39.714417]},"properties":{"id":"es-7537","source":"ES","brand":"IBERDOEX","address":"AVENIDA DE MERIDA, 9","municipality":"Alcántara","province":"CÁCERES","postalCode":"10980","schedule":"L-S: 08:00-21:00","fuels":{"gasoline95":1.669,"diesel":1.789},"extra":{"saleType":"P","margin":"D","reportingType":"dm","ideess":"7537","idMunicipio":"1550","idProvincia":"10","idCCAA":"11"}}},{"type":"Feature","geometry":{"type":"Point","coordinates":[-6.386611,39.793917]},"properties":{"id":"es-7542","source":"ES","brand":"LA PISTA S.L.","address":"CR N-630, 509,3","municipality":"Cañaveral","province":"CÁCERES","postalCode":"10820","schedule":"L-V: 06:30-23:00; S-D: 07:00-23:00","fuels":{"gasoline95":1.719,"diesel":1.889,"dieselPremium":1.989},"extra":{"saleType":"P","margin":"D","reportingType":"OM","ideess":"7542","idMunicipio":"1587","idProvincia":"10","idCCAA":"11"}}},{"type":"Feature","geometry":{"type":"Point","coordinates":[-6.52125,39.969139]},"properties":{"id":"es-7547","source":"ES","brand":"REPSOL","address":"CR C-526, 29,2","municipality":"Coria","province":"CÁCERES","postalCode":"10800","schedule":"L-D: 07:00-23:00","fuels":{"gasoline95":1.699,"diesel":1.875,"dieselPremium":1.935},"extra":{"saleType":"P","margin":"D","reportingType":"OM","ideess":"7547","idMunicipio":"1609","idProvincia":"10","idCCAA":"11"}}},{"type":"Feature","geometry":{"type":"Point","coordinates":[-6.046667,39.976833]},"properties":{"id":"es-7549","source":"ES","brand":"REPSOL","address":"AVENIDA DE LA CONSTITUCIÓN, S/N","municipality":"Malpartida de Plasencia","province":"CÁCERES","postalCode":"10680","schedule":"L-V: 07:00-22:00; S: 07:00-15:00; D: 08:00-15:00","fuels":{"gasoline95":1.739,"diesel":1.895},"extra":{"saleType":"P","margin":"N","reportingType":"OM","ideess":"7549","idMunicipio":"1657","idProvincia":"10","idCCAA":"11"}}},{"type":"Feature","geometry":{"type":"Point","coordinates":[-6.418306,39.494611]},"properties":{"id":"es-7553","source":"ES","brand":"REPSOL","address":"CR N-630, 548,9","municipality":"Cáceres","province":"CÁCERES","postalCode":"10005","schedule":"L-D: 06:00-22:00","fuels":{"gasoline95":1.745,"gasoline98":1.915,"diesel":1.895,"dieselPremium":1.955},"extra":{"saleType":"P","margin":"D","reportingType":"OM","ideess":"7553","idMunicipio":"1579","idProvincia":"10","idCCAA":"11"}}},{"type":"Feature","geometry":{"type":"Point","coordinates":[-6.044889,39.173194]},"properties":{"id":"es-7562","source":"ES","brand":"CAMPSA","address":"CARRETERA CACERES-MEDELLIN KM. 49,200","municipality":"Almoharín","province":"CÁCERES","postalCode":"10132","schedule":"L: 07:30-15:30","fuels":{"gasoline95":1.699,"gasoline98":1.869,"diesel":1.855,"dieselPremium":1.965},"extra":{"saleType":"P","margin":"I","reportingType":"OM","ideess":"7562","idMunicipio":"1562","idProvincia":"10","idCCAA":"11"}}},{"type":"Feature","geometry":{"type":"Point","coordinates":[-6.775111,39.826083]},"properties":{"id":"es-7563","source":"ES","brand":"REPSOL","address":"CR C-213, 10,5","municipality":"Ceclavín","province":"CÁCERES","postalCode":"10870","schedule":"L: 08:00-20:00","fuels":{"gasoline95":1.699,"diesel":1.859,"dieselPremium":1.959},"extra":{"saleType":"P","margin":"D","reportingType":"OM","ideess":"7563","idMunicipio":"1603","idProvincia":"10","idCCAA":"11"}}},{"type":"Feature","geometry":{"type":"Point","coordinates":[-6.1485,39.228917]},"properties":{"id":"es-7565","source":"ES","brand":"PETRONOR","address":"AVENIDA JUAN CARLOS RODRIGUEZ IBARRA, 15","municipality":"Montánchez","province":"CÁCERES","postalCode":"10170","schedule":"L-S: 08:00-14:00 y 15:30-20:00","fuels":{"gasoline95":1.699,"diesel":1.855,"dieselPremium":1.965},"extra":{"saleType":"P","margin":"D","reportingType":"OM","ideess":"7565","idMunicipio":"1667","idProvincia":"10","idCCAA":"11"}}},{"type":"Feature","geometry":{"type":"Point","coordinates":[-6.5305,39.98625]},"properties":{"id":"es-7574","source":"ES","brand":"REPSOL","address":"CALLE CARRETERA DE MONTEHERMOSO, 1","municipality":"Coria","province":"CÁCERES","postalCode":"10800","schedule":"S: 08:00-14:30","fuels":{"gasoline95":1.699,"diesel":1.869},"extra":{"saleType":"P","margin":"D","reportingType":"OM","ideess":"7574","idMunicipio":"1609","idProvincia":"10","idCCAA":"11"}}},{"type":"Feature","geometry":{"type":"Point","coordinates":[-6.764028,39.616694]},"properties":{"id":"es-7577","source":"ES","brand":"CEPSA","address":"CARRETERA CACERES KM. 33,400","municipality":"Brozas","province":"CÁCERES","postalCode":"10950","schedule":"L-V: 07:00-21:00; S: 08:00-15:00 y 17:00-21:00; D: 09:00-15:00 y 17:00-21:00","fuels":{"gasoline95":1.689,"diesel":1.849,"dieselPremium":1.929,"dieselB":1.699},"extra":{"saleType":"P","margin":"D","reportingType":"dm","ideess":"7577","idMunicipio":"1574","idProvincia":"10","idCCAA":"11"}}},{"type":"Feature","geometry":{"type":"Point","coordinates":[-6.473056,39.902528]},"properties":{"id":"es-7578","source":"ES","brand":"CEPSA","address":"CARRETERA CIUDAD RODRIGO KM. 19","municipality":"Torrejoncillo","province":"CÁCERES","postalCode":"10830","schedule":"L-D: 07:00-22:00","fuels":{"gasoline95":1.699,"gasoline98":1.789,"diesel":1.839,"dieselPremium":1.949},"extra":{"saleType":"P","margin":"I","reportingType":"dm","ideess":"7578","idMunicipio":"1732","idProvincia":"10","idCCAA":"11"}}},{"type":"Feature","geometry":{"type":"Point","coordinates":[-6.382444,39.469417]},"properties":{"id":"es-7588","source":"ES","brand":"REPSOL","address":"CALLE GIL CORDERO, S,N","municipality":"Cáceres","province":"CÁCERES","postalCode":"10001","schedule":"L-D: 24H","fuels":{"gasoline95":1.729,"gasoline98":1.919,"diesel":1.889,"dieselRenewable":1.979},"extra":{"saleType":"P","margin":"I","reportingType":"dm","ideess":"7588","idMunicipio":"1579","idProvincia":"10","idCCAA":"11"}}},{"type":"Feature","geometry":{"type":"Point","coordinates":[-6.383833,39.453806]},"properties":{"id":"es-7592","source":"ES","brand":"MOEVE","address":"AVENIDA JUAN PABLO II 72, ","municipality":"Cáceres","province":"CÁCERES","postalCode":"10195","schedule":"L-D: 06:00-23:00","fuels":{"gasoline95":1.735,"gasoline95Premium":1.825,"gasoline98":1.855,"diesel":1.903,"dieselPremium":1.983,"dieselB":1.663,"lpg":1.169},"extra":{"saleType":"P","margin":"D","reportingType":"OM","ideess":"7592","idMunicipio":"1579","idProvincia":"10","idCCAA":"11"}}},{"type":"Feature","geometry":{"type":"Point","coordinates":[-6.373083,39.972694]},"properties":{"id":"es-7601","source":"ES","brand":"BATAN","address":"CTRA. C-511 km 74,600","municipality":"Guijo de Galisteo","province":"CÁCERES","postalCode":"10692","schedule":"L-V: 07:00-22:00; S-D: 07:00-14:00 y 17:00-21:00","fuels":{"gasoline95":1.687,"diesel":1.858,"dieselB":1.518},"extra":{"saleType":"P","margin":"I","reportingType":"dm","ideess":"7601","idMunicipio":"1630","idProvincia":"10","idCCAA":"11"}}},{"type":"Feature","geometry":{"type":"Point","coordinates":[-6.690972,39.426167]},"properties":{"id":"es-8320","source":"ES","brand":"SARAS","address":"CARRETERA N-521 KM. 77","municipality":"Aliseda","province":"CÁCERES","postalCode":"10550","schedule":"L-D: 06:30-22:00","fuels":{"gasoline95":1.679,"gasoline98":1.819,"diesel":1.769,"dieselPremium":1.779,"dieselB":1.329},"extra":{"saleType":"P","margin":"I","reportingType":"dm","ideess":"8320","idMunicipio":"1560","idProvincia":"10","idCCAA":"11"}}},{"type":"Feature","geometry":{"type":"Point","coordinates":[-6.365528,39.453444]},"properties":{"id":"es-8408","source":"ES","brand":"SHELL","address":"CARRETERA DE MEDELLÍN KM. 2","municipality":"Cáceres","province":"CÁCERES","postalCode":"10005","schedule":"L: 06:30-23:00","fuels":{"gasoline95":1.718,"gasoline98":1.868,"diesel":1.868,"dieselPremium":1.928},"extra":{"saleType":"P","margin":"I","reportingType":"dm","ideess":"8408","idMunicipio":"1579","idProvincia":"10","idCCAA":"11"}}},{"type":"Feature","geometry":{"type":"Point","coordinates":[-6.3485,39.442806]},"properties":{"id":"es-9344","source":"ES","brand":"GALP","address":"CARRETERA EX 206 KM. 3,900","municipality":"Cáceres","province":"CÁCERES","postalCode":"10005","schedule":"L-S: 07:00-22:00; D: 08:00-20:00","fuels":{"gasoline95":1.709,"gasoline95Premium":1.759,"diesel":1.849,"dieselPremium":1.899,"adblue":0.799},"extra":{"saleType":"P","margin":"N","reportingType":"OM","ideess":"9344","idMunicipio":"1579","idProvincia":"10","idCCAA":"11"}}},{"type":"Feature","geometry":{"type":"Point","coordinates":[-6.296722,39.464917]},"properties":{"id":"es-9347","source":"ES","brand":"GALP","address":"CARRETERA NACIONAL 521 KM. 38,130","municipality":"Cáceres","province":"CÁCERES","postalCode":"10001","schedule":"L-D: 06:00-22:00","fuels":{"gasoline95":1.739,"gasoline95Premium":1.789,"diesel":1.864,"dieselPremium":1.914},"extra":{"saleType":"P","margin":"I","reportingType":"OM","ideess":"9347","idMunicipio":"1579","idProvincia":"10","idCCAA":"11"}}}]}