{"type":"FeatureCollection","features":[{"type":"Feature","geometry":{"type":"Point","coordinates":[-1.903389,42.318833]},"properties":{"id":"es-10112","source":"ES","brand":"BODEGAS SAN GREGORIO S.COOP.","address":"POLIGONO INDUSTRIAL","municipality":"Azagra","province":"NAVARRA","postalCode":"31560","schedule":"L-D: 24H","fuels":{"dieselB":1.095},"extra":{"saleType":"P","margin":"N","reportingType":"dm","ideess":"10112","idMunicipio":"4642","idProvincia":"31","idCCAA":"15"}}},{"type":"Feature","geometry":{"type":"Point","coordinates":[-1.620111,42.062278]},"properties":{"id":"es-10239","source":"ES","brand":"PLENERGY","address":"CARRERA CORELLA, 2","municipality":"Tudela","province":"NAVARRA","postalCode":"31500","schedule":"L-D: 24H","fuels":{"gasoline95":1.525,"diesel":1.685},"extra":{"saleType":"P","margin":"D","reportingType":"dm","ideess":"10239","idMunicipio":"4840","idProvincia":"31","idCCAA":"15"}}},{"type":"Feature","geometry":{"type":"Point","coordinates":[-1.626333,42.813306]},"properties":{"id":"es-10364","source":"ES","brand":"AVIA","address":"CALLE CARRETERA BAODSTAIN, 2","municipality":"Pamplona/Iruña","province":"NAVARRA","postalCode":"31006","schedule":"L-D: 07:00-22:00","fuels":{"gasoline95":1.759,"gasoline98":1.879,"diesel":1.869,"adblue":0.99},"extra":{"saleType":"P","margin":"N","reportingType":"dm","ideess":"10364","idMunicipio":"4812","idProvincia":"31","idCCAA":"15"}}},{"type":"Feature","geometry":{"type":"Point","coordinates":[-1.157506,42.130281]},"properties":{"id":"es-10528","source":"ES","brand":"COOP. VIRGEN OLIVA","address":"CTRA. TUDELA km 1.300","municipality":"Ejea de los Caballeros","province":"ZARAGOZA","postalCode":"50600","schedule":"L-D: 24H","fuels":{"gasoline95":1.535,"diesel":1.7,"dieselPremium":1.73,"dieselB":1.303},"extra":{"saleType":"P","margin":"D","reportingType":"dm","ideess":"10528","idMunicipio":"7911","idProvincia":"50","idCCAA":"02"}}},{"type":"Feature","geometry":{"type":"Point","coordinates":[-1.197556,42.176528]},"properties":{"id":"es-10537","source":"ES","brand":"COOP. VIRGEN OLIVA","address":"CALLE PINAR, S/N","municipality":"Ejea de los Caballeros","province":"ZARAGOZA","postalCode":"50694","schedule":"L-D: 24H","fuels":{"gasoline95":1.535,"diesel":1.7,"dieselB":1.303},"extra":{"saleType":"P","margin":"D","reportingType":"dm","ideess":"10537","idMunicipio":"7911","idProvincia":"50","idCCAA":"02"}}},{"type":"Feature","geometry":{"type":"Point","coordinates":[-1.608806,42.931806]},"properties":{"id":"es-10583","source":"ES","brand":"MLC","address":"CARRETERA PAMPLONA-IRUN KM. 17,3","municipality":"Anue","province":"NAVARRA","postalCode":"31798","schedule":"L-D: 24H","fuels":{"gasoline95":1.799,"gasoline95E10":1.869,"diesel":1.879,"dieselPremium":1.949,"dieselB":1.599,"dieselRenewable":2.049,"adblue":0.899},"extra":{"saleType":"P","margin":"I","reportingType":"dm","ideess":"10583","idMunicipio":"4616","idProvincia":"31","idCCAA":"15"}}},{"type":"Feature","geometry":{"type":"Point","coordinates":[-1.557944,42.355139]},"properties":{"id":"es-10653","source":"ES","brand":"AN ENERGETICOS - MELIDA","address":"POLIGONO BAJO ARAGON, S/N","municipality":"Mélida","province":"NAVARRA","postalCode":"31382","schedule":"L-D: 24H","fuels":{"gasoline95":1.599,"diesel":1.769,"dieselB":1.435,"adblue":0.705},"extra":{"saleType":"P","margin":"D","reportingType":"dm","ideess":"10653","idMunicipio":"4773","idProvincia":"31","idCCAA":"15"}}},{"type":"Feature","geometry":{"type":"Point","coordinates":[-1.840083,42.492944]},"properties":{"id":"es-10938","source":"ES","brand":"AN ENERGETICOS - MIRANDA DE ARGA","address":"CARRETERA DE LERIN km 1,3","municipality":"Miranda de Arga","province":"NAVARRA","postalCode":"31253","schedule":"L-D: 24H","fuels":{"gasoline95":1.599,"diesel":1.769,"dieselB":1.435},"extra":{"saleType":"P","margin":"N","reportingType":"dm","ideess":"10938","idMunicipio":"4780","idProvincia":"31","idCCAA":"15"}}},{"type":"Feature","geometry":{"type":"Point","coordinates":[-1.98675,42.396167]},"properties":{"id":"es-10959","source":"ES","brand":"LUIS MORENO ROLDAN","address":"POLIGONO EL MALLATON, 6","municipality":"Cárcar","province":"NAVARRA","postalCode":"31579","schedule":"L-D: 24H","fuels":{"diesel":1.729},"extra":{"saleType":"P","margin":"D","reportingType":"dm","ideess":"10959","idMunicipio":"4672","idProvincia":"31","idCCAA":"15"}}},{"type":"Feature","geometry":{"type":"Point","coordinates":[-1.797889,42.114611]},"properties":{"id":"es-10969","source":"ES","brand":"SERTELGAS,SL","address":"POLIGONO INDUSTRIAL OMBATILLO, S/N","municipality":"Corella","province":"NAVARRA","postalCode":"31591","schedule":"L-D: 07:00-11:00","fuels":{"gasoline95":1.814,"gasoline98":1.954,"diesel":1.944,"dieselPremium":2.044,"dieselB":1.714},"extra":{"saleType":"P","margin":"I","reportingType":"dm","ideess":"10969","idMunicipio":"4683","idProvincia":"31","idCCAA":"15"}}},{"type":"Feature","geometry":{"type":"Point","coordinates":[-1.552944,42.380306]},"properties":{"id":"es-1100","source":"ES","brand":"AVIA","address":"CARRETERA PITILLAS-SANTACARA NA5330 KM. 9,800","municipality":"Santacara","province":"NAVARRA","postalCode":"31314","schedule":"L-D: 24H","fuels":{"gasoline95":1.775,"diesel":1.919,"dieselB":1.496,"adblue":0.9},"extra":{"saleType":"P","margin":"I","reportingType":"dm","ideess":"1100","idMunicipio":"4829","idProvincia":"31","idCCAA":"15"}}},{"type":"Feature","geometry":{"type":"Point","coordinates":[-1.61925,42.830778]},"properties":{"id":"es-11009","source":"ES","brand":"ALCAMPO","address":"POLIGONO MUGAZURI PARCELA B, 4","municipality":"Burlada/Burlata","province":"NAVARRA","postalCode":"31600","schedule":"L-D: 08:00-21:30","fuels":{"gasoline95":1.589,"gasoline98":1.639,"diesel":1.689,"dieselPremium":1.699},"extra":{"saleType":"P","margin":"N","reportingType":"dm","ideess":"11009","idMunicipio":"4666","idProvincia":"31","idCCAA":"15"}}},{"type":"Feature","geometry":{"type":"Point","coordinates":[-1.633556,42.734444]},"properties":{"id":"es-1102","source":"ES","brand":"MOEVE","address":" N-121 KM 9,4, ","municipality":"Beriáin","province":"NAVARRA","postalCode":"31191","schedule":"L-D: 06:30-22:00","fuels":{"gasoline95":1.779,"diesel":1.869,"dieselPremium":1.969,"dieselB":1.679},"extra":{"saleType":"P","margin":"D","reportingType":"dm","ideess":"1102","idMunicipio":"4657","idProvincia":"31","idCCAA":"15"}}},{"type":"Feature","geometry":{"type":"Point","coordinates":[-1.285639,42.581139]},"properties":{"id":"es-1105","source":"ES","brand":"AVIA","address":"PADRE RAIMUNDO DE LUMBIER, 14","municipality":"Sangüesa/Zangoza","province":"NAVARRA","postalCode":"31400","schedule":"L-D: 07:00-22:00","fuels":{"gasoline95":1.709,"gasoline98":1.879,"diesel":1.859,"dieselPremium":1.919,"dieselB":1.469,"adblue":0.799},"extra":{"saleType":"P","margin":"D","reportingType":"dm","ideess":"1105","idMunicipio":"4827","idProvincia":"31","idCCAA":"15"}}},{"type":"Feature","geometry":{"type":"Point","coordinates":[-1.681528,42.84325]},"properties":{"id":"es-1106","source":"ES","brand":"ESTACION DE SERVICIO ARALAR","address":"CTRA.GUIPUZCOA-N-240 km 5,5","municipality":"Berrioplano","province":"NAVARRA","postalCode":"31195","schedule":"L-S: 05:30-22:30; D: 06:00-22:30","fuels":{"gasoline95":1.599,"diesel":1.699,"dieselPremium":1.759,"dieselB":1.459,"lpg":1.149},"extra":{"saleType":"P","margin":"I","reportingType":"dm","ideess":"1106","idMunicipio":"4658","idProvincia":"31","idCCAA":"15"}}},{"type":"Feature","geometry":{"type":"Point","coordinates":[-1.76475,42.586528]},"properties":{"id":"es-1108","source":"ES","brand":"ADELFAS OIL","address":"CALLE AVDA DIPUTACIÓN FORAL, 7,","municipality":"Artajona","province":"NAVARRA","postalCode":"31140","schedule":"L-V: 07:00-21:00; S: 08:00-14:00","fuels":{"gasoline95":1.624,"diesel":1.776},"extra":{"saleType":"P","margin":"I","reportingType":"dm","ideess":"1108","idMunicipio":"4637","idProvincia":"31","idCCAA":"15"}}},{"type":"Feature","geometry":{"type":"Point","coordinates":[-1.167194,42.130278]},"properties":{"id":"es-11081","source":"ES","brand":"LABOIL","address":"POLIGONO VALDEFERRIN, 61","municipality":"Ejea de los Caballeros","province":"ZARAGOZA","postalCode":"50600","schedule":"L-D: 24H","fuels":{"gasoline95":1.629,"diesel":1.779,"dieselPremium":1.819,"dieselB":1.399,"adblue":0.999},"extra":{"saleType":"P","margin":"D","reportingType":"dm","ideess":"11081","idMunicipio":"7911","idProvincia":"50","idCCAA":"02"}}},{"type":"Feature","geometry":{"type":"Point","coordinates":[-1.633139,42.736]},"properties":{"id":"es-1109","source":"ES","brand":"BALLENOIL","address":"N-121 PAMPLONA-ZARAGOZA km 9,4","municipality":"Beriáin","province":"NAVARRA","postalCode":"31191","schedule":"L-D: 24H","fuels":{"gasoline95":1.709,"diesel":1.749,"dieselPremium":1.759},"extra":{"saleType":"P","margin":"I","reportingType":"OM","ideess":"1109","idMunicipio":"4657","idProvincia":"31","idCCAA":"15"}}},{"type":"Feature","geometry":{"type":"Point","coordinates":[-1.633722,42.762889]},"properties":{"id":"es-11091","source":"ES","brand":"REPSOL","address":"CALLE REAL, 66","municipality":"Noáin (Valle de Elorz)/Noain (Elortzibar)","province":"NAVARRA","postalCode":"31110","schedule":"L-D: 07:00-22:00","fuels":{"gasoline95":1.799,"gasoline98":1.969,"diesel":1.909,"dieselPremium":1.989},"extra":{"saleType":"P","margin":"D","reportingType":"dm","ideess":"11091","idMunicipio":"4792","idProvincia":"31","idCCAA":"15"}}},{"type":"Feature","geometry":{"type":"Point","coordinates":[-1.563056,42.824167]},"properties":{"id":"es-11099","source":"ES","brand":"IGOA Y PATXI SL","address":"POLIGONO INDUSTRIAL, S/N","municipality":"Egüés","province":"NAVARRA","postalCode":"31486","schedule":"L-D: 24H","fuels":{"diesel":1.694},"extra":{"saleType":"P","margin":"D","reportingType":"dm","ideess":"11099","idMunicipio":"4690","idProvincia":"31","idCCAA":"15"}}},{"type":"Feature","geometry":{"type":"Point","coordinates":[-1.634778,42.064333]},"properties":{"id":"es-11100","source":"ES","brand":"TUDEFRIGO LOGISTICA","address":"VIAL RIOJA, 3,1","municipality":"Tudela","province":"NAVARRA","postalCode":"31500","schedule":"L-D: 24H","fuels":{"diesel":1.663,"dieselB":1.341,"adblue":0.572},"extra":{"saleType":"P","margin":"N","reportingType":"dm","ideess":"11100","idMunicipio":"4840","idProvincia":"31","idCCAA":"15"}}},{"type":"Feature","geometry":{"type":"Point","coordinates":[-1.637591,42.0685]},"properties":{"id":"es-11111","source":"ES","brand":"EUROCAM","address":"POLIGONO LAS LABRADAS MANZANA 12","municipality":"Tudela","province":"NAVARRA","postalCode":"31500","schedule":"L-D: 24H","fuels":{"gasoline95":1.599,"diesel":1.709,"lpg":1.099,"adblue":0.629},"extra":{"saleType":"P","margin":"D","reportingType":"dm","ideess":"11111","idMunicipio":"4840","idProvincia":"31","idCCAA":"15"}}},{"type":"Feature","geometry":{"type":"Point","coordinates":[-1.686222,42.829722]},"properties":{"id":"es-11112","source":"ES","brand":"EUROCAM","address":"POL.AGUSTINOS CALLE A PARCELA 3B","municipality":"Pamplona/Iruña","province":"NAVARRA","postalCode":"31001","schedule":"L-D: 24H","fuels":{"gasoline95":1.599,"diesel":1.699,"lpg":1.099,"adblue":0.629},"extra":{"saleType":"P","margin":"D","reportingType":"dm","ideess":"11112","idMunicipio":"4812","idProvincia":"31","idCCAA":"15"}}},{"type":"Feature","geometry":{"type":"Point","coordinates":[-1.372472,42.784389]},"properties":{"id":"es-1112","source":"ES","brand":"ESTACION DE SERVICIO AOIZ, S.L.","address":"CALLE DOMINGO ELIZONDO, 12","municipality":"Aoiz/Agoitz","province":"NAVARRA","postalCode":"31430","schedule":"L-S: 07:00-22:00; D: 08:00-21:00","fuels":{"gasoline95":1.799,"diesel":1.899,"dieselB":1.579},"extra":{"saleType":"P","margin":"I","reportingType":"dm","ideess":"1112","idMunicipio":"4618","idProvincia":"31","idCCAA":"15"}}},{"type":"Feature","geometry":{"type":"Point","coordinates":[-1.688083,42.826417]},"properties":{"id":"es-11122","source":"ES","brand":"ARGI","address":"POL. COMARCA I, PARCELA D 25","municipality":"Orcoyen","province":"NAVARRA","postalCode":"31160","schedule":"L-V: 08:30-13:30 y 15:00-18:00","fuels":{"diesel":1.65},"extra":{"saleType":"P","margin":"D","reportingType":"dm","ideess":"11122","idMunicipio":"4807","idProvincia":"31","idCCAA":"15"}}},{"type":"Feature","geometry":{"type":"Point","coordinates":[-1.675778,42.514472]},"properties":{"id":"es-11129","source":"ES","brand":"AVIA","address":"CARRETERA ZARAGOZA, KM 33.5 KM. 33","municipality":"Tafalla","province":"NAVARRA","postalCode":"31300","schedule":"L-D: 06:00-22:00","fuels":{"gasoline95":1.775,"gasoline98":1.869,"diesel":1.901,"dieselPremium":1.999,"adblue":0.85},"extra":{"saleType":"P","margin":"I","reportingType":"dm","ideess":"11129","idMunicipio":"4835","idProvincia":"31","idCCAA":"15"}}},{"type":"Feature","geometry":{"type":"Point","coordinates":[-1.65198,42.802861]},"properties":{"id":"es-11175","source":"ES","brand":"ITURSER S.L.","address":"ESQUIROZ","municipality":"Pamplona/Iruña","province":"NAVARRA","postalCode":"31007","schedule":"L-D: 06:00-22:00","fuels":{"gasoline95":1.659,"gasoline95Premium":1.759,"diesel":1.799,"dieselPremium":1.829},"extra":{"saleType":"P","margin":"N","reportingType":"dm","ideess":"11175","idMunicipio":"4812","idProvincia":"31","idCCAA":"15"}}},{"type":"Feature","geometry":{"type":"Point","coordinates":[-1.981556,42.486917]},"properties":{"id":"es-11179","source":"ES","brand":"MARISA","address":"CARRETERA NA-122 KM. 21,200","municipality":"Lerín","province":"NAVARRA","postalCode":"31260","schedule":"L-D: 24H","fuels":{"gasoline95":1.659,"gasoline98":2.059,"diesel":1.759,"dieselB":1.459},"extra":{"saleType":"P","margin":"D","reportingType":"dm","ideess":"11179","idMunicipio":"4760","idProvincia":"31","idCCAA":"15"}}},{"type":"Feature","geometry":{"type":"Point","coordinates":[-1.631,42.036472]},"properties":{"id":"es-1119","source":"ES","brand":"Q8","address":"CARRETERA N-121 KM. KM 3,55","municipality":"Cascante","province":"NAVARRA","postalCode":"31520","schedule":"L-D: 06:00-22:00","fuels":{"gasoline95":1.699,"gasoline98":1.819,"diesel":1.809,"adblue":0.649},"extra":{"saleType":"P","margin":"N","reportingType":"dm","ideess":"1119","idMunicipio":"4674","idProvincia":"31","idCCAA":"15"}}},{"type":"Feature","geometry":{"type":"Point","coordinates":[-1.789972,42.335944]},"properties":{"id":"es-11223","source":"ES","brand":"EROSKI","address":"CARRETERA PERALTA KM. 128","municipality":"Peralta","province":"NAVARRA","postalCode":"31350","schedule":"L-D: 24H","fuels":{"gasoline95":1.583,"diesel":1.743,"dieselPremium":1.833},"extra":{"saleType":"P","margin":"D","reportingType":"dm","ideess":"11223","idMunicipio":"4813","idProvincia":"31","idCCAA":"15"}}},{"type":"Feature","geometry":{"type":"Point","coordinates":[-1.677639,42.832389]},"properties":{"id":"es-1123","source":"ES","brand":"EROSKI","address":"CALLE POLIGONO AGUSTINOS,CALLE A, LOCAL 1598, ","municipality":"Pamplona/Iruña","province":"NAVARRA","postalCode":"31080","schedule":"L: 08:00-22:00","fuels":{"gasoline95":1.599,"diesel":1.699,"dieselPremium":1.759},"extra":{"saleType":"P","margin":"N","reportingType":"dm","ideess":"1123","idMunicipio":"4812","idProvincia":"31","idCCAA":"15"}}},{"type":"Feature","geometry":{"type":"Point","coordinates":[-1.588,42.0355]},"properties":{"id":"es-1124","source":"ES","brand":"EROSKI","address":"CARRETERA CTRA. ZARAGOZA KM. S/N","municipality":"Tudela","province":"NAVARRA","postalCode":"31500","schedule":"L-S: 09:30-22:00","fuels":{"gasoline95":1.537,"diesel":1.649,"dieselPremium":1.749},"extra":{"saleType":"P","margin":"N","reportingType":"dm","ideess":"1124","idMunicipio":"4840","idProvincia":"31","idCCAA":"15"}}},{"type":"Feature","geometry":{"type":"Point","coordinates":[-1.619861,42.187306]},"properties":{"id":"es-11257","source":"ES","brand":"AN ENERGETICOS - VALTIERRA","address":"CARRETERA CARRETERA TUDELA KM. N8","municipality":"Valtierra","province":"NAVARRA","postalCode":"31514","schedule":"L-D: 24H","fuels":{"gasoline95":1.559,"diesel":1.689,"dieselB":1.365,"adblue":0.705},"extra":{"saleType":"P","margin":"N","reportingType":"dm","ideess":"11257","idMunicipio":"4858","idProvincia":"31","idCCAA":"15"}}},{"type":"Feature","geometry":{"type":"Point","coordinates":[-1.633889,42.734722]},"properties":{"id":"es-1126","source":"ES","brand":"IDS","address":"CTRA. N-121 km 9,5","municipality":"Beriáin","province":"NAVARRA","postalCode":"31195","schedule":"L-D: 24H","fuels":{"diesel":1.893,"dieselB":1.702,"dieselRenewable":2.368,"adblue":1.105},"extra":{"saleType":"P","margin":"N","reportingType":"dm","ideess":"1126","idMunicipio":"4657","idProvincia":"31","idCCAA":"15"}}},{"type":"Feature","geometry":{"type":"Point","coordinates":[-1.673778,42.498389]},"properties":{"id":"es-1129","source":"ES","brand":"BP TAFALLA","address":"CR N-121, 38,1","municipality":"Tafalla","province":"NAVARRA","postalCode":"31300","schedule":"L-D: 24H","fuels":{"gasoline95":1.785,"gasoline98":1.925,"diesel":1.939,"dieselPremium":2.029,"dieselRenewable":2.029},"extra":{"saleType":"P","margin":"D","reportingType":"OM","ideess":"1129","idMunicipio":"4835","idProvincia":"31","idCCAA":"15"}}},{"type":"Feature","geometry":{"type":"Point","coordinates":[-1.022694,42.360222]},"properties":{"id":"es-11291","source":"ES","brand":"COOP. SAN ESTEBAN DE LUESIA","address":"CARRETERA DE EJEA-LUESIA km 31","municipality":"Luesia","province":"ZARAGOZA","postalCode":"50619","schedule":"L-D: 24H","fuels":{"gasoline95":1.572,"diesel":1.75,"dieselB":1.35},"extra":{"saleType":"P","margin":"I","reportingType":"dm","ideess":"11291","idMunicipio":"7959","idProvincia":"50","idCCAA":"02"}}},{"type":"Feature","geometry":{"type":"Point","coordinates":[-1.593222,42.816111]},"properties":{"id":"es-1130","source":"ES","brand":"REPSOL","address":"CR N-135, 4,6","municipality":"Egüés","province":"NAVARRA","postalCode":"31620","schedule":"L-V: 06:30-22:00","fuels":{"gasoline95":1.795,"gasoline98":1.965,"diesel":1.955,"dieselPremium":2.045},"extra":{"saleType":"P","margin":"D","reportingType":"OM","ideess":"1130","idMunicipio":"4690","idProvincia":"31","idCCAA":"15"}}},{"type":"Feature","geometry":{"type":"Point","coordinates":[-1.59275,42.817194]},"properties":{"id":"es-1131","source":"ES","brand":"REPSOL","address":"CARRETERA N-135 KM. 4,6","municipality":"Egüés","province":"NAVARRA","postalCode":"31620","schedule":"L-D: 06:00-22:00","fuels":{"gasoline95":1.795,"gasoline98":1.965,"diesel":1.955,"dieselPremium":2.045},"extra":{"saleType":"P","margin":"I","reportingType":"OM","ideess":"1131","idMunicipio":"4690","idProvincia":"31","idCCAA":"15"}}},{"type":"Feature","geometry":{"type":"Point","coordinates":[-1.937639,42.350639]},"properties":{"id":"es-1132","source":"ES","brand":"REPSOL","address":"CARRETERA NA-134 KM. 51,7","municipality":"San Adrián","province":"NAVARRA","postalCode":"31570","schedule":"L-D: 06:00-21:30","fuels":{"gasoline95":1.775,"gasoline98":1.945,"diesel":1.935,"dieselRenewable":2.055},"extra":{"saleType":"P","margin":"D","reportingType":"OM","ideess":"1132","idMunicipio":"4825","idProvincia":"31","idCCAA":"15"}}},{"type":"Feature","geometry":{"type":"Point","coordinates":[-1.6195,42.043861]},"properties":{"id":"es-11325","source":"ES","brand":"CARREFOUR","address":"CARRETERA DE TARAZONA KM. 3","municipality":"Tudela","province":"NAVARRA","postalCode":"31500","schedule":"L-D: 24H","fuels":{"gasoline95":1.699,"gasoline98":1.879,"diesel":1.809,"dieselPremium":1.849},"extra":{"saleType":"P","margin":"N","reportingType":"dm","ideess":"11325","idMunicipio":"4840","idProvincia":"31","idCCAA":"15"}}},{"type":"Feature","geometry":{"type":"Point","coordinates":[-1.699944,42.136917]},"properties":{"id":"es-1133","source":"ES","brand":"REPSOL","address":"CARRETERA Nº 232 P.K. 82 KM. 82","municipality":"Castejón","province":"NAVARRA","postalCode":"31590","schedule":"L-D: 06:00-22:00","fuels":{"gasoline95":1.789,"gasoline98":1.959,"diesel":1.929,"dieselPremium":2.029},"extra":{"saleType":"P","margin":"D","reportingType":"OM","ideess":"1133","idMunicipio":"4676","idProvincia":"31","idCCAA":"15"}}},{"type":"Feature","geometry":{"type":"Point","coordinates":[-1.665056,42.494639]},"properties":{"id":"es-11368","source":"ES","brand":"AN ENERGETICOS - OLITE","address":"POLIGONO C/A, S/N","municipality":"Olite","province":"NAVARRA","postalCode":"31390","schedule":"L-D: 24H","fuels":{"gasoline95":1.599,"diesel":1.769,"dieselPremium":1.809,"adblue":0.705},"extra":{"saleType":"P","margin":"N","reportingType":"dm","ideess":"11368","idMunicipio":"4801","idProvincia":"31","idCCAA":"15"}}},{"type":"Feature","geometry":{"type":"Point","coordinates":[-1.74225,42.2825]},"properties":{"id":"es-11375","source":"ES","brand":"AN ENERGETICOS - VILLAFRANCA","address":"CAMINO CAMINO DE CAPARROSO, S/N","municipality":"Villafranca","province":"NAVARRA","postalCode":"31330","schedule":"L-D: 24H","fuels":{"gasoline95":1.599,"diesel":1.769,"dieselB":1.449,"adblue":0.705},"extra":{"saleType":"P","margin":"N","reportingType":"dm","ideess":"11375","idMunicipio":"4861","idProvincia":"31","idCCAA":"15"}}},{"type":"Feature","geometry":{"type":"Point","coordinates":[-1.852028,42.551806]},"properties":{"id":"es-11410","source":"ES","brand":"AN ENERGETICOS - LARRAGA SAN ISIDRO","address":"CARRETERA CARRETERA LERÍN KM,2 KM. 2","municipality":"Larraga","province":"NAVARRA","postalCode":"31251","schedule":"L-D: 24H","fuels":{"gasoline95":1.599,"diesel":1.769,"dieselB":1.435,"adblue":0.705},"extra":{"saleType":"P","margin":"N","reportingType":"dm","ideess":"11410","idMunicipio":"4749","idProvincia":"31","idCCAA":"15"}}},{"type":"Feature","geometry":{"type":"Point","coordinates":[-1.127917,42.130639]},"properties":{"id":"es-11419","source":"ES","brand":"ALCAMPO","address":"CARRETERA ERLA KM. 70","municipality":"Ejea de los Caballeros","province":"ZARAGOZA","postalCode":"50600","schedule":"L-D: 24H","fuels":{"gasoline95":1.538,"gasoline98":1.945,"diesel":1.715,"dieselPremium":1.74},"extra":{"saleType":"P","margin":"N","reportingType":"dm","ideess":"11419","idMunicipio":"7911","idProvincia":"50","idCCAA":"02"}}},{"type":"Feature","geometry":{"type":"Point","coordinates":[-1.593083,42.167611]},"properties":{"id":"es-1142","source":"ES","brand":"E.S.LA RECTA","address":"NA-134 km 13,6","municipality":"Arguedas","province":"NAVARRA","postalCode":"31513","schedule":"L-V: 08:00-20:00; S: 08:00-14:00","fuels":{"gasoline95":1.679,"diesel":1.849,"dieselB":1.519},"extra":{"saleType":"P","margin":"I","reportingType":"dm","ideess":"1142","idMunicipio":"4631","idProvincia":"31","idCCAA":"15"}}},{"type":"Feature","geometry":{"type":"Point","coordinates":[-1.743917,42.861639]},"properties":{"id":"es-1143","source":"ES","brand":"REPSOL","address":"AU A-15, 98,5","municipality":"Iza","province":"NAVARRA","postalCode":"31892","schedule":"L-D: 24H","fuels":{"gasoline95":1.805,"gasoline98":1.925,"diesel":1.965,"dieselRenewable":2.085,"lpg":1.189},"extra":{"saleType":"P","margin":"D","reportingType":"OM","ideess":"1143","idMunicipio":"4739","idProvincia":"31","idCCAA":"15"}}},{"type":"Feature","geometry":{"type":"Point","coordinates":[-1.630694,42.737417]},"properties":{"id":"es-11437","source":"ES","brand":"ABYCER","address":"POLIGONO ERREKALDEA A, 3","municipality":"Beriáin","province":"NAVARRA","postalCode":"31191","schedule":"L-V: 08:30-13:30 y 15:30-18:30","fuels":{"diesel":1.699,"adblue":0.539},"extra":{"saleType":"P","margin":"D","reportingType":"dm","ideess":"11437","idMunicipio":"4657","idProvincia":"31","idCCAA":"15"}}},{"type":"Feature","geometry":{"type":"Point","coordinates":[-1.630528,42.983333]},"properties":{"id":"es-1145","source":"ES","brand":"CEPSA","address":"CARRETERA N-121-A KM. 23,7","municipality":"Lantz","province":"NAVARRA","postalCode":"31798","schedule":"L-V: 08:00-20:00; S-D: 09:00-17:00","fuels":{"gasoline95":1.814,"diesel":1.934,"dieselPremium":2.034,"dieselB":1.704},"extra":{"saleType":"P","margin":"D","reportingType":"OM","ideess":"1145","idMunicipio":"4747","idProvincia":"31","idCCAA":"15"}}},{"type":"Feature","geometry":{"type":"Point","coordinates":[-1.67675,42.806861]},"properties":{"id":"es-1147","source":"ES","brand":"CEPSA","address":"RONDA DE BARAÑAIN, 2","municipality":"Barañain","province":"NAVARRA","postalCode":"31010","schedule":"L-V: 06:00-22:00; S-D: 07:00-22:00","fuels":{"gasoline95":1.749,"gasoline95Premium":1.879,"diesel":1.839,"dieselPremium":1.969},"extra":{"saleType":"P","margin":"D","reportingType":"dm","ideess":"1147","idMunicipio":"4645","idProvincia":"31","idCCAA":"15"}}},{"type":"Feature","geometry":{"type":"Point","coordinates":[-1.265667,42.945722]},"properties":{"id":"es-1151","source":"ES","brand":"PETRONOR","address":"CALLE SANTA MARIA, 13","municipality":"Aribe","province":"NAVARRA","postalCode":"31671","schedule":"L-D: 08:00-21:00","fuels":{"gasoline95":1.75,"diesel":1.85,"dieselB":1.6},"extra":{"saleType":"P","margin":"D","reportingType":"dm","ideess":"1151","idMunicipio":"4633","idProvincia":"31","idCCAA":"15"}}},{"type":"Feature","geometry":{"type":"Point","coordinates":[-1.096694,42.868083]},"properties":{"id":"es-1153","source":"ES","brand":"AVIA","address":"CALLE MAYOR, 3","municipality":"Oronz","province":"NAVARRA","postalCode":"31451","schedule":"L-D: 08:00-20:00","fuels":{"gasoline95":1.749,"diesel":1.892,"dieselPremium":1.949,"dieselB":1.559},"extra":{"saleType":"P","margin":"D","reportingType":"dm","ideess":"1153","idMunicipio":"4808","idProvincia":"31","idCCAA":"15"}}},{"type":"Feature","geometry":{"type":"Point","coordinates":[-1.609389,42.834944]},"properties":{"id":"es-1155","source":"ES","brand":"BP VILLAVA","address":"AVENIDA CARRETERA FRANCIA S/N, S/N","municipality":"Villava/Atarrabia","province":"NAVARRA","postalCode":"31610","schedule":"L-D: 24H","fuels":{"gasoline95":1.785,"gasoline98":1.925,"diesel":1.939,"dieselPremium":2.029},"extra":{"saleType":"P","margin":"D","reportingType":"OM","ideess":"1155","idMunicipio":"4864","idProvincia":"31","idCCAA":"15"}}},{"type":"Feature","geometry":{"type":"Point","coordinates":[-1.777806,42.892]},"properties":{"id":"es-1158","source":"ES","brand":"SARASATE","address":"CARRETERA PAMPLONA-S.SEBASTIAN KM. 15","municipality":"Iza","province":"NAVARRA","postalCode":"31892","schedule":"L-V: 06:00-22:00; S: 07:00-15:00","fuels":{"gasoline95":1.659,"diesel":1.699,"dieselB":1.279,"adblue":0.8},"extra":{"saleType":"P","margin":"D","reportingType":"dm","ideess":"1158","idMunicipio":"4739","idProvincia":"31","idCCAA":"15"}}},{"type":"Feature","geometry":{"type":"Point","coordinates":[-1.861722,42.055861]},"properties":{"id":"es-1159","source":"ES","brand":"REPSOL","address":"CARRETERA NA-160 KM. 24","municipality":"Fitero","province":"NAVARRA","postalCode":"31593","schedule":"L-V: 07:00-22:00; S-D: 09:00-20:00","fuels":{"gasoline95":1.769,"gasoline98":1.939,"diesel":1.919},"extra":{"saleType":"P","margin":"D","reportingType":"OM","ideess":"1159","idMunicipio":"4711","idProvincia":"31","idCCAA":"15"}}},{"type":"Feature","geometry":{"type":"Point","coordinates":[-1.957333,42.379861]},"properties":{"id":"es-11599","source":"ES","brand":"AN ENERGETICOS ANDOSILLA","address":"CARRETERA EJE DEL EBRO KM. 55","municipality":"Andosilla","province":"NAVARRA","postalCode":"31261","schedule":"L-D: 24H","fuels":{"gasoline95":1.619,"diesel":1.769,"dieselB":1.459,"adblue":0.705},"extra":{"saleType":"P","margin":"N","reportingType":"dm","ideess":"11599","idMunicipio":"4614","idProvincia":"31","idCCAA":"15"}}},{"type":"Feature","geometry":{"type":"Point","coordinates":[-1.831778,42.923167]},"properties":{"id":"es-11603","source":"ES","brand":"BI AHIZPAK","address":"POLIGONO AKABORRO, 1","municipality":"Irurtzun","province":"NAVARRA","postalCode":"31860","schedule":"L-V: 09:00-14:00 y 16:00-19:30; S: 09:00-14:00","fuels":{"gasoline95":1.629,"diesel":1.729},"extra":{"saleType":"P","margin":"D","reportingType":"dm","ideess":"11603","idMunicipio":"4735","idProvincia":"31","idCCAA":"15"}}},{"type":"Feature","geometry":{"type":"Point","coordinates":[-1.62125,42.185444]},"properties":{"id":"es-11608","source":"ES","brand":"CARBURANTES VALTIERRA S.L.","address":"POLIGONO INDUSTRIAL VALTIERRA-ARGUEDAS, 2","municipality":"Valtierra","province":"NAVARRA","postalCode":"31514","schedule":"L-D: 24H","fuels":{"gasoline95":1.729,"diesel":1.679},"extra":{"saleType":"P","margin":"D","reportingType":"dm","ideess":"11608","idMunicipio":"4858","idProvincia":"31","idCCAA":"15"}}},{"type":"Feature","geometry":{"type":"Point","coordinates":[-1.363972,42.590333]},"properties":{"id":"es-1161","source":"ES","brand":"AVIA","address":"CR C-5340, 31","municipality":"Aibar/Oibar","province":"NAVARRA","postalCode":"31460","schedule":"L: 07:30-21:30","fuels":{"gasoline95":1.709,"diesel":1.829,"dieselPremium":1.869,"dieselB":1.459},"extra":{"saleType":"P","margin":"D","reportingType":"dm","ideess":"1161","idMunicipio":"4608","idProvincia":"31","idCCAA":"15"}}},{"type":"Feature","geometry":{"type":"Point","coordinates":[-1.684278,42.814333]},"properties":{"id":"es-1163","source":"ES","brand":"PETRONOR","address":"CL POLIGONO LANDABEN, S.N.","municipality":"Pamplona/Iruña","province":"NAVARRA","postalCode":"31012","schedule":"L-S: 06:00-22:00; D: 07:00-22:00","fuels":{"gasoline95":1.785,"gasoline98":1.955,"diesel":1.945,"dieselPremium":2.005},"extra":{"saleType":"P","margin":"D","reportingType":"OM","ideess":"1163","idMunicipio":"4812","idProvincia":"31","idCCAA":"15"}}},{"type":"Feature","geometry":{"type":"Point","coordinates":[-1.902167,42.315667]},"properties":{"id":"es-11693","source":"ES","brand":"AN ENERGETICOS AZAGRA","address":"POLIGONO INDUSTRIAL, CALLE D, 8","municipality":"Azagra","province":"NAVARRA","postalCode":"31560","schedule":"L-D: 24H","fuels":{"gasoline95":1.629,"diesel":1.789,"dieselB":1.469,"adblue":0.705},"extra":{"saleType":"P","margin":"N","reportingType":"dm","ideess":"11693","idMunicipio":"4642","idProvincia":"31","idCCAA":"15"}}},{"type":"Feature","geometry":{"type":"Point","coordinates":[-1.580333,42.024778]},"properties":{"id":"es-1171","source":"ES","brand":"PLENERGY","address":"CARRETERA A-68 KM. 99,82","municipality":"Fontellas","province":"NAVARRA","postalCode":"31512","schedule":"L-D: 24H","fuels":{"gasoline95":1.555,"diesel":1.687,"adblue":0.527},"extra":{"saleType":"P","margin":"I","reportingType":"dm","ideess":"1171","idMunicipio":"4712","idProvincia":"31","idCCAA":"15"}}},{"type":"Feature","geometry":{"type":"Point","coordinates":[-1.633278,42.774333]},"properties":{"id":"es-1174","source":"ES","brand":"GASOLINERA NOÁIN","address":"POLIGONO TALLUNTXE II, S/N","municipality":"Aranguren","province":"NAVARRA","postalCode":"31192","schedule":"L-D: 24H","fuels":{"gasoline95":1.589,"diesel":1.689,"adblue":0.799},"extra":{"saleType":"P","margin":"N","reportingType":"OM","ideess":"1174","idMunicipio":"4622","idProvincia":"31","idCCAA":"15"}}},{"type":"Feature","geometry":{"type":"Point","coordinates":[-1.60325,42.818278]},"properties":{"id":"es-1175","source":"ES","brand":"REPSOL","address":"CALLE ALTXUTXATE, 50","municipality":"Huarte/Uharte","province":"NAVARRA","postalCode":"31620","schedule":"L-D: 07:00-21:30","fuels":{"gasoline95":1.799,"diesel":1.959,"dieselPremium":2.019},"extra":{"saleType":"P","margin":"D","reportingType":"OM","ideess":"1175","idMunicipio":"4729","idProvincia":"31","idCCAA":"15"}}},{"type":"Feature","geometry":{"type":"Point","coordinates":[-1.618028,42.731944]},"properties":{"id":"es-1178","source":"ES","brand":"MOEVE","address":"AU A-15, 78","municipality":"Noáin (Valle de Elorz)/Noain (Elortzibar)","province":"NAVARRA","postalCode":"31119","schedule":"L-D: 24H","fuels":{"gasoline95":1.814,"diesel":1.934,"dieselPremium":2.034,"dieselB":1.734,"lpg":1.129},"extra":{"saleType":"P","margin":"I","reportingType":"OM","ideess":"1178","idMunicipio":"4792","idProvincia":"31","idCCAA":"15"}}},{"type":"Feature","geometry":{"type":"Point","coordinates":[-1.616889,42.731944]},"properties":{"id":"es-1179","source":"ES","brand":"MOEVE","address":"AUTOPISTA AP-15 KM. 78","municipality":"Noáin (Valle de Elorz)/Noain (Elortzibar)","province":"NAVARRA","postalCode":"31119","schedule":"L-D: 24H","fuels":{"gasoline95":1.814,"gasoline98":1.954,"diesel":1.934,"dieselPremium":2.034,"dieselB":1.734,"lpg":1.129},"extra":{"saleType":"P","margin":"D","reportingType":"OM","ideess":"1179","idMunicipio":"4792","idProvincia":"31","idCCAA":"15"}}},{"type":"Feature","geometry":{"type":"Point","coordinates":[-1.676278,42.200333]},"properties":{"id":"es-1180","source":"ES","brand":"REPSOL","address":"AU A-15, 14","municipality":"Valtierra","province":"NAVARRA","postalCode":"31514","schedule":"L-D: 24H","fuels":{"gasoline95":1.809,"gasoline98":1.979,"diesel":1.949,"dieselRenewable":2.069},"extra":{"saleType":"P","margin":"I","reportingType":"OM","ideess":"1180","idMunicipio":"4858","idProvincia":"31","idCCAA":"15"}}},{"type":"Feature","geometry":{"type":"Point","coordinates":[-1.674889,42.200361]},"properties":{"id":"es-1181","source":"ES","brand":"REPSOL","address":"AU A-15, 14","municipality":"Valtierra","province":"NAVARRA","postalCode":"31514","schedule":"L-D: 24H","fuels":{"gasoline95":1.809,"gasoline98":1.979,"diesel":1.949,"dieselRenewable":2.069},"extra":{"saleType":"P","margin":"D","reportingType":"OM","ideess":"1181","idMunicipio":"4858","idProvincia":"31","idCCAA":"15"}}},{"type":"Feature","geometry":{"type":"Point","coordinates":[-1.661611,42.806833]},"properties":{"id":"es-1182","source":"ES","brand":"MOEVE","address":"CALLE SANCHO RAMIREZ, 2","municipality":"Pamplona/Iruña","province":"NAVARRA","postalCode":"31008","schedule":"L-D: 24H","fuels":{"gasoline95":1.769,"gasoline98":1.945,"diesel":1.879,"dieselPremium":1.965,"adblue":0.958},"extra":{"saleType":"P","margin":"D","reportingType":"dm","ideess":"1182","idMunicipio":"4812","idProvincia":"31","idCCAA":"15"}}},{"type":"Feature","geometry":{"type":"Point","coordinates":[-1.600861,42.012583]},"properties":{"id":"es-1183","source":"ES","brand":"REPSOL","address":"AUTOPISTA A-68 KM. 222","municipality":"Fontellas","province":"NAVARRA","postalCode":"31512","schedule":"L-D: 24H","fuels":{"gasoline95":1.815,"gasoline98":1.935,"diesel":1.965,"dieselRenewable":2.085,"lpg":1.165},"extra":{"saleType":"P","margin":"D","reportingType":"OM","ideess":"1183","idMunicipio":"4712","idProvincia":"31","idCCAA":"15"}}},{"type":"Feature","geometry":{"type":"Point","coordinates":[-1.689,42.835722]},"properties":{"id":"es-11847","source":"ES","brand":"TRANSPORTES CRUZ","address":"POLIGONO COMARCA I     CALLE D, S/N","municipality":"Berrioplano","province":"NAVARRA","postalCode":"31195","schedule":"L-D: 24H","fuels":{"diesel":1.699},"extra":{"saleType":"P","margin":"I","reportingType":"dm","ideess":"11847","idMunicipio":"4658","idProvincia":"31","idCCAA":"15"}}},{"type":"Feature","geometry":{"type":"Point","coordinates":[-1.599861,42.058083]},"properties":{"id":"es-1186","source":"ES","brand":"REPSOL","address":"AVENIDA ZARAGOZA, 48","municipality":"Tudela","province":"NAVARRA","postalCode":"31500","schedule":"L-D: 24H","fuels":{"gasoline95":1.779,"gasoline98":1.909,"diesel":1.879,"dieselB":1.499,"dieselRenewable":1.969},"extra":{"saleType":"P","margin":"D","reportingType":"dm","ideess":"1186","idMunicipio":"4840","idProvincia":"31","idCCAA":"15"}}},{"type":"Feature","geometry":{"type":"Point","coordinates":[-1.597056,42.052528]},"properties":{"id":"es-1188","source":"ES","brand":"REPSOL","address":"AVENIDA ZARAGOZA, 73","municipality":"Tudela","province":"NAVARRA","postalCode":"31500","schedule":"L-D: 24H","fuels":{"gasoline95":1.739,"gasoline98":1.909,"diesel":1.849,"dieselB":1.249,"dieselRenewable":1.949,"lpg":1.089,"adblue":0.679},"extra":{"saleType":"P","margin":"D","reportingType":"dm","ideess":"1188","idMunicipio":"4840","idProvincia":"31","idCCAA":"15"}}},{"type":"Feature","geometry":{"type":"Point","coordinates":[-1.650389,42.350722]},"properties":{"id":"es-1189","source":"ES","brand":"MOEVE","address":"CARRETERA NACIONAL 121 KM. 56","municipality":"Caparroso","province":"NAVARRA","postalCode":"31380","schedule":"L-V: 06:00-23:30; S: 06:00-22:00; D: 07:00-22:00","fuels":{"gasoline95":1.794,"diesel":1.884,"dieselPremium":1.984,"dieselB":1.724,"adblue":0.95},"extra":{"saleType":"P","margin":"D","reportingType":"dm","ideess":"1189","idMunicipio":"4671","idProvincia":"31","idCCAA":"15"}}},{"type":"Feature","geometry":{"type":"Point","coordinates":[-1.79675,42.076944]},"properties":{"id":"es-1190","source":"ES","brand":"MOEVE","address":"CARRETERA N-113 KM. 91,5","municipality":"Cintruénigo","province":"NAVARRA","postalCode":"31592","schedule":"L-D: 06:00-22:00","fuels":{"gasoline95":1.779,"gasoline95Premium":1.879,"diesel":1.869,"dieselPremium":1.969,"dieselB":1.679},"extra":{"saleType":"P","margin":"D","reportingType":"dm","ideess":"1190","idMunicipio":"4679","idProvincia":"31","idCCAA":"15"}}},{"type":"Feature","geometry":{"type":"Point","coordinates":[-1.642889,42.076222]},"properties":{"id":"es-11922","source":"ES","brand":"E.S. BARDENAS","address":"POLIGONO LA SERNA - CALLE B - A68(N232) SALIDA 91, S/N","municipality":"Tudela","province":"NAVARRA","postalCode":"31500","schedule":"L-D: 24H","fuels":{"gasoline95":1.556,"diesel":1.699,"dieselPremium":1.77,"dieselB":1.348,"adblue":0.581},"extra":{"saleType":"P","margin":"N","reportingType":"dm","ideess":"11922","idMunicipio":"4840","idProvincia":"31","idCCAA":"15"}}},{"type":"Feature","geometry":{"type":"Point","coordinates":[-1.27825,42.614194]},"properties":{"id":"es-1196","source":"ES","brand":"REPSOL","address":"CR N-240, 41","municipality":"Liédena","province":"NAVARRA","postalCode":"31487","schedule":"L-V: 06:00-22:00; S-D: 07:00-22:00","fuels":{"gasoline95":1.815,"gasoline98":1.985,"diesel":1.965,"dieselPremium":2.025,"dieselB":1.67},"extra":{"saleType":"P","margin":"I","reportingType":"OM","ideess":"1196","idMunicipio":"4763","idProvincia":"31","idCCAA":"15"}}},{"type":"Feature","geometry":{"type":"Point","coordinates":[-1.635278,42.775972]},"properties":{"id":"es-1197","source":"ES","brand":"REPSOL","address":"CR N-121, 5","municipality":"Noáin (Valle de Elorz)/Noain (Elortzibar)","province":"NAVARRA","postalCode":"31110","schedule":"L-V: 06:00-22:00; S: 07:00-22:00","fuels":{"gasoline95":1.795,"gasoline95Premium":1.865,"gasoline98":1.965,"diesel":1.965,"dieselPremium":2.045,"lpg":1.189},"extra":{"saleType":"P","margin":"D","reportingType":"OM","ideess":"1197","idMunicipio":"4792","idProvincia":"31","idCCAA":"15"}}},{"type":"Feature","geometry":{"type":"Point","coordinates":[-1.634722,42.776111]},"properties":{"id":"es-1198","source":"ES","brand":"REPSOL","address":"CARRETERA N-121 KM. 5","municipality":"Aranguren","province":"NAVARRA","postalCode":"31192","schedule":"L-D: 06:00-22:00","fuels":{"gasoline95":1.795,"diesel":1.965,"dieselPremium":2.045},"extra":{"saleType":"P","margin":"I","reportingType":"OM","ideess":"1198","idMunicipio":"4622","idProvincia":"31","idCCAA":"15"}}},{"type":"Feature","geometry":{"type":"Point","coordinates":[-1.942222,42.343417]},"properties":{"id":"es-11980","source":"ES","brand":"AVIA","address":"POLIGONO REPARCELACION DE LA UE-1 DEL AR-3, 3","municipality":"San Adrián","province":"NAVARRA","postalCode":"31570","schedule":"L-D: 24H","fuels":{"gasoline95":1.679,"diesel":1.779},"extra":{"saleType":"P","margin":"D","reportingType":"dm","ideess":"11980","idMunicipio":"4825","idProvincia":"31","idCCAA":"15"}}},{"type":"Feature","geometry":{"type":"Point","coordinates":[-1.793361,42.072611]},"properties":{"id":"es-12001","source":"ES","brand":"AN ENERGETICOS/BODEGA CIRBONERA","address":"POLIGONO POLIGONO INDUSTRIAL S/N, 2","municipality":"Cintruénigo","province":"NAVARRA","postalCode":"31592","schedule":"L-D: 24H","fuels":{"gasoline95":1.599,"diesel":1.769,"dieselB":1.415,"adblue":0.705},"extra":{"saleType":"P","margin":"D","reportingType":"dm","ideess":"12001","idMunicipio":"4679","idProvincia":"31","idCCAA":"15"}}},{"type":"Feature","geometry":{"type":"Point","coordinates":[-1.613972,42.732583]},"properties":{"id":"es-12013","source":"ES","brand":"ANDAMUR \"PAMPLONA\"","address":"AVENIDA ESTE (CIUDAD DEL TRANSPORTE PAMPLONA), 1","municipality":"Noáin (Valle de Elorz)/Noain (Elortzibar)","province":"NAVARRA","postalCode":"31119","schedule":"L-D: 24H","fuels":{"gasoline95":1.779,"gasoline98":1.898,"diesel":1.889,"dieselPremium":1.938,"dieselB":1.747,"adblue":0.924},"extra":{"saleType":"P","margin":"D","reportingType":"dm","ideess":"12013","idMunicipio":"4792","idProvincia":"31","idCCAA":"15"}}},{"type":"Feature","geometry":{"type":"Point","coordinates":[-1.618917,42.856083]},"properties":{"id":"es-1202","source":"ES","brand":"ARALAR","address":"CARRETERA N-121-A KM. 7,6","municipality":"Ezcabarte","province":"NAVARRA","postalCode":"31194","schedule":"L-D: 06:00-22:00","fuels":{"gasoline95":1.599,"diesel":1.699,"dieselPremium":1.759},"extra":{"saleType":"P","margin":"D","reportingType":"dm","ideess":"1202","idMunicipio":"4706","idProvincia":"31","idCCAA":"15"}}},{"type":"Feature","geometry":{"type":"Point","coordinates":[-1.597611,42.827806]},"properties":{"id":"es-12052","source":"ES","brand":"AN ENERGETICOS - HUARTE","address":"CALLE OLAZ CHIPI S/N, S/N","municipality":"Huarte/Uharte","province":"NAVARRA","postalCode":"31620","schedule":"L-D: 24H","fuels":{"gasoline95":1.629,"diesel":1.799,"adblue":0.705},"extra":{"saleType":"P","margin":"N","reportingType":"dm","ideess":"12052","idMunicipio":"4729","idProvincia":"31","idCCAA":"15"}}},{"type":"Feature","geometry":{"type":"Point","coordinates":[-1.642861,42.201611]},"properties":{"id":"es-1206","source":"ES","brand":"REPSOL","address":"PS DE LA RIBERA, 215 (NA-134 km 19)","municipality":"Valtierra","province":"NAVARRA","postalCode":"31514","schedule":"L-V: 06:30-20:00; S: 08:00-13:00","fuels":{"gasoline95":1.709,"diesel":1.819,"dieselB":1.369,"dieselRenewable":1.869},"extra":{"saleType":"P","margin":"I","reportingType":"dm","ideess":"1206","idMunicipio":"4858","idProvincia":"31","idCCAA":"15"}}},{"type":"Feature","geometry":{"type":"Point","coordinates":[-1.718111,42.818417]},"properties":{"id":"es-1208","source":"ES","brand":"PETRONOR","address":"CARRETERA CR NA-7000, 5,3 KM. 5,3","municipality":"Olza","province":"NAVARRA","postalCode":"31170","schedule":"L-D: 06:00-22:00","fuels":{"gasoline95":1.785,"diesel":1.945,"dieselPremium":2.005},"extra":{"saleType":"P","margin":"D","reportingType":"OM","ideess":"1208","idMunicipio":"4678","idProvincia":"31","idCCAA":"15"}}},{"type":"Feature","geometry":{"type":"Point","coordinates":[-1.624167,42.756667]},"properties":{"id":"es-1210","source":"ES","brand":"REPSOL","address":"N-240 km 378","municipality":"Noáin (Valle de Elorz)/Noain (Elortzibar)","province":"NAVARRA","postalCode":"31110","schedule":"L-J: 06:00-21:00; V-S: 06:00-22:00; D: 07:00-21:00","fuels":{"gasoline95":1.799,"gasoline98":1.969,"diesel":1.909,"dieselPremium":1.989,"adblue":1.109},"extra":{"saleType":"P","margin":"I","reportingType":"dm","ideess":"1210","idMunicipio":"4792","idProvincia":"31","idCCAA":"15"}}},{"type":"Feature","geometry":{"type":"Point","coordinates":[-1.699139,42.173278]},"properties":{"id":"es-1225","source":"ES","brand":"ATUGAS","address":"CALLE FINAL CALLE SAN JOSE S.N, S/N","municipality":"Castejón","province":"NAVARRA","postalCode":"31590","schedule":"L-D: 07:00-22:00","fuels":{"gasoline95":1.639,"diesel":1.729,"adblue":0.76},"extra":{"saleType":"P","margin":"I","reportingType":"dm","ideess":"1225","idMunicipio":"4676","idProvincia":"31","idCCAA":"15"}}},{"type":"Feature","geometry":{"type":"Point","coordinates":[-1.641444,42.748556]},"properties":{"id":"es-12263","source":"ES","brand":"BIDEKO ATERPE","address":"POLIGONO MESETA DE SALINAS, 4","municipality":"Galar","province":"NAVARRA","postalCode":"31191","schedule":"L-D: 24H","fuels":{"diesel":1.766},"extra":{"saleType":"P","margin":"D","reportingType":"dm","ideess":"12263","idMunicipio":"4715","idProvincia":"31","idCCAA":"15"}}},{"type":"Feature","geometry":{"type":"Point","coordinates":[-1.696611,42.179222]},"properties":{"id":"es-12277","source":"ES","brand":"AN ENERGETICOS - CASTEJON","address":"CARRETERA N-113 KM. 77","municipality":"Castejón","province":"NAVARRA","postalCode":"31590","schedule":"L-D: 24H","fuels":{"gasoline95":1.599,"diesel":1.769,"dieselB":1.449,"adblue":0.705},"extra":{"saleType":"P","margin":"D","reportingType":"dm","ideess":"12277","idMunicipio":"4676","idProvincia":"31","idCCAA":"15"}}},{"type":"Feature","geometry":{"type":"Point","coordinates":[-1.766083,42.586972]},"properties":{"id":"es-12279","source":"ES","brand":"AN ENERGETICOS ARTAJONA","address":"TRAVESÍA SAN ISIDRO LABRADOR, S/N","municipality":"Artajona","province":"NAVARRA","postalCode":"31140","schedule":"L-D: 24H","fuels":{"gasoline95":1.59,"diesel":1.76,"dieselB":1.415,"adblue":0.705},"extra":{"saleType":"P","margin":"N","reportingType":"dm","ideess":"12279","idMunicipio":"4637","idProvincia":"31","idCCAA":"15"}}},{"type":"Feature","geometry":{"type":"Point","coordinates":[-1.585417,42.831361]},"properties":{"id":"es-1230","source":"ES","brand":"BP HUARTE","address":"CALLE INTXAURDIA, 6","municipality":"Huarte/Uharte","province":"NAVARRA","postalCode":"31620","schedule":"L-D: 06:00-22:00","fuels":{"gasoline95":1.785,"gasoline98":1.925,"diesel":1.939,"dieselPremium":2.029},"extra":{"saleType":"P","margin":"I","reportingType":"OM","ideess":"1230","idMunicipio":"4729","idProvincia":"31","idCCAA":"15"}}},{"type":"Feature","geometry":{"type":"Point","coordinates":[-1.503167,42.937167]},"properties":{"id":"es-1231","source":"ES","brand":"JOSENEA ZUBIRI AVIA","address":"CARRETERA N-138 KM. 19,7","municipality":"Esteribar","province":"NAVARRA","postalCode":"31639","schedule":"L-D: 08:00-21:00","fuels":{"gasoline95":1.689,"diesel":1.789,"dieselPremium":1.829,"adblue":0.799},"extra":{"saleType":"P","margin":"D","reportingType":"dm","ideess":"1231","idMunicipio":"4700","idProvincia":"31","idCCAA":"15"}}},{"type":"Feature","geometry":{"type":"Point","coordinates":[-1.516056,42.029556]},"properties":{"id":"es-1232","source":"ES","brand":"PETRONOR","address":"CARRETERA TAUSTE KM. 8,5","municipality":"Cabanillas","province":"NAVARRA","postalCode":"31511","schedule":"L-V: 06:00-22:00; S: 06:00-20:00; D: 07:00-14:00","fuels":{"gasoline95":1.749,"diesel":1.869,"dieselB":1.509},"extra":{"saleType":"P","margin":"I","reportingType":"dm","ideess":"1232","idMunicipio":"4668","idProvincia":"31","idCCAA":"15"}}},{"type":"Feature","geometry":{"type":"Point","coordinates":[-1.863028,42.9125]},"properties":{"id":"es-1234","source":"ES","brand":"REPSOL","address":"CR A-10    AUTOVIA DE LA BARRANCA","municipality":"Arakil","province":"NAVARRA","postalCode":"31868","schedule":"L-D: 06:00-22:00","fuels":{"gasoline95":1.809,"gasoline98":1.979,"diesel":1.965,"dieselPremium":2.025},"extra":{"saleType":"P","margin":"D","reportingType":"OM","ideess":"1234","idMunicipio":"4620","idProvincia":"31","idCCAA":"15"}}},{"type":"Feature","geometry":{"type":"Point","coordinates":[-1.672444,42.53175]},"properties":{"id":"es-1236","source":"ES","brand":"REPSOL","address":"AV PAMPLONA S/N","municipality":"Tafalla","province":"NAVARRA","postalCode":"31300","schedule":"L-V: 06:30-22:00; S: 07:00-22:00; D: 07:00-14:30","fuels":{"gasoline95":1.815,"diesel":1.965,"dieselPremium":2.025,"lpg":1.189},"extra":{"saleType":"P","margin":"I","reportingType":"OM","ideess":"1236","idMunicipio":"4835","idProvincia":"31","idCCAA":"15"}}},{"type":"Feature","geometry":{"type":"Point","coordinates":[-1.653361,42.8355]},"properties":{"id":"es-1237","source":"ES","brand":"REPSOL","address":"CL CARRETERA DE ARTICA,S.N.","municipality":"Pamplona/Iruña","province":"NAVARRA","postalCode":"31013","schedule":"L-D: 06:00-22:00","fuels":{"gasoline95":1.799,"gasoline98":1.969,"diesel":1.965,"dieselPremium":2.025,"lpg":1.189},"extra":{"saleType":"P","margin":"I","reportingType":"OM","ideess":"1237","idMunicipio":"4812","idProvincia":"31","idCCAA":"15"}}},{"type":"Feature","geometry":{"type":"Point","coordinates":[-1.567917,42.826944]},"properties":{"id":"es-1240","source":"ES","brand":"DST","address":"CARRETERA NA150 KM. 1,56","municipality":"Egüés","province":"NAVARRA","postalCode":"31486","schedule":"L-D: 24H","fuels":{"gasoline95":1.629,"diesel":1.769,"dieselPremium":1.829,"adblue":0.829},"extra":{"saleType":"P","margin":"D","reportingType":"dm","ideess":"1240","idMunicipio":"4690","idProvincia":"31","idCCAA":"15"}}},{"type":"Feature","geometry":{"type":"Point","coordinates":[-1.562972,42.826028]},"properties":{"id":"es-12693","source":"ES","brand":"AN ENERGETICOS - URROZ","address":"CARRETERA NA-150 KM. 2","municipality":"Egüés","province":"NAVARRA","postalCode":"31486","schedule":"L-D: 24H","fuels":{"gasoline95":1.599,"diesel":1.739,"adblue":0.7},"extra":{"saleType":"P","margin":"N","reportingType":"dm","ideess":"12693","idMunicipio":"4690","idProvincia":"31","idCCAA":"15"}}},{"type":"Feature","geometry":{"type":"Point","coordinates":[-1.617778,42.066389]},"properties":{"id":"es-12705","source":"ES","brand":"AN ENERGETICOS - TUDELA 2","address":"CARRETERA ALFARO S/N KM. 0","municipality":"Tudela","province":"NAVARRA","postalCode":"31500","schedule":"L-D: 24H","fuels":{"gasoline95":1.599,"diesel":1.769,"dieselB":1.449,"adblue":0.705},"extra":{"saleType":"P","margin":"N","reportingType":"dm","ideess":"12705","idMunicipio":"4840","idProvincia":"31","idCCAA":"15"}}},{"type":"Feature","geometry":{"type":"Point","coordinates":[-1.688611,42.221944]},"properties":{"id":"es-12713","source":"ES","brand":"AN ENERGETICOS - CADREITA","address":"POLIGONO LAS NAVAS, CALLE A, 1","municipality":"Cadreita","province":"NAVARRA","postalCode":"31515","schedule":"L-D: 24H","fuels":{"gasoline95":1.649,"diesel":1.819,"dieselB":1.499,"adblue":0.705},"extra":{"saleType":"P","margin":"N","reportingType":"dm","ideess":"12713","idMunicipio":"4670","idProvincia":"31","idCCAA":"15"}}},{"type":"Feature","geometry":{"type":"Point","coordinates":[-1.74425,42.272444]},"properties":{"id":"es-12724","source":"ES","brand":"COMBUSTIBLES VILLAFRANCA","address":"POLIGONO ALESVES, N","municipality":"Villafranca","province":"NAVARRA","postalCode":"31330","schedule":"L-D: 24H","fuels":{"gasoline95":1.599,"diesel":1.759,"adblue":0.735},"extra":{"saleType":"P","margin":"D","reportingType":"dm","ideess":"12724","idMunicipio":"4861","idProvincia":"31","idCCAA":"15"}}},{"type":"Feature","geometry":{"type":"Point","coordinates":[-1.7875,42.387778]},"properties":{"id":"es-12779","source":"ES","brand":"AN ENERGETICOS - FALCES","address":"CARRETERA NA-6210 KM. 5","municipality":"Falces","province":"NAVARRA","postalCode":"31370","schedule":"L-D: 24H","fuels":{"gasoline95":1.619,"gasoline98":1.719,"diesel":1.789,"dieselB":1.469,"adblue":0.705},"extra":{"saleType":"P","margin":"D","reportingType":"dm","ideess":"12779","idMunicipio":"4710","idProvincia":"31","idCCAA":"15"}}},{"type":"Feature","geometry":{"type":"Point","coordinates":[-1.655806,42.820528]},"properties":{"id":"es-12865","source":"ES","brand":"MOEVE","address":"AVENIDA GUIPUZCOA, 1","municipality":"Pamplona/Iruña","province":"NAVARRA","postalCode":"31014","schedule":"L-D: 00:00-23:59","fuels":{"gasoline95":1.814,"gasoline95Premium":1.914,"diesel":1.934,"dieselPremium":2.034,"lpg":1.159},"extra":{"saleType":"P","margin":"I","reportingType":"OM","ideess":"12865","idMunicipio":"4812","idProvincia":"31","idCCAA":"15"}}},{"type":"Feature","geometry":{"type":"Point","coordinates":[-1.688694,42.821639]},"properties":{"id":"es-12916","source":"ES","brand":"PETRO SWAP","address":"PARQUE EMPRESARIAL LA MUGA, 7","municipality":"Orcoyen","province":"NAVARRA","postalCode":"31160","schedule":"L-V: 06:00-22:30; S: 06:00-22:00; D: 08:00-22:00","fuels":{"gasoline95":1.639,"diesel":1.729,"adblue":0.999},"extra":{"saleType":"P","margin":"D","reportingType":"dm","ideess":"12916","idMunicipio":"4807","idProvincia":"31","idCCAA":"15"}}},{"type":"Feature","geometry":{"type":"Point","coordinates":[-1.586917,42.8365]},"properties":{"id":"es-12995","source":"ES","brand":"SHELL","address":"AVENIDA RONCESVALLES, 29","municipality":"Esteribar","province":"NAVARRA","postalCode":"31699","schedule":"L-D: 24H","fuels":{"gasoline95":1.629,"diesel":1.789,"adblue":1.25},"extra":{"saleType":"P","margin":"D","reportingType":"OM","ideess":"12995","idMunicipio":"4700","idProvincia":"31","idCCAA":"15"}}},{"type":"Feature","geometry":{"type":"Point","coordinates":[-1.364,42.977861]},"properties":{"id":"es-13025","source":"ES","brand":"LOW COST FUEL OIL","address":"CARRETERA N-135 KM. 41","municipality":"Erro","province":"NAVARRA","postalCode":"31694","schedule":"L-D: 24H","fuels":{"gasoline95":1.759,"diesel":1.819},"extra":{"saleType":"P","margin":"I","reportingType":"dm","ideess":"13025","idMunicipio":"4695","idProvincia":"31","idCCAA":"15"}}},{"type":"Feature","geometry":{"type":"Point","coordinates":[-1.779778,42.113194]},"properties":{"id":"es-13109","source":"ES","brand":"ESTACION DE SERVICIO LA NORIA","address":"CARRETERA NA-6920 KM. 3,850","municipality":"Corella","province":"NAVARRA","postalCode":"31591","schedule":"L-J: 06:00-23:00; V: 06:00-17:00; D: 06:00-23:00","fuels":{"gasoline95":1.699,"diesel":1.795},"extra":{"saleType":"P","margin":"D","reportingType":"dm","ideess":"13109","idMunicipio":"4683","idProvincia":"31","idCCAA":"15"}}},{"type":"Feature","geometry":{"type":"Point","coordinates":[-1.647056,42.830778]},"properties":{"id":"es-13132","source":"ES","brand":"LA ROTXA ANSOAIN","address":"CALLE BERRIOPLANO, 2","municipality":"Ansoáin","province":"NAVARRA","postalCode":"31013","schedule":"L-D: 06:00-22:00","fuels":{"gasoline95Premium":1.599,"dieselPremium":1.699},"extra":{"saleType":"P","margin":"D","reportingType":"dm","ideess":"13132","idMunicipio":"4615","idProvincia":"31","idCCAA":"15"}}},{"type":"Feature","geometry":{"type":"Point","coordinates":[-1.726,42.157861]},"properties":{"id":"es-13295","source":"ES","brand":"NINGUNO","address":"CARRETERA NAL. 232 KM. 333","municipality":"Alfaro","province":"RIOJA (LA)","postalCode":"26111","schedule":"L-D: 24H","fuels":{"gasoline95":1.561,"diesel":1.713,"adblue":0.636},"extra":{"saleType":"P","margin":"D","reportingType":"dm","ideess":"13295","idMunicipio":"4045","idProvincia":"26","idCCAA":"17"}}},{"type":"Feature","geometry":{"type":"Point","coordinates":[-1.627861,42.804028]},"properties":{"id":"es-13390","source":"ES","brand":"ARALAR","address":"AVENIDA JUAN PABLO II, 23","municipality":"Pamplona/Iruña","province":"NAVARRA","postalCode":"31006","schedule":"L: 06:30-22:30; M-D: 06:30-14:29 y 14:30-22:30","fuels":{"gasoline95":1.599,"gasoline98":1.799,"diesel":1.699,"dieselPremium":1.759,"lpg":1.099},"extra":{"saleType":"P","margin":"N","reportingType":"dm","ideess":"13390","idMunicipio":"4812","idProvincia":"31","idCCAA":"15"}}},{"type":"Feature","geometry":{"type":"Point","coordinates":[-1.675639,42.121167]},"properties":{"id":"es-13565","source":"ES","brand":"VALCARCE","address":"POLIGONO MONTES DEL CIERZO, 67","municipality":"Tudela","province":"NAVARRA","postalCode":"31500","schedule":"L-D: 24H","fuels":{"gasoline95":1.759,"diesel":1.939,"dieselB":1.609,"adblue":0.799},"extra":{"saleType":"P","margin":"D","reportingType":"dm","ideess":"13565","idMunicipio":"4840","idProvincia":"31","idCCAA":"15"}}},{"type":"Feature","geometry":{"type":"Point","coordinates":[-1.684528,42.814028]},"properties":{"id":"es-13598","source":"ES","brand":"AVANZA OIL PAMPLONA","address":"POLIGONO LANDABEN, CALLE F, 2","municipality":"Pamplona/Iruña","province":"NAVARRA","postalCode":"31012","schedule":"L-D: 24H","fuels":{"gasoline95":1.639,"diesel":1.729},"extra":{"saleType":"P","margin":"D","reportingType":"dm","ideess":"13598","idMunicipio":"4812","idProvincia":"31","idCCAA":"15"}}},{"type":"Feature","geometry":{"type":"Point","coordinates":[-1.698306,42.787028]},"properties":{"id":"es-13628","source":"ES","brand":"E. LECLERC","address":"CALLE ARROBIA KALEA, S/N","municipality":"Zizur Mayor/Zizur Nagusia","province":"NAVARRA","postalCode":"31180","schedule":"L-D: 24H","fuels":{"gasoline95":1.589,"diesel":1.699,"dieselPremium":1.729},"extra":{"saleType":"P","margin":"D","reportingType":"dm","ideess":"13628","idMunicipio":"4868","idProvincia":"31","idCCAA":"15"}}},{"type":"Feature","geometry":{"type":"Point","coordinates":[-1.638444,42.070167]},"properties":{"id":"es-13740","source":"ES","brand":"EUROCAM","address":"POLIGONO LAS LABRADAS VIAL ASTURIAS, 378","municipality":"Tudela","province":"NAVARRA","postalCode":"31500","schedule":"L-D: 24H","fuels":{"diesel":1.709,"lpg":1.099,"adblue":0.629},"extra":{"saleType":"P","margin":"N","reportingType":"dm","ideess":"13740","idMunicipio":"4840","idProvincia":"31","idCCAA":"15"}}},{"type":"Feature","geometry":{"type":"Point","coordinates":[-1.850278,42.231667]},"properties":{"id":"es-13742","source":"ES","brand":"COCAVICA","address":"CALLE MIGUEL SERVET, 26","municipality":"Rincón de Soto","province":"RIOJA (LA)","postalCode":"26550","schedule":"L-D: 24H","fuels":{"gasoline95":1.539,"diesel":1.649,"dieselB":1.302},"extra":{"saleType":"P","margin":"N","reportingType":"dm","ideess":"13742","idMunicipio":"4155","idProvincia":"26","idCCAA":"17"}}},{"type":"Feature","geometry":{"type":"Point","coordinates":[-1.672889,42.836861]},"properties":{"id":"es-13747","source":"ES","brand":"REPSOL","address":"CARRETERA AVD. GUIPUZCOA N-240 KM. 4","municipality":"Berriozar","province":"NAVARRA","postalCode":"31013","schedule":"L-D: 06:00-22:00","fuels":{"gasoline95":1.795,"gasoline98":1.965,"diesel":1.965,"dieselRenewable":2.085,"lpg":1.169},"extra":{"saleType":"P","margin":"D","reportingType":"OM","ideess":"13747","idMunicipio":"4659","idProvincia":"31","idCCAA":"15"}}},{"type":"Feature","geometry":{"type":"Point","coordinates":[-1.634083,42.774278]},"properties":{"id":"es-14014","source":"ES","brand":"MG TALLUNTXE","address":"CALLE Q, 1","municipality":"Aranguren","province":"NAVARRA","postalCode":"31192","schedule":"L-D: 06:00-22:00","fuels":{"gasoline95Premium":1.599,"dieselPremium":1.699,"adblue":1.0},"extra":{"saleType":"P","margin":"D","reportingType":"dm","ideess":"14014","idMunicipio":"4622","idProvincia":"31","idCCAA":"15"}}},{"type":"Feature","geometry":{"type":"Point","coordinates":[-1.636972,42.776194]},"properties":{"id":"es-14184","source":"ES","brand":"BIDASOA COMBUSTIBLES","address":"POLIGONO Y, 10","municipality":"Noáin (Valle de Elorz)/Noain (Elortzibar)","province":"NAVARRA","postalCode":"31110","schedule":"L-D: 24H","fuels":{"gasoline95":1.589,"diesel":1.689},"extra":{"saleType":"P","margin":"N","reportingType":"dm","ideess":"14184","idMunicipio":"4792","idProvincia":"31","idCCAA":"15"}}},{"type":"Feature","geometry":{"type":"Point","coordinates":[-1.272111,42.283333]},"properties":{"id":"es-1425","source":"ES","brand":"COOP SAN JOSE - SÁDABA","address":"CALLE AVDA. URRUTI CANDIDO, 2","municipality":"Sádaba","province":"ZARAGOZA","postalCode":"50670","schedule":"L-D: 24H","fuels":{"gasoline95":1.8,"diesel":1.9,"dieselB":1.3},"extra":{"saleType":"P","margin":"D","reportingType":"dm","ideess":"1425","idMunicipio":"8041","idProvincia":"50","idCCAA":"02"}}},{"type":"Feature","geometry":{"type":"Point","coordinates":[-1.645583,42.797694]},"properties":{"id":"es-14283","source":"ES","brand":"REPSOL","address":"CALLE SADAR S/N, S/N","municipality":"Pamplona/Iruña","province":"NAVARRA","postalCode":"31006","schedule":"L-S: 06:30-22:00; D: 07:00-22:00","fuels":{"gasoline95":1.789,"gasoline98":1.969,"diesel":1.935,"dieselRenewable":1.995,"lpg":1.189},"extra":{"saleType":"P","margin":"D","reportingType":"dm","ideess":"14283","idMunicipio":"4812","idProvincia":"31","idCCAA":"15"}}},{"type":"Feature","geometry":{"type":"Point","coordinates":[-1.684778,42.814806]},"properties":{"id":"es-14331","source":"ES","brand":"PETROPRIX","address":"CALLE E, 1","municipality":"Pamplona/Iruña","province":"NAVARRA","postalCode":"31012","schedule":"L-D: 24H","fuels":{"gasoline95":1.589,"diesel":1.689},"extra":{"saleType":"P","margin":"I","reportingType":"dm","ideess":"14331","idMunicipio":"4812","idProvincia":"31","idCCAA":"15"}}},{"type":"Feature","geometry":{"type":"Point","coordinates":[-1.590667,42.815556]},"properties":{"id":"es-14479","source":"ES","brand":"AN ENERGETICOS S.L. - SARRIGUREN","address":"CALLE OLAZ, 3","municipality":"Egüés","province":"NAVARRA","postalCode":"31620","schedule":"L-D: 24H","fuels":{"gasoline95":1.629,"diesel":1.799,"dieselPremium":1.839,"adblue":0.705},"extra":{"saleType":"P","margin":"N","reportingType":"dm","ideess":"14479","idMunicipio":"4690","idProvincia":"31","idCCAA":"15"}}},{"type":"Feature","geometry":{"type":"Point","coordinates":[-1.142861,42.118389]},"properties":{"id":"es-1461","source":"ES","brand":"LABOIL","address":"CARRETERA A-127 KM. 31,5","municipality":"Ejea de los Caballeros","province":"ZARAGOZA","postalCode":"50600","schedule":"L-D: 24H","fuels":{"gasoline95":1.629,"diesel":1.779,"dieselPremium":1.819},"extra":{"saleType":"P","margin":"D","reportingType":"dm","ideess":"1461","idMunicipio":"7911","idProvincia":"50","idCCAA":"02"}}},{"type":"Feature","geometry":{"type":"Point","coordinates":[-1.624222,42.786]},"properties":{"id":"es-14707","source":"ES","brand":"LC REPOST - M.G. MUTILVA","address":"CALLE A, DEL POLÍGONO INDUSTRIAL MUTILVA BAJA, 21","municipality":"Aranguren","province":"NAVARRA","postalCode":"31192","schedule":"L-D: 06:00-22:00","fuels":{"gasoline95Premium":1.599,"dieselPremium":1.699,"lpg":1.089,"adblue":1.0},"extra":{"saleType":"P","margin":"D","reportingType":"dm","ideess":"14707","idMunicipio":"4622","idProvincia":"31","idCCAA":"15"}}},{"type":"Feature","geometry":{"type":"Point","coordinates":[-1.144528,42.126806]},"properties":{"id":"es-1473","source":"ES","brand":"PLENERGY","address":"CARRETERA A-127 KM. 32,3","municipality":"Ejea de los Caballeros","province":"ZARAGOZA","postalCode":"50600","schedule":"L-D: 24H","fuels":{"gasoline95":1.537,"diesel":1.715},"extra":{"saleType":"P","margin":"D","reportingType":"dm","ideess":"1473","idMunicipio":"7911","idProvincia":"50","idCCAA":"02"}}},{"type":"Feature","geometry":{"type":"Point","coordinates":[-1.590028,42.040639]},"properties":{"id":"es-14784","source":"ES","brand":"PETROPRIX","address":"CALLE CANAL DE TAUSTE, 290","municipality":"Tudela","province":"NAVARRA","postalCode":"31500","schedule":"L-D: 24H","fuels":{"gasoline95":1.495,"diesel":1.665},"extra":{"saleType":"P","margin":"D","reportingType":"dm","ideess":"14784","idMunicipio":"4840","idProvincia":"31","idCCAA":"15"}}},{"type":"Feature","geometry":{"type":"Point","coordinates":[-1.652306,42.833667]},"properties":{"id":"es-14857","source":"ES","brand":"PETROPRIX","address":"CALLE ARTICA, 30","municipality":"Berrioplano","province":"NAVARRA","postalCode":"31195","schedule":"L-D: 24H","fuels":{"gasoline95":1.589,"diesel":1.689},"extra":{"saleType":"P","margin":"D","reportingType":"dm","ideess":"14857","idMunicipio":"4658","idProvincia":"31","idCCAA":"15"}}},{"type":"Feature","geometry":{"type":"Point","coordinates":[-1.215111,42.490944]},"properties":{"id":"es-1518","source":"ES","brand":"AN ENERGETICOS S,L - SOS DEL REY CATOLICO","address":"CARRETERA A-127 KM. 89,00","municipality":"Sos del Rey Católico","province":"ZARAGOZA","postalCode":"50680","schedule":"L-D: 24H","fuels":{"gasoline95":1.608,"diesel":1.777,"dieselB":1.431,"adblue":0.705},"extra":{"saleType":"P","margin":"D","reportingType":"dm","ideess":"1518","idMunicipio":"8058","idProvincia":"50","idCCAA":"02"}}},{"type":"Feature","geometry":{"type":"Point","coordinates":[-1.955167,42.295361]},"properties":{"id":"es-15253","source":"ES","brand":"ADELFAS OIL","address":"POLIGONO TEJERIAS - TERMINO SAN LAZARO, 46","municipality":"Calahorra","province":"RIOJA (LA)","postalCode":"26500","schedule":"L-V: 06:00-22:00; S: 07:00-22:00; D: 08:00-22:00","fuels":{"gasoline95":1.709,"gasoline98":1.871,"diesel":1.848,"dieselPremium":1.948,"lpg":1.151,"adblue":0.799},"extra":{"saleType":"P","margin":"D","reportingType":"dm","ideess":"15253","idMunicipio":"4070","idProvincia":"26","idCCAA":"17"}}},{"type":"Feature","geometry":{"type":"Point","coordinates":[-1.835417,42.256806]},"properties":{"id":"es-15261","source":"ES","brand":"AN ENERGETICOS - FUNES 2","address":"POLIGONO BODEGA ROMANA, VIAL OESTE, S/N","municipality":"Funes","province":"NAVARRA","postalCode":"31360","schedule":"L-D: 24H","fuels":{"gasoline95":1.649,"diesel":1.819,"dieselPremium":1.859,"dieselB":1.499,"adblue":0.705},"extra":{"saleType":"P","margin":"N","reportingType":"dm","ideess":"15261","idMunicipio":"4713","idProvincia":"31","idCCAA":"15"}}},{"type":"Feature","geometry":{"type":"Point","coordinates":[-1.781278,42.246528]},"properties":{"id":"es-15263","source":"ES","brand":"GASOLINERA G & S","address":"CALLE LA RIBERA, 1","municipality":"Milagro","province":"NAVARRA","postalCode":"31320","schedule":"L-D: 24H","fuels":{"gasoline95":1.62,"diesel":1.76,"adblue":0.8},"extra":{"saleType":"P","margin":"D","reportingType":"dm","ideess":"15263","idMunicipio":"4778","idProvincia":"31","idCCAA":"15"}}},{"type":"Feature","geometry":{"type":"Point","coordinates":[-1.625806,42.066139]},"properties":{"id":"es-15371","source":"ES","brand":"PETROTUDELA","address":"CALLE VIAL B, 34","municipality":"Tudela","province":"NAVARRA","postalCode":"31500","schedule":"L-D: 24H","fuels":{"diesel":1.739,"adblue":0.5},"extra":{"saleType":"P","margin":"N","reportingType":"dm","ideess":"15371","idMunicipio":"4840","idProvincia":"31","idCCAA":"15"}}},{"type":"Feature","geometry":{"type":"Point","coordinates":[-1.816167,42.08725]},"properties":{"id":"es-15520","source":"ES","brand":"BM COMPLET","address":"POLIGONO COMERCIAL ALHAMA, SN","municipality":"Cintruénigo","province":"NAVARRA","postalCode":"31592","schedule":"L-S: 08:00-21:30","fuels":{"gasoline95":1.599,"gasoline98":1.759,"diesel":1.739,"dieselPremium":1.799},"extra":{"saleType":"P","margin":"D","reportingType":"dm","ideess":"15520","idMunicipio":"4679","idProvincia":"31","idCCAA":"15"}}},{"type":"Feature","geometry":{"type":"Point","coordinates":[-1.639611,42.789778]},"properties":{"id":"es-15566","source":"ES","brand":"MOEVE","address":"POLIGONO POLIGONO INDUSTRIAL CORDOVILLA-GALAR, PARCELA 382, S/N","municipality":"Galar","province":"NAVARRA","postalCode":"31191","schedule":"L-V: 07:00-21:00; S: 07:00-14:00","fuels":{"gasoline95":1.764,"gasoline95Premium":1.894,"diesel":1.889,"dieselPremium":1.989},"extra":{"saleType":"P","margin":"D","reportingType":"OM","ideess":"15566","idMunicipio":"4715","idProvincia":"31","idCCAA":"15"}}},{"type":"Feature","geometry":{"type":"Point","coordinates":[-1.622472,42.061194]},"properties":{"id":"es-15746","source":"ES","brand":"PLENERGY","address":"CARRETERA CORELLA KM. S/N","municipality":"Tudela","province":"NAVARRA","postalCode":"31500","schedule":"L-D: 24H","fuels":{"gasoline95":1.525,"diesel":1.685},"extra":{"saleType":"P","margin":"D","reportingType":"dm","ideess":"15746","idMunicipio":"4840","idProvincia":"31","idCCAA":"15"}}},{"type":"Feature","geometry":{"type":"Point","coordinates":[-1.616389,42.7255]},"properties":{"id":"es-15781","source":"ES","brand":"TRANSPORTES AZPIROZ","address":"CALLE OLITE  - CIUDAD DEL TRANSPORTE, 28","municipality":"Noáin (Valle de Elorz)/Noain (Elortzibar)","province":"NAVARRA","postalCode":"31470","schedule":"L-D: 06:00-22:00","fuels":{"diesel":1.915},"extra":{"saleType":"P","margin":"N","reportingType":"dm","ideess":"15781","idMunicipio":"4792","idProvincia":"31","idCCAA":"15"}}},{"type":"Feature","geometry":{"type":"Point","coordinates":[-1.591278,42.042972]},"properties":{"id":"es-15811","source":"ES","brand":"GM OIL","address":"CARRER CANAL DE LODOSA, S/N","municipality":"Tudela","province":"NAVARRA","postalCode":"31500","schedule":"L-D: 24H","fuels":{"gasoline95":1.479,"diesel":1.639},"extra":{"saleType":"P","margin":"D","reportingType":"dm","ideess":"15811","idMunicipio":"4840","idProvincia":"31","idCCAA":"15"}}},{"type":"Feature","geometry":{"type":"Point","coordinates":[-1.589083,42.039139]},"properties":{"id":"es-15961","source":"ES","brand":"BONAREA","address":"CALLE CANAL DE MAÑERU, 332","municipality":"Tudela","province":"NAVARRA","postalCode":"31500","schedule":"L-D: 24H","fuels":{"gasoline95":1.497,"diesel":1.667,"adblue":0.499},"extra":{"saleType":"P","margin":"N","reportingType":"dm","ideess":"15961","idMunicipio":"4840","idProvincia":"31","idCCAA":"15"}}},{"type":"Feature","geometry":{"type":"Point","coordinates":[-1.580222,42.023583]},"properties":{"id":"es-15989","source":"ES","brand":"PLENERGY","address":"AUTOVIA A-68 KM. 99","municipality":"Fontellas","province":"NAVARRA","postalCode":"31512","schedule":"L-D: 24H","fuels":{"gasoline95":1.555,"diesel":1.687,"adblue":0.527},"extra":{"saleType":"P","margin":"D","reportingType":"dm","ideess":"15989","idMunicipio":"4712","idProvincia":"31","idCCAA":"15"}}},{"type":"Feature","geometry":{"type":"Point","coordinates":[-1.744056,42.171472]},"properties":{"id":"es-16013","source":"ES","brand":"PLENERGY","address":"AVENIDA DE ZARAGOZA, 97","municipality":"Alfaro","province":"RIOJA (LA)","postalCode":"26540","schedule":"L-D: 24H","fuels":{"gasoline95":1.585,"diesel":1.729},"extra":{"saleType":"P","margin":"D","reportingType":"dm","ideess":"16013","idMunicipio":"4045","idProvincia":"26","idCCAA":"17"}}},{"type":"Feature","geometry":{"type":"Point","coordinates":[-1.620389,42.831222]},"properties":{"id":"es-16160","source":"ES","brand":"PLENERGY","address":"POLIGONO MUGAZURI, 3","municipality":"Burlada/Burlata","province":"NAVARRA","postalCode":"31600","schedule":"L-D: 24H","fuels":{"gasoline95":1.589,"diesel":1.689},"extra":{"saleType":"P","margin":"D","reportingType":"dm","ideess":"16160","idMunicipio":"4666","idProvincia":"31","idCCAA":"15"}}},{"type":"Feature","geometry":{"type":"Point","coordinates":[-1.855278,42.229889]},"properties":{"id":"es-16176","source":"ES","brand":"BEROIL","address":"CARRETERA ARNEDO KM. 40","municipality":"Rincón de Soto","province":"RIOJA (LA)","postalCode":"26550","schedule":"L-D: 00:00-23:59","fuels":{"gasoline95":1.569,"diesel":1.669,"dieselB":1.399,"adblue":0.6},"extra":{"saleType":"P","margin":"D","reportingType":"dm","ideess":"16176","idMunicipio":"4155","idProvincia":"26","idCCAA":"17"}}},{"type":"Feature","geometry":{"type":"Point","coordinates":[-1.594472,42.047111]},"properties":{"id":"es-16323","source":"ES","brand":"PLENERGY","address":"AVENIDA ZARAGOZA, S/N","municipality":"Tudela","province":"NAVARRA","postalCode":"31500","schedule":"L-D: 24H","fuels":{"gasoline95":1.495,"diesel":1.665},"extra":{"saleType":"P","margin":"D","reportingType":"dm","ideess":"16323","idMunicipio":"4840","idProvincia":"31","idCCAA":"15"}}},{"type":"Feature","geometry":{"type":"Point","coordinates":[-1.6985,42.135056]},"properties":{"id":"es-16339","source":"ES","brand":"HAM","address":"CARRETERA N-232 KM. 83","municipality":"Castejón","province":"NAVARRA","postalCode":"31590","schedule":"L-D: 24H","fuels":{"lng":1.599,"bioLng":1.569},"extra":{"saleType":"P","margin":"D","reportingType":"dm","ideess":"16339","idMunicipio":"4676","idProvincia":"31","idCCAA":"15"}}},{"type":"Feature","geometry":{"type":"Point","coordinates":[-1.686583,42.792833]},"properties":{"id":"es-16423","source":"ES","brand":"REPSOL","address":"AVENIDA ESTELLA, 9","municipality":"Zizur Mayor/Zizur Nagusia","province":"NAVARRA","postalCode":"31180","schedule":"L: 06:00-22:00","fuels":{"gasoline95":1.799,"gasoline98":1.919,"diesel":1.959,"dieselPremium":2.019},"extra":{"saleType":"P","margin":"D","reportingType":"OM","ideess":"16423","idMunicipio":"4868","idProvincia":"31","idCCAA":"15"}}},{"type":"Feature","geometry":{"type":"Point","coordinates":[-1.707139,42.778278]},"properties":{"id":"es-16479","source":"ES","brand":"BALLENOIL","address":"AUTOVIA A-12 KM. 7,3","municipality":"Cizur","province":"NAVARRA","postalCode":"31190","schedule":"L-D: 24H","fuels":{"gasoline95":1.589,"gasoline95Premium":1.599,"diesel":1.719,"dieselPremium":1.729},"extra":{"saleType":"P","margin":"I","reportingType":"OM","ideess":"16479","idMunicipio":"4682","idProvincia":"31","idCCAA":"15"}}},{"type":"Feature","geometry":{"type":"Point","coordinates":[-1.130389,42.127861]},"properties":{"id":"es-1973","source":"ES","brand":"REPSOL","address":"PASEO DE LA CONSTITUCION, S.N.","municipality":"Ejea de los Caballeros","province":"ZARAGOZA","postalCode":"50600","schedule":"L-D: 06:00-22:00","fuels":{"gasoline95":1.819,"gasoline98":1.969,"diesel":1.955,"dieselRenewable":2.075},"extra":{"saleType":"P","margin":"D","reportingType":"OM","ideess":"1973","idMunicipio":"7911","idProvincia":"50","idCCAA":"02"}}},{"type":"Feature","geometry":{"type":"Point","coordinates":[-1.915306,42.262861]},"properties":{"id":"es-2360","source":"ES","brand":"REPSOL","address":"CARRETERA N-232 KM. 353,700","municipality":"Calahorra","province":"RIOJA (LA)","postalCode":"26500","schedule":"L-V: 08:00-20:00","fuels":{"gasoline95":1.748,"diesel":1.888,"dieselRenewable":1.998,"adblue":1.145},"extra":{"saleType":"P","margin":"D","reportingType":"dm","ideess":"2360","idMunicipio":"4070","idProvincia":"26","idCCAA":"17"}}},{"type":"Feature","geometry":{"type":"Point","coordinates":[-1.9175,42.263389]},"properties":{"id":"es-2361","source":"ES","brand":"REPSOL","address":"CARRETERA N-232 KM.353.700 KM. 353,700","municipality":"Calahorra","province":"RIOJA (LA)","postalCode":"26500","schedule":"L-D: 24H","fuels":{"gasoline95":1.748,"diesel":1.888,"dieselRenewable":1.998,"adblue":1.145},"extra":{"saleType":"P","margin":"I","reportingType":"dm","ideess":"2361","idMunicipio":"4070","idProvincia":"26","idCCAA":"17"}}},{"type":"Feature","geometry":{"type":"Point","coordinates":[-1.756417,42.1785]},"properties":{"id":"es-2370","source":"ES","brand":"REPSOL SA","address":"AVENIDA AVDA. ZARAGOZA, 15","municipality":"Alfaro","province":"RIOJA (LA)","postalCode":"26540","schedule":"V: 08:00-15:00","fuels":{"gasoline95":1.769,"gasoline98":1.939,"diesel":1.909,"dieselRenewable":2.029},"extra":{"saleType":"P","margin":"D","reportingType":"OM","ideess":"2370","idMunicipio":"4045","idProvincia":"26","idCCAA":"17"}}},{"type":"Feature","geometry":{"type":"Point","coordinates":[-1.974583,42.302694]},"properties":{"id":"es-2371","source":"ES","brand":"CAMPSA","address":"CL AVENIDA NUMANCIA, S.N.","municipality":"Calahorra","province":"RIOJA (LA)","postalCode":"26500","schedule":"L-V: 08:00-20:00; S: 08:00-15:00","fuels":{"gasoline95":1.765,"diesel":1.925,"dieselRenewable":2.045},"extra":{"saleType":"P","margin":"D","reportingType":"OM","ideess":"2371","idMunicipio":"4070","idProvincia":"26","idCCAA":"17"}}},{"type":"Feature","geometry":{"type":"Point","coordinates":[-1.971111,42.292028]},"properties":{"id":"es-2377","source":"ES","brand":"PETRONOR","address":"AUTOPISTA AP-68 KM. 176,9","municipality":"Calahorra","province":"RIOJA (LA)","postalCode":"26500","schedule":"L-D: 07:00-23:00","fuels":{"gasoline95":1.775,"gasoline95Premium":1.855,"gasoline98":1.895,"diesel":1.919,"dieselRenewable":2.039},"extra":{"saleType":"P","margin":"D","reportingType":"OM","ideess":"2377","idMunicipio":"4070","idProvincia":"26","idCCAA":"17"}}},{"type":"Feature","geometry":{"type":"Point","coordinates":[-1.969667,42.292583]},"properties":{"id":"es-2378","source":"ES","brand":"PETRONOR","address":"AUTOPISTA AP-68 KM. 176,9","municipality":"Calahorra","province":"RIOJA (LA)","postalCode":"26500","schedule":"L-D: 07:00-23:00","fuels":{"gasoline95":1.775,"gasoline95Premium":1.855,"gasoline98":1.895,"diesel":1.919,"dieselPremium":1.999},"extra":{"saleType":"P","margin":"I","reportingType":"OM","ideess":"2378","idMunicipio":"4070","idProvincia":"26","idCCAA":"17"}}},{"type":"Feature","geometry":{"type":"Point","coordinates":[-1.762083,42.182778]},"properties":{"id":"es-2391","source":"ES","brand":"REPSOL SA","address":"CARRETERA CTRA. NACIONAL N-232 KM.337,80 KM. 337,80","municipality":"Alfaro","province":"RIOJA (LA)","postalCode":"26540","schedule":"L-D: 06:00-22:00","fuels":{"gasoline95":1.769,"gasoline98":1.939,"diesel":1.909,"dieselB":1.72,"dieselRenewable":2.029},"extra":{"saleType":"P","margin":"I","reportingType":"OM","ideess":"2391","idMunicipio":"4045","idProvincia":"26","idCCAA":"17"}}},{"type":"Feature","geometry":{"type":"Point","coordinates":[-1.990472,42.213722]},"properties":{"id":"es-2393","source":"ES","brand":"REPSOL","address":"CR LR-115, 35,4","municipality":"Autol","province":"RIOJA (LA)","postalCode":"26560","schedule":"L-V: 07:00-21:00; S: 08:00-14:00 y 16:30-20:30","fuels":{"gasoline95":1.739,"diesel":1.899,"dieselPremium":2.009,"dieselB":1.724},"extra":{"saleType":"P","margin":"D","reportingType":"OM","ideess":"2393","idMunicipio":"4055","idProvincia":"26","idCCAA":"17"}}},{"type":"Feature","geometry":{"type":"Point","coordinates":[-1.946889,42.017139]},"properties":{"id":"es-2396","source":"ES","brand":"REPSOL","address":"CARRETERA LR-123 KM. 11","municipality":"Cervera del Río Alhama","province":"RIOJA (LA)","postalCode":"26520","schedule":"L-S: 08:00-15:00 y 16:00-20:00","fuels":{"gasoline95":1.759,"diesel":1.909,"dieselRenewable":2.029},"extra":{"saleType":"P","margin":"D","reportingType":"OM","ideess":"2396","idMunicipio":"4081","idProvincia":"26","idCCAA":"17"}}},{"type":"Feature","geometry":{"type":"Point","coordinates":[-1.971194,42.306556]},"properties":{"id":"es-2407","source":"ES","brand":"AVIA","address":"CALLE BEBRICIO, 71","municipality":"Calahorra","province":"RIOJA (LA)","postalCode":"26500","schedule":"L-D: 06:00-22:00","fuels":{"gasoline95":1.755,"gasoline98":1.865,"diesel":1.869,"dieselPremium":1.949,"adblue":1.5},"extra":{"saleType":"P","margin":"D","reportingType":"dm","ideess":"2407","idMunicipio":"4070","idProvincia":"26","idCCAA":"17"}}},{"type":"Feature","geometry":{"type":"Point","coordinates":[-1.953694,42.31225]},"properties":{"id":"es-4298","source":"ES","brand":"ADELFAS OIL","address":"CARRETERA SAN ADRIAN S/N KM. ","municipality":"Calahorra","province":"RIOJA (LA)","postalCode":"26500","schedule":"L-V: 06:00-22:00; S: 07:00-22:00; D: 08:00-22:00","fuels":{"gasoline95":1.709,"gasoline98":1.871,"diesel":1.848,"dieselPremium":1.948,"dieselB":1.599,"adblue":0.799},"extra":{"saleType":"P","margin":"D","reportingType":"dm","ideess":"4298","idMunicipio":"4070","idProvincia":"26","idCCAA":"17"}}},{"type":"Feature","geometry":{"type":"Point","coordinates":[-1.98125,42.312583]},"properties":{"id":"es-4304","source":"ES","brand":"EROSKI","address":"CARRETERA CTRA. LOGROÑO KM. S/N","municipality":"Calahorra","province":"RIOJA (LA)","postalCode":"26500","schedule":"L-D: 24H","fuels":{"gasoline95":1.659,"diesel":1.739,"dieselPremium":1.799},"extra":{"saleType":"P","margin":"N","reportingType":"dm","ideess":"4304","idMunicipio":"4070","idProvincia":"26","idCCAA":"17"}}},{"type":"Feature","geometry":{"type":"Point","coordinates":[-1.956722,42.049917]},"properties":{"id":"es-4308","source":"ES","brand":"E.S. RIO LINARES","address":"CARRETERA LR-283 KM. 14,2","municipality":"Cervera del Río Alhama","province":"RIOJA (LA)","postalCode":"26527","schedule":"L-S: 07:00-21:00","fuels":{"gasoline95":1.738,"diesel":1.828,"dieselPremium":1.858,"dieselB":1.328},"extra":{"saleType":"P","margin":"I","reportingType":"dm","ideess":"4308","idMunicipio":"4081","idProvincia":"26","idCCAA":"17"}}},{"type":"Feature","geometry":{"type":"Point","coordinates":[-1.634278,42.785194]},"properties":{"id":"es-7961","source":"ES","brand":"E.LECLERC","address":"BARRIO LA MOREA, ","municipality":"Galar","province":"NAVARRA","postalCode":"31191","schedule":"L-D: 24H","fuels":{"gasoline95":1.589,"diesel":1.699,"dieselPremium":1.729},"extra":{"saleType":"P","margin":"N","reportingType":"dm","ideess":"7961","idMunicipio":"4715","idProvincia":"31","idCCAA":"15"}}},{"type":"Feature","geometry":{"type":"Point","coordinates":[-1.815611,42.670611]},"properties":{"id":"es-8192","source":"ES","brand":"REPSOL","address":"PASEO DE LOS FUEROS, S/Nº (NACIONAL III km 24)","municipality":"Puente la Reina/Gares","province":"NAVARRA","postalCode":"31100","schedule":"L-D: 06:00-22:00","fuels":{"gasoline95":1.815,"diesel":1.965,"dieselPremium":2.035},"extra":{"saleType":"P","margin":"I","reportingType":"OM","ideess":"8192","idMunicipio":"4817","idProvincia":"31","idCCAA":"15"}}},{"type":"Feature","geometry":{"type":"Point","coordinates":[-1.684194,42.792917]},"properties":{"id":"es-8201","source":"ES","brand":"REPSOL","address":"AVENIDA ESTELLA, 9","municipality":"Zizur Mayor/Zizur Nagusia","province":"NAVARRA","postalCode":"31180","schedule":"L-D: 24H","fuels":{"gasoline95":1.799,"gasoline98":1.919,"diesel":1.959,"dieselPremium":2.019},"extra":{"saleType":"P","margin":"I","reportingType":"OM","ideess":"8201","idMunicipio":"4868","idProvincia":"31","idCCAA":"15"}}},{"type":"Feature","geometry":{"type":"Point","coordinates":[-1.769944,42.244139]},"properties":{"id":"es-8205","source":"ES","brand":"AVIA","address":"NAVAS DE TOLOSA, 78 (VALTIERRA-SAN ADRIAN-NA-134 km 12,64)","municipality":"Milagro","province":"NAVARRA","postalCode":"31320","schedule":"L-S: 07:00-21:00; D: 08:00-14:00","fuels":{"gasoline95":1.679,"diesel":1.849,"dieselB":1.519},"extra":{"saleType":"P","margin":"D","reportingType":"dm","ideess":"8205","idMunicipio":"4778","idProvincia":"31","idCCAA":"15"}}},{"type":"Feature","geometry":{"type":"Point","coordinates":[-1.681833,42.842889]},"properties":{"id":"es-8295","source":"ES","brand":"GALP","address":"CALLE MARIA VISCARRET - NUEVO ARTICA, 39","municipality":"Berrioplano","province":"NAVARRA","postalCode":"31195","schedule":"L-D: 08:00-22:00","fuels":{"gasoline95":1.709,"gasoline98":1.864,"diesel":1.848,"dieselPremium":1.948},"extra":{"saleType":"P","margin":"N","reportingType":"dm","ideess":"8295","idMunicipio":"4658","idProvincia":"31","idCCAA":"15"}}},{"type":"Feature","geometry":{"type":"Point","coordinates":[-1.651222,42.831583]},"properties":{"id":"es-8296","source":"ES","brand":"GALP","address":"CALLE ARTICA ESQ  C/ANSOAIN, SN","municipality":"Berrioplano","province":"NAVARRA","postalCode":"31013","schedule":"L-D: 08:00-22:00","fuels":{"gasoline95":1.709,"gasoline98":1.871,"diesel":1.848,"dieselPremium":1.948},"extra":{"saleType":"P","margin":"D","reportingType":"dm","ideess":"8296","idMunicipio":"4658","idProvincia":"31","idCCAA":"15"}}},{"type":"Feature","geometry":{"type":"Point","coordinates":[-1.688917,42.82625]},"properties":{"id":"es-8312","source":"ES","brand":"AGIP","address":"CALLE A, 24","municipality":"Orcoyen","province":"NAVARRA","postalCode":"31160","schedule":"L-D: 06:00-22:00","fuels":{"gasoline95Premium":1.599,"dieselPremium":1.699,"dieselB":1.319,"adblue":1.0},"extra":{"saleType":"P","margin":"D","reportingType":"dm","ideess":"8312","idMunicipio":"4807","idProvincia":"31","idCCAA":"15"}}},{"type":"Feature","geometry":{"type":"Point","coordinates":[-1.611611,42.800611]},"properties":{"id":"es-8487","source":"ES","brand":"REPSOL","address":"CARRETERA N-32 KM. 5,2","municipality":"Aranguren","province":"NAVARRA","postalCode":"31192","schedule":"L-V: 06:00-22:00; S-D: 07:00-22:00","fuels":{"gasoline95":1.809,"gasoline98":1.979,"diesel":1.909,"dieselPremium":1.989,"adblue":1.109},"extra":{"saleType":"P","margin":"D","reportingType":"dm","ideess":"8487","idMunicipio":"4622","idProvincia":"31","idCCAA":"15"}}},{"type":"Feature","geometry":{"type":"Point","coordinates":[-1.612667,42.80175]},"properties":{"id":"es-8488","source":"ES","brand":"REPSOL","address":"CARRETERA N-32 KM. 5,2","municipality":"Aranguren","province":"NAVARRA","postalCode":"31192","schedule":"L-D: 06:00-22:00","fuels":{"gasoline95":1.809,"gasoline98":1.979,"diesel":1.909,"dieselPremium":1.989,"adblue":1.109},"extra":{"saleType":"P","margin":"I","reportingType":"dm","ideess":"8488","idMunicipio":"4622","idProvincia":"31","idCCAA":"15"}}},{"type":"Feature","geometry":{"type":"Point","coordinates":[-1.634611,42.717972]},"properties":{"id":"es-9063","source":"ES","brand":"E.S. TIEBAS","address":"NA121;CTRA FRANCIA km 11,3","municipality":"Tiebas-Muruarte de Reta","province":"NAVARRA","postalCode":"31398","schedule":"L-D: 24H","fuels":{"gasoline95":1.689,"diesel":1.719,"biodiesel":1.99,"adblue":0.899},"extra":{"saleType":"P","margin":"D","reportingType":"dm","ideess":"9063","idMunicipio":"4836","idProvincia":"31","idCCAA":"15"}}},{"type":"Feature","geometry":{"type":"Point","coordinates":[-1.633556,42.717694]},"properties":{"id":"es-9064","source":"ES","brand":"TIEBAS","address":"NA121;CTRA FRANCIA km 11,3","municipality":"Tiebas-Muruarte de Reta","province":"NAVARRA","postalCode":"31398","schedule":"L-D: 24H","fuels":{"gasoline95":1.689,"diesel":1.719,"biodiesel":1.99,"adblue":0.899},"extra":{"saleType":"P","margin":"I","reportingType":"dm","ideess":"9064","idMunicipio":"4836","idProvincia":"31","idCCAA":"15"}}},{"type":"Feature","geometry":{"type":"Point","coordinates":[-1.292778,42.278611]},"properties":{"id":"es-9095","source":"ES","brand":"COOPERATIVA SAN JOSE","address":"CARRETERA DE PINSORO KM. 1","municipality":"Sádaba","province":"ZARAGOZA","postalCode":"50670","schedule":"L-D: 24H","fuels":{"gasoline95":1.6,"diesel":1.75,"dieselB":1.3,"adblue":0.73},"extra":{"saleType":"P","margin":"I","reportingType":"dm","ideess":"9095","idMunicipio":"8041","idProvincia":"50","idCCAA":"02"}}},{"type":"Feature","geometry":{"type":"Point","coordinates":[-1.943806,42.289472]},"properties":{"id":"es-9113","source":"ES","brand":"COMBUSTIBLES CALAHORRA S.L.","address":"POLIGONO TEJERIAS NORTE PARCELA 9-10 C","municipality":"Calahorra","province":"RIOJA (LA)","postalCode":"26500","schedule":"L-V: 07:00-20:30","fuels":{"gasoline95":1.659,"diesel":1.739,"adblue":0.725},"extra":{"saleType":"P","margin":"N","reportingType":"dm","ideess":"9113","idMunicipio":"4070","idProvincia":"26","idCCAA":"17"}}},{"type":"Feature","geometry":{"type":"Point","coordinates":[-1.646556,42.036083]},"properties":{"id":"es-9126","source":"ES","brand":"E.S. MURCHANTE  AVIA","address":"C/MAYOR, S/N","municipality":"Murchante","province":"NAVARRA","postalCode":"31521","schedule":"L-D: 24H","fuels":{"gasoline95":1.729,"diesel":1.769,"dieselPremium":1.809,"dieselB":1.439},"extra":{"saleType":"P","margin":"D","reportingType":"dm","ideess":"9126","idMunicipio":"4785","idProvincia":"31","idCCAA":"15"}}},{"type":"Feature","geometry":{"type":"Point","coordinates":[-1.700306,42.135028]},"properties":{"id":"es-9152","source":"ES","brand":"BEROIL","address":"CARRETERA N-232 KM. 83,7","municipality":"Castejón","province":"NAVARRA","postalCode":"31590","schedule":"L-D: 24H","fuels":{"gasoline95":1.629,"diesel":1.729,"dieselB":1.399,"adblue":0.6},"extra":{"saleType":"P","margin":"N","reportingType":"dm","ideess":"9152","idMunicipio":"4676","idProvincia":"31","idCCAA":"15"}}},{"type":"Feature","geometry":{"type":"Point","coordinates":[-1.611111,42.725194]},"properties":{"id":"es-9153","source":"ES","brand":"URAL ENERGY","address":"OLITE S/N (CIUDAD DEL TRANSPORTE DE PAMPLONA)","municipality":"Noáin (Valle de Elorz)/Noain (Elortzibar)","province":"NAVARRA","postalCode":"31119","schedule":"L-D: 24H","fuels":{"gasoline95":1.639,"diesel":1.749,"adblue":0.9},"extra":{"saleType":"P","margin":"N","reportingType":"dm","ideess":"9153","idMunicipio":"4792","idProvincia":"31","idCCAA":"15"}}},{"type":"Feature","geometry":{"type":"Point","coordinates":[-1.624917,42.770083]},"properties":{"id":"es-9229","source":"ES","brand":"AN ENERGÉTICOS - TAJONAR","address":"CAMPA CAMPO DE TAJONAR, S/N","municipality":"Aranguren","province":"NAVARRA","postalCode":"31192","schedule":"L-D: 24H","fuels":{"gasoline95":1.599,"diesel":1.769,"adblue":0.705},"extra":{"saleType":"P","margin":"N","reportingType":"dm","ideess":"9229","idMunicipio":"4622","idProvincia":"31","idCCAA":"15"}}},{"type":"Feature","geometry":{"type":"Point","coordinates":[-1.661194,42.761083]},"properties":{"id":"es-9230","source":"ES","brand":"GASOLEOS MERCADAIZ","address":"PARAJE SAN BABIL 1, BAJO","municipality":"Galar","province":"NAVARRA","postalCode":"31191","schedule":"L-D: 24H","fuels":{"diesel":1.71,"adblue":0.66},"extra":{"saleType":"P","margin":"N","reportingType":"dm","ideess":"9230","idMunicipio":"4715","idProvincia":"31","idCCAA":"15"}}},{"type":"Feature","geometry":{"type":"Point","coordinates":[-1.837889,42.522889]},"properties":{"id":"es-9352","source":"ES","brand":"ENERGETICOS BERBINZANA","address":"CTRA. LERIN S/N","municipality":"Berbinzana","province":"NAVARRA","postalCode":"31252","schedule":"L-D: 24H","fuels":{"diesel":1.769,"dieselB":1.435,"adblue":0.705},"extra":{"saleType":"P","margin":"N","reportingType":"dm","ideess":"9352","idMunicipio":"4656","idProvincia":"31","idCCAA":"15"}}},{"type":"Feature","geometry":{"type":"Point","coordinates":[-1.588306,42.171361]},"properties":{"id":"es-9353","source":"ES","brand":"S.COOP. SAN ESTEBAN","address":"CAMINO BARDENAS REALES, S/N","municipality":"Arguedas","province":"NAVARRA","postalCode":"31513","schedule":"L-D: 24H","fuels":{"dieselB":1.381},"extra":{"saleType":"P","margin":"D","reportingType":"dm","ideess":"9353","idMunicipio":"4631","idProvincia":"31","idCCAA":"15"}}},{"type":"Feature","geometry":{"type":"Point","coordinates":[-1.644417,42.60225]},"properties":{"id":"es-9376","source":"ES","brand":"TALLERES ARRUBLA","address":"CTRA. SOLCHAGA, S/N","municipality":"Barásoain","province":"NAVARRA","postalCode":"31395","schedule":"L-S: 08:00-22:00","fuels":{"gasoline95":1.598,"diesel":1.718,"dieselPremium":1.718},"extra":{"saleType":"P","margin":"N","reportingType":"dm","ideess":"9376","idMunicipio":"4646","idProvincia":"31","idCCAA":"15"}}},{"type":"Feature","geometry":{"type":"Point","coordinates":[-1.488639,42.0235]},"properties":{"id":"es-9437","source":"ES","brand":"AN ENERGETICOS S.L. - FUSTIÑANA","address":"CALLE PABLO SARASATE, 52","municipality":"Fustiñana","province":"NAVARRA","postalCode":"31510","schedule":"L-D: 24H","fuels":{"diesel":1.769,"dieselB":1.449,"adblue":0.705},"extra":{"saleType":"P","margin":"D","reportingType":"dm","ideess":"9437","idMunicipio":"4714","idProvincia":"31","idCCAA":"15"}}},{"type":"Feature","geometry":{"type":"Point","coordinates":[-1.795139,42.308472]},"properties":{"id":"es-9439","source":"ES","brand":"AN ENERGETICOS - FUNES","address":"POLIGONO SARDILLA, S/N","municipality":"Funes","province":"NAVARRA","postalCode":"31360","schedule":"L-D: 24H","fuels":{"gasoline95":1.559,"diesel":1.699,"dieselB":1.325,"adblue":0.705},"extra":{"saleType":"P","margin":"N","reportingType":"dm","ideess":"9439","idMunicipio":"4713","idProvincia":"31","idCCAA":"15"}}},{"type":"Feature","geometry":{"type":"Point","coordinates":[-1.275722,42.573889]},"properties":{"id":"es-9446","source":"ES","brand":"AN ENERGETICOS - SANGUESA","address":"CARRETERA JAVIER KM. S/N","municipality":"Sangüesa/Zangoza","province":"NAVARRA","postalCode":"31400","schedule":"L-D: 24H","fuels":{"gasoline95":1.599,"diesel":1.769,"dieselB":1.435,"adblue":0.705},"extra":{"saleType":"P","margin":"N","reportingType":"dm","ideess":"9446","idMunicipio":"4827","idProvincia":"31","idCCAA":"15"}}},{"type":"Feature","geometry":{"type":"Point","coordinates":[-1.297639,42.658778]},"properties":{"id":"es-9450","source":"ES","brand":"AN ENERGETICOS - LUMBIER","address":"AVDA DIPUTACION FORAL S/N","municipality":"Lumbier","province":"NAVARRA","postalCode":"31440","schedule":"L-D: 24H","fuels":{"gasoline95":1.599,"diesel":1.769,"dieselB":1.435,"adblue":0.705},"extra":{"saleType":"P","margin":"D","reportingType":"dm","ideess":"9450","idMunicipio":"4767","idProvincia":"31","idCCAA":"15"}}},{"type":"Feature","geometry":{"type":"Point","coordinates":[-1.685056,42.522861]},"properties":{"id":"es-9458","source":"ES","brand":"AN ENERGETICOS - TAFALLA","address":"CAMINO MIRANDA S/N","municipality":"Tafalla","province":"NAVARRA","postalCode":"31300","schedule":"L-D: 24H","fuels":{"gasoline95":1.599,"diesel":1.769,"dieselB":1.435,"adblue":0.705},"extra":{"saleType":"P","margin":"N","reportingType":"dm","ideess":"9458","idMunicipio":"4835","idProvincia":"31","idCCAA":"15"}}},{"type":"Feature","geometry":{"type":"Point","coordinates":[-1.443222,42.373833]},"properties":{"id":"es-9468","source":"ES","brand":"AN ENERGETICOS - CARCASTILLO","address":"AVENIDA ARAGON 50","municipality":"Carcastillo","province":"NAVARRA","postalCode":"31310","schedule":"L-D: 24H","fuels":{"gasoline95":1.599,"diesel":1.769,"dieselB":1.435,"adblue":0.705},"extra":{"saleType":"P","margin":"N","reportingType":"dm","ideess":"9468","idMunicipio":"4673","idProvincia":"31","idCCAA":"15"}}},{"type":"Feature","geometry":{"type":"Point","coordinates":[-1.891972,42.226917]},"properties":{"id":"es-9489","source":"ES","brand":"A.N. ENERGETICOS - ALDEANUEVA","address":"AVENIDA AVENIDA GONZALO BERCEO, 88","municipality":"Aldeanueva de Ebro","province":"RIOJA (LA)","postalCode":"26559","schedule":"L-D: 24H","fuels":{"gasoline95":1.599,"diesel":1.769,"dieselB":1.439},"extra":{"saleType":"P","margin":"N","reportingType":"dm","ideess":"9489","idMunicipio":"4042","idProvincia":"26","idCCAA":"17"}}},{"type":"Feature","geometry":{"type":"Point","coordinates":[-1.640944,42.059194]},"properties":{"id":"es-9500","source":"ES","brand":"AN ENERGETICOS S.L. - TUDELA 1","address":"CARRETERA CORELLA KM. 3,5","municipality":"Tudela","province":"NAVARRA","postalCode":"31500","schedule":"L-D: 24H","fuels":{"gasoline95":1.599,"diesel":1.769,"dieselB":1.449,"adblue":0.705},"extra":{"saleType":"P","margin":"D","reportingType":"dm","ideess":"9500","idMunicipio":"4840","idProvincia":"31","idCCAA":"15"}}},{"type":"Feature","geometry":{"type":"Point","coordinates":[-1.972917,42.459167]},"properties":{"id":"es-9522","source":"ES","brand":"AN ENERGETICOS - LERIN","address":"NA-122 km 24,5","municipality":"Lerín","province":"NAVARRA","postalCode":"31260","schedule":"L-D: 24H","fuels":{"diesel":1.74,"dieselB":1.245},"extra":{"saleType":"P","margin":"D","reportingType":"dm","ideess":"9522","idMunicipio":"4760","idProvincia":"31","idCCAA":"15"}}},{"type":"Feature","geometry":{"type":"Point","coordinates":[-1.364778,42.529306]},"properties":{"id":"es-9551","source":"ES","brand":"AN ENERGETICOS - CASEDA","address":"CTRA. GALLIPIENZO KM. 1","municipality":"Cáseda","province":"NAVARRA","postalCode":"31490","schedule":"L-D: 24H","fuels":{"gasoline95":1.599,"diesel":1.769,"dieselB":1.435,"adblue":0.705},"extra":{"saleType":"P","margin":"N","reportingType":"dm","ideess":"9551","idMunicipio":"4675","idProvincia":"31","idCCAA":"15"}}},{"type":"Feature","geometry":{"type":"Point","coordinates":[-1.809778,42.337694]},"properties":{"id":"es-9557","source":"ES","brand":"A.N. ENERGETICOS, S.L - PERALTA","address":"AVENIDA SAN SILVESTRE, S/N","municipality":"Peralta","province":"NAVARRA","postalCode":"31350","schedule":"L-D: 24H","fuels":{"gasoline95":1.593,"diesel":1.753,"dieselB":1.373,"adblue":0.705},"extra":{"saleType":"P","margin":"N","reportingType":"dm","ideess":"9557","idMunicipio":"4813","idProvincia":"31","idCCAA":"15"}}},{"type":"Feature","geometry":{"type":"Point","coordinates":[-1.842889,42.612833]},"properties":{"id":"es-9559","source":"ES","brand":"AN ENERGETICOS - MENDIGORRIA","address":"CTRA.LARRAGA km 2","municipality":"Mendigorría","province":"NAVARRA","postalCode":"31150","schedule":"L-D: 24H","fuels":{"diesel":1.726,"dieselB":1.448,"adblue":0.705},"extra":{"saleType":"P","margin":"I","reportingType":"dm","ideess":"9559","idMunicipio":"4776","idProvincia":"31","idCCAA":"15"}}},{"type":"Feature","geometry":{"type":"Point","coordinates":[-1.587944,42.171139]},"properties":{"id":"es-9573","source":"ES","brand":"AN ENERGETICOS - ARGUEDAS","address":"CAMINO BARDENAS REALES, S/N","municipality":"Arguedas","province":"NAVARRA","postalCode":"31513","schedule":"L-D: 24H","fuels":{"gasoline95":1.599,"diesel":1.769},"extra":{"saleType":"P","margin":"D","reportingType":"dm","ideess":"9573","idMunicipio":"4631","idProvincia":"31","idCCAA":"15"}}},{"type":"Feature","geometry":{"type":"Point","coordinates":[-1.95223,42.608083]},"properties":{"id":"es-9578","source":"ES","brand":"S. COOP. LITXARRA","address":"CAMINO DE LERIN. S/N","municipality":"Oteiza","province":"NAVARRA","postalCode":"31250","schedule":"L-D: 24H","fuels":{"dieselB":1.313},"extra":{"saleType":"P","margin":"D","reportingType":"dm","ideess":"9578","idMunicipio":"4811","idProvincia":"31","idCCAA":"15"}}},{"type":"Feature","geometry":{"type":"Point","coordinates":[-1.987972,42.732361]},"properties":{"id":"es-9591","source":"ES","brand":"AN ENERGETICOS - YERRI","address":"CARRETERA CARRETERA PAMPLONA KM. 37,5","municipality":"Yerri","province":"NAVARRA","postalCode":"31177","schedule":"L-D: 24H","fuels":{"diesel":1.689,"dieselB":1.329,"adblue":0.735},"extra":{"saleType":"P","margin":"D","reportingType":"dm","ideess":"9591","idMunicipio":"4857","idProvincia":"31","idCCAA":"15"}}},{"type":"Feature","geometry":{"type":"Point","coordinates":[-1.847667,42.562194]},"properties":{"id":"es-9636","source":"ES","brand":"AN ENERGETICOS - LARRAGA-ARTAJONA","address":"CALLE DEL PINAR, S/N","municipality":"Larraga","province":"NAVARRA","postalCode":"31251","schedule":"L-D: 24H","fuels":{"gasoline95":1.599,"diesel":1.769,"dieselB":1.415,"adblue":0.705},"extra":{"saleType":"P","margin":"N","reportingType":"dm","ideess":"9636","idMunicipio":"4749","idProvincia":"31","idCCAA":"15"}}},{"type":"Feature","geometry":{"type":"Point","coordinates":[-1.980917,42.213972]},"properties":{"id":"es-9647","source":"ES","brand":"AN ENERGETICOS","address":"CARRETERA RINCON SOTO,S/N","municipality":"Autol","province":"RIOJA (LA)","postalCode":"26560","schedule":"L-D: 24H","fuels":{"diesel":1.769,"dieselB":1.459},"extra":{"saleType":"P","margin":"N","reportingType":"dm","ideess":"9647","idMunicipio":"4055","idProvincia":"26","idCCAA":"17"}}},{"type":"Feature","geometry":{"type":"Point","coordinates":[-1.646167,42.338722]},"properties":{"id":"es-9653","source":"ES","brand":"AN ENERGETICOS - CAPARROSO","address":"CAMINO CAMINO DEL CEMENTERIO, S/N","municipality":"Caparroso","province":"NAVARRA","postalCode":"31380","schedule":"L-D: 24H","fuels":{"gasoline95":1.599,"diesel":1.769,"dieselB":1.435,"adblue":0.705},"extra":{"saleType":"P","margin":"N","reportingType":"dm","ideess":"9653","idMunicipio":"4671","idProvincia":"31","idCCAA":"15"}}}]}