{"type":"FeatureCollection","features":[{"type":"Feature","geometry":{"type":"Point","coordinates":[-2.518167,42.878556]},"properties":{"id":"es-100","source":"ES","brand":"REPSOL","address":"CARRETERA N-1 KM. 364,4","municipality":"Elburgo/Burgelu","province":"ARABA/ÁLAVA","postalCode":"01192","schedule":"L-D: 06:00-22:00","fuels":{"gasoline95":1.82,"diesel":1.96,"dieselPremium":2.03,"lpg":1.109},"extra":{"saleType":"P","margin":"D","reportingType":"OM","ideess":"100","idMunicipio":"16","idProvincia":"01","idCCAA":"16"}}},{"type":"Feature","geometry":{"type":"Point","coordinates":[-2.653139,42.864694]},"properties":{"id":"es-10163","source":"ES","brand":"SHELL","address":"CALLE PORTAL DE BERGARA, 2","municipality":"Vitoria-Gasteiz","province":"ARABA/ÁLAVA","postalCode":"01013","schedule":"L-D: 05:00-23:00","fuels":{"gasoline95":1.804,"gasoline98":1.944,"diesel":1.904,"dieselPremium":1.984},"extra":{"saleType":"P","margin":"N","reportingType":"OM","ideess":"10163","idMunicipio":"46","idProvincia":"01","idCCAA":"16"}}},{"type":"Feature","geometry":{"type":"Point","coordinates":[-2.194278,42.573972]},"properties":{"id":"es-10235","source":"ES","brand":"CAN S.L.","address":"CALLE JOAQUIN MARIA GASTON, 12","municipality":"Arcos (Los)","province":"NAVARRA","postalCode":"31210","schedule":"L-D: 24H","fuels":{"gasoline95":1.789,"diesel":1.689,"dieselB":1.459,"adblue":0.705},"extra":{"saleType":"P","margin":"N","reportingType":"dm","ideess":"10235","idMunicipio":"4628","idProvincia":"31","idCCAA":"15"}}},{"type":"Feature","geometry":{"type":"Point","coordinates":[-2.870083,42.966111]},"properties":{"id":"es-104","source":"ES","brand":"PETRONOR","address":"AU AP-68, 36","municipality":"Zuia","province":"ARABA/ÁLAVA","postalCode":"01139","schedule":"L-D: 06:00-23:00","fuels":{"gasoline95":1.806,"gasoline98":1.956,"diesel":1.94,"dieselRenewable":2.06,"lpg":1.109},"extra":{"saleType":"P","margin":"I","reportingType":"OM","ideess":"104","idMunicipio":"51","idProvincia":"01","idCCAA":"16"}}},{"type":"Feature","geometry":{"type":"Point","coordinates":[-2.873583,42.966472]},"properties":{"id":"es-105","source":"ES","brand":"REPSOL","address":"AU AP-68, 36","municipality":"Zuia","province":"ARABA/ÁLAVA","postalCode":"01139","schedule":"L-D: 06:00-23:00","fuels":{"gasoline95":1.806,"gasoline98":1.956,"diesel":1.94,"dieselRenewable":2.06},"extra":{"saleType":"P","margin":"D","reportingType":"OM","ideess":"105","idMunicipio":"51","idProvincia":"01","idCCAA":"16"}}},{"type":"Feature","geometry":{"type":"Point","coordinates":[-2.196944,42.878917]},"properties":{"id":"es-10525","source":"ES","brand":"VALCARCE","address":"BARRIO DE LA ESTACION S/N","municipality":"Olazti/Olazagutía","province":"NAVARRA","postalCode":"31809","schedule":"L-D: 24H","fuels":{"gasoline95":1.809,"diesel":1.939,"dieselB":1.609,"adblue":0.799},"extra":{"saleType":"P","margin":"D","reportingType":"dm","ideess":"10525","idMunicipio":"4799","idProvincia":"31","idCCAA":"15"}}},{"type":"Feature","geometry":{"type":"Point","coordinates":[-2.913306,42.743111]},"properties":{"id":"es-106","source":"ES","brand":"PETRONOR","address":"AU AP-68, 63  D","municipality":"Ribera Baja/Erribera Beitia","province":"ARABA/ÁLAVA","postalCode":"01213","schedule":"L-D: 24H","fuels":{"gasoline95":1.806,"gasoline95Premium":1.866,"gasoline98":1.956,"diesel":1.94,"dieselRenewable":2.06},"extra":{"saleType":"P","margin":"D","reportingType":"OM","ideess":"106","idMunicipio":"39","idProvincia":"01","idCCAA":"16"}}},{"type":"Feature","geometry":{"type":"Point","coordinates":[-2.913222,42.741361]},"properties":{"id":"es-107","source":"ES","brand":"PETRONOR","address":"AU AP-68, 63,5","municipality":"Ribera Baja/Erribera Beitia","province":"ARABA/ÁLAVA","postalCode":"01213","schedule":"L-D: 24H","fuels":{"gasoline95":1.806,"gasoline95Premium":1.866,"gasoline98":1.956,"diesel":1.94,"dieselRenewable":2.06},"extra":{"saleType":"P","margin":"I","reportingType":"OM","ideess":"107","idMunicipio":"39","idProvincia":"01","idCCAA":"16"}}},{"type":"Feature","geometry":{"type":"Point","coordinates":[-2.075944,42.899639]},"properties":{"id":"es-10741","source":"ES","brand":"ETXARRI OIL","address":"POLIGONO ZUMURDIÑETA, 15","municipality":"Etxarri-Aranatz","province":"NAVARRA","postalCode":"31820","schedule":"L-D: 24H","fuels":{"gasoline95":1.664,"diesel":1.764},"extra":{"saleType":"P","margin":"D","reportingType":"dm","ideess":"10741","idMunicipio":"4703","idProvincia":"31","idCCAA":"15"}}},{"type":"Feature","geometry":{"type":"Point","coordinates":[-2.236361,42.865028]},"properties":{"id":"es-10823","source":"ES","brand":"GALP","address":"CTRA. A-1 km 391","municipality":"Ziordia","province":"NAVARRA","postalCode":"31809","schedule":"L-D: 24H","fuels":{"gasoline95":1.779,"diesel":1.979,"dieselPremium":2.069,"dieselB":1.619,"cng":1.544,"lng":1.499,"adblue":0.799},"extra":{"saleType":"P","margin":"N","reportingType":"OM","ideess":"10823","idMunicipio":"4867","idProvincia":"31","idCCAA":"15"}}},{"type":"Feature","geometry":{"type":"Point","coordinates":[-2.320361,42.8635]},"properties":{"id":"es-11","source":"ES","brand":"ANDAMUR \"SAN ROMAN\"","address":"POLIGONO OKITURRI, S/N","municipality":"San Millán/Donemiliaga","province":"ARABA/ÁLAVA","postalCode":"01207","schedule":"L-D: 24H","fuels":{"gasoline95":1.748,"gasoline98":1.889,"diesel":1.859,"dieselB":1.769,"adblue":0.924},"extra":{"saleType":"P","margin":"D","reportingType":"dm","ideess":"11","idMunicipio":"42","idProvincia":"01","idCCAA":"16"}}},{"type":"Feature","geometry":{"type":"Point","coordinates":[-2.032528,42.664361]},"properties":{"id":"es-1101","source":"ES","brand":"AVIA","address":"CARLOS VII, 22","municipality":"Estella/Lizarra","province":"NAVARRA","postalCode":"31200","schedule":"L-D: 06:30-22:30","fuels":{"gasoline95":1.659,"diesel":1.719,"adblue":0.899},"extra":{"saleType":"P","margin":"D","reportingType":"dm","ideess":"1101","idMunicipio":"4699","idProvincia":"31","idCCAA":"15"}}},{"type":"Feature","geometry":{"type":"Point","coordinates":[-2.709972,42.852417]},"properties":{"id":"es-11010","source":"ES","brand":"MOEVE","address":"CALLE DUSSELDORF, 1","municipality":"Vitoria-Gasteiz","province":"ARABA/ÁLAVA","postalCode":"01010","schedule":"L-V: 06:00-23:00; S-D: 07:00-23:00","fuels":{"gasoline95":1.839,"gasoline98":1.959,"diesel":1.979,"dieselPremium":2.079,"lpg":1.129},"extra":{"saleType":"P","margin":"D","reportingType":"OM","ideess":"11010","idMunicipio":"46","idProvincia":"01","idCCAA":"16"}}},{"type":"Feature","geometry":{"type":"Point","coordinates":[-2.020806,42.665972]},"properties":{"id":"es-1103","source":"ES","brand":"AVIA","address":"AVENIDA PAMPLONA, 33","municipality":"Estella/Lizarra","province":"NAVARRA","postalCode":"31200","schedule":"L-D: 24H","fuels":{"gasoline95":1.62,"diesel":1.62},"extra":{"saleType":"P","margin":"D","reportingType":"dm","ideess":"1103","idMunicipio":"4699","idProvincia":"31","idCCAA":"15"}}},{"type":"Feature","geometry":{"type":"Point","coordinates":[-2.741917,42.845639]},"properties":{"id":"es-11090","source":"ES","brand":"GUGAS","address":"POLIGONO P.I. JUNDIZ - C/ LERMANDABIDE, 8","municipality":"Vitoria-Gasteiz","province":"ARABA/ÁLAVA","postalCode":"01015","schedule":"L-D: 24H","fuels":{"gasoline95":1.529,"diesel":1.649},"extra":{"saleType":"P","margin":"N","reportingType":"dm","ideess":"11090","idMunicipio":"46","idProvincia":"01","idCCAA":"16"}}},{"type":"Feature","geometry":{"type":"Point","coordinates":[-2.020167,42.665944]},"properties":{"id":"es-1110","source":"ES","brand":"AVIA","address":"AVENIDA PAMPLONA, 28","municipality":"Estella/Lizarra","province":"NAVARRA","postalCode":"31200","schedule":"L-D: 24H","fuels":{"gasoline95":1.639,"diesel":1.659},"extra":{"saleType":"P","margin":"I","reportingType":"dm","ideess":"1110","idMunicipio":"4699","idProvincia":"31","idCCAA":"15"}}},{"type":"Feature","geometry":{"type":"Point","coordinates":[-2.252397,42.666917]},"properties":{"id":"es-1113","source":"ES","brand":"AVIA","address":"CARRETERA NA-132-A km 19","municipality":"Mendaza","province":"NAVARRA","postalCode":"31282","schedule":"L-D: 24H","fuels":{"gasoline95":1.699,"diesel":1.74,"dieselPremium":1.74},"extra":{"saleType":"P","margin":"N","reportingType":"dm","ideess":"1113","idMunicipio":"4775","idProvincia":"31","idCCAA":"15"}}},{"type":"Feature","geometry":{"type":"Point","coordinates":[-2.191722,42.568333]},"properties":{"id":"es-1114","source":"ES","brand":"AVIA","address":" MALVASIA, 5","municipality":"Arcos (Los)","province":"NAVARRA","postalCode":"31210","schedule":"L-V: 07:00-22:00; S: 10:00-14:00 y 16:00-22:00","fuels":{"gasoline98":1.649,"diesel":1.539},"extra":{"saleType":"P","margin":"N","reportingType":"dm","ideess":"1114","idMunicipio":"4628","idProvincia":"31","idCCAA":"15"}}},{"type":"Feature","geometry":{"type":"Point","coordinates":[-2.022194,42.571139]},"properties":{"id":"es-1117","source":"ES","brand":"HNOS. FERNANDEZ URABAIN S.L.","address":"CARRETERA ESTELLA KM. 11,8","municipality":"Allo","province":"NAVARRA","postalCode":"31262","schedule":"L-D: 24H","fuels":{"gasoline95":1.659,"diesel":1.789,"dieselB":1.199,"adblue":0.769},"extra":{"saleType":"P","margin":"N","reportingType":"dm","ideess":"1117","idMunicipio":"4610","idProvincia":"31","idCCAA":"15"}}},{"type":"Feature","geometry":{"type":"Point","coordinates":[-2.035861,42.677889]},"properties":{"id":"es-11171","source":"ES","brand":"IGUZQUIZA Y ECHEVERRIA S.L.","address":"AVENIDA GUIPUZCOA, S/N","municipality":"Estella/Lizarra","province":"NAVARRA","postalCode":"31200","schedule":"L-D: 06:30-22:30","fuels":{"gasoline95":1.659,"diesel":1.719,"dieselB":1.429},"extra":{"saleType":"P","margin":"N","reportingType":"dm","ideess":"11171","idMunicipio":"4699","idProvincia":"31","idCCAA":"15"}}},{"type":"Feature","geometry":{"type":"Point","coordinates":[-2.016806,42.607389]},"properties":{"id":"es-1118","source":"ES","brand":"AVANZA OIL","address":"NA- 122 km 7","municipality":"Morentin","province":"NAVARRA","postalCode":"31264","schedule":"L-D: 24H","fuels":{"gasoline95":1.669,"diesel":1.759,"dieselPremium":1.779,"adblue":0.849},"extra":{"saleType":"P","margin":"N","reportingType":"dm","ideess":"1118","idMunicipio":"4783","idProvincia":"31","idCCAA":"15"}}},{"type":"Feature","geometry":{"type":"Point","coordinates":[-2.183833,42.9155]},"properties":{"id":"es-1125","source":"ES","brand":"IDS","address":"CARRETERA N-I KM. 398","municipality":"Altsasu/Alsasua","province":"NAVARRA","postalCode":"31800","schedule":"L-D: 24H","fuels":{"diesel":1.942,"dieselB":1.673,"dieselRenewable":2.417,"adblue":1.105},"extra":{"saleType":"P","margin":"N","reportingType":"dm","ideess":"1125","idMunicipio":"4611","idProvincia":"31","idCCAA":"15"}}},{"type":"Feature","geometry":{"type":"Point","coordinates":[-2.16075,42.891]},"properties":{"id":"es-1127","source":"ES","brand":"REPSOL","address":"AVENIDA PAMPLONA, 24","municipality":"Altsasu/Alsasua","province":"NAVARRA","postalCode":"31800","schedule":"L-V: 06:00-22:00","fuels":{"gasoline95":1.78,"gasoline98":1.96,"diesel":1.886,"dieselPremium":2.006},"extra":{"saleType":"P","margin":"N","reportingType":"OM","ideess":"1127","idMunicipio":"4611","idProvincia":"31","idCCAA":"15"}}},{"type":"Feature","geometry":{"type":"Point","coordinates":[-2.476944,42.390417]},"properties":{"id":"es-11284","source":"ES","brand":"SHELL","address":"CALLE RIO FUERTES, 1","municipality":"Albelda de Iregua","province":"RIOJA (LA)","postalCode":"26120","schedule":"L-V: 07:30-21:00; S: 08:00-21:00; D: 09:00-15:00","fuels":{"gasoline95":1.799,"gasoline98":1.949,"diesel":1.919,"dieselPremium":1.989,"dieselB":1.609},"extra":{"saleType":"P","margin":"D","reportingType":"dm","ideess":"11284","idMunicipio":"4039","idProvincia":"26","idCCAA":"17"}}},{"type":"Feature","geometry":{"type":"Point","coordinates":[-2.053806,42.38925]},"properties":{"id":"es-11300","source":"ES","brand":"AN ENERGÉTICOS - SARTAGUDA","address":"POLIGONO INDUSTRIAL GOBELLA FASE I S/N","municipality":"Sartaguda","province":"NAVARRA","postalCode":"31589","schedule":"L-D: 24H","fuels":{"gasoline95":1.579,"diesel":1.699,"dieselB":1.469,"adblue":0.705},"extra":{"saleType":"P","margin":"N","reportingType":"dm","ideess":"11300","idMunicipio":"4831","idProvincia":"31","idCCAA":"15"}}},{"type":"Feature","geometry":{"type":"Point","coordinates":[-2.357278,42.670222]},"properties":{"id":"es-114","source":"ES","brand":"PETRONOR","address":"CARRETERA CTRA.VITORIA-ESTELLA KM. 38","municipality":"Campezo/Kanpezu","province":"ARABA/ÁLAVA","postalCode":"01110","schedule":"L-V: 06:00-22:00; S: 06:30-22:00; D: 13:30-22:00","fuels":{"gasoline95":1.745,"diesel":1.845,"dieselPremium":2.0,"dieselB":1.66},"extra":{"saleType":"P","margin":"I","reportingType":"dm","ideess":"114","idMunicipio":"15","idProvincia":"01","idCCAA":"16"}}},{"type":"Feature","geometry":{"type":"Point","coordinates":[-2.656861,42.856194]},"properties":{"id":"es-11531","source":"ES","brand":"BP  SALBURUA","address":"CALLE DEBA, 1","municipality":"Vitoria-Gasteiz","province":"ARABA/ÁLAVA","postalCode":"01013","schedule":"L-D: 24H","fuels":{"gasoline95":1.789,"gasoline98":1.929,"diesel":1.929,"dieselPremium":2.019},"extra":{"saleType":"P","margin":"N","reportingType":"OM","ideess":"11531","idMunicipio":"46","idProvincia":"01","idCCAA":"16"}}},{"type":"Feature","geometry":{"type":"Point","coordinates":[-2.130472,42.771222]},"properties":{"id":"es-1157","source":"ES","brand":"PETRONOR","address":"CALLE SAN ANTON,7, ","municipality":"Améscoa Baja","province":"NAVARRA","postalCode":"31272","schedule":"L-D: 08:00-22:00","fuels":{"gasoline95":1.749,"diesel":1.815,"dieselPremium":1.86,"dieselB":1.523},"extra":{"saleType":"P","margin":"I","reportingType":"dm","ideess":"1157","idMunicipio":"4612","idProvincia":"31","idCCAA":"15"}}},{"type":"Feature","geometry":{"type":"Point","coordinates":[-2.920667,42.692917]},"properties":{"id":"es-11651","source":"ES","brand":"EESS DYNEFF","address":"AVENIDA ALAVA, 12","municipality":"Ribera Baja/Erribera Beitia","province":"ARABA/ÁLAVA","postalCode":"01213","schedule":"L-D: 24H","fuels":{"gasoline95":1.799,"gasoline98":1.949,"diesel":1.899,"dieselB":1.399,"dieselRenewable":2.249,"adblue":0.859},"extra":{"saleType":"P","margin":"D","reportingType":"dm","ideess":"11651","idMunicipio":"39","idProvincia":"01","idCCAA":"16"}}},{"type":"Feature","geometry":{"type":"Point","coordinates":[-2.09075,42.584222]},"properties":{"id":"es-11683","source":"ES","brand":"AN ENERGÉTICOS - EZKIBEL","address":"POLIGONO POLIGONO INDUSTRIAL 10, 10","municipality":"Arróniz","province":"NAVARRA","postalCode":"31243","schedule":"L-D: 24H","fuels":{"gasoline95":1.579,"diesel":1.699,"dieselB":1.118,"adblue":0.705},"extra":{"saleType":"P","margin":"D","reportingType":"dm","ideess":"11683","idMunicipio":"4635","idProvincia":"31","idCCAA":"15"}}},{"type":"Feature","geometry":{"type":"Point","coordinates":[-2.77225,42.823778]},"properties":{"id":"es-11732","source":"ES","brand":"EUROCAM","address":"CALLE TRATADO DE PARIS, 6","municipality":"Iruña Oka/Iruña de Oca","province":"ARABA/ÁLAVA","postalCode":"01230","schedule":"L-D: 24H","fuels":{"gasoline95":1.569,"diesel":1.649,"lpg":1.099,"adblue":0.629},"extra":{"saleType":"P","margin":"D","reportingType":"dm","ideess":"11732","idMunicipio":"20","idProvincia":"01","idCCAA":"16"}}},{"type":"Feature","geometry":{"type":"Point","coordinates":[-2.092,42.476194]},"properties":{"id":"es-11846","source":"ES","brand":"AN ENERGETICOS - SESMA","address":"CAMINO CAMINO MENDAVIA S/N, S/N","municipality":"Sesma","province":"NAVARRA","postalCode":"31293","schedule":"L-D: 24H","fuels":{"gasoline95":1.579,"diesel":1.699,"dieselB":1.455,"adblue":0.675},"extra":{"saleType":"P","margin":"N","reportingType":"dm","ideess":"11846","idMunicipio":"4832","idProvincia":"31","idCCAA":"15"}}},{"type":"Feature","geometry":{"type":"Point","coordinates":[-2.228333,42.949306]},"properties":{"id":"es-11904","source":"ES","brand":"CEPSA ETXEGARATE","address":"AUTOVIA A-1 KM. 406,000","municipality":"Idiazabal","province":"GIPUZKOA","postalCode":"20213","schedule":"L-D: 24H","fuels":{"gasoline95":1.829,"gasoline98":1.969,"diesel":1.989,"dieselPremium":2.089,"dieselB":1.859},"extra":{"saleType":"P","margin":"I","reportingType":"dm","ideess":"11904","idMunicipio":"3174","idProvincia":"20","idCCAA":"16"}}},{"type":"Feature","geometry":{"type":"Point","coordinates":[-2.827722,42.961583]},"properties":{"id":"es-120","source":"ES","brand":"CEPSA","address":"N-622 km 20,3","municipality":"Zuia","province":"ARABA/ÁLAVA","postalCode":"01130","schedule":"L-V: 06:00-22:00; S: 07:00-22:00; D: 08:00-22:00","fuels":{"gasoline95":1.829,"gasoline95E10":1.909,"gasoline98":1.939,"diesel":1.979,"dieselPremium":2.049},"extra":{"saleType":"P","margin":"D","reportingType":"dm","ideess":"120","idMunicipio":"51","idProvincia":"01","idCCAA":"16"}}},{"type":"Feature","geometry":{"type":"Point","coordinates":[-2.678833,42.868611]},"properties":{"id":"es-12104","source":"ES","brand":"ONAINDIA","address":"CALLE PORTAL DE ARRIAGA, 66","municipality":"Vitoria-Gasteiz","province":"ARABA/ÁLAVA","postalCode":"01013","schedule":"L-D: 06:00-23:00","fuels":{"gasoline95":1.765,"gasoline98":1.865,"diesel":1.889,"dieselPremium":1.939},"extra":{"saleType":"P","margin":"N","reportingType":"dm","ideess":"12104","idMunicipio":"46","idProvincia":"01","idCCAA":"16"}}},{"type":"Feature","geometry":{"type":"Point","coordinates":[-2.716389,42.857194]},"properties":{"id":"es-12105","source":"ES","brand":"ONA LOWCOST","address":"AVENIDA AVDA. DE LOS HUETOS, 56","municipality":"Vitoria-Gasteiz","province":"ARABA/ÁLAVA","postalCode":"01010","schedule":"L-D: 06:00-22:00","fuels":{"gasoline95":1.649,"gasoline98":1.769,"diesel":1.669,"dieselPremium":1.699,"dieselB":1.459,"adblue":0.799},"extra":{"saleType":"P","margin":"N","reportingType":"dm","ideess":"12105","idMunicipio":"46","idProvincia":"01","idCCAA":"16"}}},{"type":"Feature","geometry":{"type":"Point","coordinates":[-2.169028,42.89]},"properties":{"id":"es-1211","source":"ES","brand":"IZELAI FUEL","address":"AVENIDA VITORIA, S/N","municipality":"Altsasu/Alsasua","province":"NAVARRA","postalCode":"31800","schedule":"L-D: 24H","fuels":{"gasoline95":1.644,"diesel":1.744,"adblue":0.8},"extra":{"saleType":"P","margin":"D","reportingType":"dm","ideess":"1211","idMunicipio":"4611","idProvincia":"31","idCCAA":"15"}}},{"type":"Feature","geometry":{"type":"Point","coordinates":[-2.195389,42.917667]},"properties":{"id":"es-1213","source":"ES","brand":"GALP","address":"AUTOVIA A1 KM. 401","municipality":"Altsasu/Alsasua","province":"NAVARRA","postalCode":"31800","schedule":"L-D: 06:00-22:00","fuels":{"gasoline95":1.829,"diesel":1.979,"dieselPremium":2.069,"adblue":0.799},"extra":{"saleType":"P","margin":"D","reportingType":"OM","ideess":"1213","idMunicipio":"4611","idProvincia":"31","idCCAA":"15"}}},{"type":"Feature","geometry":{"type":"Point","coordinates":[-2.197889,42.915306]},"properties":{"id":"es-1214","source":"ES","brand":"GALP","address":"AUTOVIA A 1 KM. 401","municipality":"Altsasu/Alsasua","province":"NAVARRA","postalCode":"31800","schedule":"L-D: 24H","fuels":{"gasoline95":1.739,"diesel":1.919,"dieselPremium":2.009,"dieselRenewable":2.009,"adblue":0.799},"extra":{"saleType":"P","margin":"I","reportingType":"OM","ideess":"1214","idMunicipio":"4611","idProvincia":"31","idCCAA":"15"}}},{"type":"Feature","geometry":{"type":"Point","coordinates":[-2.034167,42.660972]},"properties":{"id":"es-12151","source":"ES","brand":"ALCAMPO","address":"CALLE CARLOS VII, 28","municipality":"Estella/Lizarra","province":"NAVARRA","postalCode":"31200","schedule":"L-D: 08:00-21:30","fuels":{"gasoline95":1.539,"diesel":1.6,"dieselPremium":1.62},"extra":{"saleType":"P","margin":"N","reportingType":"dm","ideess":"12151","idMunicipio":"4699","idProvincia":"31","idCCAA":"15"}}},{"type":"Feature","geometry":{"type":"Point","coordinates":[-2.374028,42.512583]},"properties":{"id":"es-1219","source":"ES","brand":"REPSOL","address":"AVENIDA SAN LUIS GONZAGA, 3","municipality":"Viana","province":"NAVARRA","postalCode":"31230","schedule":"L-S: 07:00-23:00","fuels":{"gasoline95":1.8,"gasoline98":1.91,"diesel":1.916,"dieselB":1.766,"dieselRenewable":2.046},"extra":{"saleType":"P","margin":"I","reportingType":"dm","ideess":"1219","idMunicipio":"4859","idProvincia":"31","idCCAA":"15"}}},{"type":"Feature","geometry":{"type":"Point","coordinates":[-2.696139,42.722944]},"properties":{"id":"es-12207","source":"ES","brand":"AN ENERGETICOS - VENTAS DE ARMENTIA","address":"POLIGONO POLIGONO 517 PARCELA 19, S/N","municipality":"Condado de Treviño","province":"BURGOS","postalCode":"09215","schedule":"L-D: 24H","fuels":{"gasoline95":1.574,"diesel":1.616,"dieselB":1.335,"adblue":0.735},"extra":{"saleType":"P","margin":"N","reportingType":"dm","ideess":"12207","idMunicipio":"1259","idProvincia":"09","idCCAA":"08"}}},{"type":"Feature","geometry":{"type":"Point","coordinates":[-2.0635,42.233972]},"properties":{"id":"es-12216","source":"ES","brand":"ADELFAS OIL","address":"POLIGONO LA MORETA, 4","municipality":"Quel","province":"RIOJA (LA)","postalCode":"26570","schedule":"L-S: 07:00-22:00; D: 08:00-22:00","fuels":{"gasoline95":1.709,"gasoline98":1.871,"diesel":1.788,"dieselPremium":1.888,"dieselB":1.599,"adblue":0.799},"extra":{"saleType":"P","margin":"N","reportingType":"dm","ideess":"12216","idMunicipio":"4150","idProvincia":"26","idCCAA":"17"}}},{"type":"Feature","geometry":{"type":"Point","coordinates":[-2.212222,42.449611]},"properties":{"id":"es-1223","source":"ES","brand":"REPSOL","address":"CR NA-134, 79","municipality":"Mendavia","province":"NAVARRA","postalCode":"31587","schedule":"L: 07:00-22:00","fuels":{"gasoline95":1.749,"gasoline98":1.909,"diesel":1.829,"dieselPremium":1.929,"dieselB":1.509},"extra":{"saleType":"P","margin":"D","reportingType":"dm","ideess":"1223","idMunicipio":"4774","idProvincia":"31","idCCAA":"15"}}},{"type":"Feature","geometry":{"type":"Point","coordinates":[-2.314083,42.871167]},"properties":{"id":"es-12266","source":"ES","brand":"VALCARCE","address":"CALLE DEIDA, 4","municipality":"San Millán/Donemiliaga","province":"ARABA/ÁLAVA","postalCode":"01207","schedule":"L-D: 24H","fuels":{"diesel":1.939,"adblue":0.799},"extra":{"saleType":"P","margin":"D","reportingType":"dm","ideess":"12266","idMunicipio":"42","idProvincia":"01","idCCAA":"16"}}},{"type":"Feature","geometry":{"type":"Point","coordinates":[-2.287,42.438556]},"properties":{"id":"es-12312","source":"ES","brand":"NORPETROL AGONCILLO","address":"AVENIDA RIO OJA, 3","municipality":"Agoncillo","province":"RIOJA (LA)","postalCode":"26509","schedule":"L-D: 24H","fuels":{"gasoline95":1.679,"diesel":1.679,"adblue":0.966},"extra":{"saleType":"P","margin":"D","reportingType":"dm","ideess":"12312","idMunicipio":"4036","idProvincia":"26","idCCAA":"17"}}},{"type":"Feature","geometry":{"type":"Point","coordinates":[-2.026667,42.6535]},"properties":{"id":"es-1235","source":"ES","brand":"BP ESTELLA","address":"PG MERKATONDOA - UPP3 PARC.4, S.N.","municipality":"Estella/Lizarra","province":"NAVARRA","postalCode":"31200","schedule":"L-D: 05:00-23:00","fuels":{"gasoline95":1.809,"gasoline98":1.949,"diesel":1.959,"dieselPremium":2.049,"adblue":0.925},"extra":{"saleType":"P","margin":"D","reportingType":"OM","ideess":"1235","idMunicipio":"4699","idProvincia":"31","idCCAA":"15"}}},{"type":"Feature","geometry":{"type":"Point","coordinates":[-2.712722,42.863778]},"properties":{"id":"es-12416","source":"ES","brand":"AVIA","address":"CALLE URARTEA, 23","municipality":"Vitoria-Gasteiz","province":"ARABA/ÁLAVA","postalCode":"01010","schedule":"L-D: 06:30-22:30","fuels":{"gasoline95":1.826,"gasoline98":1.96,"diesel":1.889,"dieselPremium":2.026,"lpg":1.05,"adblue":0.999},"extra":{"saleType":"P","margin":"D","reportingType":"dm","ideess":"12416","idMunicipio":"46","idProvincia":"01","idCCAA":"16"}}},{"type":"Feature","geometry":{"type":"Point","coordinates":[-2.432278,42.490611]},"properties":{"id":"es-12419","source":"ES","brand":"GUGAS","address":"CARRETERA LOGROÑO KM. 10","municipality":"Oyón/Oion","province":"ARABA/ÁLAVA","postalCode":"01320","schedule":"L-D: 24H","fuels":{"gasoline95":1.629,"diesel":1.639},"extra":{"saleType":"P","margin":"D","reportingType":"dm","ideess":"12419","idMunicipio":"36","idProvincia":"01","idCCAA":"16"}}},{"type":"Feature","geometry":{"type":"Point","coordinates":[-2.961472,42.686333]},"properties":{"id":"es-12425","source":"ES","brand":"BP VIA NORTE","address":"CARRETERA NACIONAL 1 MADRID IRUN KM. 318","municipality":"Miranda de Ebro","province":"BURGOS","postalCode":"09200","schedule":"L-D: 24H","fuels":{"gasoline95":1.829,"gasoline98":1.971,"diesel":1.915,"dieselPremium":2.017,"adblue":0.949},"extra":{"saleType":"P","margin":"I","reportingType":"dm","ideess":"12425","idMunicipio":"1342","idProvincia":"09","idCCAA":"08"}}},{"type":"Feature","geometry":{"type":"Point","coordinates":[-2.312056,42.870861]},"properties":{"id":"es-12441","source":"ES","brand":"ADS","address":"CALLE DEIDA, 6","municipality":"Asparrena","province":"ARABA/ÁLAVA","postalCode":"01250","schedule":"L-D: 24H","fuels":{"diesel":1.909,"dieselRenewable":1.843,"adblue":0.926},"extra":{"saleType":"P","margin":"D","reportingType":"dm","ideess":"12441","idMunicipio":"9","idProvincia":"01","idCCAA":"16"}}},{"type":"Feature","geometry":{"type":"Point","coordinates":[-2.027778,42.655139]},"properties":{"id":"es-12641","source":"ES","brand":"DEL VILLAR ENERGIA","address":"POLIGONO MERKATONDOA, 28","municipality":"Estella/Lizarra","province":"NAVARRA","postalCode":"31200","schedule":"L-D: 06:00-22:00","fuels":{"gasoline95":1.64,"diesel":1.72,"adblue":0.97},"extra":{"saleType":"P","margin":"D","reportingType":"dm","ideess":"12641","idMunicipio":"4699","idProvincia":"31","idCCAA":"15"}}},{"type":"Feature","geometry":{"type":"Point","coordinates":[-2.324083,42.863583]},"properties":{"id":"es-12644","source":"ES","brand":"MOEVE","address":"CALLE POLIGONO OKITURRI, 4","municipality":"San Millán/Donemiliaga","province":"ARABA/ÁLAVA","postalCode":"01207","schedule":"L-D: 24H","fuels":{"gasoline95":1.829,"diesel":1.939,"dieselPremium":2.079,"dieselB":1.779,"dieselRenewable":1.999},"extra":{"saleType":"P","margin":"D","reportingType":"OM","ideess":"12644","idMunicipio":"42","idProvincia":"01","idCCAA":"16"}}},{"type":"Feature","geometry":{"type":"Point","coordinates":[-2.180833,42.555556]},"properties":{"id":"es-12745","source":"ES","brand":"CEPSA","address":"CARRETERA NA-129 ACEDO-SESMA-LODOSA KM. 14,6","municipality":"Arcos (Los)","province":"NAVARRA","postalCode":"31210","schedule":"L-D: 06:00-00:00","fuels":{"gasoline95":1.809,"gasoline98":1.929,"diesel":1.939,"dieselPremium":2.019},"extra":{"saleType":"P","margin":"D","reportingType":"dm","ideess":"12745","idMunicipio":"4628","idProvincia":"31","idCCAA":"15"}}},{"type":"Feature","geometry":{"type":"Point","coordinates":[-2.867167,42.565917]},"properties":{"id":"es-12749","source":"ES","brand":"ALCAMPO","address":"CARRETERA CASALAREINA KM. 111","municipality":"Haro","province":"RIOJA (LA)","postalCode":"26200","schedule":"L-D: 24H","fuels":{"gasoline95":1.619,"diesel":1.729,"dieselPremium":1.739},"extra":{"saleType":"P","margin":"D","reportingType":"dm","ideess":"12749","idMunicipio":"4105","idProvincia":"26","idCCAA":"17"}}},{"type":"Feature","geometry":{"type":"Point","coordinates":[-2.762194,42.431167]},"properties":{"id":"es-12761","source":"ES","brand":"VALCARCE","address":"CALLE PRINCIPAL, S/N","municipality":"Hormilla","province":"RIOJA (LA)","postalCode":"26223","schedule":"L-D: 24H","fuels":{"gasoline95":1.749,"gasoline98":1.949,"diesel":1.879,"dieselPremium":1.979,"dieselB":1.599,"lpg":1.151},"extra":{"saleType":"P","margin":"D","reportingType":"dm","ideess":"12761","idMunicipio":"4109","idProvincia":"26","idCCAA":"17"}}},{"type":"Feature","geometry":{"type":"Point","coordinates":[-2.3975,42.455]},"properties":{"id":"es-12843","source":"ES","brand":"NORPETROL LA PORTALADA","address":"POLIGONO LA PORTALADA III - CL VALSALADO M2 - P4, 1","municipality":"Logroño","province":"RIOJA (LA)","postalCode":"26006","schedule":"L-D: 24H","fuels":{"gasoline95":1.679,"diesel":1.679,"adblue":0.966},"extra":{"saleType":"P","margin":"D","reportingType":"dm","ideess":"12843","idMunicipio":"4122","idProvincia":"26","idCCAA":"17"}}},{"type":"Feature","geometry":{"type":"Point","coordinates":[-2.708611,42.854694]},"properties":{"id":"es-12997","source":"ES","brand":"EROSKI","address":"CALLE BREMEN, 6","municipality":"Vitoria-Gasteiz","province":"ARABA/ÁLAVA","postalCode":"01010","schedule":"L-D: 24H","fuels":{"gasoline95":1.559,"diesel":1.636},"extra":{"saleType":"P","margin":"D","reportingType":"dm","ideess":"12997","idMunicipio":"46","idProvincia":"01","idCCAA":"16"}}},{"type":"Feature","geometry":{"type":"Point","coordinates":[-2.700972,42.837111]},"properties":{"id":"es-13064","source":"ES","brand":"ARMENTIA","address":"CALLE ALTO DE ARMENTIA, 10","municipality":"Vitoria-Gasteiz","province":"ARABA/ÁLAVA","postalCode":"01007","schedule":"L-D: 24H","fuels":{"gasoline95":1.629,"dieselPremium":1.698},"extra":{"saleType":"P","margin":"D","reportingType":"dm","ideess":"13064","idMunicipio":"46","idProvincia":"01","idCCAA":"16"}}},{"type":"Feature","geometry":{"type":"Point","coordinates":[-2.71725,42.415861]},"properties":{"id":"es-13111","source":"ES","brand":"ADELFAS OIL","address":"CALLE SAN FERNANDO, 120","municipality":"Nájera","province":"RIOJA (LA)","postalCode":"26300","schedule":"L-V: 07:30-14:00 y 16:00-19:30; S: 08:00-14:00","fuels":{"gasoline95":1.709,"diesel":1.788,"adblue":0.799},"extra":{"saleType":"P","margin":"D","reportingType":"dm","ideess":"13111","idMunicipio":"4133","idProvincia":"26","idCCAA":"17"}}},{"type":"Feature","geometry":{"type":"Point","coordinates":[-2.086194,42.230028]},"properties":{"id":"es-13164","source":"ES","brand":"CARMINA LOW COST","address":"AVENIDA QUEL, 42","municipality":"Arnedo","province":"RIOJA (LA)","postalCode":"26509","schedule":"L-D: 24H","fuels":{"gasoline95":1.709,"diesel":1.789,"dieselB":1.609},"extra":{"saleType":"P","margin":"D","reportingType":"dm","ideess":"13164","idMunicipio":"4052","idProvincia":"26","idCCAA":"17"}}},{"type":"Feature","geometry":{"type":"Point","coordinates":[-2.682278,42.842833]},"properties":{"id":"es-133","source":"ES","brand":"REPSOL","address":"CALLE PORTAL DE CASTILLA, 32","municipality":"Vitoria-Gasteiz","province":"ARABA/ÁLAVA","postalCode":"01008","schedule":"L-D: 06:30-22:30","fuels":{"gasoline95":1.83,"gasoline98":1.96,"diesel":1.96,"dieselRenewable":2.08},"extra":{"saleType":"P","margin":"D","reportingType":"OM","ideess":"133","idMunicipio":"46","idProvincia":"01","idCCAA":"16"}}},{"type":"Feature","geometry":{"type":"Point","coordinates":[-2.91525,42.696583]},"properties":{"id":"es-13372","source":"ES","brand":"BEROIL","address":"POLIGONO P. INDUSTRIAL BAYAS 146 PARCELAS 58, 146","municipality":"Miranda de Ebro","province":"BURGOS","postalCode":"09200","schedule":"L-D: 24H","fuels":{"gasoline95":1.599,"diesel":1.699,"adblue":0.6},"extra":{"saleType":"P","margin":"D","reportingType":"dm","ideess":"13372","idMunicipio":"1342","idProvincia":"09","idCCAA":"08"}}},{"type":"Feature","geometry":{"type":"Point","coordinates":[-2.770694,42.824389]},"properties":{"id":"es-13427","source":"ES","brand":"NATURGY","address":"CALLE A-1 KM 342. POL. IND. SUBILLABIDE (SUVILLAVIDE BIDEA), 2","municipality":"Iruña Oka/Iruña de Oca","province":"ARABA/ÁLAVA","postalCode":"01230","schedule":"L-D: 24H","fuels":{"cng":1.599,"lng":1.499},"extra":{"saleType":"P","margin":"D","reportingType":"dm","ideess":"13427","idMunicipio":"20","idProvincia":"01","idCCAA":"16"}}},{"type":"Feature","geometry":{"type":"Point","coordinates":[-2.407444,42.455917]},"properties":{"id":"es-13439","source":"ES","brand":"GMOIL","address":"CALLE CORDONERA, 3","municipality":"Logroño","province":"RIOJA (LA)","postalCode":"26006","schedule":"L-D: 24H","fuels":{"gasoline95":1.549,"diesel":1.639},"extra":{"saleType":"P","margin":"D","reportingType":"dm","ideess":"13439","idMunicipio":"4122","idProvincia":"26","idCCAA":"17"}}},{"type":"Feature","geometry":{"type":"Point","coordinates":[-2.721583,42.857472]},"properties":{"id":"es-136","source":"ES","brand":"PETRONOR","address":"CL AVENIDA HUETOS, 81","municipality":"Vitoria-Gasteiz","province":"ARABA/ÁLAVA","postalCode":"01195","schedule":"L-D: 06:00-23:00","fuels":{"gasoline95":1.836,"gasoline98":1.966,"diesel":1.96,"dieselRenewable":2.08,"cng":1.609},"extra":{"saleType":"P","margin":"I","reportingType":"OM","ideess":"136","idMunicipio":"46","idProvincia":"01","idCCAA":"16"}}},{"type":"Feature","geometry":{"type":"Point","coordinates":[-2.77475,42.82525]},"properties":{"id":"es-13757","source":"ES","brand":"GERANTISAN","address":"CALLE TRATADO DE MAASTRICH, 1","municipality":"Iruña Oka/Iruña de Oca","province":"ARABA/ÁLAVA","postalCode":"01230","schedule":"L-V: 06:00-23:59","fuels":{"diesel":1.719,"biodiesel":1.99,"adblue":0.899},"extra":{"saleType":"P","margin":"D","reportingType":"dm","ideess":"13757","idMunicipio":"20","idProvincia":"01","idCCAA":"16"}}},{"type":"Feature","geometry":{"type":"Point","coordinates":[-2.050306,42.317722]},"properties":{"id":"es-13786","source":"ES","brand":"ESTACIONES ARNEDO","address":"CARRETERA N-232 KM. 367","municipality":"Pradejón","province":"RIOJA (LA)","postalCode":"26510","schedule":"L-D: 24H","fuels":{"gasoline95":1.61,"diesel":1.71,"dieselB":1.4,"adblue":0.72},"extra":{"saleType":"P","margin":"I","reportingType":"dm","ideess":"13786","idMunicipio":"4147","idProvincia":"26","idCCAA":"17"}}},{"type":"Feature","geometry":{"type":"Point","coordinates":[-2.163806,42.891472]},"properties":{"id":"es-13810","source":"ES","brand":"IZELAI FUEL","address":"AVENIDA IRUÑEKO ETORBIDEA/AVENIDA DE PAMPLONA, 18","municipality":"Altsasu/Alsasua","province":"NAVARRA","postalCode":"31800","schedule":"L-D: 24H","fuels":{"gasoline95":1.644,"diesel":1.744,"adblue":0.8},"extra":{"saleType":"P","margin":"N","reportingType":"dm","ideess":"13810","idMunicipio":"4611","idProvincia":"31","idCCAA":"15"}}},{"type":"Feature","geometry":{"type":"Point","coordinates":[-2.660222,42.864667]},"properties":{"id":"es-141","source":"ES","brand":"REPSOL","address":"AV AVENIDA DEL CANTABRICO,8 -(PG PO","municipality":"Vitoria-Gasteiz","province":"ARABA/ÁLAVA","postalCode":"01013","schedule":"L-D: 06:30-22:30","fuels":{"gasoline95":1.836,"gasoline98":1.966,"diesel":1.96,"dieselPremium":2.03},"extra":{"saleType":"P","margin":"D","reportingType":"OM","ideess":"141","idMunicipio":"46","idProvincia":"01","idCCAA":"16"}}},{"type":"Feature","geometry":{"type":"Point","coordinates":[-2.648306,42.849778]},"properties":{"id":"es-142","source":"ES","brand":"REPSOL","address":"CL PORTAL DE ELORRIAGA,17","municipality":"Vitoria-Gasteiz","province":"ARABA/ÁLAVA","postalCode":"01002","schedule":"L-S: 06:00-22:00; D: 07:00-22:00","fuels":{"gasoline95":1.83,"gasoline98":1.96,"diesel":1.97,"dieselRenewable":2.09,"lpg":1.129},"extra":{"saleType":"P","margin":"D","reportingType":"OM","ideess":"142","idMunicipio":"46","idProvincia":"01","idCCAA":"16"}}},{"type":"Feature","geometry":{"type":"Point","coordinates":[-2.519194,42.842917]},"properties":{"id":"es-14209","source":"ES","brand":"ES DULANTZI REPSOL","address":"CALLE GASTEIZBIDEA, 59","municipality":"Alegría-Dulantzi","province":"ARABA/ÁLAVA","postalCode":"01240","schedule":"L-D: 07:00-22:00","fuels":{"gasoline95":1.829,"diesel":1.969},"extra":{"saleType":"P","margin":"D","reportingType":"dm","ideess":"14209","idMunicipio":"1","idProvincia":"01","idCCAA":"16"}}},{"type":"Feature","geometry":{"type":"Point","coordinates":[-2.403111,42.456528]},"properties":{"id":"es-14215","source":"ES","brand":"PETROPRIX","address":"CALLE CIRCUNDE, 13","municipality":"Logroño","province":"RIOJA (LA)","postalCode":"26006","schedule":"L-D: 24H","fuels":{"gasoline95":1.649,"diesel":1.659},"extra":{"saleType":"P","margin":"I","reportingType":"dm","ideess":"14215","idMunicipio":"4122","idProvincia":"26","idCCAA":"17"}}},{"type":"Feature","geometry":{"type":"Point","coordinates":[-2.031194,42.663028]},"properties":{"id":"es-14249","source":"ES","brand":"EROSKI","address":"CALLE MERKATONDOA, 7","municipality":"Estella/Lizarra","province":"NAVARRA","postalCode":"31200","schedule":"L-D: 24H","fuels":{"gasoline95":1.539,"diesel":1.6},"extra":{"saleType":"P","margin":"N","reportingType":"dm","ideess":"14249","idMunicipio":"4699","idProvincia":"31","idCCAA":"15"}}},{"type":"Feature","geometry":{"type":"Point","coordinates":[-2.66,42.836667]},"properties":{"id":"es-14280","source":"ES","brand":"REPSOL","address":"CALLE JOSE MARIA IPARRAGUIRRE, 19","municipality":"Vitoria-Gasteiz","province":"ARABA/ÁLAVA","postalCode":"01006","schedule":"L-V: 06:00-22:00; S-D: 07:00-22:00","fuels":{"gasoline95":1.829,"gasoline98":1.959,"diesel":1.939,"dieselPremium":1.999,"lpg":1.109,"adblue":1.109},"extra":{"saleType":"P","margin":"N","reportingType":"dm","ideess":"14280","idMunicipio":"46","idProvincia":"01","idCCAA":"16"}}},{"type":"Feature","geometry":{"type":"Point","coordinates":[-2.402028,42.849361]},"properties":{"id":"es-14323","source":"ES","brand":"ONROAD24","address":"CALLE ARIKRUZ, 6","municipality":"Salvatierra/Agurain","province":"ARABA/ÁLAVA","postalCode":"01200","schedule":"L-D: 24H","fuels":{"diesel":1.899,"dieselB":1.769,"adblue":0.999},"extra":{"saleType":"P","margin":"N","reportingType":"dm","ideess":"14323","idMunicipio":"40","idProvincia":"01","idCCAA":"16"}}},{"type":"Feature","geometry":{"type":"Point","coordinates":[-2.658583,42.872556]},"properties":{"id":"es-14335","source":"ES","brand":"PETROPRIX","address":"CALLE PORTAL DE GAMARRA, 35","municipality":"Vitoria-Gasteiz","province":"ARABA/ÁLAVA","postalCode":"01013","schedule":"L-D: 24H","fuels":{"gasoline95":1.649,"diesel":1.669},"extra":{"saleType":"P","margin":"I","reportingType":"dm","ideess":"14335","idMunicipio":"46","idProvincia":"01","idCCAA":"16"}}},{"type":"Feature","geometry":{"type":"Point","coordinates":[-2.419083,42.447611]},"properties":{"id":"es-14455","source":"ES","brand":"MOEVE","address":"POLIGONO POLIGONO I-9, 2","municipality":"Villamediana de Iregua","province":"RIOJA (LA)","postalCode":"26142","schedule":"L-D: 24H","fuels":{"gasoline95":1.729,"gasoline98":1.905,"diesel":1.885,"dieselPremium":1.939,"adblue":0.985},"extra":{"saleType":"P","margin":"N","reportingType":"dm","ideess":"14455","idMunicipio":"4194","idProvincia":"26","idCCAA":"17"}}},{"type":"Feature","geometry":{"type":"Point","coordinates":[-2.717833,42.857667]},"properties":{"id":"es-14478","source":"ES","brand":"GM OIL","address":"AVENIDA DE LOS HUETOS, 64","municipality":"Vitoria-Gasteiz","province":"ARABA/ÁLAVA","postalCode":"01010","schedule":"L-D: 24H","fuels":{"gasoline95":1.529,"gasoline98":1.679,"diesel":1.649},"extra":{"saleType":"P","margin":"D","reportingType":"dm","ideess":"14478","idMunicipio":"46","idProvincia":"01","idCCAA":"16"}}},{"type":"Feature","geometry":{"type":"Point","coordinates":[-2.467944,42.422222]},"properties":{"id":"es-14517","source":"ES","brand":"CARBURANTES RIOJA","address":"AVENIDA ENTRENA, 30","municipality":"Lardero","province":"RIOJA (LA)","postalCode":"26140","schedule":"L-D: 24H","fuels":{"gasoline95":1.659,"diesel":1.769,"adblue":1.1},"extra":{"saleType":"P","margin":"D","reportingType":"dm","ideess":"14517","idMunicipio":"4118","idProvincia":"26","idCCAA":"17"}}},{"type":"Feature","geometry":{"type":"Point","coordinates":[-2.657611,42.837083]},"properties":{"id":"es-14685","source":"ES","brand":"EUSKADILOWCOST","address":"CALLE VENTA DE LA ESTRELLA, 5","municipality":"Vitoria-Gasteiz","province":"ARABA/ÁLAVA","postalCode":"01006","schedule":"L-D: 24H","fuels":{"gasoline95":1.644,"diesel":1.666,"adblue":0.888},"extra":{"saleType":"P","margin":"D","reportingType":"dm","ideess":"14685","idMunicipio":"46","idProvincia":"01","idCCAA":"16"}}},{"type":"Feature","geometry":{"type":"Point","coordinates":[-2.658528,42.872639]},"properties":{"id":"es-14739","source":"ES","brand":"GAMARRA LOW COST","address":"CALLE PORTAL DE GAMARRA, 37","municipality":"Vitoria-Gasteiz","province":"ARABA/ÁLAVA","postalCode":"01013","schedule":"L-D: 24H","fuels":{"gasoline95":1.649,"gasoline98":1.769,"diesel":1.669},"extra":{"saleType":"P","margin":"D","reportingType":"dm","ideess":"14739","idMunicipio":"46","idProvincia":"01","idCCAA":"16"}}},{"type":"Feature","geometry":{"type":"Point","coordinates":[-2.901944,42.81125]},"properties":{"id":"es-148","source":"ES","brand":"E.S. TOCALU","address":"ACCESO A2622, 0","municipality":"Ribera Alta","province":"ARABA/ÁLAVA","postalCode":"01420","schedule":"L-D: 07:00-22:00","fuels":{"gasoline95":1.829,"diesel":1.979,"dieselPremium":2.049,"dieselB":1.789},"extra":{"saleType":"P","margin":"N","reportingType":"dm","ideess":"148","idMunicipio":"38","idProvincia":"01","idCCAA":"16"}}},{"type":"Feature","geometry":{"type":"Point","coordinates":[-2.409194,42.473278]},"properties":{"id":"es-14839","source":"ES","brand":"NAFTE","address":"AVENIDA MENDAVIA, 2","municipality":"Logroño","province":"RIOJA (LA)","postalCode":"26007","schedule":"L-D: 24H","fuels":{"gasoline95":1.699,"diesel":1.699,"dieselPremium":1.769,"adblue":0.899},"extra":{"saleType":"P","margin":"D","reportingType":"dm","ideess":"14839","idMunicipio":"4122","idProvincia":"26","idCCAA":"17"}}},{"type":"Feature","geometry":{"type":"Point","coordinates":[-2.404528,42.455556]},"properties":{"id":"es-14899","source":"ES","brand":"NAFTE","address":"CALLE CIRCUNDE, 2","municipality":"Logroño","province":"RIOJA (LA)","postalCode":"26006","schedule":"L-D: 24H","fuels":{"gasoline95":1.699,"diesel":1.699,"dieselPremium":1.769,"adblue":0.899},"extra":{"saleType":"P","margin":"N","reportingType":"dm","ideess":"14899","idMunicipio":"4122","idProvincia":"26","idCCAA":"17"}}},{"type":"Feature","geometry":{"type":"Point","coordinates":[-2.395083,42.45725]},"properties":{"id":"es-15048","source":"ES","brand":"EUROCAM","address":"POLIGONO LA PORTALADA, C/CIRCUNDE, 22,24","municipality":"Logroño","province":"RIOJA (LA)","postalCode":"26006","schedule":"L-D: 24H","fuels":{"gasoline95":1.579,"diesel":1.619,"lpg":1.209,"adblue":0.629},"extra":{"saleType":"P","margin":"I","reportingType":"dm","ideess":"15048","idMunicipio":"4122","idProvincia":"26","idCCAA":"17"}}},{"type":"Feature","geometry":{"type":"Point","coordinates":[-2.283778,42.438944]},"properties":{"id":"es-15113","source":"ES","brand":"ISATIR","address":"AVENIDA DEL EBRO, 7","municipality":"Agoncillo","province":"RIOJA (LA)","postalCode":"26509","schedule":"L-D: 24H","fuels":{"diesel":1.685,"adblue":0.62},"extra":{"saleType":"P","margin":"I","reportingType":"dm","ideess":"15113","idMunicipio":"4036","idProvincia":"26","idCCAA":"17"}}},{"type":"Feature","geometry":{"type":"Point","coordinates":[-2.670833,42.872389]},"properties":{"id":"es-15120","source":"ES","brand":"LOW COST EUSKADI SL","address":"AVENIDA DEL ZADORRA, 144","municipality":"Vitoria-Gasteiz","province":"ARABA/ÁLAVA","postalCode":"01193","schedule":"L-D: 24H","fuels":{"gasoline95":1.636,"diesel":1.606,"dieselPremium":1.636,"adblue":0.666},"extra":{"saleType":"P","margin":"D","reportingType":"dm","ideess":"15120","idMunicipio":"46","idProvincia":"01","idCCAA":"16"}}},{"type":"Feature","geometry":{"type":"Point","coordinates":[-2.9505,42.692972]},"properties":{"id":"es-15267","source":"ES","brand":"PLENERGY","address":"CARRETERA BILBAO  EN  MIRANDA DE EBRO KM. 40","municipality":"Miranda de Ebro","province":"BURGOS","postalCode":"09200","schedule":"L-D: 24H","fuels":{"gasoline95":1.559,"diesel":1.645},"extra":{"saleType":"P","margin":"D","reportingType":"dm","ideess":"15267","idMunicipio":"1342","idProvincia":"09","idCCAA":"08"}}},{"type":"Feature","geometry":{"type":"Point","coordinates":[-2.675944,42.871806]},"properties":{"id":"es-15568","source":"ES","brand":"ONA LOWCOST","address":"CALLE AGIRRELANDA, 12","municipality":"Vitoria-Gasteiz","province":"ARABA/ÁLAVA","postalCode":"01013","schedule":"L-D: 24H","fuels":{"gasoline95":1.649,"gasoline98":1.769,"diesel":1.669,"adblue":0.799},"extra":{"saleType":"P","margin":"D","reportingType":"dm","ideess":"15568","idMunicipio":"46","idProvincia":"01","idCCAA":"16"}}},{"type":"Feature","geometry":{"type":"Point","coordinates":[-2.701028,42.836472]},"properties":{"id":"es-15588","source":"ES","brand":"BALLENOIL","address":"CALLE ALTO DE ARMENTIA, 23","municipality":"Vitoria-Gasteiz","province":"ARABA/ÁLAVA","postalCode":"01007","schedule":"L-D: 24H","fuels":{"gasoline95":1.679,"diesel":1.739,"dieselPremium":1.749},"extra":{"saleType":"P","margin":"D","reportingType":"OM","ideess":"15588","idMunicipio":"46","idProvincia":"01","idCCAA":"16"}}},{"type":"Feature","geometry":{"type":"Point","coordinates":[-2.185444,42.882222]},"properties":{"id":"es-15619","source":"ES","brand":"TRANSPORTES SAKANA SCL","address":"CALLE DE LA ESTACION, 30","municipality":"Olazti/Olazagutía","province":"NAVARRA","postalCode":"31809","schedule":"L-D: 24H","fuels":{"diesel":1.64,"adblue":0.669},"extra":{"saleType":"P","margin":"D","reportingType":"dm","ideess":"15619","idMunicipio":"4799","idProvincia":"31","idCCAA":"15"}}},{"type":"Feature","geometry":{"type":"Point","coordinates":[-2.666889,42.833611]},"properties":{"id":"es-15771","source":"ES","brand":"BALLENOIL","address":"CALLE CAMPO DE LOS PALACIOS, 12","municipality":"Vitoria-Gasteiz","province":"ARABA/ÁLAVA","postalCode":"01006","schedule":"L-D: 24H","fuels":{"gasoline95":1.679,"diesel":1.739,"dieselPremium":1.749},"extra":{"saleType":"P","margin":"D","reportingType":"OM","ideess":"15771","idMunicipio":"46","idProvincia":"01","idCCAA":"16"}}},{"type":"Feature","geometry":{"type":"Point","coordinates":[-2.752139,42.847528]},"properties":{"id":"es-15906","source":"ES","brand":"BEROIL GASTEIZ","address":"CALLE ZEARSOLOETA, 1","municipality":"Vitoria-Gasteiz","province":"ARABA/ÁLAVA","postalCode":"01195","schedule":"L-D: 00:00-23:59","fuels":{"gasoline95":1.599,"diesel":1.679,"dieselB":1.399,"adblue":0.6},"extra":{"saleType":"P","margin":"D","reportingType":"dm","ideess":"15906","idMunicipio":"46","idProvincia":"01","idCCAA":"16"}}},{"type":"Feature","geometry":{"type":"Point","coordinates":[-2.858139,42.369611]},"properties":{"id":"es-15911","source":"ES","brand":"ADELFAS OIL","address":"CARRETERA LR204 KM.12 KM. 11,8","municipality":"Villar de Torre","province":"RIOJA (LA)","postalCode":"26225","schedule":"L-D: 24H","fuels":{"gasoline95":1.709,"diesel":1.788},"extra":{"saleType":"P","margin":"D","reportingType":"dm","ideess":"15911","idMunicipio":"4197","idProvincia":"26","idCCAA":"17"}}},{"type":"Feature","geometry":{"type":"Point","coordinates":[-2.75375,42.845722]},"properties":{"id":"es-15938","source":"ES","brand":"NORPETROL","address":"CALLE MASPARRA, 26","municipality":"Vitoria-Gasteiz","province":"ARABA/ÁLAVA","postalCode":"01195","schedule":"L-D: 24H","fuels":{"gasoline95":1.659,"diesel":1.719,"dieselB":1.5,"adblue":0.966},"extra":{"saleType":"P","margin":"I","reportingType":"dm","ideess":"15938","idMunicipio":"46","idProvincia":"01","idCCAA":"16"}}},{"type":"Feature","geometry":{"type":"Point","coordinates":[-2.324139,42.863583]},"properties":{"id":"es-15952","source":"ES","brand":"MOLGAS","address":"POLIGONO OKITURRI, 3","municipality":"Salvatierra/Agurain","province":"ARABA/ÁLAVA","postalCode":"01207","schedule":"L-D: 00:00-23:59","fuels":{"lng":1.549},"extra":{"saleType":"P","margin":"D","reportingType":"dm","ideess":"15952","idMunicipio":"40","idProvincia":"01","idCCAA":"16"}}},{"type":"Feature","geometry":{"type":"Point","coordinates":[-2.616361,42.876861]},"properties":{"id":"es-16","source":"ES","brand":"REPSOL","address":"AUTOVIA N-1 km 358","municipality":"Arrazua-Ubarrundia","province":"ARABA/ÁLAVA","postalCode":"01520","schedule":"L-D: 06:00-22:00","fuels":{"gasoline95":1.82,"gasoline98":1.99,"diesel":1.96,"dieselRenewable":2.08},"extra":{"saleType":"P","margin":"D","reportingType":"OM","ideess":"16","idMunicipio":"7","idProvincia":"01","idCCAA":"16"}}},{"type":"Feature","geometry":{"type":"Point","coordinates":[-2.949556,42.692556]},"properties":{"id":"es-16117","source":"ES","brand":"BALLENOIL","address":"CARRETERA BILBAO  EN  MIRANDA DE EBRO KM. 34","municipality":"Miranda de Ebro","province":"BURGOS","postalCode":"09200","schedule":"L-D: 24H","fuels":{"gasoline95":1.559,"gasoline95Premium":1.569,"diesel":1.649,"dieselPremium":1.666},"extra":{"saleType":"P","margin":"D","reportingType":"OM","ideess":"16117","idMunicipio":"1342","idProvincia":"09","idCCAA":"08"}}},{"type":"Feature","geometry":{"type":"Point","coordinates":[-2.263694,42.430278]},"properties":{"id":"es-16161","source":"ES","brand":"ROYO","address":"CALLE DEL RIO LEZA, 42","municipality":"Agoncillo","province":"RIOJA (LA)","postalCode":"26509","schedule":"L-D: 24H","fuels":{"gasoline95":1.6,"diesel":1.67,"adblue":0.744},"extra":{"saleType":"P","margin":"N","reportingType":"dm","ideess":"16161","idMunicipio":"4036","idProvincia":"26","idCCAA":"17"}}},{"type":"Feature","geometry":{"type":"Point","coordinates":[-2.32275,42.863722]},"properties":{"id":"es-16165","source":"ES","brand":"ANDAMUR","address":"POLIGONO PG OKITURRI PARCELA A2, 38","municipality":"San Millán/Donemiliaga","province":"ARABA/ÁLAVA","postalCode":"01207","schedule":"L: 24H","fuels":{"diesel":1.859,"dieselB":1.769,"adblue":0.924},"extra":{"saleType":"P","margin":"I","reportingType":"dm","ideess":"16165","idMunicipio":"42","idProvincia":"01","idCCAA":"16"}}},{"type":"Feature","geometry":{"type":"Point","coordinates":[-2.004667,42.653583]},"properties":{"id":"es-16336","source":"ES","brand":"TRUEBA ENERGY","address":"CARRETERA NA-132 KM. 2","municipality":"Villatuerta","province":"NAVARRA","postalCode":"31292","schedule":"L-D: 24H","fuels":{"gasoline95":1.539,"diesel":1.599,"adblue":0.849},"extra":{"saleType":"P","margin":"D","reportingType":"dm","ideess":"16336","idMunicipio":"4863","idProvincia":"31","idCCAA":"15"}}},{"type":"Feature","geometry":{"type":"Point","coordinates":[-2.945222,42.4385]},"properties":{"id":"es-16406","source":"ES","brand":"CARBURANTES RIOJA SANTO DOMINGO DE LA CALZADA","address":"CALLE SAN LÁZARO, 1","municipality":"Santo Domingo de la Calzada","province":"RIOJA (LA)","postalCode":"26250","schedule":"L-D: 24H","fuels":{"gasoline95":1.669,"diesel":1.779,"adblue":1.2},"extra":{"saleType":"P","margin":"I","reportingType":"dm","ideess":"16406","idMunicipio":"4168","idProvincia":"26","idCCAA":"17"}}},{"type":"Feature","geometry":{"type":"Point","coordinates":[-2.403389,42.47425]},"properties":{"id":"es-16449","source":"ES","brand":"PLENERGY","address":"AVENIDA MENDAVIA, 39","municipality":"Logroño","province":"RIOJA (LA)","postalCode":"26007","schedule":"L-D: 24H","fuels":{"gasoline95":1.649,"diesel":1.659},"extra":{"saleType":"P","margin":"D","reportingType":"dm","ideess":"16449","idMunicipio":"4122","idProvincia":"26","idCCAA":"17"}}},{"type":"Feature","geometry":{"type":"Point","coordinates":[-2.7105,42.864944]},"properties":{"id":"es-22","source":"ES","brand":"ALIBARRA LOW-COST","address":"CALLE ALIBARRA, 34","municipality":"Vitoria-Gasteiz","province":"ARABA/ÁLAVA","postalCode":"01010","schedule":"L-D: 24H","fuels":{"gasoline95":1.639,"diesel":1.659,"adblue":0.799},"extra":{"saleType":"P","margin":"N","reportingType":"dm","ideess":"22","idMunicipio":"46","idProvincia":"01","idCCAA":"16"}}},{"type":"Feature","geometry":{"type":"Point","coordinates":[-2.050417,42.325472]},"properties":{"id":"es-2359","source":"ES","brand":"REPSOL","address":"CARRETERA COMARCAL LO 640 KM. 0,8","municipality":"Pradejón","province":"RIOJA (LA)","postalCode":"26510","schedule":"L-V: 07:00-21:00; S: 08:00-14:00","fuels":{"gasoline95":1.78,"gasoline98":1.96,"diesel":1.89,"dieselB":1.686,"dieselRenewable":2.01},"extra":{"saleType":"P","margin":"D","reportingType":"OM","ideess":"2359","idMunicipio":"4147","idProvincia":"26","idCCAA":"17"}}},{"type":"Feature","geometry":{"type":"Point","coordinates":[-2.851139,42.575222]},"properties":{"id":"es-2363","source":"ES","brand":"PETRONOR","address":"AVENIDA LA RIOJA, 4","municipality":"Haro","province":"RIOJA (LA)","postalCode":"26200","schedule":"L-V: 07:00-21:00; S: 09:00-14:00","fuels":{"gasoline95":1.719,"diesel":1.759},"extra":{"saleType":"P","margin":"N","reportingType":"dm","ideess":"2363","idMunicipio":"4105","idProvincia":"26","idCCAA":"17"}}},{"type":"Feature","geometry":{"type":"Point","coordinates":[-2.503944,42.454222]},"properties":{"id":"es-2364","source":"ES","brand":"REPSOL","address":"CR LO-20 ,P.K. 10","municipality":"Logroño","province":"RIOJA (LA)","postalCode":"26006","schedule":"L-D: 06:00-22:00","fuels":{"gasoline95":1.8,"gasoline98":1.93,"diesel":1.9,"dieselPremium":1.98,"lpg":1.119},"extra":{"saleType":"P","margin":"D","reportingType":"OM","ideess":"2364","idMunicipio":"4122","idProvincia":"26","idCCAA":"17"}}},{"type":"Feature","geometry":{"type":"Point","coordinates":[-2.432361,42.456556]},"properties":{"id":"es-2365","source":"ES","brand":"REPSOL","address":"CALLE PIQUERAS, 22","municipality":"Logroño","province":"RIOJA (LA)","postalCode":"26006","schedule":"L-D: 06:00-22:00","fuels":{"gasoline95":1.8,"gasoline98":1.93,"diesel":1.916,"dieselRenewable":2.036},"extra":{"saleType":"P","margin":"D","reportingType":"OM","ideess":"2365","idMunicipio":"4122","idProvincia":"26","idCCAA":"17"}}},{"type":"Feature","geometry":{"type":"Point","coordinates":[-2.965306,42.552444]},"properties":{"id":"es-2366","source":"ES","brand":"PETRONOR","address":"VÍA VIA DE SERVICIO ANTIGUA N-232, 1","municipality":"Cuzcurrita de Río Tirón","province":"RIOJA (LA)","postalCode":"26214","schedule":"L-D: 06:30-22:30","fuels":{"gasoline95":1.789,"gasoline98":1.899,"diesel":1.889,"dieselPremium":1.949,"dieselB":1.659,"adblue":1.169},"extra":{"saleType":"P","margin":"I","reportingType":"dm","ideess":"2366","idMunicipio":"4090","idProvincia":"26","idCCAA":"17"}}},{"type":"Feature","geometry":{"type":"Point","coordinates":[-2.448,42.453361]},"properties":{"id":"es-2367","source":"ES","brand":"REPSOL","address":"CL AVENIDA DE MADRID, 25","municipality":"Logroño","province":"RIOJA (LA)","postalCode":"26006","schedule":"L-D: 00:00-23:00","fuels":{"gasoline95":1.8,"gasoline95Premium":1.88,"gasoline98":1.93,"diesel":1.916,"dieselRenewable":2.036,"lpg":1.129},"extra":{"saleType":"P","margin":"D","reportingType":"OM","ideess":"2367","idMunicipio":"4122","idProvincia":"26","idCCAA":"17"}}},{"type":"Feature","geometry":{"type":"Point","coordinates":[-2.650028,42.166556]},"properties":{"id":"es-2369","source":"ES","brand":"REPSOL","address":"CR N-111, 292","municipality":"Villanueva de Cameros","province":"RIOJA (LA)","postalCode":"26123","schedule":"L-D: 24H","fuels":{"gasoline95":1.756,"diesel":1.906},"extra":{"saleType":"P","margin":"D","reportingType":"OM","ideess":"2369","idMunicipio":"4195","idProvincia":"26","idCCAA":"17"}}},{"type":"Feature","geometry":{"type":"Point","coordinates":[-2.885722,42.173639]},"properties":{"id":"es-2372","source":"ES","brand":"REPSOL","address":"CR LR-113, 99,2 (LR-113 km 24)","municipality":"Viniegra de Abajo","province":"RIOJA (LA)","postalCode":"26325","schedule":"L-D: 08:00-20:00","fuels":{"gasoline95":1.755,"diesel":1.905,"dieselPremium":2.025},"extra":{"saleType":"P","margin":"D","reportingType":"dm","ideess":"2372","idMunicipio":"4204","idProvincia":"26","idCCAA":"17"}}},{"type":"Feature","geometry":{"type":"Point","coordinates":[-2.761583,42.571028]},"properties":{"id":"es-2374","source":"ES","brand":"PETRONOR","address":"CARRETERA NACIONAL 232A KM. 47","municipality":"San Vicente de la Sonsierra","province":"RIOJA (LA)","postalCode":"26338","schedule":"L-D: 07:00-22:00","fuels":{"gasoline95":1.788,"gasoline98":1.948,"diesel":1.905,"dieselPremium":1.984,"dieselB":1.694},"extra":{"saleType":"P","margin":"I","reportingType":"dm","ideess":"2374","idMunicipio":"4164","idProvincia":"26","idCCAA":"17"}}},{"type":"Feature","geometry":{"type":"Point","coordinates":[-2.497278,42.350472]},"properties":{"id":"es-2375","source":"ES","brand":"NALDA","address":"CR N-111, 318,5","municipality":"Nalda","province":"RIOJA (LA)","postalCode":"26190","schedule":"L-D: 06:00-22:00","fuels":{"gasoline95":1.819,"gasoline98":1.949,"diesel":1.929,"dieselPremium":1.999,"dieselB":1.639,"adblue":1.109},"extra":{"saleType":"P","margin":"I","reportingType":"dm","ideess":"2375","idMunicipio":"4134","idProvincia":"26","idCCAA":"17"}}},{"type":"Feature","geometry":{"type":"Point","coordinates":[-2.370917,42.450417]},"properties":{"id":"es-2379","source":"ES","brand":"REPSOL","address":"AU AP-68, 136,2","municipality":"Logroño","province":"RIOJA (LA)","postalCode":"26006","schedule":"L-D: 24H","fuels":{"gasoline95":1.786,"gasoline98":1.926,"diesel":1.896,"dieselRenewable":2.016},"extra":{"saleType":"P","margin":"D","reportingType":"OM","ideess":"2379","idMunicipio":"4122","idProvincia":"26","idCCAA":"17"}}},{"type":"Feature","geometry":{"type":"Point","coordinates":[-2.752889,42.513222]},"properties":{"id":"es-2380","source":"ES","brand":"PETRONOR","address":"AU AP-68, 100","municipality":"San Asensio","province":"RIOJA (LA)","postalCode":"26340","schedule":"L-D: 07:00-23:00","fuels":{"gasoline95":1.786,"gasoline95Premium":1.866,"gasoline98":1.926,"diesel":1.896,"dieselPremium":1.976},"extra":{"saleType":"P","margin":"I","reportingType":"OM","ideess":"2380","idMunicipio":"4159","idProvincia":"26","idCCAA":"17"}}},{"type":"Feature","geometry":{"type":"Point","coordinates":[-2.754389,42.511667]},"properties":{"id":"es-2381","source":"ES","brand":"PETRONOR","address":"AU AP-68, 100","municipality":"San Asensio","province":"RIOJA (LA)","postalCode":"26340","schedule":"L-D: 07:00-23:00","fuels":{"gasoline95":1.786,"gasoline95Premium":1.866,"gasoline98":1.926,"diesel":1.896,"dieselPremium":1.976},"extra":{"saleType":"P","margin":"D","reportingType":"OM","ideess":"2381","idMunicipio":"4159","idProvincia":"26","idCCAA":"17"}}},{"type":"Feature","geometry":{"type":"Point","coordinates":[-2.935083,42.439639]},"properties":{"id":"es-2382","source":"ES","brand":"MOEVE","address":"CARRETERA LOGROÑO-VIGO KM. 43,5","municipality":"Bañares","province":"RIOJA (LA)","postalCode":"26257","schedule":"L-S: 07:00-22:00; D: 08:00-22:00","fuels":{"gasoline95":1.779,"gasoline95Premium":1.859,"diesel":1.929,"dieselPremium":2.019,"dieselB":1.699},"extra":{"saleType":"P","margin":"D","reportingType":"OM","ideess":"2382","idMunicipio":"4058","idProvincia":"26","idCCAA":"17"}}},{"type":"Feature","geometry":{"type":"Point","coordinates":[-2.280028,42.431389]},"properties":{"id":"es-2383","source":"ES","brand":"REPSOL","address":"CARRETERA TRA.NAL 232 KM. 393","municipality":"Agoncillo","province":"RIOJA (LA)","postalCode":"26509","schedule":"L-V: 07:00-21:00; S: 08:00-14:00","fuels":{"gasoline95":1.756,"diesel":1.906,"dieselPremium":2.026,"dieselB":1.696},"extra":{"saleType":"P","margin":"I","reportingType":"OM","ideess":"2383","idMunicipio":"4036","idProvincia":"26","idCCAA":"17"}}},{"type":"Feature","geometry":{"type":"Point","coordinates":[-2.407111,42.460056]},"properties":{"id":"es-2384","source":"ES","brand":"REPSOL","address":"AVENIDA ARAGON, 7","municipality":"Logroño","province":"RIOJA (LA)","postalCode":"26006","schedule":"L-D: 06:00-22:00","fuels":{"gasoline95":1.779,"gasoline98":1.949,"diesel":1.959,"dieselRenewable":1.999},"extra":{"saleType":"P","margin":"D","reportingType":"dm","ideess":"2384","idMunicipio":"4122","idProvincia":"26","idCCAA":"17"}}},{"type":"Feature","geometry":{"type":"Point","coordinates":[-2.406833,42.459722]},"properties":{"id":"es-2385","source":"ES","brand":"REPSOL","address":"AVENIDA ARAGON, 2,","municipality":"Logroño","province":"RIOJA (LA)","postalCode":"26006","schedule":"L-V: 06:00-22:00","fuels":{"gasoline95":1.779,"gasoline98":1.949,"diesel":1.959},"extra":{"saleType":"P","margin":"I","reportingType":"dm","ideess":"2385","idMunicipio":"4122","idProvincia":"26","idCCAA":"17"}}},{"type":"Feature","geometry":{"type":"Point","coordinates":[-2.838861,42.566361]},"properties":{"id":"es-2386","source":"ES","brand":"PETRONOR","address":"CARRETERA N-124 KM. 41","municipality":"Haro","province":"RIOJA (LA)","postalCode":"26200","schedule":"L-D: 24H","fuels":{"gasoline95":1.799,"gasoline98":1.909,"diesel":1.899,"dieselPremium":1.959,"dieselB":1.669,"adblue":1.169},"extra":{"saleType":"P","margin":"D","reportingType":"dm","ideess":"2386","idMunicipio":"4105","idProvincia":"26","idCCAA":"17"}}},{"type":"Feature","geometry":{"type":"Point","coordinates":[-2.839528,42.566278]},"properties":{"id":"es-2387","source":"ES","brand":"PETRONOR","address":"CARRETERA N-124 KM. 41,200","municipality":"Haro","province":"RIOJA (LA)","postalCode":"26200","schedule":"L-D: 06:30-22:30","fuels":{"gasoline95":1.799,"diesel":1.899,"dieselPremium":1.959},"extra":{"saleType":"P","margin":"I","reportingType":"dm","ideess":"2387","idMunicipio":"4105","idProvincia":"26","idCCAA":"17"}}},{"type":"Feature","geometry":{"type":"Point","coordinates":[-2.34325,42.449778]},"properties":{"id":"es-2388","source":"ES","brand":"AVIA","address":"CARRETERA N-232 KM. 399","municipality":"Agoncillo","province":"RIOJA (LA)","postalCode":"26509","schedule":"L-V: 07:00-00:00","fuels":{"gasoline95":1.689,"gasoline98":1.839,"diesel":1.739,"dieselPremium":1.799},"extra":{"saleType":"P","margin":"D","reportingType":"dm","ideess":"2388","idMunicipio":"4036","idProvincia":"26","idCCAA":"17"}}},{"type":"Feature","geometry":{"type":"Point","coordinates":[-2.429472,42.487917]},"properties":{"id":"es-2390","source":"ES","brand":"REPSOL","address":"CR N-111, 335,2","municipality":"Logroño","province":"RIOJA (LA)","postalCode":"26006","schedule":"L-V: 07:00-21:00; S: 08:00-14:00","fuels":{"gasoline95":1.79,"gasoline98":1.97,"diesel":1.906,"dieselPremium":2.026},"extra":{"saleType":"P","margin":"I","reportingType":"OM","ideess":"2390","idMunicipio":"4122","idProvincia":"26","idCCAA":"17"}}},{"type":"Feature","geometry":{"type":"Point","coordinates":[-2.76075,42.328528]},"properties":{"id":"es-2392","source":"ES","brand":"REPSOL","address":"CR LR-113, 44","municipality":"Baños de Río Tobía","province":"RIOJA (LA)","postalCode":"26320","schedule":"L-D: 07:00-22:00","fuels":{"gasoline95":1.756,"diesel":1.916},"extra":{"saleType":"P","margin":"I","reportingType":"OM","ideess":"2392","idMunicipio":"4059","idProvincia":"26","idCCAA":"17"}}},{"type":"Feature","geometry":{"type":"Point","coordinates":[-2.334028,42.399528]},"properties":{"id":"es-2395","source":"ES","brand":"REPSOL","address":"CARRETERA LR.259 KM. 7,4","municipality":"Murillo de Río Leza","province":"RIOJA (LA)","postalCode":"26143","schedule":"L-V: 07:30-14:00; S-D: 08:00-14:00","fuels":{"gasoline95":1.685,"diesel":1.815,"dieselPremium":1.925,"dieselB":1.695},"extra":{"saleType":"P","margin":"D","reportingType":"OM","ideess":"2395","idMunicipio":"4130","idProvincia":"26","idCCAA":"17"}}},{"type":"Feature","geometry":{"type":"Point","coordinates":[-2.652472,42.483194]},"properties":{"id":"es-2397","source":"ES","brand":"PETRONOR","address":"CR N-232, 429,2","municipality":"Cenicero","province":"RIOJA (LA)","postalCode":"26350","schedule":"L-V: 07:00-21:00; S: 08:00-14:00","fuels":{"gasoline95":1.78,"diesel":1.896,"dieselPremium":1.996,"dieselB":1.686},"extra":{"saleType":"P","margin":"D","reportingType":"OM","ideess":"2397","idMunicipio":"4080","idProvincia":"26","idCCAA":"17"}}},{"type":"Feature","geometry":{"type":"Point","coordinates":[-2.470417,42.461611]},"properties":{"id":"es-2399","source":"ES","brand":"AVIA","address":"AVENIDA BURGOS, 49","municipality":"Logroño","province":"RIOJA (LA)","postalCode":"26006","schedule":"L-D: 06:00-22:00","fuels":{"gasoline95":1.639,"gasoline98":1.789,"diesel":1.749,"dieselPremium":1.799,"adblue":0.899},"extra":{"saleType":"P","margin":"D","reportingType":"dm","ideess":"2399","idMunicipio":"4122","idProvincia":"26","idCCAA":"17"}}},{"type":"Feature","geometry":{"type":"Point","coordinates":[-2.469472,42.461444]},"properties":{"id":"es-2400","source":"ES","brand":"AVIA","address":"AVENIDA BURGOS, 49","municipality":"Logroño","province":"RIOJA (LA)","postalCode":"26006","schedule":"L-D: 24H","fuels":{"gasoline95":1.639,"gasoline98":1.789,"diesel":1.749,"dieselPremium":1.799},"extra":{"saleType":"P","margin":"I","reportingType":"dm","ideess":"2400","idMunicipio":"4122","idProvincia":"26","idCCAA":"17"}}},{"type":"Feature","geometry":{"type":"Point","coordinates":[-2.456694,42.479694]},"properties":{"id":"es-2402","source":"ES","brand":"AVIA","address":"CARRETERA N-232 KM. 408,6","municipality":"Logroño","province":"RIOJA (LA)","postalCode":"26006","schedule":"L-D: 06:00-22:00","fuels":{"gasoline95":1.679,"gasoline98":1.829,"diesel":1.789,"dieselPremium":1.899,"adblue":0.899},"extra":{"saleType":"P","margin":"D","reportingType":"dm","ideess":"2402","idMunicipio":"4122","idProvincia":"26","idCCAA":"17"}}},{"type":"Feature","geometry":{"type":"Point","coordinates":[-2.570389,42.463111]},"properties":{"id":"es-2403","source":"ES","brand":"AVIA","address":"CARRETERA N-232 KM. 420,9","municipality":"Fuenmayor","province":"RIOJA (LA)","postalCode":"26360","schedule":"L-D: 06:00-22:00","fuels":{"gasoline95":1.709,"diesel":1.829,"dieselPremium":1.899,"dieselB":1.399},"extra":{"saleType":"P","margin":"D","reportingType":"dm","ideess":"2403","idMunicipio":"4098","idProvincia":"26","idCCAA":"17"}}},{"type":"Feature","geometry":{"type":"Point","coordinates":[-2.773139,42.536083]},"properties":{"id":"es-2406","source":"ES","brand":"ADELFAS","address":"CARRERA NACIONAL 232, KM 441, ","municipality":"Briones","province":"RIOJA (LA)","postalCode":"26330","schedule":"L-D: 07:00-22:00","fuels":{"gasoline95":1.549,"diesel":1.631,"dieselB":1.355,"adblue":0.609},"extra":{"saleType":"P","margin":"I","reportingType":"dm","ideess":"2406","idMunicipio":"4068","idProvincia":"26","idCCAA":"17"}}},{"type":"Feature","geometry":{"type":"Point","coordinates":[-2.698917,42.836778]},"properties":{"id":"es-26","source":"ES","brand":"REPSOL","address":"CALLE ALTO DE ARMENTIA, 2","municipality":"Vitoria-Gasteiz","province":"ARABA/ÁLAVA","postalCode":"01007","schedule":"L-V: 06:00-22:00; S-D: 07:00-22:00","fuels":{"gasoline95":1.829,"gasoline98":1.959,"diesel":1.939,"dieselPremium":1.999,"adblue":1.109},"extra":{"saleType":"P","margin":"N","reportingType":"dm","ideess":"26","idMunicipio":"46","idProvincia":"01","idCCAA":"16"}}},{"type":"Feature","geometry":{"type":"Point","coordinates":[-2.702278,42.895667]},"properties":{"id":"es-3","source":"ES","brand":"REPSOL","address":"AUTOVIA VITORIA-ATUBE KM. 6","municipality":"Vitoria-Gasteiz","province":"ARABA/ÁLAVA","postalCode":"01196","schedule":"L-D: 06:00-22:00","fuels":{"gasoline95":1.826,"gasoline98":1.976,"diesel":1.956,"dieselPremium":2.026},"extra":{"saleType":"P","margin":"D","reportingType":"OM","ideess":"3","idMunicipio":"46","idProvincia":"01","idCCAA":"16"}}},{"type":"Feature","geometry":{"type":"Point","coordinates":[-2.917639,42.704639]},"properties":{"id":"es-33","source":"ES","brand":"EROSKI","address":"POLIGONO SUI 1, (C.C. EROSKI), 1","municipality":"Ribera Baja/Erribera Beitia","province":"ARABA/ÁLAVA","postalCode":"01213","schedule":"L-S: 10:00-22:00","fuels":{"gasoline95":1.499,"diesel":1.595,"dieselPremium":1.695},"extra":{"saleType":"P","margin":"N","reportingType":"dm","ideess":"33","idMunicipio":"39","idProvincia":"01","idCCAA":"16"}}},{"type":"Feature","geometry":{"type":"Point","coordinates":[-2.664278,42.860306]},"properties":{"id":"es-34","source":"ES","brand":"EROSKI","address":"CALLE ZARAMAGA, 1","municipality":"Vitoria-Gasteiz","province":"ARABA/ÁLAVA","postalCode":"01013","schedule":"L-D: 24H","fuels":{"gasoline95":1.549,"diesel":1.626,"dieselPremium":1.726},"extra":{"saleType":"P","margin":"N","reportingType":"dm","ideess":"34","idMunicipio":"46","idProvincia":"01","idCCAA":"16"}}},{"type":"Feature","geometry":{"type":"Point","coordinates":[-2.722278,42.829528]},"properties":{"id":"es-41","source":"ES","brand":"IBAIA ENERGY","address":"VIAL CTRA. N102 KM347, N102","municipality":"Vitoria-Gasteiz","province":"ARABA/ÁLAVA","postalCode":"01195","schedule":"L-D: 24H","fuels":{"gasoline95":1.629,"diesel":1.689},"extra":{"saleType":"P","margin":"I","reportingType":"dm","ideess":"41","idMunicipio":"46","idProvincia":"01","idCCAA":"16"}}},{"type":"Feature","geometry":{"type":"Point","coordinates":[-2.778694,42.818944]},"properties":{"id":"es-42","source":"ES","brand":"CEPSA","address":"CARRETERA NACIONAL 1 KM. 341,8","municipality":"Vitoria-Gasteiz","province":"ARABA/ÁLAVA","postalCode":"01195","schedule":"L-V: 06:00-23:00; S: 06:00-22:00; D: 06:00-23:00","fuels":{"gasoline95":1.829,"gasoline95Premium":1.909,"diesel":1.979,"dieselPremium":2.049},"extra":{"saleType":"P","margin":"D","reportingType":"dm","ideess":"42","idMunicipio":"46","idProvincia":"01","idCCAA":"16"}}},{"type":"Feature","geometry":{"type":"Point","coordinates":[-2.416944,42.472583]},"properties":{"id":"es-4297","source":"ES","brand":"PLENERGY","address":"POLIGONO INDUSTRIAL CANTABRIA, 1","municipality":"Logroño","province":"RIOJA (LA)","postalCode":"26006","schedule":"L-D: 24H","fuels":{"gasoline95":1.649,"diesel":1.659},"extra":{"saleType":"P","margin":"D","reportingType":"dm","ideess":"4297","idMunicipio":"4122","idProvincia":"26","idCCAA":"17"}}},{"type":"Feature","geometry":{"type":"Point","coordinates":[-2.639528,42.941417]},"properties":{"id":"es-43","source":"ES","brand":"CEPSA","address":"N-240-B km 11,8","municipality":"Arrazua-Ubarrundia","province":"ARABA/ÁLAVA","postalCode":"01510","schedule":"L-D: 09:00-21:00","fuels":{"gasoline95":1.809,"gasoline98":1.949,"diesel":1.939,"dieselPremium":2.039},"extra":{"saleType":"P","margin":"D","reportingType":"dm","ideess":"43","idMunicipio":"7","idProvincia":"01","idCCAA":"16"}}},{"type":"Feature","geometry":{"type":"Point","coordinates":[-2.742111,42.514083]},"properties":{"id":"es-4300","source":"ES","brand":"BEROIL","address":"CTRA. N-232, PK. km 436,9","municipality":"San Asensio","province":"RIOJA (LA)","postalCode":"26340","schedule":"L-D: 24H","fuels":{"gasoline95":1.539,"diesel":1.619,"dieselB":1.399,"adblue":0.6},"extra":{"saleType":"P","margin":"D","reportingType":"dm","ideess":"4300","idMunicipio":"4159","idProvincia":"26","idCCAA":"17"}}},{"type":"Feature","geometry":{"type":"Point","coordinates":[-2.417389,42.462389]},"properties":{"id":"es-4303","source":"ES","brand":"CARREFOUR","address":"CALLE MADRE DE DIOS, 109","municipality":"Logroño","province":"RIOJA (LA)","postalCode":"26000","schedule":"L-S: 07:00-22:00; D: 09:00-21:00","fuels":{"gasoline95":1.769,"gasoline98":1.869,"diesel":1.879,"dieselPremium":1.919},"extra":{"saleType":"P","margin":"N","reportingType":"dm","ideess":"4303","idMunicipio":"4122","idProvincia":"26","idCCAA":"17"}}},{"type":"Feature","geometry":{"type":"Point","coordinates":[-2.429889,42.459111]},"properties":{"id":"es-4305","source":"ES","brand":"REPSOL","address":"AVENIDA LOBETE 46, 46","municipality":"Logroño","province":"RIOJA (LA)","postalCode":"26004","schedule":"L-D: 07:00-22:45","fuels":{"gasoline95":1.805,"gasoline98":1.935,"diesel":1.915,"dieselRenewable":2.035},"extra":{"saleType":"P","margin":"D","reportingType":"dm","ideess":"4305","idMunicipio":"4122","idProvincia":"26","idCCAA":"17"}}},{"type":"Feature","geometry":{"type":"Point","coordinates":[-2.466472,42.454194]},"properties":{"id":"es-4306","source":"ES","brand":"REPSOL","address":"CL POLIGONO PRADO VIEJO, 3","municipality":"Logroño","province":"RIOJA (LA)","postalCode":"26006","schedule":"L-D: 06:00-22:00","fuels":{"gasoline95":1.8,"gasoline98":1.93,"diesel":1.916,"dieselPremium":1.986,"cng":1.609},"extra":{"saleType":"P","margin":"D","reportingType":"OM","ideess":"4306","idMunicipio":"4122","idProvincia":"26","idCCAA":"17"}}},{"type":"Feature","geometry":{"type":"Point","coordinates":[-2.919194,42.533944]},"properties":{"id":"es-4307","source":"ES","brand":"REPSOL","address":"CARRETERA LR-111 KM. 36","municipality":"Tirgo","province":"RIOJA (LA)","postalCode":"26210","schedule":"L-V: 07:00-21:45; S-D: 08:00-21:45","fuels":{"gasoline95":1.8,"gasoline98":1.98,"diesel":1.916,"dieselPremium":1.986,"dieselB":1.656},"extra":{"saleType":"P","margin":"D","reportingType":"OM","ideess":"4307","idMunicipio":"4176","idProvincia":"26","idCCAA":"17"}}},{"type":"Feature","geometry":{"type":"Point","coordinates":[-2.085306,42.230167]},"properties":{"id":"es-4309","source":"ES","brand":"REPSOL","address":"AVENIDA DE QUEL, 44","municipality":"Arnedo","province":"RIOJA (LA)","postalCode":"26580","schedule":"L-D: 07:00-22:00","fuels":{"gasoline95":1.756,"gasoline98":1.896,"diesel":1.87,"dieselPremium":1.96},"extra":{"saleType":"P","margin":"D","reportingType":"OM","ideess":"4309","idMunicipio":"4052","idProvincia":"26","idCCAA":"17"}}},{"type":"Feature","geometry":{"type":"Point","coordinates":[-2.6645,42.838722]},"properties":{"id":"es-47","source":"ES","brand":"REPSOL","address":"CL TRIANAS, 17","municipality":"Vitoria-Gasteiz","province":"ARABA/ÁLAVA","postalCode":"01006","schedule":"L-D: 06:00-22:00","fuels":{"gasoline95":1.826,"gasoline95Premium":1.896,"gasoline98":1.986,"diesel":1.956,"dieselPremium":2.026},"extra":{"saleType":"P","margin":"D","reportingType":"OM","ideess":"47","idMunicipio":"46","idProvincia":"01","idCCAA":"16"}}},{"type":"Feature","geometry":{"type":"Point","coordinates":[-2.95175,42.6955]},"properties":{"id":"es-4753","source":"ES","brand":"E.LECLERC","address":"CARRETERA DE BILBAO (C.C. LECLERC) km S/N","municipality":"Miranda de Ebro","province":"BURGOS","postalCode":"09200","schedule":"L-D: 24H","fuels":{"gasoline95":1.57,"gasoline95Premium":1.6,"diesel":1.67,"dieselPremium":1.7},"extra":{"saleType":"P","margin":"D","reportingType":"dm","ideess":"4753","idMunicipio":"1342","idProvincia":"09","idCCAA":"08"}}},{"type":"Feature","geometry":{"type":"Point","coordinates":[-2.712472,42.877139]},"properties":{"id":"es-48","source":"ES","brand":"REPSOL","address":"CR N-1, 350,5","municipality":"Vitoria-Gasteiz","province":"ARABA/ÁLAVA","postalCode":"01196","schedule":"L-D: 24H","fuels":{"gasoline95":1.826,"gasoline98":1.976,"diesel":1.956,"dieselB":1.752,"dieselRenewable":2.076},"extra":{"saleType":"P","margin":"D","reportingType":"OM","ideess":"48","idMunicipio":"46","idProvincia":"01","idCCAA":"16"}}},{"type":"Feature","geometry":{"type":"Point","coordinates":[-2.714472,42.878694]},"properties":{"id":"es-49","source":"ES","brand":"REPSOL","address":"CR N-1, 350,5","municipality":"Vitoria-Gasteiz","province":"ARABA/ÁLAVA","postalCode":"01196","schedule":"L-D: 24H","fuels":{"gasoline95":1.826,"gasoline98":1.976,"diesel":1.956,"dieselB":1.752,"dieselRenewable":2.076,"lpg":1.125},"extra":{"saleType":"P","margin":"I","reportingType":"OM","ideess":"49","idMunicipio":"46","idProvincia":"01","idCCAA":"16"}}},{"type":"Feature","geometry":{"type":"Point","coordinates":[-2.750194,42.733694]},"properties":{"id":"es-4944","source":"ES","brand":"GASOLINERA TREVIÑO","address":"CARRETERA MIRANDA DE EBRO KM. 38","municipality":"Condado de Treviño","province":"BURGOS","postalCode":"09215","schedule":"L-S: 07:00-22:00; D: 08:00-15:00","fuels":{"gasoline95":1.719,"diesel":1.725,"dieselPremium":1.743},"extra":{"saleType":"P","margin":"I","reportingType":"dm","ideess":"4944","idMunicipio":"1259","idProvincia":"09","idCCAA":"08"}}},{"type":"Feature","geometry":{"type":"Point","coordinates":[-2.932667,42.68575]},"properties":{"id":"es-5037","source":"ES","brand":"GALP","address":"CTRA. DE LOGROÑO, 70","municipality":"Miranda de Ebro","province":"BURGOS","postalCode":"09200","schedule":"L-D: 06:30-22:30","fuels":{"gasoline95":1.644,"gasoline98":1.784,"diesel":1.654,"dieselPremium":1.704,"dieselB":1.384},"extra":{"saleType":"P","margin":"N","reportingType":"OM","ideess":"5037","idMunicipio":"1342","idProvincia":"09","idCCAA":"08"}}},{"type":"Feature","geometry":{"type":"Point","coordinates":[-2.849833,42.635194]},"properties":{"id":"es-51","source":"ES","brand":"REPSOL","address":"CARRETERA N-124 KM. 35","municipality":"Labastida","province":"ARABA/ÁLAVA","postalCode":"01212","schedule":"L-V: 07:00-21:45; S-D: 08:00-21:45","fuels":{"gasoline95":1.82,"gasoline98":1.98,"diesel":1.956,"dieselB":1.722,"dieselRenewable":2.076},"extra":{"saleType":"P","margin":"I","reportingType":"OM","ideess":"51","idMunicipio":"24","idProvincia":"01","idCCAA":"16"}}},{"type":"Feature","geometry":{"type":"Point","coordinates":[-2.658222,42.836833]},"properties":{"id":"es-56","source":"ES","brand":"CEPSA","address":"CALLE VENTA DE LA ESTRELLA, 3","municipality":"Vitoria-Gasteiz","province":"ARABA/ÁLAVA","postalCode":"01006","schedule":"L-D: 07:00-22:00","fuels":{"gasoline95":1.775,"gasoline98":1.895,"diesel":1.893,"dieselPremium":1.983},"extra":{"saleType":"P","margin":"D","reportingType":"dm","ideess":"56","idMunicipio":"46","idProvincia":"01","idCCAA":"16"}}},{"type":"Feature","geometry":{"type":"Point","coordinates":[-2.661694,42.859278]},"properties":{"id":"es-59","source":"ES","brand":"PETRONOR","address":"CALLE BETOÑO, 1","municipality":"Vitoria-Gasteiz","province":"ARABA/ÁLAVA","postalCode":"01013","schedule":"L-D: 06:00-22:00","fuels":{"gasoline95":1.83,"gasoline98":2.01,"diesel":1.956,"dieselRenewable":2.076},"extra":{"saleType":"P","margin":"D","reportingType":"OM","ideess":"59","idMunicipio":"46","idProvincia":"01","idCCAA":"16"}}},{"type":"Feature","geometry":{"type":"Point","coordinates":[-2.952944,42.688306]},"properties":{"id":"es-5983","source":"ES","brand":"REPSOL","address":"CARRETERA MADRID-IRUN KM. 318","municipality":"Miranda de Ebro","province":"BURGOS","postalCode":"09200","schedule":"L-D: 06:30-22:30","fuels":{"gasoline95":1.816,"diesel":1.93,"dieselPremium":2.0,"lpg":1.115},"extra":{"saleType":"P","margin":"D","reportingType":"OM","ideess":"5983","idMunicipio":"1342","idProvincia":"09","idCCAA":"08"}}},{"type":"Feature","geometry":{"type":"Point","coordinates":[-2.95275,42.688833]},"properties":{"id":"es-5984","source":"ES","brand":"REPSOL","address":"CARRETERA MADRID-IRUN KM. 318","municipality":"Miranda de Ebro","province":"BURGOS","postalCode":"09200","schedule":"L-V: 06:00-21:00; S: 08:00-14:00; D: 07:00-15:00","fuels":{"gasoline95":1.816,"gasoline98":1.946,"diesel":1.93,"dieselPremium":2.0},"extra":{"saleType":"P","margin":"I","reportingType":"OM","ideess":"5984","idMunicipio":"1342","idProvincia":"09","idCCAA":"08"}}},{"type":"Feature","geometry":{"type":"Point","coordinates":[-2.9375,42.692944]},"properties":{"id":"es-6041","source":"ES","brand":"REPSOL","address":" CTRA NACIONAL 1 KM 318,8, ","municipality":"Miranda de Ebro","province":"BURGOS","postalCode":"09200","schedule":"L-V: 06:00-21:00","fuels":{"gasoline95":1.82,"gasoline98":2.0,"diesel":1.926,"dieselPremium":2.046},"extra":{"saleType":"P","margin":"I","reportingType":"OM","ideess":"6041","idMunicipio":"1342","idProvincia":"09","idCCAA":"08"}}},{"type":"Feature","geometry":{"type":"Point","coordinates":[-2.231972,42.027778]},"properties":{"id":"es-6340","source":"ES","brand":"REPSOL","address":"CARRETERA CARRETERA SORIA 17, SAN PEDRO MANRIQUE KM. 0,20","municipality":"San Pedro Manrique","province":"SORIA","postalCode":"42174","schedule":"L-S: 08:00-14:00 y 15:30-20:00; D: 08:00-12:00","fuels":{"gasoline95":1.756,"diesel":1.916,"dieselPremium":2.026},"extra":{"saleType":"P","margin":"D","reportingType":"OM","ideess":"6340","idMunicipio":"6297","idProvincia":"42","idCCAA":"08"}}},{"type":"Feature","geometry":{"type":"Point","coordinates":[-2.394583,42.848944]},"properties":{"id":"es-66","source":"ES","brand":"GALP","address":"CARRETERA ANTIGUA NACIONAL I KM. 375","municipality":"Salvatierra/Agurain","province":"ARABA/ÁLAVA","postalCode":"01200","schedule":"L-D: 06:00-22:00","fuels":{"gasoline95":1.694,"gasoline95Premium":1.744,"diesel":1.794,"dieselPremium":1.844,"dieselB":1.674},"extra":{"saleType":"P","margin":"N","reportingType":"OM","ideess":"66","idMunicipio":"40","idProvincia":"01","idCCAA":"16"}}},{"type":"Feature","geometry":{"type":"Point","coordinates":[-2.672944,42.855]},"properties":{"id":"es-7983","source":"ES","brand":"CEPSA","address":"CALLE REYES CATOLICOS, 2","municipality":"Vitoria-Gasteiz","province":"ARABA/ÁLAVA","postalCode":"01013","schedule":"L-V: 09:00-17:00","fuels":{"gasoline95":1.839,"gasoline98":1.959,"diesel":1.979,"dieselPremium":2.079},"extra":{"saleType":"P","margin":"N","reportingType":"OM","ideess":"7983","idMunicipio":"46","idProvincia":"01","idCCAA":"16"}}},{"type":"Feature","geometry":{"type":"Point","coordinates":[-2.477917,42.753194]},"properties":{"id":"es-8060","source":"ES","brand":"(SIN RÓTULO)","address":"CARRETERA A-132 VITORIA-ESTELLA KM. 23","municipality":"Arraia-Maeztu","province":"ARABA/ÁLAVA","postalCode":"01120","schedule":"L-D: 07:00-23:00","fuels":{"gasoline95":1.74,"gasoline98":1.8,"diesel":1.74},"extra":{"saleType":"P","margin":"I","reportingType":"dm","ideess":"8060","idMunicipio":"6","idProvincia":"01","idCCAA":"16"}}},{"type":"Feature","geometry":{"type":"Point","coordinates":[-2.693722,42.849028]},"properties":{"id":"es-8125","source":"ES","brand":"CEPSA","address":"AVENIDA MEDITERRANEO, 7","municipality":"Vitoria-Gasteiz","province":"ARABA/ÁLAVA","postalCode":"01010","schedule":"L-S: 07:00-22:00; D: 08:00-22:00","fuels":{"gasoline95":1.775,"gasoline95Premium":1.865,"diesel":1.893,"dieselPremium":1.983},"extra":{"saleType":"P","margin":"N","reportingType":"dm","ideess":"8125","idMunicipio":"46","idProvincia":"01","idCCAA":"16"}}},{"type":"Feature","geometry":{"type":"Point","coordinates":[-2.578806,42.547639]},"properties":{"id":"es-83","source":"ES","brand":"REPSOL","address":"CARRETERA A-124 KM. 65","municipality":"Laguardia","province":"ARABA/ÁLAVA","postalCode":"01300","schedule":"L-V: 07:00-21:45; S-D: 08:00-21:45","fuels":{"gasoline95":1.846,"diesel":1.98,"dieselPremium":2.05,"dieselB":1.722},"extra":{"saleType":"P","margin":"I","reportingType":"OM","ideess":"83","idMunicipio":"26","idProvincia":"01","idCCAA":"16"}}},{"type":"Feature","geometry":{"type":"Point","coordinates":[-2.906944,42.710639]},"properties":{"id":"es-8374","source":"ES","brand":"SHELL","address":"CARRETERA N-I KM. 323","municipality":"Ribera Baja/Erribera Beitia","province":"ARABA/ÁLAVA","postalCode":"01213","schedule":"L-D: 24H","fuels":{"gasoline95":1.814,"diesel":1.919,"dieselPremium":1.999,"lpg":1.029,"adblue":1.39},"extra":{"saleType":"P","margin":"N","reportingType":"OM","ideess":"8374","idMunicipio":"39","idProvincia":"01","idCCAA":"16"}}},{"type":"Feature","geometry":{"type":"Point","coordinates":[-2.435333,42.413194]},"properties":{"id":"es-9069","source":"ES","brand":"MOEVE","address":"CARRETERA LR-255 KM. 1,2","municipality":"Alberite","province":"RIOJA (LA)","postalCode":"26141","schedule":"L-V: 07:30-21:00; S-D: 08:00-14:00","fuels":{"gasoline95":1.729,"gasoline98":1.905,"diesel":1.885,"dieselPremium":1.939,"dieselB":1.659,"adblue":0.985},"extra":{"saleType":"P","margin":"D","reportingType":"dm","ideess":"9069","idMunicipio":"4040","idProvincia":"26","idCCAA":"17"}}},{"type":"Feature","geometry":{"type":"Point","coordinates":[-2.747639,42.843111]},"properties":{"id":"es-9121","source":"ES","brand":"N1JUNDIZ","address":"CALLE MENDIGORRITXU, 50","municipality":"Vitoria-Gasteiz","province":"ARABA/ÁLAVA","postalCode":"01015","schedule":"L-D: 24H","fuels":{"gasoline95":1.555,"diesel":1.712,"dieselB":1.417,"adblue":0.742},"extra":{"saleType":"P","margin":"N","reportingType":"dm","ideess":"9121","idMunicipio":"46","idProvincia":"01","idCCAA":"16"}}},{"type":"Feature","geometry":{"type":"Point","coordinates":[-2.198417,42.577278]},"properties":{"id":"es-9442","source":"ES","brand":"A.N. ENERGETICOS - LOS ARCOS","address":"CARRETERA CARRETERA LOS ARCOS-ACEDO KM. 1,5","municipality":"Arcos (Los)","province":"NAVARRA","postalCode":"31210","schedule":"L-D: 24H","fuels":{"diesel":1.699,"dieselB":1.469,"adblue":0.705},"extra":{"saleType":"P","margin":"D","reportingType":"dm","ideess":"9442","idMunicipio":"4628","idProvincia":"31","idCCAA":"15"}}},{"type":"Feature","geometry":{"type":"Point","coordinates":[-2.016583,42.554889]},"properties":{"id":"es-9558","source":"ES","brand":"COOP EZKIBEL","address":"NA-122 km 13","municipality":"Allo","province":"NAVARRA","postalCode":"31262","schedule":"L-D: 24H","fuels":{"dieselB":1.118},"extra":{"saleType":"P","margin":"D","reportingType":"dm","ideess":"9558","idMunicipio":"4610","idProvincia":"31","idCCAA":"15"}}},{"type":"Feature","geometry":{"type":"Point","coordinates":[-2.467861,42.453528]},"properties":{"id":"es-9798","source":"ES","brand":"ALCAMPO","address":"C.C.ALCAMPO.CAMINO DE LA TEJERA S/N","municipality":"Logroño","province":"RIOJA (LA)","postalCode":"26006","schedule":"L-D: 24H","fuels":{"gasoline95":1.609,"gasoline98":1.673,"diesel":1.739,"dieselPremium":1.789},"extra":{"saleType":"P","margin":"D","reportingType":"dm","ideess":"9798","idMunicipio":"4122","idProvincia":"26","idCCAA":"17"}}},{"type":"Feature","geometry":{"type":"Point","coordinates":[-2.661139,42.865278]},"properties":{"id":"es-9927","source":"ES","brand":"ONAINDIA LOWCOST","address":"CALLE PORTAL DE GAMARRA, 7","municipality":"Vitoria-Gasteiz","province":"ARABA/ÁLAVA","postalCode":"01013","schedule":"L-D: 24H","fuels":{"gasoline95":1.649,"gasoline98":1.769,"diesel":1.669,"dieselPremium":1.699},"extra":{"saleType":"P","margin":"I","reportingType":"dm","ideess":"9927","idMunicipio":"46","idProvincia":"01","idCCAA":"16"}}}]}