{"type":"FeatureCollection","features":[{"type":"Feature","geometry":{"type":"Point","coordinates":[-1.517056,41.9905]},"properties":{"id":"es-10079","source":"ES","brand":"FORRAJES DE RIBAFORADA, S.L.","address":"CAMINO CEMENTERIO, S/N","municipality":"Ribaforada","province":"NAVARRA","postalCode":"31550","schedule":"L-D: 24H","fuels":{"diesel":1.719,"dieselB":1.399},"extra":{"saleType":"P","margin":"N","reportingType":"dm","ideess":"10079","idMunicipio":"4819","idProvincia":"31","idCCAA":"15"}}},{"type":"Feature","geometry":{"type":"Point","coordinates":[-1.419667,41.903278]},"properties":{"id":"es-10114","source":"ES","brand":"COOPERATIVA COMARCAL STMO CRISTO DE LA COLUMNA","address":"CALLE JUAN CARLOS I REY DE ESPAÑA, 20","municipality":"Mallén","province":"ZARAGOZA","postalCode":"50550","schedule":"L-D: 24H","fuels":{"gasoline95":1.607,"diesel":1.728,"dieselB":1.404},"extra":{"saleType":"P","margin":"D","reportingType":"dm","ideess":"10114","idMunicipio":"7968","idProvincia":"50","idCCAA":"02"}}},{"type":"Feature","geometry":{"type":"Point","coordinates":[-1.216889,41.772806]},"properties":{"id":"es-10157","source":"ES","brand":"MOEVE","address":"CARRETERA N-232 KM. 271,200","municipality":"Pedrola","province":"ZARAGOZA","postalCode":"50690","schedule":"L-D: 24H","fuels":{"gasoline95":1.844,"diesel":1.939,"dieselPremium":2.019,"dieselB":1.709,"dieselRenewable":2.044},"extra":{"saleType":"P","margin":"I","reportingType":"OM","ideess":"10157","idMunicipio":"8015","idProvincia":"50","idCCAA":"02"}}},{"type":"Feature","geometry":{"type":"Point","coordinates":[-1.216306,41.773528]},"properties":{"id":"es-10158","source":"ES","brand":"MOEVE","address":"CARRETERA N-232 KM. 271,200","municipality":"Pedrola","province":"ZARAGOZA","postalCode":"50690","schedule":"L-D: 24H","fuels":{"gasoline95":1.844,"diesel":1.939,"dieselPremium":2.019,"dieselB":1.709,"dieselRenewable":2.044},"extra":{"saleType":"P","margin":"D","reportingType":"OM","ideess":"10158","idMunicipio":"8015","idProvincia":"50","idCCAA":"02"}}},{"type":"Feature","geometry":{"type":"Point","coordinates":[-1.991889,41.783833]},"properties":{"id":"es-10295","source":"ES","brand":"SIN DETERMINAR","address":"AVENIDA VALLADOLID, 13","municipality":"Ólvega","province":"SORIA","postalCode":"42110","schedule":"L-D: 24H","fuels":{"gasoline95":1.608,"diesel":1.684,"adblue":0.636},"extra":{"saleType":"P","margin":"I","reportingType":"dm","ideess":"10295","idMunicipio":"6273","idProvincia":"42","idCCAA":"08"}}},{"type":"Feature","geometry":{"type":"Point","coordinates":[-1.643,41.327472]},"properties":{"id":"es-10708","source":"ES","brand":"LA CHARLUCA ES","address":"POLIGONO LA CHARLUCA, CALLE A, 171","municipality":"Calatayud","province":"ZARAGOZA","postalCode":"50300","schedule":"L-D: 24H","fuels":{"gasoline95":1.769,"diesel":1.879,"dieselPremium":1.919},"extra":{"saleType":"P","margin":"N","reportingType":"dm","ideess":"10708","idMunicipio":"7883","idProvincia":"50","idCCAA":"02"}}},{"type":"Feature","geometry":{"type":"Point","coordinates":[-1.626861,41.531694]},"properties":{"id":"es-10915","source":"ES","brand":"D P S","address":"CTRA. A-1503, P.K. 22,800 (A-1503-CIRCUNVALACION km 22.800)","municipality":"Illueca","province":"ZARAGOZA","postalCode":"50250","schedule":"L-D: 07:00-23:00","fuels":{"gasoline95":1.779,"gasoline98":1.889,"diesel":1.889},"extra":{"saleType":"P","margin":"I","reportingType":"dm","ideess":"10915","idMunicipio":"7939","idProvincia":"50","idCCAA":"02"}}},{"type":"Feature","geometry":{"type":"Point","coordinates":[-1.528278,41.831639]},"properties":{"id":"es-10930","source":"ES","brand":"COOP BORJA","address":"CARRETERA AINZON KM. 2","municipality":"Borja","province":"ZARAGOZA","postalCode":"50540","schedule":"L-D: 24H","fuels":{"gasoline95":1.594,"diesel":1.758,"dieselB":1.319},"extra":{"saleType":"P","margin":"N","reportingType":"dm","ideess":"10930","idMunicipio":"7871","idProvincia":"50","idCCAA":"02"}}},{"type":"Feature","geometry":{"type":"Point","coordinates":[-1.768167,41.312778]},"properties":{"id":"es-10934","source":"ES","brand":"ARENTO","address":"AUTOPISTA A-2 KM. 221","municipality":"Ateca","province":"ZARAGOZA","postalCode":"50200","schedule":"L-D: 24H","fuels":{"gasoline95":1.815,"diesel":1.935,"dieselB":1.795},"extra":{"saleType":"P","margin":"D","reportingType":"dm","ideess":"10934","idMunicipio":"7854","idProvincia":"50","idCCAA":"02"}}},{"type":"Feature","geometry":{"type":"Point","coordinates":[-1.256222,41.802472]},"properties":{"id":"es-10987","source":"ES","brand":"BEROIL","address":"CARRETERA N-232 KM. 276","municipality":"Pedrola","province":"ZARAGOZA","postalCode":"50690","schedule":"L-V: 07:00-22:00; S: 09:00-14:00","fuels":{"gasoline95":1.729,"diesel":1.799,"adblue":0.6},"extra":{"saleType":"P","margin":"I","reportingType":"dm","ideess":"10987","idMunicipio":"8015","idProvincia":"50","idCCAA":"02"}}},{"type":"Feature","geometry":{"type":"Point","coordinates":[-1.113917,41.581722]},"properties":{"id":"es-11028","source":"ES","brand":"COSANCLEMENTE","address":"AVENIDA JUSTICIA DE ARAGON, 33","municipality":"Muela (La)","province":"ZARAGOZA","postalCode":"50196","schedule":"L-D: 24H","fuels":{"diesel":1.758},"extra":{"saleType":"P","margin":"D","reportingType":"dm","ideess":"11028","idMunicipio":"7993","idProvincia":"50","idCCAA":"02"}}},{"type":"Feature","geometry":{"type":"Point","coordinates":[-1.001306,41.701889]},"properties":{"id":"es-11348","source":"ES","brand":"ALCAMPO","address":"CARRETERA ZARAGOZA-LOGROÑO KM. 12,300","municipality":"Utebo","province":"ZARAGOZA","postalCode":"50180","schedule":"L-D: 24H","fuels":{"gasoline95":1.59,"gasoline98":1.736,"diesel":1.669,"dieselPremium":1.746},"extra":{"saleType":"P","margin":"I","reportingType":"dm","ideess":"11348","idMunicipio":"8082","idProvincia":"50","idCCAA":"02"}}},{"type":"Feature","geometry":{"type":"Point","coordinates":[-1.242167,41.538528]},"properties":{"id":"es-11486","source":"ES","brand":"MOEVE","address":"AUTOVIA A-2 (MRG.IZDO.) KM. 285","municipality":"Épila","province":"ZARAGOZA","postalCode":"50290","schedule":"L-D: 24H","fuels":{"gasoline95":1.864,"gasoline95Premium":1.959,"gasoline98":1.944,"diesel":1.949,"dieselPremium":2.039,"lpg":1.159},"extra":{"saleType":"P","margin":"I","reportingType":"OM","ideess":"11486","idMunicipio":"7914","idProvincia":"50","idCCAA":"02"}}},{"type":"Feature","geometry":{"type":"Point","coordinates":[-1.709556,41.8905]},"properties":{"id":"es-11557","source":"ES","brand":"EL MAYORIA COMBUSTIBLES","address":"CALLE CASTILLA, SN","municipality":"Tarazona","province":"ZARAGOZA","postalCode":"50500","schedule":"L-D: 24H","fuels":{"gasoline95":1.619,"dieselPremium":1.799,"adblue":0.599},"extra":{"saleType":"P","margin":"D","reportingType":"dm","ideess":"11557","idMunicipio":"8061","idProvincia":"50","idCCAA":"02"}}},{"type":"Feature","geometry":{"type":"Point","coordinates":[-1.530389,41.986667]},"properties":{"id":"es-11712","source":"ES","brand":"VALCARCE","address":"AUTOVIA A-68 KM. 105,6","municipality":"Ribaforada","province":"NAVARRA","postalCode":"31550","schedule":"L-D: 24H","fuels":{"gasoline95":1.759,"diesel":1.929,"dieselPremium":1.969,"dieselB":1.599,"adblue":0.799},"extra":{"saleType":"P","margin":"D","reportingType":"dm","ideess":"11712","idMunicipio":"4819","idProvincia":"31","idCCAA":"15"}}},{"type":"Feature","geometry":{"type":"Point","coordinates":[-1.067556,41.616861]},"properties":{"id":"es-11780","source":"ES","brand":"BOLA","address":"CALLE SANTO DOMINGO, 14","municipality":"Muela (La)","province":"ZARAGOZA","postalCode":"50196","schedule":"L-D: 00:00-23:59","fuels":{"gasoline95":1.79,"diesel":1.87},"extra":{"saleType":"P","margin":"D","reportingType":"dm","ideess":"11780","idMunicipio":"7993","idProvincia":"50","idCCAA":"02"}}},{"type":"Feature","geometry":{"type":"Point","coordinates":[-1.516611,41.832806]},"properties":{"id":"es-11844","source":"ES","brand":"BOLA","address":"CALLE BARBALANCA-CENICERO, S/N","municipality":"Borja","province":"ZARAGOZA","postalCode":"50540","schedule":"L-D: 24H","fuels":{"gasoline95":1.59,"diesel":1.74},"extra":{"saleType":"P","margin":"N","reportingType":"dm","ideess":"11844","idMunicipio":"7871","idProvincia":"50","idCCAA":"02"}}},{"type":"Feature","geometry":{"type":"Point","coordinates":[-1.273194,41.5955]},"properties":{"id":"es-11853","source":"ES","brand":"COOPERATIVA SAN PEDRO ARBUES","address":"POLIGONO VALDEMUEL, SN","municipality":"Épila","province":"ZARAGOZA","postalCode":"50290","schedule":"L-D: 24H","fuels":{"gasoline95":1.569,"diesel":1.749,"dieselB":1.389},"extra":{"saleType":"P","margin":"D","reportingType":"dm","ideess":"11853","idMunicipio":"7914","idProvincia":"50","idCCAA":"02"}}},{"type":"Feature","geometry":{"type":"Point","coordinates":[-1.208056,41.361111]},"properties":{"id":"es-11882","source":"ES","brand":"DECA 2006","address":"CARRETERA N-330 KM. 46,00","municipality":"Cariñena","province":"ZARAGOZA","postalCode":"50400","schedule":"L-D: 24H","fuels":{"gasoline95":1.739,"diesel":1.839,"dieselPremium":1.899,"dieselB":1.429},"extra":{"saleType":"P","margin":"D","reportingType":"dm","ideess":"11882","idMunicipio":"7889","idProvincia":"50","idCCAA":"02"}}},{"type":"Feature","geometry":{"type":"Point","coordinates":[-1.698444,41.948917]},"properties":{"id":"es-11885","source":"ES","brand":"COOP. NTRA.SRA. PILAR","address":"POLIGONO EL NAVALLO PARCELA B2, S/N","municipality":"Novallas","province":"ZARAGOZA","postalCode":"50510","schedule":"L-D: 24H","fuels":{"gasoline95":1.61,"diesel":1.76,"dieselPremium":1.78,"dieselB":1.46},"extra":{"saleType":"P","margin":"D","reportingType":"dm","ideess":"11885","idMunicipio":"8001","idProvincia":"50","idCCAA":"02"}}},{"type":"Feature","geometry":{"type":"Point","coordinates":[-1.276389,41.050833]},"properties":{"id":"es-11986","source":"ES","brand":"REPSOL","address":"AUTOVIA A-23 KM. 202","municipality":"Ferreruela de Huerva","province":"TERUEL","postalCode":"44490","schedule":"L-D: 24H","fuels":{"gasoline95":1.765,"gasoline98":1.875,"diesel":1.899,"dieselB":1.629,"dieselRenewable":2.019,"lpg":1.175},"extra":{"saleType":"P","margin":"D","reportingType":"OM","ideess":"11986","idMunicipio":"6612","idProvincia":"44","idCCAA":"02"}}},{"type":"Feature","geometry":{"type":"Point","coordinates":[-1.292528,41.17075]},"properties":{"id":"es-12004","source":"ES","brand":"BP","address":"AUTOVIA A 23 SOMPRT-SAGUNTO KM. 215","municipality":"Villadoz","province":"ZARAGOZA","postalCode":"50490","schedule":"L-D: 24H","fuels":{"gasoline95":1.769,"gasoline98":1.909,"diesel":1.899,"dieselPremium":1.989},"extra":{"saleType":"P","margin":"I","reportingType":"dm","ideess":"12004","idMunicipio":"8092","idProvincia":"50","idCCAA":"02"}}},{"type":"Feature","geometry":{"type":"Point","coordinates":[-1.56025,41.447222]},"properties":{"id":"es-12071","source":"ES","brand":"NO","address":"CARRETERA A-1503 KM. 7,500","municipality":"Sabiñán","province":"ZARAGOZA","postalCode":"50299","schedule":"L-V: 07:00-20:30; S: 08:00-20:00; D: 10:00-19:00","fuels":{"gasoline95":1.779,"diesel":1.899,"dieselB":1.689},"extra":{"saleType":"P","margin":"D","reportingType":"dm","ideess":"12071","idMunicipio":"8040","idProvincia":"50","idCCAA":"02"}}},{"type":"Feature","geometry":{"type":"Point","coordinates":[-1.5155,41.994389]},"properties":{"id":"es-12106","source":"ES","brand":"AN ENERGETICOS - RIBAFORADA","address":"AVENIDA NUESTRA SRA DEL CARMEN, S/N","municipality":"Ribaforada","province":"NAVARRA","postalCode":"31550","schedule":"L-D: 24H","fuels":{"gasoline95":1.629,"diesel":1.729,"adblue":0.705},"extra":{"saleType":"P","margin":"N","reportingType":"dm","ideess":"12106","idMunicipio":"4819","idProvincia":"31","idCCAA":"15"}}},{"type":"Feature","geometry":{"type":"Point","coordinates":[-1.676361,41.993278]},"properties":{"id":"es-1215","source":"ES","brand":"REPSOL","address":"CR N-121  C, 10","municipality":"Cascante","province":"NAVARRA","postalCode":"31520","schedule":"L-D: 06:00-22:00","fuels":{"gasoline95":1.809,"gasoline98":1.969,"diesel":1.929,"dieselRenewable":2.049},"extra":{"saleType":"P","margin":"D","reportingType":"OM","ideess":"1215","idMunicipio":"4674","idProvincia":"31","idCCAA":"15"}}},{"type":"Feature","geometry":{"type":"Point","coordinates":[-1.245778,41.893639]},"properties":{"id":"es-12162","source":"ES","brand":"LABOIL, S.L.","address":"AUTOPISTA A-126 KM. 37,850","municipality":"Tauste","province":"ZARAGOZA","postalCode":"50660","schedule":"L-D: 24H","fuels":{"gasoline95":1.619,"gasoline98":1.889,"diesel":1.779,"dieselPremium":1.819,"dieselB":1.469,"adblue":0.999},"extra":{"saleType":"P","margin":"D","reportingType":"dm","ideess":"12162","idMunicipio":"8062","idProvincia":"50","idCCAA":"02"}}},{"type":"Feature","geometry":{"type":"Point","coordinates":[-1.44,41.975444]},"properties":{"id":"es-1221","source":"ES","brand":"EURONOR ENERGY","address":"PASEO DEL EBRO, 10","municipality":"Buñuel","province":"NAVARRA","postalCode":"31540","schedule":"L-D: 24H","fuels":{"gasoline95":1.539,"diesel":1.689},"extra":{"saleType":"P","margin":"D","reportingType":"dm","ideess":"1221","idMunicipio":"4664","idProvincia":"31","idCCAA":"15"}}},{"type":"Feature","geometry":{"type":"Point","coordinates":[-1.127056,41.768139]},"properties":{"id":"es-12429","source":"ES","brand":"OCHOA LORES (LA JAREA)","address":"AVENIDA LA JAREA, 66","municipality":"Alagón","province":"ZARAGOZA","postalCode":"50630","schedule":"L-D: 24H","fuels":{"gasoline95":1.629,"diesel":1.779},"extra":{"saleType":"P","margin":"D","reportingType":"dm","ideess":"12429","idMunicipio":"7824","idProvincia":"50","idCCAA":"02"}}},{"type":"Feature","geometry":{"type":"Point","coordinates":[-1.099611,41.58575]},"properties":{"id":"es-1250","source":"ES","brand":"SHELL","address":"A II, KM km 299,3","municipality":"Muela (La)","province":"ZARAGOZA","postalCode":"50196","schedule":"L-D: 24H","fuels":{"gasoline95":1.824,"gasoline98":1.964,"diesel":1.934,"dieselPremium":2.014,"lpg":1.059,"adblue":1.39},"extra":{"saleType":"P","margin":"D","reportingType":"OM","ideess":"1250","idMunicipio":"7993","idProvincia":"50","idCCAA":"02"}}},{"type":"Feature","geometry":{"type":"Point","coordinates":[-1.516972,41.414806]},"properties":{"id":"es-1258","source":"ES","brand":"MLC ALUENDA","address":"AUTOVIA AUTOVIA ARAGON KM. 253","municipality":"Frasno (El)","province":"ZARAGOZA","postalCode":"50320","schedule":"L-D: 24H","fuels":{"gasoline95":1.869,"diesel":1.929,"dieselPremium":1.999,"dieselB":1.659,"lpg":0.999,"adblue":0.899},"extra":{"saleType":"P","margin":"I","reportingType":"dm","ideess":"1258","idMunicipio":"7924","idProvincia":"50","idCCAA":"02"}}},{"type":"Feature","geometry":{"type":"Point","coordinates":[-1.379333,41.477278]},"properties":{"id":"es-1264","source":"ES","brand":"COSANSE","address":"AVENIDA MADRID, 14","municipality":"Almunia de Doña Godina (La)","province":"ZARAGOZA","postalCode":"50100","schedule":"L-V: 08:00-20:00; S-D: 08:00-14:00","fuels":{"gasoline95":1.729,"diesel":1.869,"dieselPremium":1.899,"dieselB":1.549},"extra":{"saleType":"P","margin":"N","reportingType":"dm","ideess":"1264","idMunicipio":"7841","idProvincia":"50","idCCAA":"02"}}},{"type":"Feature","geometry":{"type":"Point","coordinates":[-1.274806,41.59475]},"properties":{"id":"es-1265","source":"ES","brand":"E.S.EPILA","address":"CARRETERA MUEL KM. 64","municipality":"Épila","province":"ZARAGOZA","postalCode":"50290","schedule":"L-D: 24H","fuels":{"gasoline95":1.599,"gasoline98":1.769,"diesel":1.749},"extra":{"saleType":"P","margin":"N","reportingType":"dm","ideess":"1265","idMunicipio":"7914","idProvincia":"50","idCCAA":"02"}}},{"type":"Feature","geometry":{"type":"Point","coordinates":[-1.113083,41.579444]},"properties":{"id":"es-1266","source":"ES","brand":"E.S.LA MUELA","address":"PASEO REINA SOFIA, 13","municipality":"Muela (La)","province":"ZARAGOZA","postalCode":"50196","schedule":"L-V: 07:00-23:00; S: 07:00-22:00; D: 07:00-23:00","fuels":{"gasoline95":1.669,"gasoline98":1.799,"diesel":1.799,"adblue":0.89},"extra":{"saleType":"P","margin":"N","reportingType":"dm","ideess":"1266","idMunicipio":"7993","idProvincia":"50","idCCAA":"02"}}},{"type":"Feature","geometry":{"type":"Point","coordinates":[-1.095944,41.742472]},"properties":{"id":"es-12855","source":"ES","brand":"LABOIL, S.L.","address":"AVENIDA ZARAGOZA, 58","municipality":"Pinseque","province":"ZARAGOZA","postalCode":"50298","schedule":"L-D: 24H","fuels":{"gasoline95":1.629,"diesel":1.779},"extra":{"saleType":"P","margin":"D","reportingType":"dm","ideess":"12855","idMunicipio":"8020","idProvincia":"50","idCCAA":"02"}}},{"type":"Feature","geometry":{"type":"Point","coordinates":[-1.019611,41.710833]},"properties":{"id":"es-12983","source":"ES","brand":"BONAREA","address":"CALLE DINAMARCA, S/N","municipality":"Utebo","province":"ZARAGOZA","postalCode":"50180","schedule":"L-D: 24H","fuels":{"gasoline95":1.53,"diesel":1.707,"adblue":0.499},"extra":{"saleType":"P","margin":"I","reportingType":"dm","ideess":"12983","idMunicipio":"8082","idProvincia":"50","idCCAA":"02"}}},{"type":"Feature","geometry":{"type":"Point","coordinates":[-1.705,41.247056]},"properties":{"id":"es-13060","source":"ES","brand":"EL PLANO","address":"CARRETERA A202 KM. 14,100","municipality":"Munébrega","province":"ZARAGOZA","postalCode":"50219","schedule":"L-S: 08:00-13:00 y 14:00-19:00","fuels":{"gasoline95":1.78,"diesel":1.89,"dieselB":1.55},"extra":{"saleType":"P","margin":"I","reportingType":"dm","ideess":"13060","idMunicipio":"7994","idProvincia":"50","idCCAA":"02"}}},{"type":"Feature","geometry":{"type":"Point","coordinates":[-1.630278,41.353083]},"properties":{"id":"es-1356","source":"ES","brand":"Q8","address":"CARRETERA AVDA/ FUERZAS ARMADAS S/N KM. S/N","municipality":"Calatayud","province":"ZARAGOZA","postalCode":"50300","schedule":"L-D: 24H","fuels":{"gasoline95":1.729,"diesel":1.859,"dieselPremium":1.929},"extra":{"saleType":"P","margin":"I","reportingType":"dm","ideess":"1356","idMunicipio":"7883","idProvincia":"50","idCCAA":"02"}}},{"type":"Feature","geometry":{"type":"Point","coordinates":[-1.631528,41.353]},"properties":{"id":"es-1360","source":"ES","brand":"ALCAMPO","address":"AVENIDA FUERZAS ARMADAS, SN","municipality":"Calatayud","province":"ZARAGOZA","postalCode":"50300","schedule":"L-D: 24H","fuels":{"gasoline95":1.578,"gasoline98":1.648,"diesel":1.702,"dieselPremium":1.732},"extra":{"saleType":"P","margin":"N","reportingType":"dm","ideess":"1360","idMunicipio":"7883","idProvincia":"50","idCCAA":"02"}}},{"type":"Feature","geometry":{"type":"Point","coordinates":[-1.066694,41.736972]},"properties":{"id":"es-1371","source":"ES","brand":"E.S. LA JOYOSA","address":"CR N 232 KM  257","municipality":"Joyosa (La)","province":"ZARAGOZA","postalCode":"50692","schedule":"L-D: 24H","fuels":{"gasoline95":1.779,"diesel":1.919,"adblue":1.099},"extra":{"saleType":"P","margin":"N","reportingType":"dm","ideess":"1371","idMunicipio":"7944","idProvincia":"50","idCCAA":"02"}}},{"type":"Feature","geometry":{"type":"Point","coordinates":[-1.346556,41.450694]},"properties":{"id":"es-1372","source":"ES","brand":"AREA-220","address":"CARRETERA A-220 KM. 3,6","municipality":"Almunia de Doña Godina (La)","province":"ZARAGOZA","postalCode":"50100","schedule":"L-D: 06:00-21:00","fuels":{"gasoline95":1.729,"diesel":1.829,"dieselPremium":1.829},"extra":{"saleType":"P","margin":"D","reportingType":"dm","ideess":"1372","idMunicipio":"7841","idProvincia":"50","idCCAA":"02"}}},{"type":"Feature","geometry":{"type":"Point","coordinates":[-1.419444,41.840056]},"properties":{"id":"es-1375","source":"ES","brand":"REPSOL","address":"CARRETERA N-122 KM. 53,5","municipality":"Agón","province":"ZARAGOZA","postalCode":"50560","schedule":"L-D: 06:00-22:00","fuels":{"gasoline95":1.859,"gasoline98":1.939,"diesel":1.899,"dieselRenewable":2.029},"extra":{"saleType":"P","margin":"D","reportingType":"dm","ideess":"1375","idMunicipio":"7819","idProvincia":"50","idCCAA":"02"}}},{"type":"Feature","geometry":{"type":"Point","coordinates":[-1.273361,41.524333]},"properties":{"id":"es-1376","source":"ES","brand":"REPSOL","address":"AUTOVIA A-2 KM. 281,6","municipality":"Calatorao","province":"ZARAGOZA","postalCode":"50280","schedule":"L-D: 24H","fuels":{"gasoline95":1.779,"gasoline98":1.919,"diesel":1.895,"dieselB":1.689,"dieselRenewable":2.015},"extra":{"saleType":"P","margin":"I","reportingType":"OM","ideess":"1376","idMunicipio":"7884","idProvincia":"50","idCCAA":"02"}}},{"type":"Feature","geometry":{"type":"Point","coordinates":[-1.288111,41.5165]},"properties":{"id":"es-1377","source":"ES","brand":"REPSOL","address":"AUTOVIA A-2 KM. 280,100","municipality":"Calatorao","province":"ZARAGOZA","postalCode":"50280","schedule":"L-D: 24H","fuels":{"gasoline95":1.789,"gasoline98":1.919,"diesel":1.905,"dieselB":1.685,"dieselRenewable":2.015},"extra":{"saleType":"P","margin":"D","reportingType":"OM","ideess":"1377","idMunicipio":"7884","idProvincia":"50","idCCAA":"02"}}},{"type":"Feature","geometry":{"type":"Point","coordinates":[-1.099722,41.471111]},"properties":{"id":"es-13784","source":"ES","brand":"REPSOL","address":"CARRETERA A-1101 KM. 13,000","municipality":"Muel","province":"ZARAGOZA","postalCode":"50540","schedule":"L-D: 24H","fuels":{"gasoline95":1.845,"gasoline98":1.955,"diesel":1.929,"dieselB":1.645,"dieselRenewable":2.039},"extra":{"saleType":"P","margin":"I","reportingType":"OM","ideess":"13784","idMunicipio":"7992","idProvincia":"50","idCCAA":"02"}}},{"type":"Feature","geometry":{"type":"Point","coordinates":[-1.964361,41.305917]},"properties":{"id":"es-1382","source":"ES","brand":"AVIA","address":"CARRETERA ENLACE AUTOVIA ARAGON KM. 200","municipality":"Cetina","province":"ZARAGOZA","postalCode":"50292","schedule":"L-D: 07:00-23:00","fuels":{"gasoline95":1.749,"diesel":1.899,"dieselPremium":1.959,"adblue":0.899},"extra":{"saleType":"P","margin":"I","reportingType":"dm","ideess":"1382","idMunicipio":"7897","idProvincia":"50","idCCAA":"02"}}},{"type":"Feature","geometry":{"type":"Point","coordinates":[-1.642778,41.335389]},"properties":{"id":"es-1385","source":"ES","brand":"REPSOL","address":"CARRETERA N-234 KM. 256,4","municipality":"Calatayud","province":"ZARAGOZA","postalCode":"50300","schedule":"L-D: 06:30-22:30","fuels":{"gasoline95":1.785,"gasoline98":1.895,"diesel":1.909,"dieselB":1.689,"dieselRenewable":2.029},"extra":{"saleType":"P","margin":"D","reportingType":"OM","ideess":"1385","idMunicipio":"7883","idProvincia":"50","idCCAA":"02"}}},{"type":"Feature","geometry":{"type":"Point","coordinates":[-1.599833,41.521917]},"properties":{"id":"es-1388","source":"ES","brand":"REPSOL","address":"CALLE ORIENTE, 26","municipality":"Brea de Aragón","province":"ZARAGOZA","postalCode":"50246","schedule":"L-V: 07:30-21:00; S-D: 08:00-14:00","fuels":{"gasoline95":1.769,"gasoline95Premium":1.829,"diesel":1.875,"dieselB":1.645,"dieselRenewable":1.995},"extra":{"saleType":"P","margin":"N","reportingType":"OM","ideess":"1388","idMunicipio":"7873","idProvincia":"50","idCCAA":"02"}}},{"type":"Feature","geometry":{"type":"Point","coordinates":[-1.787278,41.466056]},"properties":{"id":"es-1394","source":"ES","brand":"PETRONOR","address":"CALLE GASCA, 108","municipality":"Villarroya de la Sierra","province":"ZARAGOZA","postalCode":"50310","schedule":"L-V: 08:00-21:00; S: 08:00-14:00; D: 16:00-21:00","fuels":{"gasoline95":1.769,"gasoline98":1.939,"diesel":1.879,"dieselB":1.649,"dieselRenewable":1.999},"extra":{"saleType":"P","margin":"D","reportingType":"OM","ideess":"1394","idMunicipio":"8103","idProvincia":"50","idCCAA":"02"}}},{"type":"Feature","geometry":{"type":"Point","coordinates":[-1.371528,41.483222]},"properties":{"id":"es-1403","source":"ES","brand":"REPSOL","address":"CARRETERA MADRID KM. 272","municipality":"Almunia de Doña Godina (La)","province":"ZARAGOZA","postalCode":"50100","schedule":"L-D: 07:00-22:00","fuels":{"gasoline95":1.769,"gasoline98":1.939,"diesel":1.909,"dieselRenewable":2.029},"extra":{"saleType":"P","margin":"I","reportingType":"OM","ideess":"1403","idMunicipio":"7841","idProvincia":"50","idCCAA":"02"}}},{"type":"Feature","geometry":{"type":"Point","coordinates":[-1.32,41.834472]},"properties":{"id":"es-1413","source":"ES","brand":"REPSOL","address":"AUTOPISTA AP-68 KM. 254","municipality":"Gallur","province":"ZARAGOZA","postalCode":"50650","schedule":"L-D: 07:00-23:00","fuels":{"gasoline95":1.815,"gasoline95Premium":1.885,"gasoline98":1.925,"diesel":1.905,"dieselRenewable":2.015},"extra":{"saleType":"P","margin":"I","reportingType":"OM","ideess":"1413","idMunicipio":"7931","idProvincia":"50","idCCAA":"02"}}},{"type":"Feature","geometry":{"type":"Point","coordinates":[-1.379389,41.490083]},"properties":{"id":"es-14131","source":"ES","brand":"GASOLPRICE","address":"CARRETERA NACIONAL A-121 KM. 41","municipality":"Almunia de Doña Godina (La)","province":"ZARAGOZA","postalCode":"50100","schedule":"L-D: 06:00-22:00","fuels":{"gasoline95":1.729,"diesel":1.829,"dieselPremium":1.829,"dieselB":1.549},"extra":{"saleType":"P","margin":"D","reportingType":"dm","ideess":"14131","idMunicipio":"7841","idProvincia":"50","idCCAA":"02"}}},{"type":"Feature","geometry":{"type":"Point","coordinates":[-1.319722,41.832972]},"properties":{"id":"es-1414","source":"ES","brand":"REPSOL","address":"AUTOPISTA AP-68 KM. 254","municipality":"Gallur","province":"ZARAGOZA","postalCode":"50650","schedule":"L-D: 07:00-23:00","fuels":{"gasoline95":1.815,"gasoline95Premium":1.885,"gasoline98":1.925,"diesel":1.905,"dieselRenewable":2.015},"extra":{"saleType":"P","margin":"D","reportingType":"OM","ideess":"1414","idMunicipio":"7931","idProvincia":"50","idCCAA":"02"}}},{"type":"Feature","geometry":{"type":"Point","coordinates":[-1.031417,41.730583]},"properties":{"id":"es-1415","source":"ES","brand":"PETRONOR","address":"AU A-68, 283","municipality":"Sobradiel","province":"ZARAGOZA","postalCode":"50629","schedule":"L-D: 24H","fuels":{"gasoline95":1.815,"gasoline95Premium":1.885,"gasoline98":1.925,"diesel":1.895,"dieselRenewable":2.015},"extra":{"saleType":"P","margin":"I","reportingType":"OM","ideess":"1415","idMunicipio":"8057","idProvincia":"50","idCCAA":"02"}}},{"type":"Feature","geometry":{"type":"Point","coordinates":[-1.029833,41.731639]},"properties":{"id":"es-1416","source":"ES","brand":"REPSOL","address":"AU A-68, 283","municipality":"Sobradiel","province":"ZARAGOZA","postalCode":"50629","schedule":"L-D: 24H","fuels":{"gasoline95":1.815,"gasoline95Premium":1.885,"gasoline98":1.925,"diesel":1.905,"dieselRenewable":2.015},"extra":{"saleType":"P","margin":"D","reportingType":"OM","ideess":"1416","idMunicipio":"8057","idProvincia":"50","idCCAA":"02"}}},{"type":"Feature","geometry":{"type":"Point","coordinates":[-1.1265,41.766806]},"properties":{"id":"es-1426","source":"ES","brand":"REPSOL","address":"CALLE CARRERA DE CABALLOS, 74","municipality":"Alagón","province":"ZARAGOZA","postalCode":"50630","schedule":"L-S: 08:00-20:00; D: 08:00-14:00","fuels":{"gasoline95":1.789,"diesel":1.895,"dieselRenewable":2.015},"extra":{"saleType":"P","margin":"D","reportingType":"OM","ideess":"1426","idMunicipio":"7824","idProvincia":"50","idCCAA":"02"}}},{"type":"Feature","geometry":{"type":"Point","coordinates":[-1.646528,41.352139]},"properties":{"id":"es-1428","source":"ES","brand":"REPSOL","address":"AVENIDA RAMON Y CAJAL, S/N","municipality":"Calatayud","province":"ZARAGOZA","postalCode":"50300","schedule":"L-D: 06:00-22:00","fuels":{"gasoline95":1.775,"gasoline98":1.945,"diesel":1.915,"dieselRenewable":2.035},"extra":{"saleType":"P","margin":"D","reportingType":"OM","ideess":"1428","idMunicipio":"7883","idProvincia":"50","idCCAA":"02"}}},{"type":"Feature","geometry":{"type":"Point","coordinates":[-1.149528,41.761639]},"properties":{"id":"es-1439","source":"ES","brand":"REPSOL","address":"AUTOVIA A-68 KM. 265","municipality":"Alagón","province":"ZARAGOZA","postalCode":"50630","schedule":"L-D: 06:00-22:00","fuels":{"gasoline95":1.799,"gasoline98":1.969,"diesel":1.899,"dieselRenewable":2.019},"extra":{"saleType":"P","margin":"D","reportingType":"OM","ideess":"1439","idMunicipio":"7824","idProvincia":"50","idCCAA":"02"}}},{"type":"Feature","geometry":{"type":"Point","coordinates":[-1.149389,41.761111]},"properties":{"id":"es-1440","source":"ES","brand":"REPSOL","address":"AUTOVIA A-68 KM. 265","municipality":"Alagón","province":"ZARAGOZA","postalCode":"50630","schedule":"L-D: 06:00-22:00","fuels":{"gasoline95":1.799,"gasoline98":1.969,"diesel":1.899,"dieselRenewable":2.019},"extra":{"saleType":"P","margin":"I","reportingType":"OM","ideess":"1440","idMunicipio":"7824","idProvincia":"50","idCCAA":"02"}}},{"type":"Feature","geometry":{"type":"Point","coordinates":[-1.010028,41.624556]},"properties":{"id":"es-1444","source":"ES","brand":"REPSOL","address":"AUTOVIA MADRID KM. 309","municipality":"Zaragoza","province":"ZARAGOZA","postalCode":"50012","schedule":"L-V: 06:00-22:00; S-D: 08:00-22:00","fuels":{"gasoline95":1.859,"diesel":1.949,"dieselRenewable":2.059},"extra":{"saleType":"P","margin":"D","reportingType":"dm","ideess":"1444","idMunicipio":"8108","idProvincia":"50","idCCAA":"02"}}},{"type":"Feature","geometry":{"type":"Point","coordinates":[-1.009972,41.625083]},"properties":{"id":"es-1445","source":"ES","brand":"REPSOL","address":"AUTOVIA MADRID KM. 309","municipality":"Zaragoza","province":"ZARAGOZA","postalCode":"50012","schedule":"L-D: 24H","fuels":{"gasoline95":1.859,"gasoline98":1.969,"diesel":1.949,"dieselRenewable":2.059,"bioCng":1.709,"bioLng":1.679,"hydrogen":25.0},"extra":{"saleType":"P","margin":"I","reportingType":"dm","ideess":"1445","idMunicipio":"8108","idProvincia":"50","idCCAA":"02"}}},{"type":"Feature","geometry":{"type":"Point","coordinates":[-1.254972,41.925278]},"properties":{"id":"es-1446","source":"ES","brand":"REPSOL","address":"AVENIDA CONSTITUCION, SN","municipality":"Tauste","province":"ZARAGOZA","postalCode":"50660","schedule":"L-D: 24H","fuels":{"gasoline95":1.769,"gasoline98":1.939,"diesel":1.875,"dieselRenewable":1.995},"extra":{"saleType":"P","margin":"I","reportingType":"OM","ideess":"1446","idMunicipio":"8062","idProvincia":"50","idCCAA":"02"}}},{"type":"Feature","geometry":{"type":"Point","coordinates":[-1.406028,41.117167]},"properties":{"id":"es-1448","source":"ES","brand":"REPSOL","address":"CR N-234, 220,2","municipality":"Daroca","province":"ZARAGOZA","postalCode":"50360","schedule":"L-D: 07:00-23:00","fuels":{"gasoline95":1.819,"gasoline98":1.979,"diesel":1.949,"dieselB":1.685,"dieselRenewable":2.059},"extra":{"saleType":"P","margin":"I","reportingType":"OM","ideess":"1448","idMunicipio":"7910","idProvincia":"50","idCCAA":"02"}}},{"type":"Feature","geometry":{"type":"Point","coordinates":[-1.348194,41.523639]},"properties":{"id":"es-1456","source":"ES","brand":"CALATORAO ES","address":"CALLE DOCTOR CARNICERO, S/N","municipality":"Calatorao","province":"ZARAGOZA","postalCode":"50280","schedule":"L-D: 24H","fuels":{"gasoline95":1.759,"diesel":1.879,"dieselPremium":1.919},"extra":{"saleType":"P","margin":"I","reportingType":"dm","ideess":"1456","idMunicipio":"7884","idProvincia":"50","idCCAA":"02"}}},{"type":"Feature","geometry":{"type":"Point","coordinates":[-1.042444,41.618389]},"properties":{"id":"es-1458","source":"ES","brand":"GALP","address":"AUTOVIA A-2 KM. 306,0","municipality":"Zaragoza","province":"ZARAGOZA","postalCode":"50190","schedule":"L-D: 07:00-23:00","fuels":{"gasoline95":1.829,"diesel":1.924,"dieselPremium":2.014,"dieselRenewable":2.014,"adblue":0.799},"extra":{"saleType":"P","margin":"I","reportingType":"OM","ideess":"1458","idMunicipio":"8108","idProvincia":"50","idCCAA":"02"}}},{"type":"Feature","geometry":{"type":"Point","coordinates":[-1.219639,41.335639]},"properties":{"id":"es-1464","source":"ES","brand":"MOEVE","address":"CARRETERA N-330 KM. 449,6","municipality":"Cariñena","province":"ZARAGOZA","postalCode":"50400","schedule":"L-D: 06:00-22:00","fuels":{"gasoline95":1.854,"gasoline95Premium":1.949,"diesel":1.939,"dieselPremium":2.039,"dieselB":1.739},"extra":{"saleType":"P","margin":"I","reportingType":"OM","ideess":"1464","idMunicipio":"7889","idProvincia":"50","idCCAA":"02"}}},{"type":"Feature","geometry":{"type":"Point","coordinates":[-1.038972,41.350472]},"properties":{"id":"es-1466","source":"ES","brand":"CEPSA","address":"CARRETERA A1101 KM. 16,5","municipality":"Villanueva de Huerva","province":"ZARAGOZA","postalCode":"50153","schedule":"L-V: 08:00-13:30 y 15:30-20:00; S: 08:00-13:30","fuels":{"gasoline95":1.759,"diesel":1.879,"dieselPremium":1.984,"dieselB":1.479},"extra":{"saleType":"P","margin":"I","reportingType":"dm","ideess":"1466","idMunicipio":"8099","idProvincia":"50","idCCAA":"02"}}},{"type":"Feature","geometry":{"type":"Point","coordinates":[-1.355389,41.846111]},"properties":{"id":"es-1468","source":"ES","brand":"AVIA","address":"CARRETERA N-232 KM. 286","municipality":"Gallur","province":"ZARAGOZA","postalCode":"50650","schedule":"L-D: 24H","fuels":{"gasoline95":1.813,"diesel":1.904},"extra":{"saleType":"P","margin":"D","reportingType":"dm","ideess":"1468","idMunicipio":"7931","idProvincia":"50","idCCAA":"02"}}},{"type":"Feature","geometry":{"type":"Point","coordinates":[-1.233833,41.540417]},"properties":{"id":"es-1471","source":"ES","brand":"MOEVE","address":"AUTOVIA A-2 KM. 285","municipality":"Épila","province":"ZARAGOZA","postalCode":"50290","schedule":"L-V: 07:00-22:00; S: 08:00-15:00; D: 14:00-22:00","fuels":{"gasoline95":1.778,"diesel":1.868},"extra":{"saleType":"P","margin":"D","reportingType":"dm","ideess":"1471","idMunicipio":"7914","idProvincia":"50","idCCAA":"02"}}},{"type":"Feature","geometry":{"type":"Point","coordinates":[-1.721278,41.893972]},"properties":{"id":"es-1472","source":"ES","brand":"MOEVE","address":"AVENIDA TERESA CAJAL, 22","municipality":"Tarazona","province":"ZARAGOZA","postalCode":"50500","schedule":"L-D: 06:00-22:00","fuels":{"gasoline95":1.879,"gasoline95Premium":1.959,"gasoline98":1.979,"diesel":1.969,"dieselPremium":2.029,"dieselB":1.609},"extra":{"saleType":"P","margin":"I","reportingType":"dm","ideess":"1472","idMunicipio":"8061","idProvincia":"50","idCCAA":"02"}}},{"type":"Feature","geometry":{"type":"Point","coordinates":[-1.379361,41.483056]},"properties":{"id":"es-1488","source":"ES","brand":"MOEVE","address":"CARRETERA RICLA (A-121) KM. 43,1","municipality":"Almunia de Doña Godina (La)","province":"ZARAGOZA","postalCode":"50100","schedule":"L-D: 06:00-22:00","fuels":{"gasoline95":1.849,"gasoline95Premium":1.939,"diesel":1.939,"dieselPremium":2.029,"adblue":0.929},"extra":{"saleType":"P","margin":"I","reportingType":"dm","ideess":"1488","idMunicipio":"7841","idProvincia":"50","idCCAA":"02"}}},{"type":"Feature","geometry":{"type":"Point","coordinates":[-1.422056,41.926556]},"properties":{"id":"es-14908","source":"ES","brand":"AN ENERGETICOS, S.L.","address":"AVENIDA CARMEN BELLIDO, 52","municipality":"Cortes","province":"NAVARRA","postalCode":"31530","schedule":"L-D: 24H","fuels":{"gasoline95":1.629,"diesel":1.729,"dieselB":1.409,"adblue":0.705},"extra":{"saleType":"P","margin":"N","reportingType":"dm","ideess":"14908","idMunicipio":"4684","idProvincia":"31","idCCAA":"15"}}},{"type":"Feature","geometry":{"type":"Point","coordinates":[-1.618056,41.531944]},"properties":{"id":"es-1498","source":"ES","brand":"CEPSA","address":"CARRETERA A-1503 KM. 20,1","municipality":"Illueca","province":"ZARAGOZA","postalCode":"50250","schedule":"L-D: 07:00-23:00","fuels":{"gasoline95":1.769,"gasoline95Premium":1.849,"diesel":1.899,"dieselPremium":1.989},"extra":{"saleType":"P","margin":"D","reportingType":"dm","ideess":"1498","idMunicipio":"7939","idProvincia":"50","idCCAA":"02"}}},{"type":"Feature","geometry":{"type":"Point","coordinates":[-1.004139,41.703694]},"properties":{"id":"es-1500","source":"ES","brand":"CEPSA","address":"CARRETERA N-232A KM. 250,9","municipality":"Utebo","province":"ZARAGOZA","postalCode":"50180","schedule":"L-D: 06:00-22:00","fuels":{"gasoline95":1.804,"gasoline95Premium":1.909,"diesel":1.909,"dieselPremium":2.019},"extra":{"saleType":"P","margin":"I","reportingType":"OM","ideess":"1500","idMunicipio":"8082","idProvincia":"50","idCCAA":"02"}}},{"type":"Feature","geometry":{"type":"Point","coordinates":[-1.32125,41.50175]},"properties":{"id":"es-1502","source":"ES","brand":"MOEVE","address":"AUTOPISTA A-2 KM. 276,9","municipality":"Calatorao","province":"ZARAGOZA","postalCode":"50280","schedule":"L-V: 06:00-23:00; S: 07:00-22:00; D: 07:00-23:00","fuels":{"gasoline95":1.819,"diesel":1.929,"dieselPremium":2.029},"extra":{"saleType":"P","margin":"N","reportingType":"dm","ideess":"1502","idMunicipio":"7884","idProvincia":"50","idCCAA":"02"}}},{"type":"Feature","geometry":{"type":"Point","coordinates":[-1.077278,41.605778]},"properties":{"id":"es-1503","source":"ES","brand":"MOEVE","address":"POLIGONO POLIGONO INDUSTRIAL 5, PARCELA 20 (A-2 PK 306), 20","municipality":"Muela (La)","province":"ZARAGOZA","postalCode":"50196","schedule":"L-D: 24H","fuels":{"gasoline95":1.844,"gasoline95Premium":1.939,"diesel":1.939,"dieselPremium":2.029},"extra":{"saleType":"P","margin":"I","reportingType":"OM","ideess":"1503","idMunicipio":"7993","idProvincia":"50","idCCAA":"02"}}},{"type":"Feature","geometry":{"type":"Point","coordinates":[-1.641861,41.343528]},"properties":{"id":"es-15063","source":"ES","brand":"BONAREA","address":"CALLE CARRETERA DE VALENCIA,, 6","municipality":"Calatayud","province":"ZARAGOZA","postalCode":"50300","schedule":"L-D: 24H","fuels":{"gasoline95":1.535,"diesel":1.712,"adblue":0.499},"extra":{"saleType":"P","margin":"I","reportingType":"dm","ideess":"15063","idMunicipio":"7883","idProvincia":"50","idCCAA":"02"}}},{"type":"Feature","geometry":{"type":"Point","coordinates":[-1.177194,41.836167]},"properties":{"id":"es-1517","source":"ES","brand":"REPSOL","address":"CARRETERA ALAGON TUDELA KM. 9,700","municipality":"Remolinos","province":"ZARAGOZA","postalCode":"50637","schedule":"L-V: 06:30-20:30; S-D: 08:00-15:00 y 18:00-20:00","fuels":{"gasoline95":1.769,"gasoline98":1.939,"diesel":1.885,"dieselRenewable":2.005},"extra":{"saleType":"P","margin":"I","reportingType":"OM","ideess":"1517","idMunicipio":"8034","idProvincia":"50","idCCAA":"02"}}},{"type":"Feature","geometry":{"type":"Point","coordinates":[-1.945833,41.302944]},"properties":{"id":"es-1519","source":"ES","brand":"REPSOL","address":"AUTOVIA AUTOVIA DEL  NORDESTE KM. 202","municipality":"Cetina","province":"ZARAGOZA","postalCode":"50292","schedule":"L-D: 24H","fuels":{"gasoline95":1.769,"gasoline98":1.889,"diesel":1.915,"dieselPremium":1.975},"extra":{"saleType":"P","margin":"D","reportingType":"OM","ideess":"1519","idMunicipio":"7897","idProvincia":"50","idCCAA":"02"}}},{"type":"Feature","geometry":{"type":"Point","coordinates":[-1.946278,41.303611]},"properties":{"id":"es-1520","source":"ES","brand":"REPSOL","address":"AUTOVIA NORDESTE KM. 202","municipality":"Cetina","province":"ZARAGOZA","postalCode":"50292","schedule":"L-D: 24H","fuels":{"gasoline95":1.769,"gasoline98":1.889,"diesel":1.915,"dieselPremium":1.975},"extra":{"saleType":"P","margin":"I","reportingType":"OM","ideess":"1520","idMunicipio":"7897","idProvincia":"50","idCCAA":"02"}}},{"type":"Feature","geometry":{"type":"Point","coordinates":[-1.239167,41.665806]},"properties":{"id":"es-1529","source":"ES","brand":"REPSOL","address":"AV ZARAGOZA, S/Nº (A-122 km 13,8)","municipality":"Urrea de Jalón","province":"ZARAGOZA","postalCode":"50296","schedule":"L-V: 07:00-22:30; S: 08:00-21:00; D: 09:00-14:00","fuels":{"gasoline95":1.789,"diesel":1.909,"dieselB":1.709,"dieselRenewable":1.999},"extra":{"saleType":"P","margin":"D","reportingType":"dm","ideess":"1529","idMunicipio":"8079","idProvincia":"50","idCCAA":"02"}}},{"type":"Feature","geometry":{"type":"Point","coordinates":[-1.24025,41.436444]},"properties":{"id":"es-1530","source":"ES","brand":"PETRONOR","address":"CARRETERA A-1304 KM. 7,3","municipality":"Alfamén","province":"ZARAGOZA","postalCode":"50461","schedule":"L-S: 08:00-13:00","fuels":{"gasoline95":1.769,"diesel":1.879,"dieselB":1.685},"extra":{"saleType":"P","margin":"I","reportingType":"OM","ideess":"1530","idMunicipio":"7834","idProvincia":"50","idCCAA":"02"}}},{"type":"Feature","geometry":{"type":"Point","coordinates":[-1.238889,41.956806]},"properties":{"id":"es-15322","source":"ES","brand":"SASO DE MIRA S.L.","address":"CARRETERA GALLUR-SANGUESA KM. 11","municipality":"Tauste","province":"ZARAGOZA","postalCode":"50660","schedule":"L-V: 07:00-21:00","fuels":{"diesel":1.754},"extra":{"saleType":"P","margin":"D","reportingType":"dm","ideess":"15322","idMunicipio":"8062","idProvincia":"50","idCCAA":"02"}}},{"type":"Feature","geometry":{"type":"Point","coordinates":[-1.475639,41.762833]},"properties":{"id":"es-1534","source":"ES","brand":"REPSOL","address":"A-121 km 8,1","municipality":"Fuendejalón","province":"ZARAGOZA","postalCode":"50529","schedule":"L: 07:00-23:00","fuels":{"gasoline95":1.769,"diesel":1.875,"dieselRenewable":1.995},"extra":{"saleType":"P","margin":"I","reportingType":"OM","ideess":"1534","idMunicipio":"7926","idProvincia":"50","idCCAA":"02"}}},{"type":"Feature","geometry":{"type":"Point","coordinates":[-1.208694,41.553806]},"properties":{"id":"es-15732","source":"ES","brand":"BONAREA","address":"CARRETERA MUEL-PLATAFORMA LOGISTICA BONAREA KM. 288","municipality":"Épila","province":"ZARAGOZA","postalCode":"50290","schedule":"L: 24H","fuels":{"gasoline95":1.532,"diesel":1.709,"adblue":0.499},"extra":{"saleType":"P","margin":"I","reportingType":"dm","ideess":"15732","idMunicipio":"7914","idProvincia":"50","idCCAA":"02"}}},{"type":"Feature","geometry":{"type":"Point","coordinates":[-1.862278,41.982778]},"properties":{"id":"es-16281","source":"ES","brand":"TRUEBA ENERGY","address":"CARRETERA N-113 KM. 49","municipality":"Cervera del Río Alhama","province":"RIOJA (LA)","postalCode":"26528","schedule":"L-D: 24H","fuels":{"gasoline95":1.679,"diesel":1.789,"adblue":0.849},"extra":{"saleType":"P","margin":"I","reportingType":"dm","ideess":"16281","idMunicipio":"4081","idProvincia":"26","idCCAA":"17"}}},{"type":"Feature","geometry":{"type":"Point","coordinates":[-1.076389,41.738306]},"properties":{"id":"es-1982","source":"ES","brand":"REPSOL","address":"AUTOPISTA A-68 KM. 258,2","municipality":"Pinseque","province":"ZARAGOZA","postalCode":"50298","schedule":"L-V: 06:00-22:00; S-D: 08:00-22:00","fuels":{"gasoline95":1.789,"gasoline98":1.959,"diesel":1.895,"dieselRenewable":2.015},"extra":{"saleType":"P","margin":"I","reportingType":"OM","ideess":"1982","idMunicipio":"8020","idProvincia":"50","idCCAA":"02"}}},{"type":"Feature","geometry":{"type":"Point","coordinates":[-1.586583,41.364917]},"properties":{"id":"es-1985","source":"ES","brand":"BP","address":"CARRETERA A-2 KM. 239,75","municipality":"Calatayud","province":"ZARAGOZA","postalCode":"50300","schedule":"L-D: 06:00-22:00","fuels":{"gasoline95":1.819,"gasoline98":1.959,"diesel":1.929,"dieselPremium":2.019},"extra":{"saleType":"P","margin":"I","reportingType":"dm","ideess":"1985","idMunicipio":"7883","idProvincia":"50","idCCAA":"02"}}},{"type":"Feature","geometry":{"type":"Point","coordinates":[-1.058833,41.6155]},"properties":{"id":"es-1987","source":"ES","brand":"GALP","address":"AUTOVIA ALMENARETA-2 KM. 0","municipality":"Zaragoza","province":"ZARAGOZA","postalCode":"50190","schedule":"L-D: 24H","fuels":{"gasoline95":1.829,"diesel":1.924,"dieselPremium":2.014,"dieselRenewable":2.014,"adblue":0.799},"extra":{"saleType":"P","margin":"I","reportingType":"OM","ideess":"1987","idMunicipio":"8108","idProvincia":"50","idCCAA":"02"}}},{"type":"Feature","geometry":{"type":"Point","coordinates":[-1.62025,41.3555]},"properties":{"id":"es-1990","source":"ES","brand":"MOEVE","address":"AVENIDA FUERZAS ARMADAS, S/N","municipality":"Calatayud","province":"ZARAGOZA","postalCode":"50300","schedule":"L-D: 06:00-22:00","fuels":{"gasoline95":1.849,"gasoline95Premium":1.939,"gasoline98":1.999,"diesel":1.929,"dieselPremium":2.029,"adblue":0.929},"extra":{"saleType":"P","margin":"I","reportingType":"dm","ideess":"1990","idMunicipio":"7883","idProvincia":"50","idCCAA":"02"}}},{"type":"Feature","geometry":{"type":"Point","coordinates":[-1.926472,41.853917]},"properties":{"id":"es-6289","source":"ES","brand":"REPSOL","address":"CARRETERA N-122 KM. 102","municipality":"Ágreda","province":"SORIA","postalCode":"42100","schedule":"L-D: 08:00-22:00","fuels":{"gasoline95":1.785,"gasoline98":1.955,"diesel":1.925,"dieselRenewable":2.045},"extra":{"saleType":"P","margin":"I","reportingType":"OM","ideess":"6289","idMunicipio":"6162","idProvincia":"42","idCCAA":"08"}}},{"type":"Feature","geometry":{"type":"Point","coordinates":[-1.078944,41.740389]},"properties":{"id":"es-8275","source":"ES","brand":"REPSOL","address":"AUTOVIA A-68 KM. 258,25","municipality":"Zaragoza","province":"ZARAGOZA","postalCode":"50692","schedule":"L-V: 05:00-22:00; S-D: 08:00-22:00","fuels":{"gasoline95":1.789,"gasoline98":1.959,"diesel":1.895,"dieselB":1.705,"dieselRenewable":2.015},"extra":{"saleType":"P","margin":"D","reportingType":"OM","ideess":"8275","idMunicipio":"8108","idProvincia":"50","idCCAA":"02"}}},{"type":"Feature","geometry":{"type":"Point","coordinates":[-1.940833,41.840167]},"properties":{"id":"es-8928","source":"ES","brand":"EL MAYORIA COMBUSTIBLES","address":"POL. INDUSTRIAL LA DEHESA S/N","municipality":"Ágreda","province":"SORIA","postalCode":"42100","schedule":"L-D: 24H","fuels":{"gasoline95":1.679,"dieselPremium":1.799,"adblue":0.599},"extra":{"saleType":"P","margin":"N","reportingType":"dm","ideess":"8928","idMunicipio":"6162","idProvincia":"42","idCCAA":"08"}}},{"type":"Feature","geometry":{"type":"Point","coordinates":[-1.312944,41.862528]},"properties":{"id":"es-8994","source":"ES","brand":"COSANPE","address":"CALLE AFUERAS, S/N","municipality":"Gallur","province":"ZARAGOZA","postalCode":"50650","schedule":"L: 24H","fuels":{"gasoline95":1.67,"diesel":1.82,"dieselB":1.47},"extra":{"saleType":"P","margin":"N","reportingType":"dm","ideess":"8994","idMunicipio":"7931","idProvincia":"50","idCCAA":"02"}}},{"type":"Feature","geometry":{"type":"Point","coordinates":[-1.300028,41.633278]},"properties":{"id":"es-8996","source":"ES","brand":"SAN FRANCISCO DE ASIS","address":"AVENIDA CONSTITUCION DE LA, 11","municipality":"Lumpiaque","province":"ZARAGOZA","postalCode":"50295","schedule":"L-D: 24H","fuels":{"diesel":1.749,"dieselB":1.389},"extra":{"saleType":"P","margin":"N","reportingType":"dm","ideess":"8996","idMunicipio":"7961","idProvincia":"50","idCCAA":"02"}}},{"type":"Feature","geometry":{"type":"Point","coordinates":[-1.706528,41.447028]},"properties":{"id":"es-9003","source":"ES","brand":"PETRORCAL","address":"CALLE LAS TABLAS, S/N","municipality":"Aniñón","province":"ZARAGOZA","postalCode":"50313","schedule":"L-D: 24H","fuels":{"gasoline95":1.769,"diesel":1.869,"dieselB":1.599},"extra":{"saleType":"P","margin":"D","reportingType":"dm","ideess":"9003","idMunicipio":"7845","idProvincia":"50","idCCAA":"02"}}},{"type":"Feature","geometry":{"type":"Point","coordinates":[-1.714694,41.906694]},"properties":{"id":"es-9011","source":"ES","brand":"COOPERATIVA SAN ATILANO","address":"PG. CUNCHILLOS, S/N","municipality":"Tarazona","province":"ZARAGOZA","postalCode":"50500","schedule":"L-D: 24H","fuels":{"gasoline95":1.63,"diesel":1.779,"dieselPremium":1.809,"dieselB":1.456},"extra":{"saleType":"P","margin":"N","reportingType":"dm","ideess":"9011","idMunicipio":"8061","idProvincia":"50","idCCAA":"02"}}},{"type":"Feature","geometry":{"type":"Point","coordinates":[-1.326083,41.943028]},"properties":{"id":"es-9037","source":"ES","brand":"CEPSA","address":"CALLE EXTRAMUROS, S/N","municipality":"Tauste","province":"ZARAGOZA","postalCode":"50669","schedule":"L-D: 24H","fuels":{"diesel":1.769,"dieselB":1.389},"extra":{"saleType":"P","margin":"D","reportingType":"dm","ideess":"9037","idMunicipio":"8062","idProvincia":"50","idCCAA":"02"}}},{"type":"Feature","geometry":{"type":"Point","coordinates":[-1.126167,41.764583]},"properties":{"id":"es-9046","source":"ES","brand":"SANANTONIO","address":"VÍA TORREMATA, 5","municipality":"Alagón","province":"ZARAGOZA","postalCode":"50630","schedule":"L-D: 24H","fuels":{"gasoline95":1.621,"diesel":1.771,"dieselB":1.375},"extra":{"saleType":"P","margin":"N","reportingType":"dm","ideess":"9046","idMunicipio":"7824","idProvincia":"50","idCCAA":"02"}}},{"type":"Feature","geometry":{"type":"Point","coordinates":[-1.264722,41.340278]},"properties":{"id":"es-9133","source":"ES","brand":"COOPERATIVA VITICOLA SAN JOSE","address":"CARRETERA CALATAYUD CARIÑENA KM. 0","municipality":"Aguarón","province":"ZARAGOZA","postalCode":"50408","schedule":"L-D: 24H","fuels":{"gasoline95":1.74,"diesel":1.84,"dieselB":1.4},"extra":{"saleType":"P","margin":"N","reportingType":"dm","ideess":"9133","idMunicipio":"7820","idProvincia":"50","idCCAA":"02"}}},{"type":"Feature","geometry":{"type":"Point","coordinates":[-1.072611,41.736028]},"properties":{"id":"es-9232","source":"ES","brand":"GASOLEOS MERCADAIZ","address":"POLIGONO LOS LEONES, PARCELAS 185-191","municipality":"Pinseque","province":"ZARAGOZA","postalCode":"50298","schedule":"L-V: 09:00-14:00 y 15:00-18:00; S: 9:00-13:30","fuels":{"diesel":1.694,"adblue":0.66},"extra":{"saleType":"P","margin":"N","reportingType":"dm","ideess":"9232","idMunicipio":"8020","idProvincia":"50","idCCAA":"02"}}},{"type":"Feature","geometry":{"type":"Point","coordinates":[-1.667611,41.324611]},"properties":{"id":"es-9253","source":"ES","brand":"E.S. VALDEHERRERA","address":"AUTOVIA A-2 KM. 231","municipality":"Calatayud","province":"ZARAGOZA","postalCode":"50300","schedule":"L-D: 24H","fuels":{"gasoline95":1.819,"gasoline98":1.959,"diesel":1.939,"adblue":0.99},"extra":{"saleType":"P","margin":"D","reportingType":"dm","ideess":"9253","idMunicipio":"7883","idProvincia":"50","idCCAA":"02"}}},{"type":"Feature","geometry":{"type":"Point","coordinates":[-1.520611,41.832]},"properties":{"id":"es-9311","source":"ES","brand":"ESTACION DE SERVICIO MONCAYO","address":"CARRETERA CANTO CORAL KM. 62","municipality":"Borja","province":"ZARAGOZA","postalCode":"50540","schedule":"L-V: 07:00-21:00; S: 08:00-21:00; D: 08:00-14:00","fuels":{"gasoline95":1.759,"diesel":1.859,"dieselPremium":1.899},"extra":{"saleType":"P","margin":"D","reportingType":"dm","ideess":"9311","idMunicipio":"7871","idProvincia":"50","idCCAA":"02"}}},{"type":"Feature","geometry":{"type":"Point","coordinates":[-1.675202,41.994611]},"properties":{"id":"es-9337","source":"ES","brand":"BODEGA NTRA. SRA. DEL ROMERO","address":"CTRA.TARAZONA km 10","municipality":"Cascante","province":"NAVARRA","postalCode":"31520","schedule":"L-D: 24H","fuels":{"dieselB":1.439},"extra":{"saleType":"P","margin":"I","reportingType":"dm","ideess":"9337","idMunicipio":"4674","idProvincia":"31","idCCAA":"15"}}},{"type":"Feature","geometry":{"type":"Point","coordinates":[-1.259917,41.914]},"properties":{"id":"es-9351","source":"ES","brand":"COOPERATIVA SAN MIGUEL","address":"CAMINO ABARQUILLO, S/N","municipality":"Tauste","province":"ZARAGOZA","postalCode":"50660","schedule":"L-D: 24H","fuels":{"gasoline95":1.585,"dieselPremium":1.718,"adblue":0.586},"extra":{"saleType":"P","margin":"N","reportingType":"dm","ideess":"9351","idMunicipio":"8062","idProvincia":"50","idCCAA":"02"}}},{"type":"Feature","geometry":{"type":"Point","coordinates":[-1.635194,41.97325]},"properties":{"id":"es-9356","source":"ES","brand":"AN ENERGETICOS - ABLITAS","address":"AVDA. DE RIBAFORADA (CARRETERA km 1)","municipality":"Ablitas","province":"NAVARRA","postalCode":"31523","schedule":"L-D: 24H","fuels":{"gasoline95":1.629,"diesel":1.759,"dieselB":1.459},"extra":{"saleType":"P","margin":"N","reportingType":"dm","ideess":"9356","idMunicipio":"4605","idProvincia":"31","idCCAA":"15"}}},{"type":"Feature","geometry":{"type":"Point","coordinates":[-1.513361,41.9935]},"properties":{"id":"es-9587","source":"ES","brand":"AGRICOLA SAN BLAS","address":"CAMINO LA VENTA, ","municipality":"Ribaforada","province":"NAVARRA","postalCode":"31550","schedule":"L-D: 24H","fuels":{"dieselB":1.435},"extra":{"saleType":"P","margin":"N","reportingType":"dm","ideess":"9587","idMunicipio":"4819","idProvincia":"31","idCCAA":"15"}}},{"type":"Feature","geometry":{"type":"Point","coordinates":[-1.463611,41.830417]},"properties":{"id":"es-9754","source":"ES","brand":"SANTO CRISTO DE MAGALLON S.C.C.","address":"CALLE JOAQUIN COSTA, 8","municipality":"Magallón","province":"ZARAGOZA","postalCode":"50520","schedule":"L-D: 24H","fuels":{"diesel":1.779,"dieselB":1.369},"extra":{"saleType":"P","margin":"D","reportingType":"dm","ideess":"9754","idMunicipio":"7964","idProvincia":"50","idCCAA":"02"}}},{"type":"Feature","geometry":{"type":"Point","coordinates":[-1.397111,41.518472]},"properties":{"id":"es-9791","source":"ES","brand":"REPSOL","address":"CARRETERA A-121 KM. 37","municipality":"Ricla","province":"ZARAGOZA","postalCode":"50270","schedule":"L-D: 07:00-22:00","fuels":{"gasoline95":1.769,"gasoline98":1.939,"diesel":1.905,"dieselB":1.705,"dieselRenewable":2.025},"extra":{"saleType":"P","margin":"I","reportingType":"OM","ideess":"9791","idMunicipio":"8036","idProvincia":"50","idCCAA":"02"}}},{"type":"Feature","geometry":{"type":"Point","coordinates":[-1.255333,41.912194]},"properties":{"id":"es-9807","source":"ES","brand":"BONAREA","address":"VÍA PERIMETRAL, S/N","municipality":"Tauste","province":"ZARAGOZA","postalCode":"50660","schedule":"L-D: 24H","fuels":{"gasoline95":1.531,"diesel":1.709,"adblue":0.499},"extra":{"saleType":"P","margin":"D","reportingType":"dm","ideess":"9807","idMunicipio":"8062","idProvincia":"50","idCCAA":"02"}}},{"type":"Feature","geometry":{"type":"Point","coordinates":[-1.350722,41.519417]},"properties":{"id":"es-9940","source":"ES","brand":"BODEGA SANTO CRISTO","address":"AVENIDA MONARES, 1","municipality":"Calatorao","province":"ZARAGOZA","postalCode":"50280","schedule":"L-D: 24H","fuels":{"diesel":1.829,"dieselB":1.499},"extra":{"saleType":"P","margin":"D","reportingType":"dm","ideess":"9940","idMunicipio":"7884","idProvincia":"50","idCCAA":"02"}}},{"type":"Feature","geometry":{"type":"Point","coordinates":[-1.235667,41.060639]},"properties":{"id":"es-9986","source":"ES","brand":"GASOLEOS TERUEL","address":"CALLE PEIRON, S/N","municipality":"Ferreruela de Huerva","province":"TERUEL","postalCode":"44490","schedule":"L-D: 24H","fuels":{"diesel":1.719,"dieselB":1.349,"adblue":0.69},"extra":{"saleType":"P","margin":"N","reportingType":"dm","ideess":"9986","idMunicipio":"6612","idProvincia":"44","idCCAA":"02"}}}]}