{"type":"FeatureCollection","features":[{"type":"Feature","geometry":{"type":"Point","coordinates":[-15.4515,28.095389]},"properties":{"id":"es-10085","source":"ES","brand":"DISA TARAHALES I","address":"CARRETERA LOS TARAHALES KM. S/N","municipality":"Palmas de Gran Canaria (Las)","province":"PALMAS (LAS)","postalCode":"35013","schedule":"L-D: 06:00-22:00","fuels":{"gasoline95":1.429,"gasoline98":1.559,"diesel":1.559,"dieselPremium":1.679},"extra":{"saleType":"P","margin":"D","reportingType":"OM","ideess":"10085","idMunicipio":"5249","idProvincia":"35","idCCAA":"05"}}},{"type":"Feature","geometry":{"type":"Point","coordinates":[-15.560833,28.145472]},"properties":{"id":"es-10506","source":"ES","brand":"BP KM 13 - 1 (SAN ANDRES)","address":"CARRETERA CTRA. GRAL. DEL NORTE KM. 13","municipality":"Moya","province":"PALMAS (LAS)","postalCode":"35413","schedule":"L-D: 06:00-23:00","fuels":{"gasoline95":1.459,"gasoline98":1.569,"diesel":1.539,"dieselPremium":1.649},"extra":{"saleType":"P","margin":"D","reportingType":"dm","ideess":"10506","idMunicipio":"5246","idProvincia":"35","idCCAA":"05"}}},{"type":"Feature","geometry":{"type":"Point","coordinates":[-15.528139,28.115861]},"properties":{"id":"es-11388","source":"ES","brand":"BP LAS VEGAS","address":"AUTOVIA CIRCUNVALACION ARUCAS 3º ROTONDA KM. S/N","municipality":"Arucas","province":"PALMAS (LAS)","postalCode":"35400","schedule":"L-D: 24H","fuels":{"gasoline95":1.449,"gasoline98":1.599,"diesel":1.569,"dieselPremium":1.699,"adblue":1.8},"extra":{"saleType":"P","margin":"N","reportingType":"dm","ideess":"11388","idMunicipio":"5239","idProvincia":"35","idCCAA":"05"}}},{"type":"Feature","geometry":{"type":"Point","coordinates":[-15.45,28.112444]},"properties":{"id":"es-11458","source":"ES","brand":"MOEVE","address":"AVENIDA JUAN CARLOS I, 42","municipality":"Palmas de Gran Canaria (Las)","province":"PALMAS (LAS)","postalCode":"35019","schedule":"L-D: 24H","fuels":{"gasoline95":1.449,"gasoline98":1.579,"diesel":1.559,"dieselRenewable":1.609},"extra":{"saleType":"P","margin":"D","reportingType":"OM","ideess":"11458","idMunicipio":"5249","idProvincia":"35","idCCAA":"05"}}},{"type":"Feature","geometry":{"type":"Point","coordinates":[-15.391944,28.026194]},"properties":{"id":"es-11714","source":"ES","brand":"BP LAS TERRAZAS","address":"PARQUE MARITIMO DE JINAMAR C.C. LAS TERRAZAS, S/N","municipality":"Telde","province":"PALMAS (LAS)","postalCode":"35220","schedule":"L-D: 24H","fuels":{"gasoline95":1.449,"gasoline98":1.589,"diesel":1.559,"dieselPremium":1.679,"adblue":1.919},"extra":{"saleType":"P","margin":"D","reportingType":"OM","ideess":"11714","idMunicipio":"5258","idProvincia":"35","idCCAA":"05"}}},{"type":"Feature","geometry":{"type":"Point","coordinates":[-15.4135,28.034139]},"properties":{"id":"es-11721","source":"ES","brand":"DISA JINAMAR","address":"AVENIDA SANTA RITA DE CASIA, S/N","municipality":"Telde","province":"PALMAS (LAS)","postalCode":"35220","schedule":"L-D: 24H","fuels":{"gasoline95":1.419,"gasoline98":1.549,"diesel":1.539,"dieselPremium":1.619,"dieselRenewable":1.654},"extra":{"saleType":"P","margin":"N","reportingType":"OM","ideess":"11721","idMunicipio":"5258","idProvincia":"35","idCCAA":"05"}}},{"type":"Feature","geometry":{"type":"Point","coordinates":[-15.471083,28.099694]},"properties":{"id":"es-11784","source":"ES","brand":"BP LOMO LOS FRAILES","address":"AVENIDA CESAR MANRIQUE, 1","municipality":"Palmas de Gran Canaria (Las)","province":"PALMAS (LAS)","postalCode":"35018","schedule":"L-D: 24H","fuels":{"gasoline95":1.449,"gasoline98":1.589,"diesel":1.559,"dieselPremium":1.679},"extra":{"saleType":"P","margin":"D","reportingType":"OM","ideess":"11784","idMunicipio":"5249","idProvincia":"35","idCCAA":"05"}}},{"type":"Feature","geometry":{"type":"Point","coordinates":[-15.449722,28.053722]},"properties":{"id":"es-11790","source":"ES","brand":"MOEVE HOYA PARRADO","address":"CARRETERA GC 800 KM. S/N","municipality":"Palmas de Gran Canaria (Las)","province":"PALMAS (LAS)","postalCode":"35017","schedule":"L-S: 06:00-23:00; D: 07:00-23:00","fuels":{"gasoline95":1.408,"gasoline98":1.469,"diesel":1.525,"dieselPremium":1.599},"extra":{"saleType":"P","margin":"I","reportingType":"dm","ideess":"11790","idMunicipio":"5249","idProvincia":"35","idCCAA":"05"}}},{"type":"Feature","geometry":{"type":"Point","coordinates":[-15.538389,28.097556]},"properties":{"id":"es-11938","source":"ES","brand":"MOEVE  LOS PORTALES","address":"CARRETERA GC-43 KM. 4,800","municipality":"Arucas","province":"PALMAS (LAS)","postalCode":"35412","schedule":"L-D: 24H","fuels":{"gasoline95":1.469,"gasoline98":1.599,"diesel":1.549,"dieselPremium":1.649},"extra":{"saleType":"P","margin":"D","reportingType":"dm","ideess":"11938","idMunicipio":"5239","idProvincia":"35","idCCAA":"05"}}},{"type":"Feature","geometry":{"type":"Point","coordinates":[-15.418861,28.038806]},"properties":{"id":"es-12084","source":"ES","brand":"REPSOL","address":"CARRETERA GC-300 KM. 7,6","municipality":"Telde","province":"PALMAS (LAS)","postalCode":"35200","schedule":"L-D: 06:00-22:00","fuels":{"gasoline95":1.409,"gasoline98":1.549,"diesel":1.539,"dieselRenewable":1.689},"extra":{"saleType":"P","margin":"D","reportingType":"OM","ideess":"12084","idMunicipio":"5258","idProvincia":"35","idCCAA":"05"}}},{"type":"Feature","geometry":{"type":"Point","coordinates":[-15.416056,28.152222]},"properties":{"id":"es-12249","source":"ES","brand":"DISA PUERTO DE LA LUZ","address":"AVENIDA DE LAS PETROLIFERAS, S/N","municipality":"Palmas de Gran Canaria (Las)","province":"PALMAS (LAS)","postalCode":"35008","schedule":"L-S: 06:00-22:00; D: 07:00-21:00","fuels":{"gasoline95":1.449,"gasoline98":1.589,"diesel":1.549,"dieselRenewable":1.654,"adblue":1.86},"extra":{"saleType":"P","margin":"D","reportingType":"OM","ideess":"12249","idMunicipio":"5249","idProvincia":"35","idCCAA":"05"}}},{"type":"Feature","geometry":{"type":"Point","coordinates":[-15.468528,28.096139]},"properties":{"id":"es-12929","source":"ES","brand":"DISA TAMARACEITE","address":"GLORIETA ACCESO SUR TAMARACEITE, 4","municipality":"Palmas de Gran Canaria (Las)","province":"PALMAS (LAS)","postalCode":"35010","schedule":"L-D: 24H","fuels":{"gasoline95":1.379,"gasoline98":1.519,"diesel":1.489,"dieselPremium":1.609},"extra":{"saleType":"P","margin":"N","reportingType":"OM","ideess":"12929","idMunicipio":"5249","idProvincia":"35","idCCAA":"05"}}},{"type":"Feature","geometry":{"type":"Point","coordinates":[-15.447111,28.101417]},"properties":{"id":"es-12969","source":"ES","brand":"REPSOL","address":"AVENIDA ESCALERITAS, S/N","municipality":"Palmas de Gran Canaria (Las)","province":"PALMAS (LAS)","postalCode":"35011","schedule":"L-D: 06:00-22:00","fuels":{"gasoline95":1.439,"gasoline98":1.559,"diesel":1.559,"dieselRenewable":1.699},"extra":{"saleType":"P","margin":"D","reportingType":"OM","ideess":"12969","idMunicipio":"5249","idProvincia":"35","idCCAA":"05"}}},{"type":"Feature","geometry":{"type":"Point","coordinates":[-15.388611,28.014444]},"properties":{"id":"es-13315","source":"ES","brand":"DISA LA PARDILLA","address":"AUTOPISTA AUTOPOISTA GC-1 KM. 8","municipality":"Telde","province":"PALMAS (LAS)","postalCode":"35201","schedule":"L-S: 06:00-22:00; D: 08:00-20:00","fuels":{"gasoline95":1.349,"diesel":1.469},"extra":{"saleType":"P","margin":"D","reportingType":"OM","ideess":"13315","idMunicipio":"5258","idProvincia":"35","idCCAA":"05"}}},{"type":"Feature","geometry":{"type":"Point","coordinates":[-15.421111,28.047944]},"properties":{"id":"es-13377","source":"ES","brand":"MOEVE","address":"AUTOVIA AUTOVIA GC-3 KM. 1,3","municipality":"Palmas de Gran Canaria (Las)","province":"PALMAS (LAS)","postalCode":"35016","schedule":"L-D: 24H","fuels":{"gasoline95":1.419,"gasoline98":1.549,"diesel":1.549,"dieselRenewable":1.649},"extra":{"saleType":"P","margin":"D","reportingType":"OM","ideess":"13377","idMunicipio":"5249","idProvincia":"35","idCCAA":"05"}}},{"type":"Feature","geometry":{"type":"Point","coordinates":[-15.433694,28.113389]},"properties":{"id":"es-13712","source":"ES","brand":"BP BARRANQUILLO TAXISTAS SAN CRISTOBAL","address":"CALLE PÁRROCO MATÍAS ARTILES, 42","municipality":"Palmas de Gran Canaria (Las)","province":"PALMAS (LAS)","postalCode":"35011","schedule":"L-D: 24H","fuels":{"gasoline95":1.449,"gasoline98":1.589,"diesel":1.559,"dieselPremium":1.679},"extra":{"saleType":"P","margin":"D","reportingType":"dm","ideess":"13712","idMunicipio":"5249","idProvincia":"35","idCCAA":"05"}}},{"type":"Feature","geometry":{"type":"Point","coordinates":[-15.388333,28.023056]},"properties":{"id":"es-14034","source":"ES","brand":"DISA BOCABARRANCO","address":"CALLE ALEGRIA, 35","municipality":"Telde","province":"PALMAS (LAS)","postalCode":"35213","schedule":"L-D: 24H","fuels":{"gasoline95":1.349,"gasoline98":1.479,"diesel":1.469,"dieselPremium":1.549,"adblue":1.86},"extra":{"saleType":"P","margin":"D","reportingType":"OM","ideess":"14034","idMunicipio":"5258","idProvincia":"35","idCCAA":"05"}}},{"type":"Feature","geometry":{"type":"Point","coordinates":[-15.456583,28.096417]},"properties":{"id":"es-14071","source":"ES","brand":"REPSOL","address":"AVENIDA HOYA DE LA GALLINA, S/N","municipality":"Palmas de Gran Canaria (Las)","province":"PALMAS (LAS)","postalCode":"35019","schedule":"L-D: 07:00-00:00","fuels":{"gasoline95":1.429,"gasoline95Premium":1.489,"gasoline98":1.559,"diesel":1.549,"dieselRenewable":1.699},"extra":{"saleType":"P","margin":"D","reportingType":"OM","ideess":"14071","idMunicipio":"5249","idProvincia":"35","idCCAA":"05"}}},{"type":"Feature","geometry":{"type":"Point","coordinates":[-15.387917,28.022389]},"properties":{"id":"es-14168","source":"ES","brand":"OCÉANO","address":"CALLE ALEGRIA, 2","municipality":"Telde","province":"PALMAS (LAS)","postalCode":"35212","schedule":"L-D: 24H","fuels":{"gasoline95":1.36,"gasoline95Premium":1.399,"gasoline98":1.476,"diesel":1.456,"dieselPremium":1.476},"extra":{"saleType":"P","margin":"D","reportingType":"dm","ideess":"14168","idMunicipio":"5258","idProvincia":"35","idCCAA":"05"}}},{"type":"Feature","geometry":{"type":"Point","coordinates":[-15.670111,28.121222]},"properties":{"id":"es-14443","source":"ES","brand":"CANARY OIL, S.L.","address":"CARRETERA PLG. IND. SAN ISIDRO EL VIEJO 36, PARCELA 78 KM. 28","municipality":"Gáldar","province":"PALMAS (LAS)","postalCode":"35460","schedule":"L-D: 24H","fuels":{"gasoline95":1.309,"gasoline98":1.369,"diesel":1.419,"adblue":0.98},"extra":{"saleType":"P","margin":"D","reportingType":"dm","ideess":"14443","idMunicipio":"5242","idProvincia":"35","idCCAA":"05"}}},{"type":"Feature","geometry":{"type":"Point","coordinates":[-15.418889,28.024722]},"properties":{"id":"es-14610","source":"ES","brand":"BP CRUZ DE LA GALLINA LOMO LA FRANCIA","address":"CALLE LOMO LA FRANCIA ESQUINA CTRA. JINAMAR-TELDE GC100, S/N","municipality":"Telde","province":"PALMAS (LAS)","postalCode":"35220","schedule":"L-V: 07:00-22:00; S-D: 08:00-21:30","fuels":{"gasoline95":1.449,"gasoline98":1.589,"diesel":1.559,"dieselPremium":1.679,"adblue":1.0},"extra":{"saleType":"P","margin":"D","reportingType":"dm","ideess":"14610","idMunicipio":"5258","idProvincia":"35","idCCAA":"05"}}},{"type":"Feature","geometry":{"type":"Point","coordinates":[-15.524611,28.117889]},"properties":{"id":"es-14722","source":"ES","brand":"DISA ARUCAS","address":"CALLE SUAREZ FRANCHY, 26","municipality":"Arucas","province":"PALMAS (LAS)","postalCode":"35400","schedule":"L-D: 24H","fuels":{"gasoline95":1.349,"gasoline98":1.479,"diesel":1.459},"extra":{"saleType":"P","margin":"N","reportingType":"OM","ideess":"14722","idMunicipio":"5239","idProvincia":"35","idCCAA":"05"}}},{"type":"Feature","geometry":{"type":"Point","coordinates":[-15.420583,28.156556]},"properties":{"id":"es-14963","source":"ES","brand":"PETROPRIX","address":"CALLE QUITO, 3","municipality":"Palmas de Gran Canaria (Las)","province":"PALMAS (LAS)","postalCode":"35008","schedule":"L-D: 24H","fuels":{"gasoline95":1.389,"diesel":1.479},"extra":{"saleType":"P","margin":"I","reportingType":"dm","ideess":"14963","idMunicipio":"5249","idProvincia":"35","idCCAA":"05"}}},{"type":"Feature","geometry":{"type":"Point","coordinates":[-15.442222,28.097528]},"properties":{"id":"es-14964","source":"ES","brand":"PETROPRIX","address":"CALLE LUIS SAAVEDRA MIRANDA, 59","municipality":"Palmas de Gran Canaria (Las)","province":"PALMAS (LAS)","postalCode":"35014","schedule":"L-D: 24H","fuels":{"gasoline95":1.269,"diesel":1.439},"extra":{"saleType":"P","margin":"N","reportingType":"dm","ideess":"14964","idMunicipio":"5249","idProvincia":"35","idCCAA":"05"}}},{"type":"Feature","geometry":{"type":"Point","coordinates":[-15.661694,28.132611]},"properties":{"id":"es-15043","source":"ES","brand":"PETROPRIX","address":"POLIGONO SAN ISIDRO, 22","municipality":"Gáldar","province":"PALMAS (LAS)","postalCode":"35488","schedule":"L-D: 24H","fuels":{"gasoline95":1.309,"diesel":1.419},"extra":{"saleType":"P","margin":"N","reportingType":"dm","ideess":"15043","idMunicipio":"5242","idProvincia":"35","idCCAA":"05"}}},{"type":"Feature","geometry":{"type":"Point","coordinates":[-15.454667,28.108222]},"properties":{"id":"es-15151","source":"ES","brand":"H2EXAGON LAS TORRES","address":"CALLE ARRECIFE, 33","municipality":"Palmas de Gran Canaria (Las)","province":"PALMAS (LAS)","postalCode":"35010","schedule":"L-D: 24H","fuels":{"gasoline95":1.244,"diesel":1.429},"extra":{"saleType":"P","margin":"D","reportingType":"dm","ideess":"15151","idMunicipio":"5249","idProvincia":"35","idCCAA":"05"}}},{"type":"Feature","geometry":{"type":"Point","coordinates":[-15.438667,28.099139]},"properties":{"id":"es-15697","source":"ES","brand":"PETROPRIX","address":"CALLE EUFEMIANO FUENTES CABRERA, 10","municipality":"Palmas de Gran Canaria (Las)","province":"PALMAS (LAS)","postalCode":"35014","schedule":"L-D: 24H","fuels":{"gasoline95":1.269,"diesel":1.439},"extra":{"saleType":"P","margin":"N","reportingType":"dm","ideess":"15697","idMunicipio":"5249","idProvincia":"35","idCCAA":"05"}}},{"type":"Feature","geometry":{"type":"Point","coordinates":[-15.398778,28.025361]},"properties":{"id":"es-15823","source":"ES","brand":"H2EXAGON JINAMAR","address":"AVENIDA JOAN Y VICTOR JARA ESQ/C/FERNANDO SAGASETA  Y C/IDOLO DE JINAMAR, 10","municipality":"Telde","province":"PALMAS (LAS)","postalCode":"35220","schedule":"L-D: 24H","fuels":{"gasoline95":1.299,"gasoline98":1.399,"diesel":1.449,"dieselPremium":1.549,"adblue":1.16},"extra":{"saleType":"P","margin":"D","reportingType":"dm","ideess":"15823","idMunicipio":"5258","idProvincia":"35","idCCAA":"05"}}},{"type":"Feature","geometry":{"type":"Point","coordinates":[-15.651528,28.146361]},"properties":{"id":"es-15853","source":"ES","brand":"REPSOL","address":"CARRETERA GC 292 KM. SN","municipality":"Gáldar","province":"PALMAS (LAS)","postalCode":"35488","schedule":"L: 24H","fuels":{"gasoline95":1.469,"gasoline98":1.589,"diesel":1.559,"dieselRenewable":1.559,"adblue":1.0},"extra":{"saleType":"P","margin":"D","reportingType":"dm","ideess":"15853","idMunicipio":"5242","idProvincia":"35","idCCAA":"05"}}},{"type":"Feature","geometry":{"type":"Point","coordinates":[-15.44225,28.09775]},"properties":{"id":"es-15872","source":"ES","brand":"CANARY OIL, S.L.","address":"CALLE EUFEMIANO FUENTES CABRERA, 35","municipality":"Palmas de Gran Canaria (Las)","province":"PALMAS (LAS)","postalCode":"35014","schedule":"L-D: 24H","fuels":{"gasoline95":1.269,"gasoline98":1.349,"diesel":1.439,"adblue":0.98},"extra":{"saleType":"P","margin":"D","reportingType":"dm","ideess":"15872","idMunicipio":"5249","idProvincia":"35","idCCAA":"05"}}},{"type":"Feature","geometry":{"type":"Point","coordinates":[-15.479889,28.097722]},"properties":{"id":"es-15879","source":"ES","brand":"PLENERGY","address":"CARRETERA DE TEROR KM. 16","municipality":"Palmas de Gran Canaria (Las)","province":"PALMAS (LAS)","postalCode":"35018","schedule":"L-D: 24H","fuels":{"gasoline95":1.319,"diesel":1.429},"extra":{"saleType":"P","margin":"D","reportingType":"dm","ideess":"15879","idMunicipio":"5249","idProvincia":"35","idCCAA":"05"}}},{"type":"Feature","geometry":{"type":"Point","coordinates":[-15.441667,28.103722]},"properties":{"id":"es-15893","source":"ES","brand":"CEPSA","address":"AVENIDA ESCALERITAS, 152","municipality":"Palmas de Gran Canaria (Las)","province":"PALMAS (LAS)","postalCode":"35012","schedule":"L-D: 24H","fuels":{"gasoline95":1.449,"gasoline98":1.579,"diesel":1.569,"dieselRenewable":1.669},"extra":{"saleType":"P","margin":"D","reportingType":"OM","ideess":"15893","idMunicipio":"5249","idProvincia":"35","idCCAA":"05"}}},{"type":"Feature","geometry":{"type":"Point","coordinates":[-15.615667,28.1435]},"properties":{"id":"es-15954","source":"ES","brand":"PLENERGY","address":"CALLE FELIX GARCIA GONZALEZ, S/N","municipality":"Santa María de Guía de Gran Canaria","province":"PALMAS (LAS)","postalCode":"35458","schedule":"L-D: 24H","fuels":{"gasoline95":1.349,"diesel":1.439},"extra":{"saleType":"P","margin":"D","reportingType":"dm","ideess":"15954","idMunicipio":"5255","idProvincia":"35","idCCAA":"05"}}},{"type":"Feature","geometry":{"type":"Point","coordinates":[-15.683778,28.1555]},"properties":{"id":"es-15964","source":"ES","brand":"TGAS SARDINA DEL NORTE","address":"CARRETERA GC 202 KM. 3,8","municipality":"Gáldar","province":"PALMAS (LAS)","postalCode":"35469","schedule":"L-D: 24H","fuels":{"gasoline95":1.459,"gasoline98":1.589,"diesel":1.589,"dieselPremium":1.669,"adblue":1.195},"extra":{"saleType":"P","margin":"I","reportingType":"dm","ideess":"15964","idMunicipio":"5242","idProvincia":"35","idCCAA":"05"}}},{"type":"Feature","geometry":{"type":"Point","coordinates":[-15.457806,28.1105]},"properties":{"id":"es-16172","source":"ES","brand":"SANTANA DOMINGUEZ","address":"CALLE AYAGAURES, 3","municipality":"Palmas de Gran Canaria (Las)","province":"PALMAS (LAS)","postalCode":"35010","schedule":"L-D: 06:00-23:59","fuels":{"gasoline95":1.245,"gasoline98":1.345,"diesel":1.429,"dieselPremium":1.469,"adblue":0.966},"extra":{"saleType":"P","margin":"I","reportingType":"dm","ideess":"16172","idMunicipio":"5249","idProvincia":"35","idCCAA":"05"}}},{"type":"Feature","geometry":{"type":"Point","coordinates":[-15.440806,28.099528]},"properties":{"id":"es-16392","source":"ES","brand":"PLENERGY","address":"CALLE DIEGO VEGA SARMIENTO, 48","municipality":"Palmas de Gran Canaria (Las)","province":"PALMAS (LAS)","postalCode":"35014","schedule":"L-D: 24H","fuels":{"gasoline95":1.269,"diesel":1.439},"extra":{"saleType":"P","margin":"D","reportingType":"dm","ideess":"16392","idMunicipio":"5249","idProvincia":"35","idCCAA":"05"}}},{"type":"Feature","geometry":{"type":"Point","coordinates":[-15.397806,28.001056]},"properties":{"id":"es-7618","source":"ES","brand":"DISA TAXITEL","address":"CALLE CANOVAS DEL CASTILLO, 114","municipality":"Telde","province":"PALMAS (LAS)","postalCode":"35200","schedule":"L-D: 24H","fuels":{"gasoline95":1.46,"diesel":1.574,"dieselPremium":1.674,"lpg":0.898},"extra":{"saleType":"P","margin":"N","reportingType":"dm","ideess":"7618","idMunicipio":"5258","idProvincia":"35","idCCAA":"05"}}},{"type":"Feature","geometry":{"type":"Point","coordinates":[-15.453889,28.118417]},"properties":{"id":"es-7643","source":"ES","brand":"MOEVE","address":"AVENIDA REPUBLICA DE NICARAGUA, 2","municipality":"Palmas de Gran Canaria (Las)","province":"PALMAS (LAS)","postalCode":"35010","schedule":"L-D: 24H","fuels":{"gasoline95":1.449,"gasoline98":1.579,"diesel":1.559,"dieselRenewable":1.659},"extra":{"saleType":"P","margin":"N","reportingType":"OM","ideess":"7643","idMunicipio":"5249","idProvincia":"35","idCCAA":"05"}}},{"type":"Feature","geometry":{"type":"Point","coordinates":[-15.558611,28.118778]},"properties":{"id":"es-7645","source":"ES","brand":"CEPSA","address":"CALLE SANSOFE, 4","municipality":"Firgas","province":"PALMAS (LAS)","postalCode":"35431","schedule":"L-V: 06:00-22:00; S: 07:00-23:00; D: 08:00-14:00","fuels":{"gasoline95":1.459,"gasoline98":1.589,"diesel":1.519,"dieselPremium":1.649},"extra":{"saleType":"P","margin":"N","reportingType":"dm","ideess":"7645","idMunicipio":"5241","idProvincia":"35","idCCAA":"05"}}},{"type":"Feature","geometry":{"type":"Point","coordinates":[-15.457139,28.093889]},"properties":{"id":"es-7646","source":"ES","brand":"MOEVE","address":"AVENIDA PINTOR FELO MONZON, 48","municipality":"Palmas de Gran Canaria (Las)","province":"PALMAS (LAS)","postalCode":"35019","schedule":"L-D: 06:00-22:00","fuels":{"gasoline95":1.449,"gasoline98":1.579,"diesel":1.559,"dieselRenewable":1.609,"lpg":0.949},"extra":{"saleType":"P","margin":"N","reportingType":"OM","ideess":"7646","idMunicipio":"5249","idProvincia":"35","idCCAA":"05"}}},{"type":"Feature","geometry":{"type":"Point","coordinates":[-15.489361,28.107806]},"properties":{"id":"es-7647","source":"ES","brand":"MOEVE","address":"CARRETERA CTRA. GRAL. DE TENOYA, 1 FINCA EL CANONIGO KM. 1","municipality":"Palmas de Gran Canaria (Las)","province":"PALMAS (LAS)","postalCode":"35018","schedule":"L-D: 24H","fuels":{"gasoline95":1.449,"gasoline98":1.579,"diesel":1.559,"dieselRenewable":1.659},"extra":{"saleType":"P","margin":"N","reportingType":"OM","ideess":"7647","idMunicipio":"5249","idProvincia":"35","idCCAA":"05"}}},{"type":"Feature","geometry":{"type":"Point","coordinates":[-15.487806,28.136194]},"properties":{"id":"es-7650","source":"ES","brand":"CEPSA OPER CANARIOS  S,L.","address":"AUTOVIA GC-2 KM. 5,2","municipality":"Arucas","province":"PALMAS (LAS)","postalCode":"35019","schedule":"L-D: 24H","fuels":{"gasoline95":1.449,"gasoline98":1.579,"diesel":1.559,"dieselPremium":1.659,"adblue":0.999},"extra":{"saleType":"P","margin":"D","reportingType":"dm","ideess":"7650","idMunicipio":"5239","idProvincia":"35","idCCAA":"05"}}},{"type":"Feature","geometry":{"type":"Point","coordinates":[-15.488889,28.136194]},"properties":{"id":"es-7651","source":"ES","brand":"MOEVE","address":"AUTOVIA GC-2 KM. 5,2","municipality":"Arucas","province":"PALMAS (LAS)","postalCode":"35019","schedule":"L-D: 24H","fuels":{"gasoline95":1.449,"gasoline98":1.579,"diesel":1.549,"dieselPremium":1.649},"extra":{"saleType":"P","margin":"I","reportingType":"dm","ideess":"7651","idMunicipio":"5239","idProvincia":"35","idCCAA":"05"}}},{"type":"Feature","geometry":{"type":"Point","coordinates":[-15.633944,28.141333]},"properties":{"id":"es-7652","source":"ES","brand":"MOEVE","address":"CALLE LOMO GUILLEN, 16","municipality":"Santa María de Guía de Gran Canaria","province":"PALMAS (LAS)","postalCode":"35450","schedule":"L-D: 06:00-22:00","fuels":{"gasoline95":1.469,"gasoline98":1.599,"diesel":1.569,"dieselRenewable":1.669},"extra":{"saleType":"P","margin":"N","reportingType":"OM","ideess":"7652","idMunicipio":"5255","idProvincia":"35","idCCAA":"05"}}},{"type":"Feature","geometry":{"type":"Point","coordinates":[-15.545528,28.061917]},"properties":{"id":"es-7654","source":"ES","brand":"MOEVE","address":"CARRETERA C-817 KM. 21","municipality":"Teror","province":"PALMAS (LAS)","postalCode":"35330","schedule":"L-V: 06:00-23:59; S: 06:00-01:30; D: 07:00-14:00","fuels":{"gasoline95":1.489,"gasoline98":1.619,"diesel":1.599},"extra":{"saleType":"P","margin":"N","reportingType":"dm","ideess":"7654","idMunicipio":"5259","idProvincia":"35","idCCAA":"05"}}},{"type":"Feature","geometry":{"type":"Point","coordinates":[-15.41475,28.0065]},"properties":{"id":"es-7660","source":"ES","brand":"CEPSA EL CUBILLO","address":"CALLE CUBILLO, 1","municipality":"Telde","province":"PALMAS (LAS)","postalCode":"35200","schedule":"L-J: 06:00-23:00; V-S: 06:00-00:00; D: 06:00-23:00","fuels":{"gasoline95":1.469,"gasoline98":1.589,"diesel":1.539,"dieselPremium":1.649,"adblue":0.989},"extra":{"saleType":"P","margin":"N","reportingType":"dm","ideess":"7660","idMunicipio":"5258","idProvincia":"35","idCCAA":"05"}}},{"type":"Feature","geometry":{"type":"Point","coordinates":[-15.421111,28.107556]},"properties":{"id":"es-7663","source":"ES","brand":"MOEVE PLAZA DEL PINO","address":"PASEO CHIL, 2","municipality":"Palmas de Gran Canaria (Las)","province":"PALMAS (LAS)","postalCode":"35003","schedule":"L-V: 06:30-22:30; S: 08:00-16:00","fuels":{"gasoline95":1.449,"gasoline98":1.549,"diesel":1.549},"extra":{"saleType":"P","margin":"N","reportingType":"dm","ideess":"7663","idMunicipio":"5249","idProvincia":"35","idCCAA":"05"}}},{"type":"Feature","geometry":{"type":"Point","coordinates":[-15.425111,28.126694]},"properties":{"id":"es-7665","source":"ES","brand":"CEPSA LA MARINA","address":"MUELLE MUELLE DEPORTIVO DE LAS PALMAS, S/N","municipality":"Palmas de Gran Canaria (Las)","province":"PALMAS (LAS)","postalCode":"35459","schedule":"L-S: 08:00-16:00; D: 08:00-14:00","fuels":{"gasoline95":1.449,"gasoline98":1.569,"diesel":1.559},"extra":{"saleType":"P","margin":"N","reportingType":"dm","ideess":"7665","idMunicipio":"5249","idProvincia":"35","idCCAA":"05"}}},{"type":"Feature","geometry":{"type":"Point","coordinates":[-15.390083,28.009833]},"properties":{"id":"es-7666","source":"ES","brand":"MOEVE","address":"CALLE SHAKESPEARE, 1","municipality":"Telde","province":"PALMAS (LAS)","postalCode":"35220","schedule":"L-D: 24H","fuels":{"gasoline95":1.439,"gasoline98":1.569,"diesel":1.549,"dieselRenewable":1.649},"extra":{"saleType":"P","margin":"N","reportingType":"OM","ideess":"7666","idMunicipio":"5258","idProvincia":"35","idCCAA":"05"}}},{"type":"Feature","geometry":{"type":"Point","coordinates":[-15.433611,28.086639]},"properties":{"id":"es-7667","source":"ES","brand":"MOEVE","address":"C-811, MD, PK km 2.6","municipality":"Palmas de Gran Canaria (Las)","province":"PALMAS (LAS)","postalCode":"35015","schedule":"L-D: 06:00-22:00","fuels":{"gasoline95":1.439,"gasoline98":1.569,"diesel":1.549,"dieselRenewable":1.649},"extra":{"saleType":"P","margin":"N","reportingType":"OM","ideess":"7667","idMunicipio":"5249","idProvincia":"35","idCCAA":"05"}}},{"type":"Feature","geometry":{"type":"Point","coordinates":[-15.417639,28.040528]},"properties":{"id":"es-7669","source":"ES","brand":"SHELL MERCALASPALMAS","address":"CARRETERA CTRA. CUESTA RAMON KM. 1","municipality":"Palmas de Gran Canaria (Las)","province":"PALMAS (LAS)","postalCode":"35016","schedule":"L-V: 04:00-20:00","fuels":{"gasoline95":1.419,"gasoline98":1.549,"diesel":1.539,"dieselPremium":1.619,"adblue":1.259},"extra":{"saleType":"P","margin":"N","reportingType":"dm","ideess":"7669","idMunicipio":"5249","idProvincia":"35","idCCAA":"05"}}},{"type":"Feature","geometry":{"type":"Point","coordinates":[-15.418833,28.147361]},"properties":{"id":"es-7670","source":"ES","brand":"MOEVE","address":"LUGAR EXPLANADA TOMAS QUEVEDO, S/N","municipality":"Palmas de Gran Canaria (Las)","province":"PALMAS (LAS)","postalCode":"35008","schedule":"L-V: 06:00-22:00; S: 07:00-15:00","fuels":{"gasoline95":1.449,"gasoline98":1.579,"diesel":1.559},"extra":{"saleType":"P","margin":"N","reportingType":"dm","ideess":"7670","idMunicipio":"5249","idProvincia":"35","idCCAA":"05"}}},{"type":"Feature","geometry":{"type":"Point","coordinates":[-15.463889,28.076556]},"properties":{"id":"es-7689","source":"ES","brand":"REPSOL","address":"CARRETERA SAN LORENZO KM. S/N","municipality":"Palmas de Gran Canaria (Las)","province":"PALMAS (LAS)","postalCode":"35018","schedule":"L-D: 06:00-22:00","fuels":{"gasoline95":1.429,"gasoline98":1.569,"diesel":1.549,"dieselRenewable":1.699},"extra":{"saleType":"P","margin":"D","reportingType":"OM","ideess":"7689","idMunicipio":"5249","idProvincia":"35","idCCAA":"05"}}},{"type":"Feature","geometry":{"type":"Point","coordinates":[-15.440667,28.10125]},"properties":{"id":"es-7707","source":"ES","brand":"REPSOL","address":"CALLE GREGORIO MARAÑON, S/N","municipality":"Palmas de Gran Canaria (Las)","province":"PALMAS (LAS)","postalCode":"35003","schedule":"L-D: 24H","fuels":{"gasoline95":1.429,"gasoline98":1.559,"diesel":1.549,"dieselRenewable":1.699},"extra":{"saleType":"P","margin":"D","reportingType":"OM","ideess":"7707","idMunicipio":"5249","idProvincia":"35","idCCAA":"05"}}},{"type":"Feature","geometry":{"type":"Point","coordinates":[-15.386667,28.011722]},"properties":{"id":"es-7711","source":"ES","brand":"REPSOL","address":"CR  GC-1 P.K. 8 M.I. (SALIDA A PARQ","municipality":"Telde","province":"PALMAS (LAS)","postalCode":"35200","schedule":"L-S: 06:00-23:00; D: 07:00-22:00","fuels":{"gasoline95":1.419,"gasoline98":1.554,"diesel":1.529,"dieselRenewable":1.679},"extra":{"saleType":"P","margin":"I","reportingType":"OM","ideess":"7711","idMunicipio":"5258","idProvincia":"35","idCCAA":"05"}}},{"type":"Feature","geometry":{"type":"Point","coordinates":[-15.576139,28.049111]},"properties":{"id":"es-7738","source":"ES","brand":"BP VALLESECO","address":"CALLE PEROJO, 19","municipality":"Valleseco","province":"PALMAS (LAS)","postalCode":"35340","schedule":"L-V: 07:00-21:00; S: 07:30-21:00; D: 08:00-21:00","fuels":{"gasoline95":1.449,"gasoline98":1.599,"diesel":1.569,"dieselPremium":1.699},"extra":{"saleType":"P","margin":"N","reportingType":"dm","ideess":"7738","idMunicipio":"5263","idProvincia":"35","idCCAA":"05"}}},{"type":"Feature","geometry":{"type":"Point","coordinates":[-15.547056,28.06175]},"properties":{"id":"es-7760","source":"ES","brand":"DISA TEROR","address":"CALLE PARROCO JUAN GONZALEZ, 15","municipality":"Teror","province":"PALMAS (LAS)","postalCode":"35330","schedule":"L-D: 06:00-22:00","fuels":{"gasoline95":1.499,"gasoline98":1.619,"diesel":1.579,"dieselPremium":1.689,"adblue":1.86},"extra":{"saleType":"P","margin":"N","reportingType":"OM","ideess":"7760","idMunicipio":"5259","idProvincia":"35","idCCAA":"05"}}},{"type":"Feature","geometry":{"type":"Point","coordinates":[-15.510333,28.112361]},"properties":{"id":"es-7762","source":"ES","brand":"BP SANTIDAD","address":"CALLE AVENIDA PEDRO MORALES DENIZ, 180","municipality":"Arucas","province":"PALMAS (LAS)","postalCode":"35411","schedule":"L-S: 06:00-22:00; D: 07:00-22:00","fuels":{"gasoline95":1.449,"gasoline98":1.589,"diesel":1.559,"dieselPremium":1.679},"extra":{"saleType":"P","margin":"N","reportingType":"OM","ideess":"7762","idMunicipio":"5239","idProvincia":"35","idCCAA":"05"}}},{"type":"Feature","geometry":{"type":"Point","coordinates":[-15.628528,28.141444]},"properties":{"id":"es-7763","source":"ES","brand":"BP GUIA","address":"CARRETERA GENERAL DEL NORTE KM. 24","municipality":"Santa María de Guía de Gran Canaria","province":"PALMAS (LAS)","postalCode":"35450","schedule":"L-D: 06:00-22:00","fuels":{"gasoline95":1.449,"gasoline98":1.589,"diesel":1.559,"dieselPremium":1.679},"extra":{"saleType":"P","margin":"D","reportingType":"OM","ideess":"7763","idMunicipio":"5255","idProvincia":"35","idCCAA":"05"}}},{"type":"Feature","geometry":{"type":"Point","coordinates":[-15.702083,28.101861]},"properties":{"id":"es-7764","source":"ES","brand":"SHELL AGAETE","address":"CALLE LEON Y CASTILLO, 47","municipality":"Agaete","province":"PALMAS (LAS)","postalCode":"35480","schedule":"L-J: 06:00-22:30; V: 06:00-23:00; S: 06:45-23:00; D: 07:45-22:30","fuels":{"gasoline95":1.489,"gasoline98":1.619,"diesel":1.569},"extra":{"saleType":"P","margin":"N","reportingType":"dm","ideess":"7764","idMunicipio":"5233","idProvincia":"35","idCCAA":"05"}}},{"type":"Feature","geometry":{"type":"Point","coordinates":[-15.417028,28.035528]},"properties":{"id":"es-7765","source":"ES","brand":"BP JINAMAR","address":"CARRETERA DE JINAMAR KM. S/N","municipality":"Telde","province":"PALMAS (LAS)","postalCode":"35220","schedule":"L-D: 24H","fuels":{"gasoline95":1.449,"gasoline98":1.589,"diesel":1.559,"dieselPremium":1.679},"extra":{"saleType":"P","margin":"N","reportingType":"OM","ideess":"7765","idMunicipio":"5258","idProvincia":"35","idCCAA":"05"}}},{"type":"Feature","geometry":{"type":"Point","coordinates":[-15.535722,28.009028]},"properties":{"id":"es-7795","source":"ES","brand":"REPSOL SAN MATEO","address":"CALLE EL RETIRO, S/N","municipality":"Vega de San Mateo","province":"PALMAS (LAS)","postalCode":"35320","schedule":"L-S: 06:00-23:00; D: 07:00-22:00","fuels":{"gasoline95":1.457,"gasoline98":1.597,"diesel":1.557,"dieselRenewable":1.647,"adblue":1.31},"extra":{"saleType":"P","margin":"N","reportingType":"dm","ideess":"7795","idMunicipio":"5265","idProvincia":"35","idCCAA":"05"}}},{"type":"Feature","geometry":{"type":"Point","coordinates":[-15.434333,28.113944]},"properties":{"id":"es-7796","source":"ES","brand":"BP ALTAVISTA","address":"CALLE OBISPO ROMO - ESQ.ECHEGARAY, S/N","municipality":"Palmas de Gran Canaria (Las)","province":"PALMAS (LAS)","postalCode":"35011","schedule":"L-D: 06:00-22:00","fuels":{"gasoline95":1.449,"gasoline98":1.589,"diesel":1.559,"dieselPremium":1.679},"extra":{"saleType":"P","margin":"N","reportingType":"OM","ideess":"7796","idMunicipio":"5249","idProvincia":"35","idCCAA":"05"}}},{"type":"Feature","geometry":{"type":"Point","coordinates":[-15.442722,28.097972]},"properties":{"id":"es-7797","source":"ES","brand":"BP COOPERATIVA TAXIS S. CRISTOBAL","address":"CALLE DIEGO VEGA SARMIENTO, 70","municipality":"Palmas de Gran Canaria (Las)","province":"PALMAS (LAS)","postalCode":"35014","schedule":"L-D: 24H","fuels":{"gasoline95":1.449,"gasoline98":1.589,"diesel":1.559,"dieselPremium":1.679},"extra":{"saleType":"P","margin":"N","reportingType":"dm","ideess":"7797","idMunicipio":"5249","idProvincia":"35","idCCAA":"05"}}},{"type":"Feature","geometry":{"type":"Point","coordinates":[-15.417278,28.075556]},"properties":{"id":"es-7798","source":"ES","brand":"BP SAN JOSE","address":"CALLE BLAS CABRERA FELIPE, 2","municipality":"Palmas de Gran Canaria (Las)","province":"PALMAS (LAS)","postalCode":"35016","schedule":"L-D: 24H","fuels":{"gasoline95":1.449,"gasoline98":1.589,"diesel":1.559,"dieselPremium":1.679},"extra":{"saleType":"P","margin":"N","reportingType":"OM","ideess":"7798","idMunicipio":"5249","idProvincia":"35","idCCAA":"05"}}},{"type":"Feature","geometry":{"type":"Point","coordinates":[-15.429944,28.126611]},"properties":{"id":"es-7800","source":"ES","brand":"BP CIUDAD JARDIN (CAN)","address":"CALLE LEON Y CASTILLO, 273","municipality":"Palmas de Gran Canaria (Las)","province":"PALMAS (LAS)","postalCode":"35005","schedule":"L-D: 24H","fuels":{"gasoline95":1.449,"gasoline98":1.589,"diesel":1.559,"dieselPremium":1.679},"extra":{"saleType":"P","margin":"N","reportingType":"OM","ideess":"7800","idMunicipio":"5249","idProvincia":"35","idCCAA":"05"}}},{"type":"Feature","geometry":{"type":"Point","coordinates":[-15.420722,28.150278]},"properties":{"id":"es-7801","source":"ES","brand":"BP PUERTO DE LA LUZ","address":"CALLE ATINDANA, 2","municipality":"Palmas de Gran Canaria (Las)","province":"PALMAS (LAS)","postalCode":"35008","schedule":"L-D: 24H","fuels":{"gasoline95":1.452,"gasoline98":1.592,"diesel":1.552,"dieselPremium":1.672},"extra":{"saleType":"P","margin":"N","reportingType":"dm","ideess":"7801","idMunicipio":"5249","idProvincia":"35","idCCAA":"05"}}},{"type":"Feature","geometry":{"type":"Point","coordinates":[-15.479278,28.097944]},"properties":{"id":"es-7805","source":"ES","brand":"BP TAMARACEITE II","address":"CARRETERA GC-21 KM. 0","municipality":"Palmas de Gran Canaria (Las)","province":"PALMAS (LAS)","postalCode":"35018","schedule":"L-D: 24H","fuels":{"gasoline95":1.449,"gasoline98":1.589,"diesel":1.559,"dieselPremium":1.679,"adblue":1.919},"extra":{"saleType":"P","margin":"D","reportingType":"OM","ideess":"7805","idMunicipio":"5249","idProvincia":"35","idCCAA":"05"}}},{"type":"Feature","geometry":{"type":"Point","coordinates":[-15.441556,28.129889]},"properties":{"id":"es-7806","source":"ES","brand":"BP GUANARTEME","address":"CALLE FERNANDO GUANARTEME, 134","municipality":"Palmas de Gran Canaria (Las)","province":"PALMAS (LAS)","postalCode":"35007","schedule":"L-V: 06:00-22:00; S: 07:00-22:00; D: 08:00-22:00","fuels":{"gasoline95":1.449,"gasoline98":1.589,"diesel":1.559,"dieselPremium":1.679},"extra":{"saleType":"P","margin":"N","reportingType":"OM","ideess":"7806","idMunicipio":"5249","idProvincia":"35","idCCAA":"05"}}},{"type":"Feature","geometry":{"type":"Point","coordinates":[-15.583028,28.10825]},"properties":{"id":"es-7807","source":"ES","brand":"BP MOYA","address":"CALLE LUJAN PEREZ, 6","municipality":"Moya","province":"PALMAS (LAS)","postalCode":"35413","schedule":"L-D: 06:00-21:00","fuels":{"gasoline95":1.45,"gasoline98":1.589,"diesel":1.56,"dieselPremium":1.679},"extra":{"saleType":"P","margin":"N","reportingType":"dm","ideess":"7807","idMunicipio":"5246","idProvincia":"35","idCCAA":"05"}}},{"type":"Feature","geometry":{"type":"Point","coordinates":[-15.387583,28.014333]},"properties":{"id":"es-7808","source":"ES","brand":"BP LA GARITA","address":"AUTOVIA GC-1 SUR LAS PALMAS KM. 8","municipality":"Telde","province":"PALMAS (LAS)","postalCode":"35212","schedule":"L-D: 24H","fuels":{"gasoline95":1.429,"gasoline98":1.569,"diesel":1.539,"dieselPremium":1.639,"adblue":1.5},"extra":{"saleType":"P","margin":"D","reportingType":"dm","ideess":"7808","idMunicipio":"5258","idProvincia":"35","idCCAA":"05"}}},{"type":"Feature","geometry":{"type":"Point","coordinates":[-15.414861,28.108083]},"properties":{"id":"es-7810","source":"ES","brand":"BP CIDELMAR","address":"AVENIDA CANARIAS, 6","municipality":"Palmas de Gran Canaria (Las)","province":"PALMAS (LAS)","postalCode":"35002","schedule":"L-D: 24H","fuels":{"gasoline95":1.449,"gasoline98":1.589,"diesel":1.559,"dieselPremium":1.679,"adblue":1.919},"extra":{"saleType":"P","margin":"N","reportingType":"OM","ideess":"7810","idMunicipio":"5249","idProvincia":"35","idCCAA":"05"}}},{"type":"Feature","geometry":{"type":"Point","coordinates":[-15.445944,28.098639]},"properties":{"id":"es-7811","source":"ES","brand":"BP LA PATERNA","address":"CARRETERA CTRA. GRAL. DEL NORTE KM. 185","municipality":"Palmas de Gran Canaria (Las)","province":"PALMAS (LAS)","postalCode":"35013","schedule":"L-D: 24H","fuels":{"gasoline95":1.449,"gasoline98":1.589,"diesel":1.559,"dieselPremium":1.679},"extra":{"saleType":"P","margin":"N","reportingType":"dm","ideess":"7811","idMunicipio":"5249","idProvincia":"35","idCCAA":"05"}}},{"type":"Feature","geometry":{"type":"Point","coordinates":[-15.477444,28.093556]},"properties":{"id":"es-7814","source":"ES","brand":"BP SAN LORENZO","address":"CARRETERA GENERAL SAN LORENZO KM. 0,5","municipality":"Palmas de Gran Canaria (Las)","province":"PALMAS (LAS)","postalCode":"35018","schedule":"L-D: 24H","fuels":{"gasoline95":1.449,"gasoline98":1.589,"diesel":1.559,"dieselPremium":1.679,"adblue":1.919},"extra":{"saleType":"P","margin":"N","reportingType":"OM","ideess":"7814","idMunicipio":"5249","idProvincia":"35","idCCAA":"05"}}},{"type":"Feature","geometry":{"type":"Point","coordinates":[-15.700389,28.104056]},"properties":{"id":"es-7901","source":"ES","brand":"DISA AGAETE","address":"CARRETERA CTRA GENERAL DEL NORTE KM. 35,800","municipality":"Agaete","province":"PALMAS (LAS)","postalCode":"35480","schedule":"L-V: 05:30-22:00; S: 06:30-22:00; D: 08:00-22:00","fuels":{"gasoline95":1.489,"gasoline98":1.619,"diesel":1.569},"extra":{"saleType":"P","margin":"D","reportingType":"OM","ideess":"7901","idMunicipio":"5233","idProvincia":"35","idCCAA":"05"}}},{"type":"Feature","geometry":{"type":"Point","coordinates":[-15.439889,28.110639]},"properties":{"id":"es-7911","source":"ES","brand":"H2EXAGON ESCALERITAS","address":"AVENIDA DE ESCALERITAS, 112","municipality":"Palmas de Gran Canaria (Las)","province":"PALMAS (LAS)","postalCode":"35011","schedule":"L-D: 06:00-22:00","fuels":{"gasoline95":1.289,"gasoline98":1.389,"diesel":1.459,"dieselPremium":1.559},"extra":{"saleType":"P","margin":"D","reportingType":"dm","ideess":"7911","idMunicipio":"5249","idProvincia":"35","idCCAA":"05"}}},{"type":"Feature","geometry":{"type":"Point","coordinates":[-15.43725,28.102028]},"properties":{"id":"es-7912","source":"ES","brand":"E.S. DISA MILLER BAJO","address":"CALLE LUIS CORREA MEDINA, 19","municipality":"Palmas de Gran Canaria (Las)","province":"PALMAS (LAS)","postalCode":"35013","schedule":"L-D: 24H","fuels":{"gasoline95":1.439,"gasoline98":1.579,"diesel":1.559,"dieselPremium":1.679,"lpg":0.929,"adblue":1.149},"extra":{"saleType":"P","margin":"N","reportingType":"dm","ideess":"7912","idMunicipio":"5249","idProvincia":"35","idCCAA":"05"}}},{"type":"Feature","geometry":{"type":"Point","coordinates":[-15.435028,28.132556]},"properties":{"id":"es-7913","source":"ES","brand":"DISA CHIL","address":"PASEO DEL CHIL, 303","municipality":"Palmas de Gran Canaria (Las)","province":"PALMAS (LAS)","postalCode":"35010","schedule":"L-S: 06:00-22:00; D: 07:00-21:00","fuels":{"gasoline95":1.459,"gasoline98":1.589,"diesel":1.579,"dieselPremium":1.679},"extra":{"saleType":"P","margin":"N","reportingType":"OM","ideess":"7913","idMunicipio":"5249","idProvincia":"35","idCCAA":"05"}}},{"type":"Feature","geometry":{"type":"Point","coordinates":[-15.475194,28.044694]},"properties":{"id":"es-7916","source":"ES","brand":"DISA TAFIRA","address":"CARRETERA GENERAL DEL CENTRO KM. 146","municipality":"Palmas de Gran Canaria (Las)","province":"PALMAS (LAS)","postalCode":"35017","schedule":"L-J: 05:00-22:00; V: 05:00-23:00; S: 06:00-23:00; D: 06:00-22:00","fuels":{"gasoline95":1.459,"gasoline98":1.599,"diesel":1.559,"dieselPremium":1.669},"extra":{"saleType":"P","margin":"N","reportingType":"dm","ideess":"7916","idMunicipio":"5249","idProvincia":"35","idCCAA":"05"}}},{"type":"Feature","geometry":{"type":"Point","coordinates":[-15.533139,28.146667]},"properties":{"id":"es-7917","source":"ES","brand":"DISA BAÑADEROS","address":"AVENIDA LAIRAGA, 36","municipality":"Arucas","province":"PALMAS (LAS)","postalCode":"35414","schedule":"L-D: 06:00-22:00","fuels":{"gasoline95":1.469,"gasoline98":1.599,"diesel":1.559,"dieselPremium":1.669},"extra":{"saleType":"P","margin":"N","reportingType":"OM","ideess":"7917","idMunicipio":"5239","idProvincia":"35","idCCAA":"05"}}},{"type":"Feature","geometry":{"type":"Point","coordinates":[-15.435389,28.101306]},"properties":{"id":"es-7919","source":"ES","brand":"DISA EL DRAGON","address":"CALLE DIEGO VEGA SARMIENTO, 70","municipality":"Palmas de Gran Canaria (Las)","province":"PALMAS (LAS)","postalCode":"35011","schedule":"L-D: 06:00-22:00","fuels":{"gasoline95":1.439,"gasoline98":1.569,"diesel":1.569,"dieselPremium":1.689},"extra":{"saleType":"P","margin":"N","reportingType":"OM","ideess":"7919","idMunicipio":"5249","idProvincia":"35","idCCAA":"05"}}},{"type":"Feature","geometry":{"type":"Point","coordinates":[-15.436861,28.116083]},"properties":{"id":"es-7926","source":"ES","brand":"DISA ESCALERITAS","address":"PLAZA HERMANOS MILLARES, S/N","municipality":"Palmas de Gran Canaria (Las)","province":"PALMAS (LAS)","postalCode":"35011","schedule":"L-D: 06:00-22:00","fuels":{"gasoline95":1.449,"gasoline98":1.579,"diesel":1.569,"dieselPremium":1.679},"extra":{"saleType":"P","margin":"N","reportingType":"OM","ideess":"7926","idMunicipio":"5249","idProvincia":"35","idCCAA":"05"}}},{"type":"Feature","geometry":{"type":"Point","coordinates":[-15.415333,28.096222]},"properties":{"id":"es-7928","source":"ES","brand":"E.S. DISA VEGUETA","address":"CALLE EUFEMIANO JURADO, 4","municipality":"Palmas de Gran Canaria (Las)","province":"PALMAS (LAS)","postalCode":"35001","schedule":"L-D: 24H","fuels":{"gasoline95":1.439,"gasoline98":1.579,"diesel":1.559,"dieselPremium":1.679,"lpg":0.929},"extra":{"saleType":"P","margin":"N","reportingType":"dm","ideess":"7928","idMunicipio":"5249","idProvincia":"35","idCCAA":"05"}}},{"type":"Feature","geometry":{"type":"Point","coordinates":[-15.429667,28.118167]},"properties":{"id":"es-7930","source":"ES","brand":"DISA JUAN XXIII","address":"AVENIDA JUAN XXIII, 68","municipality":"Palmas de Gran Canaria (Las)","province":"PALMAS (LAS)","postalCode":"35004","schedule":"L-D: 06:00-22:00","fuels":{"gasoline95":1.459,"gasoline98":1.599,"diesel":1.569,"dieselPremium":1.679},"extra":{"saleType":"P","margin":"N","reportingType":"OM","ideess":"7930","idMunicipio":"5249","idProvincia":"35","idCCAA":"05"}}},{"type":"Feature","geometry":{"type":"Point","coordinates":[-15.628028,28.142417]},"properties":{"id":"es-7931","source":"ES","brand":"DISA GUIA","address":"LUGAR ALBERCON DE LA VIRGEN, S/N","municipality":"Santa María de Guía de Gran Canaria","province":"PALMAS (LAS)","postalCode":"35450","schedule":"L-D: 06:00-22:00","fuels":{"gasoline95":1.469,"gasoline98":1.589,"diesel":1.559,"dieselPremium":1.635,"dieselRenewable":1.654,"lpg":0.898},"extra":{"saleType":"P","margin":"N","reportingType":"OM","ideess":"7931","idMunicipio":"5255","idProvincia":"35","idCCAA":"05"}}},{"type":"Feature","geometry":{"type":"Point","coordinates":[-15.459667,28.090833]},"properties":{"id":"es-7935","source":"ES","brand":"DISA ALMATRICHE","address":"CARRETERA GENERAL DE ALMATRICHE KM. 48","municipality":"Palmas de Gran Canaria (Las)","province":"PALMAS (LAS)","postalCode":"35018","schedule":"L-D: 24H","fuels":{"gasoline95":1.512,"gasoline98":1.652,"diesel":1.612,"dieselPremium":1.699},"extra":{"saleType":"P","margin":"D","reportingType":"dm","ideess":"7935","idMunicipio":"5249","idProvincia":"35","idCCAA":"05"}}},{"type":"Feature","geometry":{"type":"Point","coordinates":[-15.527611,28.01275]},"properties":{"id":"es-7945","source":"ES","brand":"SHELL SAN MATEO","address":"CALLE LA VEGUETILLA, 55","municipality":"Vega de San Mateo","province":"PALMAS (LAS)","postalCode":"35320","schedule":"L-D: 06:00-22:00","fuels":{"gasoline95":1.459,"gasoline98":1.599,"diesel":1.559,"dieselPremium":1.679},"extra":{"saleType":"P","margin":"N","reportingType":"OM","ideess":"7945","idMunicipio":"5265","idProvincia":"35","idCCAA":"05"}}},{"type":"Feature","geometry":{"type":"Point","coordinates":[-15.417528,28.073639]},"properties":{"id":"es-7946","source":"ES","brand":"DISA SAN JOSE","address":"CALLE BLAS CABRERA FELIPE FISICO, 26","municipality":"Palmas de Gran Canaria (Las)","province":"PALMAS (LAS)","postalCode":"35016","schedule":"L-D: 24H","fuels":{"gasoline95":1.449,"gasoline98":1.589,"diesel":1.579,"dieselPremium":1.689},"extra":{"saleType":"P","margin":"N","reportingType":"OM","ideess":"7946","idMunicipio":"5249","idProvincia":"35","idCCAA":"05"}}},{"type":"Feature","geometry":{"type":"Point","coordinates":[-15.41775,28.153667]},"properties":{"id":"es-7955","source":"ES","brand":"DISA EL SEBADAL","address":"CALLE DR. JUAN DOMINGUEZ PEREZ, 11","municipality":"Palmas de Gran Canaria (Las)","province":"PALMAS (LAS)","postalCode":"35008","schedule":"L-D: 06:00-22:00","fuels":{"gasoline95":1.484,"gasoline98":1.624,"diesel":1.584,"dieselPremium":1.639,"lpg":0.898,"adblue":1.86},"extra":{"saleType":"P","margin":"N","reportingType":"OM","ideess":"7955","idMunicipio":"5249","idProvincia":"35","idCCAA":"05"}}},{"type":"Feature","geometry":{"type":"Point","coordinates":[-15.644583,28.0195]},"properties":{"id":"es-8230","source":"ES","brand":"ES ARTENARA","address":"CALLE LOMO EL PUERTO, 0","municipality":"Artenara","province":"PALMAS (LAS)","postalCode":"35350","schedule":"L-M: 08:00-19:00; X-D: 08:00-22:00","fuels":{"gasoline95":1.469,"gasoline98":1.609,"diesel":1.579},"extra":{"saleType":"P","margin":"N","reportingType":"dm","ideess":"8230","idMunicipio":"5238","idProvincia":"35","idCCAA":"05"}}},{"type":"Feature","geometry":{"type":"Point","coordinates":[-15.560333,28.144944]},"properties":{"id":"es-8255","source":"ES","brand":"H2EXAGON NORTE","address":"CARRETERA CTRA. GRAL. DEL NORTE KM. 13","municipality":"Moya","province":"PALMAS (LAS)","postalCode":"35413","schedule":"L-D: 24H","fuels":{"gasoline95":1.349,"gasoline98":1.449,"diesel":1.439,"dieselPremium":1.539,"adblue":1.161},"extra":{"saleType":"P","margin":"I","reportingType":"dm","ideess":"8255","idMunicipio":"5246","idProvincia":"35","idCCAA":"05"}}},{"type":"Feature","geometry":{"type":"Point","coordinates":[-15.524583,28.117889]},"properties":{"id":"es-8717","source":"ES","brand":"SHELL NUEVA ARUCAS","address":"CALLE SUAREZ FRANCHY, 26","municipality":"Arucas","province":"PALMAS (LAS)","postalCode":"35400","schedule":"L-D: 06:00-22:00","fuels":{"gasoline95":1.459,"gasoline98":1.589,"diesel":1.569},"extra":{"saleType":"P","margin":"N","reportingType":"OM","ideess":"8717","idMunicipio":"5239","idProvincia":"35","idCCAA":"05"}}},{"type":"Feature","geometry":{"type":"Point","coordinates":[-15.517639,28.117472]},"properties":{"id":"es-8718","source":"ES","brand":"E.S. SHELL AUTOVÍA  ARUCAS","address":"AUTOVIA AUTOVIA ARUCAS S/N KM. 3,5","municipality":"Arucas","province":"PALMAS (LAS)","postalCode":"35400","schedule":"L-D: 06:00-22:00","fuels":{"gasoline95":1.439,"gasoline98":1.579,"diesel":1.559,"dieselPremium":1.679,"lpg":0.929},"extra":{"saleType":"P","margin":"N","reportingType":"dm","ideess":"8718","idMunicipio":"5239","idProvincia":"35","idCCAA":"05"}}},{"type":"Feature","geometry":{"type":"Point","coordinates":[-15.649694,28.144806]},"properties":{"id":"es-8719","source":"ES","brand":"SHELL GALDAR","address":"CARRETERA GENERAL Nº 155 KM. 27","municipality":"Gáldar","province":"PALMAS (LAS)","postalCode":"35460","schedule":"L-D: 24H","fuels":{"gasoline95":1.469,"gasoline98":1.589,"diesel":1.559,"dieselPremium":1.635},"extra":{"saleType":"P","margin":"N","reportingType":"OM","ideess":"8719","idMunicipio":"5242","idProvincia":"35","idCCAA":"05"}}},{"type":"Feature","geometry":{"type":"Point","coordinates":[-15.583556,28.11475]},"properties":{"id":"es-8722","source":"ES","brand":"CANARY GREEN CORNER, SL","address":"CALLE PADRE CLARET, 27","municipality":"Moya","province":"PALMAS (LAS)","postalCode":"35421","schedule":"L-V: 06:00-21:00; S-D: 07:00-21:00","fuels":{"gasoline95":1.39,"gasoline98":1.53,"diesel":1.48,"dieselPremium":1.59},"extra":{"saleType":"P","margin":"N","reportingType":"dm","ideess":"8722","idMunicipio":"5246","idProvincia":"35","idCCAA":"05"}}},{"type":"Feature","geometry":{"type":"Point","coordinates":[-15.412639,28.095806]},"properties":{"id":"es-8726","source":"ES","brand":"SHELL VEGUETA","address":"CALLE ALCALDE DIAZ SAAVEDRA NAVARRO, 44","municipality":"Palmas de Gran Canaria (Las)","province":"PALMAS (LAS)","postalCode":"35001","schedule":"L-D: 06:00-22:00","fuels":{"gasoline95":1.459,"gasoline98":1.589,"diesel":1.569,"dieselPremium":1.679},"extra":{"saleType":"P","margin":"N","reportingType":"OM","ideess":"8726","idMunicipio":"5249","idProvincia":"35","idCCAA":"05"}}},{"type":"Feature","geometry":{"type":"Point","coordinates":[-15.45525,28.117083]},"properties":{"id":"es-8728","source":"ES","brand":"REPSOL","address":"CARRETERA DE CHILE KM. 84","municipality":"Palmas de Gran Canaria (Las)","province":"PALMAS (LAS)","postalCode":"35018","schedule":"L-D: 06:00-22:00","fuels":{"gasoline95":1.439,"gasoline98":1.569,"diesel":1.559,"dieselRenewable":1.699},"extra":{"saleType":"P","margin":"D","reportingType":"OM","ideess":"8728","idMunicipio":"5249","idProvincia":"35","idCCAA":"05"}}},{"type":"Feature","geometry":{"type":"Point","coordinates":[-15.425,28.114944]},"properties":{"id":"es-8729","source":"ES","brand":"SHELL TOMAS MORALES","address":"PASEO TOMS MORALES, 94","municipality":"Palmas de Gran Canaria (Las)","province":"PALMAS (LAS)","postalCode":"35003","schedule":"L-D: 06:00-22:00","fuels":{"gasoline95":1.459,"gasoline98":1.579,"diesel":1.569,"dieselPremium":1.679},"extra":{"saleType":"P","margin":"N","reportingType":"OM","ideess":"8729","idMunicipio":"5249","idProvincia":"35","idCCAA":"05"}}},{"type":"Feature","geometry":{"type":"Point","coordinates":[-15.432833,28.105028]},"properties":{"id":"es-8732","source":"ES","brand":"SHELL REHOYAS","address":"CARRETERA GC 200 KM. 16","municipality":"Palmas de Gran Canaria (Las)","province":"PALMAS (LAS)","postalCode":"35013","schedule":"L-D: 06:00-22:00","fuels":{"gasoline95":1.439,"gasoline98":1.569,"diesel":1.569,"dieselPremium":1.689},"extra":{"saleType":"P","margin":"N","reportingType":"OM","ideess":"8732","idMunicipio":"5249","idProvincia":"35","idCCAA":"05"}}},{"type":"Feature","geometry":{"type":"Point","coordinates":[-15.429972,28.133333]},"properties":{"id":"es-8733","source":"ES","brand":"DISA ALCARAVANERAS","address":"CALLE LEON Y CASTILLO, 365","municipality":"Palmas de Gran Canaria (Las)","province":"PALMAS (LAS)","postalCode":"35007","schedule":"L-D: 24H","fuels":{"gasoline95":1.459,"gasoline98":1.589,"diesel":1.569,"dieselPremium":1.679},"extra":{"saleType":"P","margin":"N","reportingType":"OM","ideess":"8733","idMunicipio":"5249","idProvincia":"35","idCCAA":"05"}}},{"type":"Feature","geometry":{"type":"Point","coordinates":[-15.428444,28.113306]},"properties":{"id":"es-8734","source":"ES","brand":"E.S. SHELL SCHAMANN","address":"PASEO JOSE ANTONIO, 89","municipality":"Palmas de Gran Canaria (Las)","province":"PALMAS (LAS)","postalCode":"35012","schedule":"L-D: 06:00-22:00","fuels":{"gasoline95":1.439,"gasoline98":1.579,"diesel":1.559,"dieselPremium":1.679},"extra":{"saleType":"P","margin":"N","reportingType":"dm","ideess":"8734","idMunicipio":"5249","idProvincia":"35","idCCAA":"05"}}},{"type":"Feature","geometry":{"type":"Point","coordinates":[-15.499611,28.030333]},"properties":{"id":"es-8737","source":"ES","brand":"BP SANTA BRIGIDA","address":"CARRETERA GENERAL DEL CENTRO KM. 14","municipality":"Santa Brígida","province":"PALMAS (LAS)","postalCode":"35300","schedule":"L-D: 24H","fuels":{"gasoline95":1.449,"gasoline98":1.589,"diesel":1.556,"dieselPremium":1.679,"adblue":1.399},"extra":{"saleType":"P","margin":"N","reportingType":"dm","ideess":"8737","idMunicipio":"5253","idProvincia":"35","idCCAA":"05"}}},{"type":"Feature","geometry":{"type":"Point","coordinates":[-15.441167,28.123306]},"properties":{"id":"es-9584","source":"ES","brand":"REPSOL","address":"AVENIDA FEDERICO GARCIA LORCA, 1","municipality":"Palmas de Gran Canaria (Las)","province":"PALMAS (LAS)","postalCode":"35459","schedule":"L-D: 24H","fuels":{"gasoline95":1.449,"gasoline98":1.579,"diesel":1.559,"dieselRenewable":1.559,"adblue":1.09},"extra":{"saleType":"P","margin":"D","reportingType":"dm","ideess":"9584","idMunicipio":"5249","idProvincia":"35","idCCAA":"05"}}},{"type":"Feature","geometry":{"type":"Point","coordinates":[-15.614056,28.143361]},"properties":{"id":"es-9623","source":"ES","brand":"REPSOL","address":"CALLE FELIX GARCÍA GONZÁLEZ, 12","municipality":"Santa María de Guía de Gran Canaria","province":"PALMAS (LAS)","postalCode":"35458","schedule":"L-D: 24H","fuels":{"gasoline95":1.464,"gasoline98":1.584,"diesel":1.559,"dieselRenewable":1.559,"adblue":1.09},"extra":{"saleType":"P","margin":"I","reportingType":"dm","ideess":"9623","idMunicipio":"5255","idProvincia":"35","idCCAA":"05"}}}]}