{"type":"FeatureCollection","features":[{"type":"Feature","geometry":{"type":"Point","coordinates":[1.496222,39.070278]},"properties":{"id":"es-2622","source":"ES","brand":"REPSOL","address":"CARRETERA C-733 KM. 19,700","municipality":"Sant Joan de Labritja","province":"BALEARS (ILLES)","postalCode":"07810","schedule":"L-S: 07:00-22:00; D: 08:00-22:00","fuels":{"gasoline95":1.829,"gasoline98":1.949,"diesel":2.009,"dieselB":1.519},"extra":{"saleType":"P","margin":"I","reportingType":"dm","ideess":"2622","idMunicipio":"845","idProvincia":"07","idCCAA":"04"}}}]}