{"type":"FeatureCollection","features":[{"type":"Feature","geometry":{"type":"Point","coordinates":[-2.128694,37.169833]},"properties":{"id":"es-10205","source":"ES","brand":"LOS FILABRES SCA","address":"BO EL PUNTAL, SN","municipality":"Sorbas","province":"ALMERÍA","postalCode":"04270","schedule":"L-V: 08:00-18:00; S: 08:00-14:00","fuels":{"gasoline95":1.629,"diesel":1.729,"dieselB":1.519},"extra":{"saleType":"P","margin":"D","reportingType":"dm","ideess":"10205","idMunicipio":"363","idProvincia":"04","idCCAA":"01"}}},{"type":"Feature","geometry":{"type":"Point","coordinates":[-2.738472,37.508417]},"properties":{"id":"es-10213","source":"ES","brand":"CEPSA","address":"PARAJE CASASOLA JUNTO A AUTOVIA A92","municipality":"Baza","province":"GRANADA","postalCode":"18500","schedule":"L-D: 24H","fuels":{"gasoline95":1.699,"diesel":1.899,"dieselPremium":1.979},"extra":{"saleType":"P","margin":"N","reportingType":"dm","ideess":"10213","idMunicipio":"2691","idProvincia":"18","idCCAA":"01"}}},{"type":"Feature","geometry":{"type":"Point","coordinates":[-2.772778,37.14475]},"properties":{"id":"es-10241","source":"ES","brand":"CEPSA","address":"CARRETERA CARRETERA NACIONAL 324 KM. 268,1","municipality":"Abla","province":"ALMERÍA","postalCode":"04510","schedule":"L-D: 06:00-22:00","fuels":{"gasoline95":1.749,"gasoline98":1.879,"diesel":1.879,"dieselPremium":1.979,"dieselB":1.659,"adblue":0.98},"extra":{"saleType":"P","margin":"I","reportingType":"dm","ideess":"10241","idMunicipio":"280","idProvincia":"04","idCCAA":"01"}}},{"type":"Feature","geometry":{"type":"Point","coordinates":[-2.775111,37.493694]},"properties":{"id":"es-10273","source":"ES","brand":"REPSOL","address":"N-342 km 177,6","municipality":"Baza","province":"GRANADA","postalCode":"18800","schedule":"L-D: 05:00-00:00","fuels":{"gasoline95":1.789,"gasoline95Premium":1.839,"gasoline98":1.939,"diesel":1.919,"dieselPremium":1.999},"extra":{"saleType":"P","margin":"D","reportingType":"dm","ideess":"10273","idMunicipio":"2691","idProvincia":"18","idCCAA":"01"}}},{"type":"Feature","geometry":{"type":"Point","coordinates":[-2.766909,37.481666]},"properties":{"id":"es-10332","source":"ES","brand":"REPSOL","address":"A-334 km 4.5","municipality":"Baza","province":"GRANADA","postalCode":"18800","schedule":"L-D: 05:00-00:00","fuels":{"gasoline95":1.789,"gasoline98":1.939,"diesel":1.919,"dieselPremium":1.999,"adblue":0.8},"extra":{"saleType":"P","margin":"D","reportingType":"dm","ideess":"10332","idMunicipio":"2691","idProvincia":"18","idCCAA":"01"}}},{"type":"Feature","geometry":{"type":"Point","coordinates":[-2.756306,37.817444]},"properties":{"id":"es-10344","source":"ES","brand":"REPSOL","address":"CARRETERA POZO ALCON-  HUESCAR KM. 30","municipality":"Castril","province":"GRANADA","postalCode":"18816","schedule":"L-S: 07:00-22:00; D: 08:00-22:00","fuels":{"gasoline95":1.679,"gasoline98":1.849,"diesel":1.819,"dieselB":1.555,"dieselRenewable":1.939},"extra":{"saleType":"P","margin":"D","reportingType":"OM","ideess":"10344","idMunicipio":"2712","idProvincia":"18","idCCAA":"01"}}},{"type":"Feature","geometry":{"type":"Point","coordinates":[-2.583103,37.584943]},"properties":{"id":"es-10352","source":"ES","brand":"AGRO-OLIVARERA NTRA. SRA. DE LA CABEZA, S. C. A.","address":"AVDA. ANDALUCIA, 3 (A-330 km 3.0)","municipality":"Cúllar","province":"GRANADA","postalCode":"18850","schedule":"L-D: 24H","fuels":{"diesel":1.699,"dieselB":1.399},"extra":{"saleType":"P","margin":"I","reportingType":"dm","ideess":"10352","idMunicipio":"2724","idProvincia":"18","idCCAA":"01"}}},{"type":"Feature","geometry":{"type":"Point","coordinates":[-2.176278,37.384472]},"properties":{"id":"es-10382","source":"ES","brand":"E.S.TERDIGUERA","address":"POLIGONO INDUSTRIAL ALBOX, APARTADO 148, S/N","municipality":"Albox","province":"ALMERÍA","postalCode":"04800","schedule":"L-D: 06:30-22:00","fuels":{"gasoline95":1.579,"diesel":1.749,"dieselPremium":1.799},"extra":{"saleType":"P","margin":"D","reportingType":"dm","ideess":"10382","idMunicipio":"285","idProvincia":"04","idCCAA":"01"}}},{"type":"Feature","geometry":{"type":"Point","coordinates":[-2.769194,37.504889]},"properties":{"id":"es-10422","source":"ES","brand":"BS ENERGY","address":"CARRETERA BENAMAUREL KM. S/N","municipality":"Baza","province":"GRANADA","postalCode":"18800","schedule":"L-V: 06:00-00:00; S-D: 07:00-00:00","fuels":{"gasoline95":1.619,"diesel":1.769,"dieselPremium":1.849,"adblue":0.959},"extra":{"saleType":"P","margin":"N","reportingType":"dm","ideess":"10422","idMunicipio":"2691","idProvincia":"18","idCCAA":"01"}}},{"type":"Feature","geometry":{"type":"Point","coordinates":[-2.266167,37.364889]},"properties":{"id":"es-10711","source":"ES","brand":"COOP. TRACOMAR","address":"POLIGONO LAS CRUCES,, 4","municipality":"Fines","province":"ALMERÍA","postalCode":"04869","schedule":"L-V: 08:00-19:00","fuels":{"diesel":1.744},"extra":{"saleType":"P","margin":"D","reportingType":"dm","ideess":"10711","idMunicipio":"320","idProvincia":"04","idCCAA":"01"}}},{"type":"Feature","geometry":{"type":"Point","coordinates":[-2.090333,37.678111]},"properties":{"id":"es-10919","source":"ES","brand":"ANROROIL","address":"CARRETERA C-321, PJE.CAÑADA DE NAVARRO KM 000000 KM. 162","municipality":"Vélez-Blanco","province":"ALMERÍA","postalCode":"04830","schedule":"L-S: 07:00-23:00","fuels":{"diesel":1.755,"dieselB":1.36},"extra":{"saleType":"P","margin":"D","reportingType":"dm","ideess":"10919","idMunicipio":"376","idProvincia":"04","idCCAA":"01"}}},{"type":"Feature","geometry":{"type":"Point","coordinates":[-2.281028,37.595778]},"properties":{"id":"es-11569","source":"ES","brand":"REPSOL","address":"AUTOVIA A-92 KM. 385","municipality":"Chirivel","province":"ALMERÍA","postalCode":"04825","schedule":"L-D: 06:30-22:30","fuels":{"gasoline95":1.759,"gasoline98":1.959,"diesel":1.869,"dieselPremium":1.969,"dieselB":1.39},"extra":{"saleType":"P","margin":"D","reportingType":"dm","ideess":"11569","idMunicipio":"313","idProvincia":"04","idCCAA":"01"}}},{"type":"Feature","geometry":{"type":"Point","coordinates":[-2.688139,37.425889]},"properties":{"id":"es-11627","source":"ES","brand":"EE SS LOS CARRASQUILLAS","address":"CARRETERA A-334 KM. 14","municipality":"Caniles","province":"GRANADA","postalCode":"18810","schedule":"L-D: 07:00-23:00","fuels":{"gasoline95":1.669,"gasoline98":1.82,"diesel":1.75,"dieselPremium":1.85,"dieselB":1.598},"extra":{"saleType":"P","margin":"I","reportingType":"dm","ideess":"11627","idMunicipio":"2706","idProvincia":"18","idCCAA":"01"}}},{"type":"Feature","geometry":{"type":"Point","coordinates":[-2.542361,37.779639]},"properties":{"id":"es-11818","source":"ES","brand":"LIBRE","address":"CARRETERA A-330 KM. 28,3","municipality":"Huéscar","province":"GRANADA","postalCode":"18830","schedule":"L-D: 24H","fuels":{"gasoline95":1.619,"diesel":1.749,"dieselB":1.429},"extra":{"saleType":"P","margin":"D","reportingType":"dm","ideess":"11818","idMunicipio":"2754","idProvincia":"18","idCCAA":"01"}}},{"type":"Feature","geometry":{"type":"Point","coordinates":[-2.713944,37.001583]},"properties":{"id":"es-11825","source":"ES","brand":"AGLA","address":"CARRETERA A-348 KM. 105,500","municipality":"Canjáyar","province":"ALMERÍA","postalCode":"04450","schedule":"L-D: 06:00-22:00","fuels":{"gasoline95":1.829,"gasoline98":1.959,"diesel":1.849,"dieselPremium":1.949,"dieselB":1.659},"extra":{"saleType":"P","margin":"D","reportingType":"dm","ideess":"11825","idMunicipio":"308","idProvincia":"04","idCCAA":"01"}}},{"type":"Feature","geometry":{"type":"Point","coordinates":[-2.121083,37.369472]},"properties":{"id":"es-11829","source":"ES","brand":"CARBURANTES ALMANZORA SL","address":"CARRETERA A-334 KM. 72,300","municipality":"Albox","province":"ALMERÍA","postalCode":"04800","schedule":"L-D: 24H","fuels":{"gasoline95":1.565,"diesel":1.765},"extra":{"saleType":"P","margin":"D","reportingType":"dm","ideess":"11829","idMunicipio":"285","idProvincia":"04","idCCAA":"01"}}},{"type":"Feature","geometry":{"type":"Point","coordinates":[-2.294583,37.341167]},"properties":{"id":"es-11939","source":"ES","brand":"SUIMASA","address":"CARRETERA OLULA-MACAEL KM. 1,7","municipality":"Macael","province":"ALMERÍA","postalCode":"04867","schedule":"L-V: 08:30-13:30 y 15:00-20:00","fuels":{"gasoline95":1.579,"diesel":1.694,"adblue":0.641},"extra":{"saleType":"P","margin":"I","reportingType":"dm","ideess":"11939","idMunicipio":"338","idProvincia":"04","idCCAA":"01"}}},{"type":"Feature","geometry":{"type":"Point","coordinates":[-2.308667,37.08475]},"properties":{"id":"es-11971","source":"ES","brand":"REPSOL","address":"CARRETERA N-340A KM. 479","municipality":"Tabernas","province":"ALMERÍA","postalCode":"04200","schedule":"L: 06:00-22:00","fuels":{"gasoline95":1.889,"gasoline98":1.999,"diesel":1.929,"dieselRenewable":2.059,"adblue":1.159},"extra":{"saleType":"P","margin":"D","reportingType":"dm","ideess":"11971","idMunicipio":"365","idProvincia":"04","idCCAA":"01"}}},{"type":"Feature","geometry":{"type":"Point","coordinates":[-2.20575,37.374167]},"properties":{"id":"es-12138","source":"ES","brand":"INDAPAK LOGISTICS","address":"POLIGONO INDUSTRIAL S/N, 1","municipality":"Cantoria","province":"ALMERÍA","postalCode":"04850","schedule":"L-D: 24H","fuels":{"gasoline95":1.579,"diesel":1.699},"extra":{"saleType":"P","margin":"D","reportingType":"dm","ideess":"12138","idMunicipio":"309","idProvincia":"04","idCCAA":"01"}}},{"type":"Feature","geometry":{"type":"Point","coordinates":[-2.781639,37.797972]},"properties":{"id":"es-12427","source":"ES","brand":"CASTRIL","address":"AVENIDA PORTILLO, S/N","municipality":"Castril","province":"GRANADA","postalCode":"18816","schedule":"L-D: 24H","fuels":{"gasoline95":1.649,"gasoline98":1.819,"diesel":1.789},"extra":{"saleType":"P","margin":"D","reportingType":"dm","ideess":"12427","idMunicipio":"2712","idProvincia":"18","idCCAA":"01"}}},{"type":"Feature","geometry":{"type":"Point","coordinates":[-2.10075,37.644861]},"properties":{"id":"es-12484","source":"ES","brand":"INV","address":"POLIGONO LA FORJA, 79/80","municipality":"Vélez-Rubio","province":"ALMERÍA","postalCode":"04820","schedule":"L-V: 08:30-14:00 y 16:00-20:30; S: 09:00-13:30","fuels":{"gasoline95":1.59,"diesel":1.79},"extra":{"saleType":"P","margin":"D","reportingType":"dm","ideess":"12484","idMunicipio":"377","idProvincia":"04","idCCAA":"01"}}},{"type":"Feature","geometry":{"type":"Point","coordinates":[-2.268139,37.363194]},"properties":{"id":"es-12695","source":"ES","brand":"REPSOL","address":"CARRETERA DE BAZA A HUERCAL OVERA KM. 58,000","municipality":"Fines","province":"ALMERÍA","postalCode":"04869","schedule":"L-D: 06:00-22:00","fuels":{"gasoline95":1.735,"diesel":1.895,"dieselPremium":1.995},"extra":{"saleType":"P","margin":"D","reportingType":"dm","ideess":"12695","idMunicipio":"320","idProvincia":"04","idCCAA":"01"}}},{"type":"Feature","geometry":{"type":"Point","coordinates":[-2.743417,37.502694]},"properties":{"id":"es-12976","source":"ES","brand":"NORTEGRA LOW COST","address":"CALLE F (POL LA NORIA), 10","municipality":"Baza","province":"GRANADA","postalCode":"18800","schedule":"L-V: 09:00-14:00 y 17:00-19:00; S: 09:00-14:00","fuels":{"gasoline95":1.619,"diesel":1.769},"extra":{"saleType":"P","margin":"N","reportingType":"dm","ideess":"12976","idMunicipio":"2691","idProvincia":"18","idCCAA":"01"}}},{"type":"Feature","geometry":{"type":"Point","coordinates":[-2.773389,37.502278]},"properties":{"id":"es-13143","source":"ES","brand":"CARBA","address":"CARRETERA BENAMAUREL KM. 4","municipality":"Baza","province":"GRANADA","postalCode":"18800","schedule":"L-D: 24H","fuels":{"gasoline95":1.609,"diesel":1.749},"extra":{"saleType":"P","margin":"D","reportingType":"dm","ideess":"13143","idMunicipio":"2691","idProvincia":"18","idCCAA":"01"}}},{"type":"Feature","geometry":{"type":"Point","coordinates":[-2.530611,37.809917]},"properties":{"id":"es-13193","source":"ES","brand":"EGEA HUESCAR","address":"POLIGONO PARCELA 56, 56","municipality":"Huéscar","province":"GRANADA","postalCode":"18830","schedule":"L-D: 24H","fuels":{"gasoline95":1.6,"diesel":1.8,"adblue":0.7},"extra":{"saleType":"P","margin":"D","reportingType":"dm","ideess":"13193","idMunicipio":"2754","idProvincia":"18","idCCAA":"01"}}},{"type":"Feature","geometry":{"type":"Point","coordinates":[-2.833944,37.533361]},"properties":{"id":"es-13250","source":"ES","brand":"GAIA","address":"POLIGONO ACCESO A CTRA. ESTACION FERROCARRIL, S/N","municipality":"Zújar","province":"GRANADA","postalCode":"18811","schedule":"L-D: 07:00-22:00","fuels":{"gasoline95":1.559,"diesel":1.709,"adblue":0.969},"extra":{"saleType":"P","margin":"D","reportingType":"dm","ideess":"13250","idMunicipio":"2838","idProvincia":"18","idCCAA":"01"}}},{"type":"Feature","geometry":{"type":"Point","coordinates":[-2.266972,37.363417]},"properties":{"id":"es-13560","source":"ES","brand":"GONZALEZ CAÑABATE CARBURANTES","address":"CALLE ARGENTINA (CAÑ), 34","municipality":"Fines","province":"ALMERÍA","postalCode":"04869","schedule":"L-D: 24H","fuels":{"gasoline95":1.579,"diesel":1.694,"adblue":0.641},"extra":{"saleType":"P","margin":"I","reportingType":"dm","ideess":"13560","idMunicipio":"320","idProvincia":"04","idCCAA":"01"}}},{"type":"Feature","geometry":{"type":"Point","coordinates":[-2.064417,37.219444]},"properties":{"id":"es-13702","source":"ES","brand":"INICIATIVAS RUMIAL","address":"POLIGONO LA REDONDA, 1","municipality":"Lubrín","province":"ALMERÍA","postalCode":"04271","schedule":"L-D: 24H","fuels":{"gasoline95":1.629,"diesel":1.729},"extra":{"saleType":"P","margin":"D","reportingType":"dm","ideess":"13702","idMunicipio":"335","idProvincia":"04","idCCAA":"01"}}},{"type":"Feature","geometry":{"type":"Point","coordinates":[-2.282472,37.358167]},"properties":{"id":"es-13771","source":"ES","brand":"SUIMASA","address":"PARAJE MOJON. POLIGONO 5. PARCELA, 44","municipality":"Fines","province":"ALMERÍA","postalCode":"04869","schedule":"L-D: 24H","fuels":{"gasoline95":1.579,"diesel":1.694},"extra":{"saleType":"P","margin":"D","reportingType":"dm","ideess":"13771","idMunicipio":"320","idProvincia":"04","idCCAA":"01"}}},{"type":"Feature","geometry":{"type":"Point","coordinates":[-2.20225,37.358833]},"properties":{"id":"es-13828","source":"ES","brand":"CARBURANTES DE CANTORIA","address":"DISEMINADO EL LLANO, 1","municipality":"Cantoria","province":"ALMERÍA","postalCode":"04850","schedule":"L-V: 09:00-22:00; S: 09:00-14:00","fuels":{"diesel":1.695},"extra":{"saleType":"P","margin":"D","reportingType":"dm","ideess":"13828","idMunicipio":"309","idProvincia":"04","idCCAA":"01"}}},{"type":"Feature","geometry":{"type":"Point","coordinates":[-2.096806,37.353056]},"properties":{"id":"es-13896","source":"ES","brand":"E.S.ARBOLEAS","address":"POLIGONO LOS LLANOS, 17","municipality":"Arboleas","province":"ALMERÍA","postalCode":"04660","schedule":"L-D: 24H","fuels":{"gasoline95":1.529,"diesel":1.699},"extra":{"saleType":"P","margin":"D","reportingType":"dm","ideess":"13896","idMunicipio":"296","idProvincia":"04","idCCAA":"01"}}},{"type":"Feature","geometry":{"type":"Point","coordinates":[-2.760472,37.495222]},"properties":{"id":"es-14045","source":"ES","brand":"E.S MINIOIL","address":"CARRETERA DE MURCIA S/N KM. S/N","municipality":"Baza","province":"GRANADA","postalCode":"18800","schedule":"L-D: 24H","fuels":{"gasoline95":1.619,"diesel":1.769,"adblue":0.899},"extra":{"saleType":"P","margin":"D","reportingType":"dm","ideess":"14045","idMunicipio":"2691","idProvincia":"18","idCCAA":"01"}}},{"type":"Feature","geometry":{"type":"Point","coordinates":[-2.094778,37.354]},"properties":{"id":"es-14066","source":"ES","brand":"MORA OIL","address":"POLIGONO SERVICIO LOS LLANOS (LL), 34","municipality":"Arboleas","province":"ALMERÍA","postalCode":"04660","schedule":"L-D: 24H","fuels":{"gasoline95":1.529,"diesel":1.709},"extra":{"saleType":"P","margin":"D","reportingType":"dm","ideess":"14066","idMunicipio":"296","idProvincia":"04","idCCAA":"01"}}},{"type":"Feature","geometry":{"type":"Point","coordinates":[-2.133194,37.378139]},"properties":{"id":"es-14442","source":"ES","brand":"RASPA-OIL (SERV. ATENDIDO)","address":"CARRETERA LORCA- BAZA, PARAJE LOS CHORLITOS, PARC. 426, POL. 41 KM. 426","municipality":"Albox","province":"ALMERÍA","postalCode":"04800","schedule":"L-D: 24H","fuels":{"gasoline95":1.648,"gasoline95Premium":1.648,"diesel":1.757,"dieselPremium":1.757,"lpg":1.047,"adblue":1.227},"extra":{"saleType":"P","margin":"D","reportingType":"dm","ideess":"14442","idMunicipio":"285","idProvincia":"04","idCCAA":"01"}}},{"type":"Feature","geometry":{"type":"Point","coordinates":[-2.044917,37.361889]},"properties":{"id":"es-14462","source":"ES","brand":"OIL BAROL SL","address":"AVENIDA ANDALUCIA, S/N","municipality":"Zurgena","province":"ALMERÍA","postalCode":"04661","schedule":"L: 07:00-21:00","fuels":{"gasoline95":1.529,"diesel":1.699},"extra":{"saleType":"P","margin":"D","reportingType":"dm","ideess":"14462","idMunicipio":"381","idProvincia":"04","idCCAA":"01"}}},{"type":"Feature","geometry":{"type":"Point","coordinates":[-2.427,37.347917]},"properties":{"id":"es-15265","source":"ES","brand":"VOLACAN","address":"POLIGONO INDUSTRIAL, CL. LEONARDO DA VINCCI SECTOR TI4, 4","municipality":"Tíjola","province":"ALMERÍA","postalCode":"04880","schedule":"L-D: 00:00-23:59","fuels":{"gasoline95":1.579,"diesel":1.694},"extra":{"saleType":"P","margin":"D","reportingType":"dm","ideess":"15265","idMunicipio":"369","idProvincia":"04","idCCAA":"01"}}},{"type":"Feature","geometry":{"type":"Point","coordinates":[-2.14175,37.388111]},"properties":{"id":"es-15469","source":"ES","brand":"TRANSRUMAR","address":"POLIGONO INDUSTRIAL. AREA DE TRANSPORTES, 0","municipality":"Albox","province":"ALMERÍA","postalCode":"04800","schedule":"L-D: 24H","fuels":{"dieselPremium":1.665,"adblue":0.75},"extra":{"saleType":"P","margin":"D","reportingType":"dm","ideess":"15469","idMunicipio":"285","idProvincia":"04","idCCAA":"01"}}},{"type":"Feature","geometry":{"type":"Point","coordinates":[-2.119944,37.095667]},"properties":{"id":"es-15491","source":"ES","brand":"CITRASOR, SCA","address":"PARAJE EL COLLAICO, S/N","municipality":"Sorbas","province":"ALMERÍA","postalCode":"04270","schedule":"L-V: 09:00-14:00 y 16:00-20:00; S: 09:00-13:00","fuels":{"diesel":1.843,"adblue":0.698},"extra":{"saleType":"P","margin":"N","reportingType":"dm","ideess":"15491","idMunicipio":"363","idProvincia":"04","idCCAA":"01"}}},{"type":"Feature","geometry":{"type":"Point","coordinates":[-2.570861,37.635528]},"properties":{"id":"es-15523","source":"ES","brand":"GASOLINERA EL MARGEN","address":"CARRETERA A330 CÚLLAR - PUEBLA DE DON FADRIQUE KM. 9","municipality":"Cúllar","province":"GRANADA","postalCode":"18181","schedule":"L: 07:00-20:00","fuels":{"gasoline95":1.619,"diesel":1.699},"extra":{"saleType":"P","margin":"I","reportingType":"dm","ideess":"15523","idMunicipio":"2724","idProvincia":"18","idCCAA":"01"}}},{"type":"Feature","geometry":{"type":"Point","coordinates":[-2.508722,37.360417]},"properties":{"id":"es-15919","source":"ES","brand":"HAFESA","address":"CALLE MINA LEONA 1, 1","municipality":"Serón","province":"ALMERÍA","postalCode":"04890","schedule":"L-D: 06:00-22:00","fuels":{"gasoline95":1.609,"diesel":1.729,"dieselPremium":1.739,"dieselB":1.369,"adblue":0.899},"extra":{"saleType":"P","margin":"D","reportingType":"dm","ideess":"15919","idMunicipio":"360","idProvincia":"04","idCCAA":"01"}}},{"type":"Feature","geometry":{"type":"Point","coordinates":[-2.069528,37.645306]},"properties":{"id":"es-16040","source":"ES","brand":"LAS PEPAS","address":"AVENIDA DE ANDALUCIA, 2","municipality":"Vélez-Rubio","province":"ALMERÍA","postalCode":"04820","schedule":"L-D: 24H","fuels":{"gasoline95":1.655,"diesel":1.755},"extra":{"saleType":"P","margin":"D","reportingType":"dm","ideess":"16040","idMunicipio":"377","idProvincia":"04","idCCAA":"01"}}},{"type":"Feature","geometry":{"type":"Point","coordinates":[-2.367361,37.067806]},"properties":{"id":"es-16358","source":"ES","brand":"DESERT TRUCKERS","address":"PARAJE CAÑADA LOS ALBARDINALES, S/N","municipality":"Tabernas","province":"ALMERÍA","postalCode":"04200","schedule":"L-D: 08:00-20:00","fuels":{"diesel":1.989,"dieselB":1.2,"adblue":0.713},"extra":{"saleType":"P","margin":"D","reportingType":"dm","ideess":"16358","idMunicipio":"365","idProvincia":"04","idCCAA":"01"}}},{"type":"Feature","geometry":{"type":"Point","coordinates":[-2.832778,37.160889]},"properties":{"id":"es-5624","source":"ES","brand":"CEPSA","address":"A-92A km 333","municipality":"Fiñana","province":"ALMERÍA","postalCode":"04500","schedule":"L-D: 06:30-22:30","fuels":{"gasoline95":1.749,"gasoline98":1.879,"diesel":1.879,"dieselPremium":1.979,"dieselB":1.659,"adblue":0.98},"extra":{"saleType":"P","margin":"D","reportingType":"dm","ideess":"5624","idMunicipio":"321","idProvincia":"04","idCCAA":"01"}}},{"type":"Feature","geometry":{"type":"Point","coordinates":[-2.287528,37.485]},"properties":{"id":"es-5633","source":"ES","brand":"CEPSA","address":"AVENIDA ANDALUCIA, 62","municipality":"Oria","province":"ALMERÍA","postalCode":"04810","schedule":"L-D: 07:00-23:00","fuels":{"gasoline95":1.779,"diesel":1.909,"dieselPremium":1.999,"dieselB":1.499},"extra":{"saleType":"P","margin":"I","reportingType":"dm","ideess":"5633","idMunicipio":"347","idProvincia":"04","idCCAA":"01"}}},{"type":"Feature","geometry":{"type":"Point","coordinates":[-2.296194,37.231111]},"properties":{"id":"es-5637","source":"ES","brand":"CEPSA","address":"CARRETERA A-349 KM. 26,6","municipality":"Tahal","province":"ALMERÍA","postalCode":"04275","schedule":"L-D: 07:00-22:00","fuels":{"gasoline95":1.699,"diesel":1.799,"dieselPremium":1.869,"dieselB":1.659},"extra":{"saleType":"P","margin":"D","reportingType":"dm","ideess":"5637","idMunicipio":"367","idProvincia":"04","idCCAA":"01"}}},{"type":"Feature","geometry":{"type":"Point","coordinates":[-2.071556,37.463389]},"properties":{"id":"es-5642","source":"ES","brand":"CEPSA","address":"CARRETERA HUERCAL-OVERA KM. 19400","municipality":"Taberno","province":"ALMERÍA","postalCode":"04692","schedule":"L-S: 08:00-14:00 y 15:30-20:30","fuels":{"gasoline95":1.665,"diesel":1.765},"extra":{"saleType":"P","margin":"I","reportingType":"dm","ideess":"5642","idMunicipio":"366","idProvincia":"04","idCCAA":"01"}}},{"type":"Feature","geometry":{"type":"Point","coordinates":[-2.446056,37.016417]},"properties":{"id":"es-5647","source":"ES","brand":"REPSOL","address":"AUTOVIA CR A 92 KM. 379","municipality":"Tabernas","province":"ALMERÍA","postalCode":"04200","schedule":"L-D: 06:00-21:30","fuels":{"gasoline95":1.799,"diesel":1.909,"dieselRenewable":1.999,"adblue":1.199},"extra":{"saleType":"P","margin":"D","reportingType":"dm","ideess":"5647","idMunicipio":"365","idProvincia":"04","idCCAA":"01"}}},{"type":"Feature","geometry":{"type":"Point","coordinates":[-2.561278,37.116917]},"properties":{"id":"es-5653","source":"ES","brand":"BP","address":"AUTOVIA A92 SUR KM. 358","municipality":"Gérgal","province":"ALMERÍA","postalCode":"04550","schedule":"L-D: 06:30-22:30","fuels":{"gasoline95":1.735,"gasoline98":1.895,"diesel":1.875,"dieselPremium":1.975,"dieselB":1.679},"extra":{"saleType":"P","margin":"N","reportingType":"dm","ideess":"5653","idMunicipio":"326","idProvincia":"04","idCCAA":"01"}}},{"type":"Feature","geometry":{"type":"Point","coordinates":[-2.939667,37.70725]},"properties":{"id":"es-5674","source":"ES","brand":"GALP","address":"A315 TORREPEROGIL A BAZA km 63,15","municipality":"Pozo Alcón","province":"JAÉN","postalCode":"23485","schedule":"L-D: 07:30-22:00","fuels":{"gasoline95":1.749,"gasoline98":1.929,"diesel":1.889,"dieselPremium":1.989,"dieselB":1.629},"extra":{"saleType":"P","margin":"N","reportingType":"dm","ideess":"5674","idMunicipio":"3563","idProvincia":"23","idCCAA":"01"}}},{"type":"Feature","geometry":{"type":"Point","coordinates":[-2.733889,37.451778]},"properties":{"id":"es-5752","source":"ES","brand":"REPSOL","address":"CARRETERA C-323 KM. 5","municipality":"Caniles","province":"GRANADA","postalCode":"18810","schedule":"L-S: 06:00-22:30; D: 07:00-22:30","fuels":{"gasoline95":1.709,"gasoline98":1.879,"diesel":1.885,"dieselPremium":1.945,"dieselB":1.549},"extra":{"saleType":"P","margin":"I","reportingType":"dm","ideess":"5752","idMunicipio":"2706","idProvincia":"18","idCCAA":"01"}}},{"type":"Feature","geometry":{"type":"Point","coordinates":[-2.339556,37.35825]},"properties":{"id":"es-5763","source":"ES","brand":"SUIMASA","address":"CR A-334, 50.9 (A-334 km 50,9)","municipality":"Purchena","province":"ALMERÍA","postalCode":"04870","schedule":"L-V: 06:30-22:00; S-D: 07:00-22:00","fuels":{"gasoline95":1.579,"diesel":1.694},"extra":{"saleType":"P","margin":"D","reportingType":"dm","ideess":"5763","idMunicipio":"353","idProvincia":"04","idCCAA":"01"}}},{"type":"Feature","geometry":{"type":"Point","coordinates":[-2.765278,37.493361]},"properties":{"id":"es-5771","source":"ES","brand":"EE SS. VENTA DEL SOL CEPSA","address":"AVENIDA MURCIA S/N, S/N","municipality":"Baza","province":"GRANADA","postalCode":"18800","schedule":"L-S: 06:00-23:00; D: 07:00-23:00","fuels":{"gasoline95":1.789,"diesel":1.919,"dieselPremium":1.999,"dieselB":1.639},"extra":{"saleType":"P","margin":"I","reportingType":"dm","ideess":"5771","idMunicipio":"2691","idProvincia":"18","idCCAA":"01"}}},{"type":"Feature","geometry":{"type":"Point","coordinates":[-2.959,37.187806]},"properties":{"id":"es-5805","source":"ES","brand":"REPSOL","address":"CR N-324 246,2 (N-324 km 246,24)","municipality":"Huéneja","province":"GRANADA","postalCode":"18512","schedule":"L-V: 06:00-21:00; S: 07:00-14:00; D: 08:00-21:00","fuels":{"gasoline95":1.695,"gasoline98":1.865,"diesel":1.859,"dieselPremium":1.969},"extra":{"saleType":"P","margin":"D","reportingType":"OM","ideess":"5805","idMunicipio":"2753","idProvincia":"18","idCCAA":"01"}}},{"type":"Feature","geometry":{"type":"Point","coordinates":[-2.299139,37.333306]},"properties":{"id":"es-6437","source":"ES","brand":"NTRA SRA DEL ROSARIO","address":"CARRETERA CTRA. DE TAHAL KM. 3","municipality":"Macael","province":"ALMERÍA","postalCode":"04867","schedule":"L-V: 07:00-21:00; S: 08:00-21:00; D: 08:00-14:00","fuels":{"gasoline95":1.579,"diesel":1.699,"dieselPremium":1.819},"extra":{"saleType":"P","margin":"D","reportingType":"dm","ideess":"6437","idMunicipio":"338","idProvincia":"04","idCCAA":"01"}}},{"type":"Feature","geometry":{"type":"Point","coordinates":[-2.121306,37.0975]},"properties":{"id":"es-6445","source":"ES","brand":"E/S  SAN JAVIER","address":"CARRETERA A-316 UBEDA-CABRA  PK. 169 KM. S/N","municipality":"Sorbas","province":"ALMERÍA","postalCode":"04270","schedule":"L-D: 06:00-22:00","fuels":{"gasoline95":1.779,"diesel":1.899,"dieselPremium":1.999,"dieselB":1.559},"extra":{"saleType":"P","margin":"D","reportingType":"dm","ideess":"6445","idMunicipio":"363","idProvincia":"04","idCCAA":"01"}}},{"type":"Feature","geometry":{"type":"Point","coordinates":[-2.608944,37.554194]},"properties":{"id":"es-6449","source":"ES","brand":"BP VENTA DEL PERAL I","address":"AUTOVIA A/92 GRANADA MURCIA KM. 354","municipality":"Cúllar","province":"GRANADA","postalCode":"18850","schedule":"L-D: 07:00-23:00","fuels":{"gasoline95":1.725,"gasoline98":1.885,"diesel":1.879,"dieselPremium":1.979},"extra":{"saleType":"P","margin":"N","reportingType":"dm","ideess":"6449","idMunicipio":"2724","idProvincia":"18","idCCAA":"01"}}},{"type":"Feature","geometry":{"type":"Point","coordinates":[-2.905611,37.433583]},"properties":{"id":"es-6488","source":"ES","brand":"E.S. MIRASIERRA","address":"AUTOVIA A-92 KM. 322","municipality":"Baza","province":"GRANADA","postalCode":"18860","schedule":"L-D: 24H","fuels":{"gasoline95":1.99,"diesel":1.99},"extra":{"saleType":"P","margin":"I","reportingType":"dm","ideess":"6488","idMunicipio":"2691","idProvincia":"18","idCCAA":"01"}}},{"type":"Feature","geometry":{"type":"Point","coordinates":[-2.373556,37.595222]},"properties":{"id":"es-6496","source":"ES","brand":"SHELL","address":"AUTOVIA A-92 KM. 377","municipality":"Cúllar","province":"GRANADA","postalCode":"18850","schedule":"L-D: 24H","fuels":{"gasoline95":1.779,"gasoline98":1.919,"diesel":1.899,"dieselPremium":1.979,"adblue":1.25},"extra":{"saleType":"P","margin":"I","reportingType":"OM","ideess":"6496","idMunicipio":"2724","idProvincia":"18","idCCAA":"01"}}},{"type":"Feature","geometry":{"type":"Point","coordinates":[-2.614111,37.553444]},"properties":{"id":"es-6498","source":"ES","brand":"BP VENTA DEL PERAL II","address":"AUTOVIA A/92 KM. 354","municipality":"Cúllar","province":"GRANADA","postalCode":"18850","schedule":"L-D: 24H","fuels":{"gasoline95":1.725,"gasoline98":1.885,"diesel":1.879,"dieselPremium":1.979,"lpg":1.129},"extra":{"saleType":"P","margin":"I","reportingType":"dm","ideess":"6498","idMunicipio":"2724","idProvincia":"18","idCCAA":"01"}}},{"type":"Feature","geometry":{"type":"Point","coordinates":[-2.2975,37.356667]},"properties":{"id":"es-6520","source":"ES","brand":"EE.SS. SAN SEBASTIAN","address":"AVENIDA AVDA. ALMANZORA, 45","municipality":"Olula del Río","province":"ALMERÍA","postalCode":"04860","schedule":"L-V: 07:00-21:00; S-D: 08:00-21:00","fuels":{"gasoline95":1.579,"diesel":1.699,"dieselPremium":1.819},"extra":{"saleType":"P","margin":"N","reportingType":"dm","ideess":"6520","idMunicipio":"346","idProvincia":"04","idCCAA":"01"}}},{"type":"Feature","geometry":{"type":"Point","coordinates":[-2.639861,37.717806]},"properties":{"id":"es-6557","source":"ES","brand":"AGLA","address":"CARRETERA BENAMAUREL-HUESCAR KM. 13","municipality":"Castilléjar","province":"GRANADA","postalCode":"18818","schedule":"L-D: 06:00-23:30","fuels":{"gasoline95":1.729,"gasoline98":1.899,"diesel":1.849,"dieselPremium":1.899,"dieselB":1.489},"extra":{"saleType":"P","margin":"N","reportingType":"dm","ideess":"6557","idMunicipio":"2711","idProvincia":"18","idCCAA":"01"}}},{"type":"Feature","geometry":{"type":"Point","coordinates":[-2.765861,37.508639]},"properties":{"id":"es-6558","source":"ES","brand":"EE SS EL MAÑO REPSOL","address":"CARRETERA CTRA BENAMAUREL KM 2.2 KM. 2,2","municipality":"Baza","province":"GRANADA","postalCode":"18800","schedule":"L-V: 06:00-23:00; S: 06:00-22:00; D: 08:00-20:00","fuels":{"gasoline95":1.769,"gasoline98":1.899,"diesel":1.919,"dieselPremium":1.999,"adblue":1.04},"extra":{"saleType":"P","margin":"D","reportingType":"dm","ideess":"6558","idMunicipio":"2691","idProvincia":"18","idCCAA":"01"}}},{"type":"Feature","geometry":{"type":"Point","coordinates":[-2.706889,37.598194]},"properties":{"id":"es-6575","source":"ES","brand":"MOEVE","address":"CARRETERA BENAMAUREL KM. 13,500","municipality":"Benamaurel","province":"GRANADA","postalCode":"18817","schedule":"L: 07:00-22:00","fuels":{"gasoline95":1.779,"diesel":1.919,"dieselPremium":1.999,"dieselB":1.499},"extra":{"saleType":"P","margin":"D","reportingType":"dm","ideess":"6575","idMunicipio":"2696","idProvincia":"18","idCCAA":"01"}}},{"type":"Feature","geometry":{"type":"Point","coordinates":[-2.931972,37.536611]},"properties":{"id":"es-6576","source":"ES","brand":"CEPSA","address":"CARRETERA A-315 KM. 90","municipality":"Freila","province":"GRANADA","postalCode":"18812","schedule":"L-D: 24H","fuels":{"gasoline95":1.649,"gasoline95Premium":1.749,"diesel":1.769,"dieselPremium":1.869},"extra":{"saleType":"P","margin":"D","reportingType":"dm","ideess":"6576","idMunicipio":"2737","idProvincia":"18","idCCAA":"01"}}},{"type":"Feature","geometry":{"type":"Point","coordinates":[-2.181194,37.292667]},"properties":{"id":"es-6673","source":"ES","brand":"CARBURANTES FILABRES","address":"CARRETERA AL-3325, 15,2 KM. 15,2","municipality":"Albánchez","province":"ALMERÍA","postalCode":"04857","schedule":"L: 07:00-22:00","fuels":{"gasoline95":1.689,"diesel":1.779},"extra":{"saleType":"P","margin":"D","reportingType":"dm","ideess":"6673","idMunicipio":"283","idProvincia":"04","idCCAA":"01"}}},{"type":"Feature","geometry":{"type":"Point","coordinates":[-2.168333,37.707972]},"properties":{"id":"es-6685","source":"ES","brand":"REPSOL","address":"CALLE CAMINO REAL, SN","municipality":"María","province":"ALMERÍA","postalCode":"04838","schedule":"L: 07:00-22:00","fuels":{"gasoline95":1.748,"gasoline98":1.89,"diesel":1.856,"dieselPremium":1.934,"dieselB":1.4},"extra":{"saleType":"P","margin":"D","reportingType":"dm","ideess":"6685","idMunicipio":"339","idProvincia":"04","idCCAA":"01"}}},{"type":"Feature","geometry":{"type":"Point","coordinates":[-2.333306,37.983278]},"properties":{"id":"es-6689","source":"ES","brand":"REPSOL","address":"CR C-330  ALMACILES, 88","municipality":"Puebla de Don Fadrique","province":"GRANADA","postalCode":"18820","schedule":"L: 07:00-23:00","fuels":{"gasoline95":1.749,"diesel":1.899,"dieselPremium":1.999,"dieselB":1.649},"extra":{"saleType":"P","margin":"D","reportingType":"dm","ideess":"6689","idMunicipio":"2808","idProvincia":"18","idCCAA":"01"}}},{"type":"Feature","geometry":{"type":"Point","coordinates":[-2.432222,37.347722]},"properties":{"id":"es-6698","source":"ES","brand":"REPSOL","address":"AVENIDA AVD.  JOSE ANTONIO, 18","municipality":"Tíjola","province":"ALMERÍA","postalCode":"04880","schedule":"L-D: 06:00-22:00","fuels":{"gasoline95":1.695,"gasoline98":1.865,"diesel":1.849,"dieselB":1.615,"dieselRenewable":1.969},"extra":{"saleType":"P","margin":"D","reportingType":"OM","ideess":"6698","idMunicipio":"369","idProvincia":"04","idCCAA":"01"}}},{"type":"Feature","geometry":{"type":"Point","coordinates":[-2.22675,37.859639]},"properties":{"id":"es-6705","source":"ES","brand":"TOPFUEL","address":"CARRETERA VELEZ BLANCO KM. 26","municipality":"Vélez-Blanco","province":"ALMERÍA","postalCode":"04839","schedule":"L-D: 08:00-22:00","fuels":{"gasoline95":1.609,"diesel":1.749,"dieselB":1.399},"extra":{"saleType":"P","margin":"I","reportingType":"dm","ideess":"6705","idMunicipio":"376","idProvincia":"04","idCCAA":"01"}}},{"type":"Feature","geometry":{"type":"Point","coordinates":[-2.532583,37.810611]},"properties":{"id":"es-6713","source":"ES","brand":"REPSOL","address":"CARRETERA PUEBLA DON FADRIQUE S/N KM. 1","municipality":"Huéscar","province":"GRANADA","postalCode":"18830","schedule":"L-D: 7:00-22:00","fuels":{"gasoline95":1.679,"gasoline98":1.849,"diesel":1.819,"dieselB":1.549,"dieselRenewable":1.939},"extra":{"saleType":"P","margin":"I","reportingType":"OM","ideess":"6713","idMunicipio":"2754","idProvincia":"18","idCCAA":"01"}}},{"type":"Feature","geometry":{"type":"Point","coordinates":[-2.618361,37.112528]},"properties":{"id":"es-6718","source":"ES","brand":"REPSOL","address":"PARAJE LOS NAVARROS, S/N","municipality":"Nacimiento","province":"ALMERÍA","postalCode":"04540","schedule":"L-D: 06:00-22:00","fuels":{"gasoline95":1.695,"gasoline98":1.865,"diesel":1.829,"dieselPremium":1.939},"extra":{"saleType":"P","margin":"I","reportingType":"OM","ideess":"6718","idMunicipio":"342","idProvincia":"04","idCCAA":"01"}}},{"type":"Feature","geometry":{"type":"Point","coordinates":[-2.956611,37.940361]},"properties":{"id":"es-6766","source":"ES","brand":"CEPSA","address":"CARRETERA DE LA SIERRA KM. 21,5","municipality":"Iruela (La)","province":"JAÉN","postalCode":"23479","schedule":"L-D: 06:30-22:30","fuels":{"gasoline95":1.719,"diesel":1.899,"dieselPremium":1.959,"dieselB":1.459},"extra":{"saleType":"P","margin":"I","reportingType":"dm","ideess":"6766","idMunicipio":"3540","idProvincia":"23","idCCAA":"01"}}},{"type":"Feature","geometry":{"type":"Point","coordinates":[-2.387556,37.057278]},"properties":{"id":"es-6839","source":"ES","brand":"BP LA ERA TABERNAS","address":"AVENIDA RICARDO FABREGA, 81","municipality":"Tabernas","province":"ALMERÍA","postalCode":"04200","schedule":"L-D: 06:00-22:00","fuels":{"gasoline95":1.799,"gasoline98":1.999,"diesel":1.919,"dieselPremium":2.009,"adblue":0.999},"extra":{"saleType":"P","margin":"N","reportingType":"dm","ideess":"6839","idMunicipio":"365","idProvincia":"04","idCCAA":"01"}}},{"type":"Feature","geometry":{"type":"Point","coordinates":[-2.541972,37.809028]},"properties":{"id":"es-6845","source":"ES","brand":"BP OIL ESPAÑA","address":"AVENIDA DE GRANADA, 50","municipality":"Huéscar","province":"GRANADA","postalCode":"18830","schedule":"L-D: 07:00-22:00","fuels":{"gasoline95":1.696,"diesel":1.843,"dieselPremium":1.945},"extra":{"saleType":"P","margin":"I","reportingType":"dm","ideess":"6845","idMunicipio":"2754","idProvincia":"18","idCCAA":"01"}}},{"type":"Feature","geometry":{"type":"Point","coordinates":[-2.578167,37.583083]},"properties":{"id":"es-6866","source":"ES","brand":"A.AGUAZA","address":"CR N-342, 156","municipality":"Cúllar","province":"GRANADA","postalCode":"18850","schedule":"L-D: 07:00-23:00","fuels":{"gasoline95":1.559,"gasoline98":1.659,"diesel":1.679,"dieselB":1.419},"extra":{"saleType":"P","margin":"D","reportingType":"dm","ideess":"6866","idMunicipio":"2724","idProvincia":"18","idCCAA":"01"}}},{"type":"Feature","geometry":{"type":"Point","coordinates":[-2.070389,37.64675]},"properties":{"id":"es-6873","source":"ES","brand":"ESTACION DE SERVICIO VELEZ RUBIO","address":"AV ANDALUCIA 41","municipality":"Vélez-Rubio","province":"ALMERÍA","postalCode":"04820","schedule":"L-D: 24H","fuels":{"gasoline95":1.645,"gasoline98":1.689,"diesel":1.755,"dieselPremium":1.785},"extra":{"saleType":"P","margin":"I","reportingType":"dm","ideess":"6873","idMunicipio":"377","idProvincia":"04","idCCAA":"01"}}},{"type":"Feature","geometry":{"type":"Point","coordinates":[-2.938722,37.608806]},"properties":{"id":"es-6923","source":"ES","brand":"REPSOL","address":"CR A-315, 76","municipality":"Cuevas del Campo","province":"GRANADA","postalCode":"18813","schedule":"L-D: 07:00-22:00","fuels":{"gasoline95":1.679,"gasoline98":1.849,"diesel":1.819,"dieselPremium":1.929,"dieselB":1.565},"extra":{"saleType":"P","margin":"D","reportingType":"OM","ideess":"6923","idMunicipio":"2723","idProvincia":"18","idCCAA":"01"}}},{"type":"Feature","geometry":{"type":"Point","coordinates":[-2.1355,37.379556]},"properties":{"id":"es-6937","source":"ES","brand":"BP SAN JOSE","address":"CR HUERCAL-OVERA-VILLAC. KM  70,1","municipality":"Albox","province":"ALMERÍA","postalCode":"04800","schedule":"L-D: 24H","fuels":{"gasoline95":1.748,"gasoline98":1.889,"diesel":1.888,"dieselPremium":1.999,"dieselB":1.659,"adblue":1.0},"extra":{"saleType":"P","margin":"N","reportingType":"dm","ideess":"6937","idMunicipio":"285","idProvincia":"04","idCCAA":"01"}}},{"type":"Feature","geometry":{"type":"Point","coordinates":[-2.934056,37.699806]},"properties":{"id":"es-6948","source":"ES","brand":"REPSOL","address":"AVENIDA DE LOS DOLORES, 81","municipality":"Pozo Alcón","province":"JAÉN","postalCode":"23485","schedule":"L-D: 07:30-22:00","fuels":{"gasoline95":1.689,"gasoline98":1.809,"diesel":1.829,"dieselPremium":1.89,"dieselB":1.569},"extra":{"saleType":"P","margin":"I","reportingType":"dm","ideess":"6948","idMunicipio":"3563","idProvincia":"23","idCCAA":"01"}}},{"type":"Feature","geometry":{"type":"Point","coordinates":[-2.464583,37.593694]},"properties":{"id":"es-6958","source":"ES","brand":"REPSOL","address":"AUTOVIA CULLAR  A-92 KM. 369","municipality":"Cúllar","province":"GRANADA","postalCode":"18850","schedule":"L-D: 06:30-22:30","fuels":{"gasoline95":1.745,"gasoline98":1.915,"diesel":1.869,"dieselRenewable":1.989},"extra":{"saleType":"P","margin":"I","reportingType":"OM","ideess":"6958","idMunicipio":"2724","idProvincia":"18","idCCAA":"01"}}},{"type":"Feature","geometry":{"type":"Point","coordinates":[-2.954833,37.18925]},"properties":{"id":"es-6977","source":"ES","brand":"REPSOL","address":"AUTOVIA A-92 KM. 246,235","municipality":"Huéneja","province":"GRANADA","postalCode":"18512","schedule":"L-D: 06:00-22:00","fuels":{"gasoline95":1.695,"gasoline98":1.865,"diesel":1.859,"dieselPremium":1.969},"extra":{"saleType":"P","margin":"I","reportingType":"OM","ideess":"6977","idMunicipio":"2753","idProvincia":"18","idCCAA":"01"}}},{"type":"Feature","geometry":{"type":"Point","coordinates":[-2.095889,37.681861]},"properties":{"id":"es-7985","source":"ES","brand":"ANROROIL","address":"CARRETERA A-317 KM. 161","municipality":"Vélez-Blanco","province":"ALMERÍA","postalCode":"04830","schedule":"L: 07:00-22:00","fuels":{"gasoline95":1.629,"gasoline98":1.757,"diesel":1.789},"extra":{"saleType":"P","margin":"I","reportingType":"dm","ideess":"7985","idMunicipio":"376","idProvincia":"04","idCCAA":"01"}}},{"type":"Feature","geometry":{"type":"Point","coordinates":[-2.984778,37.195694]},"properties":{"id":"es-8301","source":"ES","brand":"BP","address":"AUTOVIA A-92 KM. 318","municipality":"Dólar","province":"GRANADA","postalCode":"18512","schedule":"L-D: 07:00-23:00","fuels":{"gasoline95":1.699,"gasoline98":1.839,"diesel":1.859,"dieselPremium":1.949,"adblue":0.925},"extra":{"saleType":"P","margin":"N","reportingType":"dm","ideess":"8301","idMunicipio":"2731","idProvincia":"18","idCCAA":"01"}}},{"type":"Feature","geometry":{"type":"Point","coordinates":[-2.908028,37.429806]},"properties":{"id":"es-8429","source":"ES","brand":"CEPSA","address":"AUTOVIA A-92N/N-342 KM. 322","municipality":"Baza","province":"GRANADA","postalCode":"18800","schedule":"L-D: 06:00-22:00","fuels":{"gasoline95":1.799,"diesel":1.949,"dieselPremium":1.999},"extra":{"saleType":"P","margin":"D","reportingType":"dm","ideess":"8429","idMunicipio":"2691","idProvincia":"18","idCCAA":"01"}}},{"type":"Feature","geometry":{"type":"Point","coordinates":[-2.551389,37.752694]},"properties":{"id":"es-8973","source":"ES","brand":"E. S. SAN JOSÉ","address":"CARRETERA HUESCAR A-330 KM. 21","municipality":"Galera","province":"GRANADA","postalCode":"18840","schedule":"L-D: 07:00-11:00","fuels":{"gasoline95":1.779,"gasoline98":1.869,"diesel":1.899,"dieselPremium":1.999,"dieselB":1.639},"extra":{"saleType":"P","margin":"D","reportingType":"dm","ideess":"8973","idMunicipio":"2740","idProvincia":"18","idCCAA":"01"}}},{"type":"Feature","geometry":{"type":"Point","coordinates":[-2.477972,37.72]},"properties":{"id":"es-9963","source":"ES","brand":"SUMINISTROS SAN ANTON","address":"PLAZA SAN PEDRO, 1","municipality":"Orce","province":"GRANADA","postalCode":"18558","schedule":"L-S: 07:00-20:00; D: 07:00-13:00","fuels":{"gasoline95":1.569,"diesel":1.709,"dieselB":1.409},"extra":{"saleType":"P","margin":"D","reportingType":"dm","ideess":"9963","idMunicipio":"2792","idProvincia":"18","idCCAA":"01"}}}]}