{"type":"FeatureCollection","features":[{"type":"Feature","geometry":{"type":"Point","coordinates":[-7.492611,43.137833]},"properties":{"id":"es-10217","source":"ES","brand":"REPSOL","address":"AVENIDA TERRA CHA, S/N","municipality":"Castro de Rei","province":"LUGO","postalCode":"27260","schedule":"L-S: 07:00-23:00; D: 08:00-23:00","fuels":{"gasoline95":1.875,"diesel":1.795,"dieselB":1.725,"dieselRenewable":1.905},"extra":{"saleType":"P","margin":"I","reportingType":"OM","ideess":"10217","idMunicipio":"4220","idProvincia":"27","idCCAA":"12"}}},{"type":"Feature","geometry":{"type":"Point","coordinates":[-7.409194,43.207806]},"properties":{"id":"es-10328","source":"ES","brand":"CAMPO DA CRUZ","address":"DE LUGO A GONTAN A CASTRO DE REI km 9","municipality":"Castro de Rei","province":"LUGO","postalCode":"27250","schedule":"L-D: 24H","fuels":{"gasoline95":1.81,"gasoline98":2.039,"diesel":1.758,"dieselB":1.669},"extra":{"saleType":"P","margin":"I","reportingType":"dm","ideess":"10328","idMunicipio":"4220","idProvincia":"27","idCCAA":"12"}}},{"type":"Feature","geometry":{"type":"Point","coordinates":[-7.945861,43.477861]},"properties":{"id":"es-10960","source":"ES","brand":"ESTACION DE SERVICIO PENA DE MALATE","address":"LG ESPIÑAREDO  S/N (C-641 LUGO - FERROL km 487,9)","municipality":"Pontes de García Rodríguez (As)","province":"CORUÑA (A)","postalCode":"15320","schedule":"L-V: 06:00-22:00; S-D: 06:30-22:00","fuels":{"gasoline95":1.699,"dieselPremium":1.799,"adblue":0.79},"extra":{"saleType":"P","margin":"I","reportingType":"dm","ideess":"10960","idMunicipio":"2188","idProvincia":"15","idCCAA":"12"}}},{"type":"Feature","geometry":{"type":"Point","coordinates":[-7.670639,43.294139]},"properties":{"id":"es-11097","source":"ES","brand":"REPSOL","address":"AVENIDA TERRA CHA, 164","municipality":"Vilalba","province":"LUGO","postalCode":"27800","schedule":"L-D: 06:00-22:00","fuels":{"gasoline95":1.865,"gasoline98":2.025,"diesel":1.815,"dieselB":1.735,"dieselRenewable":1.925},"extra":{"saleType":"P","margin":"D","reportingType":"OM","ideess":"11097","idMunicipio":"4272","idProvincia":"27","idCCAA":"12"}}},{"type":"Feature","geometry":{"type":"Point","coordinates":[-7.845111,43.658028]},"properties":{"id":"es-11363","source":"ES","brand":"ORTEGAL OIL","address":"POLIGONO A REGA-CUIÑA, 21","municipality":"Ortigueira","province":"CORUÑA (A)","postalCode":"15330","schedule":"L-D: 24H","fuels":{"gasoline95":1.749,"gasoline98":1.859,"diesel":1.869,"dieselPremium":1.979,"lpg":1.072,"adblue":0.769},"extra":{"saleType":"P","margin":"I","reportingType":"dm","ideess":"11363","idMunicipio":"2179","idProvincia":"15","idCCAA":"12"}}},{"type":"Feature","geometry":{"type":"Point","coordinates":[-7.926889,43.184861]},"properties":{"id":"es-12174","source":"ES","brand":"PETROCASH TRUCK GUITIRIZ","address":"PARQUE EMPRESARIAL DE GUITIRIZ, PARCELA, 55","municipality":"Guitiriz","province":"LUGO","postalCode":"27300","schedule":"L-D: 07:00-23:00","fuels":{"gasoline95":1.639,"diesel":1.599,"adblue":0.699},"extra":{"saleType":"P","margin":"D","reportingType":"dm","ideess":"12174","idMunicipio":"4231","idProvincia":"27","idCCAA":"12"}}},{"type":"Feature","geometry":{"type":"Point","coordinates":[-7.527806,43.037639]},"properties":{"id":"es-12362","source":"ES","brand":"BP","address":"LUGAR MUXA DE ARRIBA (SANTA MAR, 640","municipality":"Lugo","province":"LUGO","postalCode":"27192","schedule":"L-D: 24H","fuels":{"gasoline95":1.679,"gasoline98":1.759,"diesel":1.769,"dieselPremium":1.799},"extra":{"saleType":"P","margin":"D","reportingType":"dm","ideess":"12362","idMunicipio":"4236","idProvincia":"27","idCCAA":"12"}}},{"type":"Feature","geometry":{"type":"Point","coordinates":[-7.60525,43.107139]},"properties":{"id":"es-12701","source":"ES","brand":"BP","address":"LUGAR SOBORVILA, 10","municipality":"Outeiro de Rei","province":"LUGO","postalCode":"27150","schedule":"L-D: 24H","fuels":{"gasoline95":1.88,"gasoline98":2.0,"diesel":1.818,"dieselPremium":1.938},"extra":{"saleType":"P","margin":"N","reportingType":"dm","ideess":"12701","idMunicipio":"4246","idProvincia":"27","idCCAA":"12"}}},{"type":"Feature","geometry":{"type":"Point","coordinates":[-7.60775,43.62775]},"properties":{"id":"es-12762","source":"ES","brand":"COMBUS [B]","address":"POLIGONO POLIGONO INDUSTRIAL LANDROVE PARCELA III-13,14 Y 15, S/N","municipality":"Viveiro","province":"LUGO","postalCode":"27866","schedule":"L-D: 24H","fuels":{"gasoline95":1.759,"diesel":1.779},"extra":{"saleType":"P","margin":"N","reportingType":"dm","ideess":"12762","idMunicipio":"4273","idProvincia":"27","idCCAA":"12"}}},{"type":"Feature","geometry":{"type":"Point","coordinates":[-7.537167,43.687417]},"properties":{"id":"es-12835","source":"ES","brand":"E.S. CAMBA","address":"LUGAR CAMBA - PQ XUANCES, 25","municipality":"Xove","province":"LUGO","postalCode":"27877","schedule":"L-S: 08:00-22:00","fuels":{"gasoline95":1.799,"diesel":1.819},"extra":{"saleType":"P","margin":"N","reportingType":"dm","ideess":"12835","idMunicipio":"4275","idProvincia":"27","idCCAA":"12"}}},{"type":"Feature","geometry":{"type":"Point","coordinates":[-7.059139,43.53925]},"properties":{"id":"es-12874","source":"ES","brand":"VALCARCE","address":"CARRETERA NACIONAL 634 KM. 554","municipality":"Ribadeo","province":"LUGO","postalCode":"27710","schedule":"L-D: 24H","fuels":{"gasoline95":1.889,"diesel":1.819,"adblue":0.799},"extra":{"saleType":"P","margin":"D","reportingType":"dm","ideess":"12874","idMunicipio":"4259","idProvincia":"27","idCCAA":"12"}}},{"type":"Feature","geometry":{"type":"Point","coordinates":[-7.344417,43.009028]},"properties":{"id":"es-13435","source":"ES","brand":"ARIOSA","address":"POLIGONO INDUSTRIAL DE CASTROVERDE, 20","municipality":"Castroverde","province":"LUGO","postalCode":"27120","schedule":"L-S: 09:00-21:00; D: 10:00-20:00","fuels":{"gasoline95":1.745,"diesel":1.745,"adblue":0.95},"extra":{"saleType":"P","margin":"N","reportingType":"dm","ideess":"13435","idMunicipio":"4221","idProvincia":"27","idCCAA":"12"}}},{"type":"Feature","geometry":{"type":"Point","coordinates":[-7.260111,43.571833]},"properties":{"id":"es-13577","source":"ES","brand":"CEPSA","address":"RUA MIGUEL DE CERVANTES, 44","municipality":"Foz","province":"LUGO","postalCode":"27780","schedule":"L-D: 07:00-23:00","fuels":{"gasoline95":1.875,"diesel":1.945},"extra":{"saleType":"P","margin":"D","reportingType":"dm","ideess":"13577","idMunicipio":"4229","idProvincia":"27","idCCAA":"12"}}},{"type":"Feature","geometry":{"type":"Point","coordinates":[-7.414583,43.529222]},"properties":{"id":"es-13998","source":"ES","brand":"CEPSA","address":"CARRETERA LU-160 KM. 18,10","municipality":"Alfoz","province":"LUGO","postalCode":"27776","schedule":"L-D: 07:00-23:00","fuels":{"gasoline95":1.889,"diesel":1.879,"dieselPremium":1.989,"dieselB":1.759},"extra":{"saleType":"P","margin":"I","reportingType":"dm","ideess":"13998","idMunicipio":"4210","idProvincia":"27","idCCAA":"12"}}},{"type":"Feature","geometry":{"type":"Point","coordinates":[-7.26025,43.539444]},"properties":{"id":"es-14076","source":"ES","brand":"ORTEGAL OIL","address":"POLIGONO PG INDUSTRIAL DE BARREIROS, PARCELA B, 54","municipality":"Barreiros","province":"LUGO","postalCode":"27790","schedule":"L-D: 24H","fuels":{"gasoline95":1.759,"diesel":1.829},"extra":{"saleType":"P","margin":"D","reportingType":"dm","ideess":"14076","idMunicipio":"4214","idProvincia":"27","idCCAA":"12"}}},{"type":"Feature","geometry":{"type":"Point","coordinates":[-7.987389,43.436472]},"properties":{"id":"es-14315","source":"ES","brand":"GALP","address":"CARRETERA AC564 KM. 16,900","municipality":"Pontes de García Rodríguez (As)","province":"CORUÑA (A)","postalCode":"15610","schedule":"L-D: 07:00-23:00","fuels":{"gasoline95":1.829,"gasoline95Premium":1.879,"diesel":1.789,"dieselPremium":1.839},"extra":{"saleType":"P","margin":"D","reportingType":"OM","ideess":"14315","idMunicipio":"2188","idProvincia":"15","idCCAA":"12"}}},{"type":"Feature","geometry":{"type":"Point","coordinates":[-7.062667,43.544111]},"properties":{"id":"es-14405","source":"ES","brand":"ABELLEIRA","address":"RUA GRANDELA (DA), 1","municipality":"Ribadeo","province":"LUGO","postalCode":"27700","schedule":"L-V: 07:00-21:00; S: 07:00-15:00","fuels":{"gasoline95":1.809,"gasoline98":1.929,"diesel":1.849,"dieselPremium":1.929,"adblue":1.099},"extra":{"saleType":"P","margin":"D","reportingType":"dm","ideess":"14405","idMunicipio":"4259","idProvincia":"27","idCCAA":"12"}}},{"type":"Feature","geometry":{"type":"Point","coordinates":[-7.665611,43.316528]},"properties":{"id":"es-14510","source":"ES","brand":"E.S. POLIGONO","address":"CALLE CL/ MACIÑEIRA, ESQ. CERDEIRA - PGNO. SETE PONTES - PARCELA, 30","municipality":"Vilalba","province":"LUGO","postalCode":"27800","schedule":"L-D: 24H","fuels":{"gasoline95":1.859,"diesel":1.809,"adblue":0.949},"extra":{"saleType":"P","margin":"D","reportingType":"dm","ideess":"14510","idMunicipio":"4272","idProvincia":"27","idCCAA":"12"}}},{"type":"Feature","geometry":{"type":"Point","coordinates":[-7.675306,43.300806]},"properties":{"id":"es-14587","source":"ES","brand":"PLENERGY","address":"RUA CAMPO DEL PUENTE 72-74, 915687497","municipality":"Vilalba","province":"LUGO","postalCode":"27800","schedule":"L-D: 24H","fuels":{"gasoline95":1.739,"diesel":1.699},"extra":{"saleType":"P","margin":"D","reportingType":"dm","ideess":"14587","idMunicipio":"4272","idProvincia":"27","idCCAA":"12"}}},{"type":"Feature","geometry":{"type":"Point","coordinates":[-7.348611,43.645056]},"properties":{"id":"es-14656","source":"ES","brand":"PETROPRIX","address":"AVENIDA DO PERDOURO, 27","municipality":"Burela","province":"LUGO","postalCode":"27880","schedule":"L-D: 24H","fuels":{"gasoline95":1.759,"diesel":1.659},"extra":{"saleType":"P","margin":"D","reportingType":"dm","ideess":"14656","idMunicipio":"4218","idProvincia":"27","idCCAA":"12"}}},{"type":"Feature","geometry":{"type":"Point","coordinates":[-7.426694,43.379889]},"properties":{"id":"es-14690","source":"ES","brand":"REPSOL","address":"LUGAR ZONA DE PUIDA - PARROQUIA DE GALGAO, S/N","municipality":"Abadín","province":"LUGO","postalCode":"27738","schedule":"L-D: 06:30-23:00","fuels":{"gasoline95":1.879,"gasoline98":2.009,"diesel":1.849,"dieselRenewable":1.969,"adblue":0.9},"extra":{"saleType":"P","margin":"D","reportingType":"dm","ideess":"14690","idMunicipio":"4209","idProvincia":"27","idCCAA":"12"}}},{"type":"Feature","geometry":{"type":"Point","coordinates":[-7.403639,43.285417]},"properties":{"id":"es-14779","source":"ES","brand":"O XEIXO,S.COOP GALEGA  OIL","address":"LUGAR CARRIZAL, S/N","municipality":"Pastoriza (A)","province":"LUGO","postalCode":"27246","schedule":"L-D: 24H","fuels":{"gasoline95":1.749,"diesel":1.859,"dieselB":1.399},"extra":{"saleType":"P","margin":"D","reportingType":"dm","ideess":"14779","idMunicipio":"4251","idProvincia":"27","idCCAA":"12"}}},{"type":"Feature","geometry":{"type":"Point","coordinates":[-7.676806,43.305556]},"properties":{"id":"es-14809","source":"ES","brand":"TEX","address":"CALLE CIUDAD DE VIVERO, 73","municipality":"Vilalba","province":"LUGO","postalCode":"27800","schedule":"L-D: 24H","fuels":{"gasoline95":1.769,"diesel":1.749},"extra":{"saleType":"P","margin":"N","reportingType":"dm","ideess":"14809","idMunicipio":"4272","idProvincia":"27","idCCAA":"12"}}},{"type":"Feature","geometry":{"type":"Point","coordinates":[-7.576861,43.684917]},"properties":{"id":"es-14841","source":"ES","brand":"ORTEGAL OIL","address":"RUA ILLA GAVEIRA, 81","municipality":"Viveiro","province":"LUGO","postalCode":"27863","schedule":"L-D: 07:00-22:00","fuels":{"gasoline95":1.779,"gasoline98E10":1.759,"diesel":1.819,"dieselPremium":1.979,"adblue":0.769},"extra":{"saleType":"P","margin":"N","reportingType":"dm","ideess":"14841","idMunicipio":"4273","idProvincia":"27","idCCAA":"12"}}},{"type":"Feature","geometry":{"type":"Point","coordinates":[-7.509556,43.139556]},"properties":{"id":"es-14861","source":"ES","brand":"CANDO","address":"POLIGONO CASTRO RIBERAS DE LEA, 44","municipality":"Castro de Rei","province":"LUGO","postalCode":"27260","schedule":"L: 24H","fuels":{"gasoline95":1.739,"diesel":1.677,"adblue":0.69},"extra":{"saleType":"P","margin":"D","reportingType":"dm","ideess":"14861","idMunicipio":"4220","idProvincia":"27","idCCAA":"12"}}},{"type":"Feature","geometry":{"type":"Point","coordinates":[-7.569361,43.043889]},"properties":{"id":"es-15057","source":"ES","brand":"SHELL","address":"AVENIDA BENIGNO RIVERA, S/N","municipality":"Lugo","province":"LUGO","postalCode":"27002","schedule":"L-V: 08:30-14:00 y 17:30-19:30","fuels":{"gasoline95":1.759,"diesel":1.669},"extra":{"saleType":"P","margin":"D","reportingType":"OM","ideess":"15057","idMunicipio":"4236","idProvincia":"27","idCCAA":"12"}}},{"type":"Feature","geometry":{"type":"Point","coordinates":[-7.574139,43.038722]},"properties":{"id":"es-15132","source":"ES","brand":"PLENERGY","address":"AVENIDA BENIGNO RIVERA, 15","municipality":"Lugo","province":"LUGO","postalCode":"27003","schedule":"L-D: 24H","fuels":{"gasoline95":1.749,"diesel":1.657},"extra":{"saleType":"P","margin":"D","reportingType":"dm","ideess":"15132","idMunicipio":"4236","idProvincia":"27","idCCAA":"12"}}},{"type":"Feature","geometry":{"type":"Point","coordinates":[-7.92825,43.187167]},"properties":{"id":"es-15157","source":"ES","brand":"GALP","address":"AUTOVIA A-6 PUNTO K, 538 MARGEN IZQUIERDO KM. 538","municipality":"Guitiriz","province":"LUGO","postalCode":"27300","schedule":"L-D: 24H","fuels":{"gasoline95":1.869,"gasoline95Premium":1.919,"diesel":1.799,"dieselPremium":1.889,"adblue":0.799},"extra":{"saleType":"P","margin":"I","reportingType":"OM","ideess":"15157","idMunicipio":"4231","idProvincia":"27","idCCAA":"12"}}},{"type":"Feature","geometry":{"type":"Point","coordinates":[-7.565833,43.037583]},"properties":{"id":"es-15489","source":"ES","brand":"PETROPRIX","address":"AVENIDA INFANTA ELENA, DUQUESA DE, 206","municipality":"Lugo","province":"LUGO","postalCode":"27297","schedule":"L-D: 24H","fuels":{"gasoline95":1.749,"diesel":1.657},"extra":{"saleType":"P","margin":"D","reportingType":"dm","ideess":"15489","idMunicipio":"4236","idProvincia":"27","idCCAA":"12"}}},{"type":"Feature","geometry":{"type":"Point","coordinates":[-7.537583,43.010639]},"properties":{"id":"es-15539","source":"ES","brand":"GALP","address":"CARRETERA LU-530 PK 1,800 CASTELO DE ARRIBA KM. 1,8","municipality":"Lugo","province":"LUGO","postalCode":"27297","schedule":"L-D: 24H","fuels":{"gasoline95":1.799,"diesel":1.739},"extra":{"saleType":"P","margin":"D","reportingType":"OM","ideess":"15539","idMunicipio":"4236","idProvincia":"27","idCCAA":"12"}}},{"type":"Feature","geometry":{"type":"Point","coordinates":[-7.061611,43.539778]},"properties":{"id":"es-15563","source":"ES","brand":"PETROPRIX","address":"AVENIDA RIA DE RIBADEO, S/N","municipality":"Ribadeo","province":"LUGO","postalCode":"27700","schedule":"L-D: 24H","fuels":{"gasoline95":1.739,"diesel":1.659},"extra":{"saleType":"P","margin":"D","reportingType":"dm","ideess":"15563","idMunicipio":"4259","idProvincia":"27","idCCAA":"12"}}},{"type":"Feature","geometry":{"type":"Point","coordinates":[-7.345556,43.645694]},"properties":{"id":"es-15909","source":"ES","brand":"EROSKI","address":"AVENIDA DO PERDOURO, 13","municipality":"Burela","province":"LUGO","postalCode":"27880","schedule":"L-D: 08:00-22:00","fuels":{"gasoline95":1.779,"diesel":1.679,"dieselPremium":1.739},"extra":{"saleType":"P","margin":"N","reportingType":"dm","ideess":"15909","idMunicipio":"4218","idProvincia":"27","idCCAA":"12"}}},{"type":"Feature","geometry":{"type":"Point","coordinates":[-7.203833,43.203056]},"properties":{"id":"es-16288","source":"ES","brand":"E.S. RIBEIRA DE PIQUÍN","address":"CARRETERA LU-P-4606 (O CHAO DE POUSADOIRO) KM. 16","municipality":"Ribeira de Piquín","province":"LUGO","postalCode":"27242","schedule":"L-D: 07:30-13:30 y 15:00-20:00","fuels":{"gasoline95":1.778,"diesel":1.752,"dieselB":1.621},"extra":{"saleType":"P","margin":"D","reportingType":"dm","ideess":"16288","idMunicipio":"4261","idProvincia":"27","idCCAA":"12"}}},{"type":"Feature","geometry":{"type":"Point","coordinates":[-7.534833,43.022861]},"properties":{"id":"es-16295","source":"ES","brand":"BP","address":"LUGAR SAN CIBRAO, 1","municipality":"Lugo","province":"LUGO","postalCode":"27233","schedule":"L-D: 07:00-23:00","fuels":{"gasoline95":1.839,"gasoline98":1.979,"diesel":1.789,"dieselPremium":1.879,"adblue":1.09},"extra":{"saleType":"P","margin":"N","reportingType":"dm","ideess":"16295","idMunicipio":"4236","idProvincia":"27","idCCAA":"12"}}},{"type":"Feature","geometry":{"type":"Point","coordinates":[-7.536806,43.030556]},"properties":{"id":"es-16329","source":"ES","brand":"PETROCASH LUGO","address":"AVENIDA ADOLFO SUAREZ, S/N","municipality":"Lugo","province":"LUGO","postalCode":"27192","schedule":"L: 07:00-23:00","fuels":{"gasoline95":1.739,"gasoline98":1.799,"diesel":1.659,"dieselPremium":1.699,"lpg":0.999,"adblue":0.799},"extra":{"saleType":"P","margin":"D","reportingType":"dm","ideess":"16329","idMunicipio":"4236","idProvincia":"27","idCCAA":"12"}}},{"type":"Feature","geometry":{"type":"Point","coordinates":[-7.546583,43.041056]},"properties":{"id":"es-16360","source":"ES","brand":"GASEXPRESS","address":"CALLE RU DURAN LORIGA, JUAN JACOBO SUELO UD FUNCIONAL S-1, 1","municipality":"Lugo","province":"LUGO","postalCode":"27003","schedule":"L: 24H","fuels":{"gasoline95":1.739,"diesel":1.669},"extra":{"saleType":"P","margin":"D","reportingType":"dm","ideess":"16360","idMunicipio":"4236","idProvincia":"27","idCCAA":"12"}}},{"type":"Feature","geometry":{"type":"Point","coordinates":[-7.554111,43.2365]},"properties":{"id":"es-16477","source":"ES","brand":"PETROCASH COSPEITO","address":"AVENIDA CIDADE DE VERIA, S/N","municipality":"Cospeito","province":"LUGO","postalCode":"27112","schedule":"L-D: 07:00-23:00","fuels":{"gasoline95":1.739,"gasoline98E10":1.799,"diesel":1.699,"dieselPremium":1.739},"extra":{"saleType":"P","margin":"D","reportingType":"dm","ideess":"16477","idMunicipio":"4226","idProvincia":"27","idCCAA":"12"}}},{"type":"Feature","geometry":{"type":"Point","coordinates":[-7.158806,43.545528]},"properties":{"id":"es-16495","source":"ES","brand":"CLUN - MERCARURAL","address":"CARRETERA N-634 KM.563 KM. 563","municipality":"Ribadeo","province":"LUGO","postalCode":"27795","schedule":"L-D: 24H","fuels":{"gasoline95Premium":1.699,"diesel":1.739,"adblue":0.769},"extra":{"saleType":"P","margin":"N","reportingType":"dm","ideess":"16495","idMunicipio":"4259","idProvincia":"27","idCCAA":"12"}}},{"type":"Feature","geometry":{"type":"Point","coordinates":[-7.567861,43.036667]},"properties":{"id":"es-251","source":"ES","brand":"EROSKI","address":"AVENIDA INFANTA ELENA, S/N","municipality":"Lugo","province":"LUGO","postalCode":"27003","schedule":"L-S: 08:00-22:15","fuels":{"gasoline95":1.759,"diesel":1.667},"extra":{"saleType":"P","margin":"N","reportingType":"dm","ideess":"251","idMunicipio":"4236","idProvincia":"27","idCCAA":"12"}}},{"type":"Feature","geometry":{"type":"Point","coordinates":[-7.766167,43.172722]},"properties":{"id":"es-273","source":"ES","brand":"VALCARCE","address":"CALLE CARRETERA NACIONAL VI  PK 529,600, 21","municipality":"Begonte","province":"LUGO","postalCode":"27373","schedule":"L-D: 07:00-23:00","fuels":{"gasoline95":1.889,"diesel":1.819,"adblue":1.0},"extra":{"saleType":"P","margin":"D","reportingType":"dm","ideess":"273","idMunicipio":"4216","idProvincia":"27","idCCAA":"12"}}},{"type":"Feature","geometry":{"type":"Point","coordinates":[-7.564028,43.052694]},"properties":{"id":"es-277","source":"ES","brand":"GASOLEOS CEAO","address":"POLIGONO DEL CEAO (ACCESO AUTOVIA)","municipality":"Lugo","province":"LUGO","postalCode":"27003","schedule":"L-D: 24H","fuels":{"gasoline95":1.88,"gasoline98":2.0,"diesel":1.818,"dieselPremium":1.938},"extra":{"saleType":"P","margin":"D","reportingType":"dm","ideess":"277","idMunicipio":"4236","idProvincia":"27","idCCAA":"12"}}},{"type":"Feature","geometry":{"type":"Point","coordinates":[-7.605972,43.084222]},"properties":{"id":"es-319","source":"ES","brand":"Q8","address":"CARRETERA CTRA. N-VI. ROBRA KM. KM 511,5","municipality":"Outeiro de Rei","province":"LUGO","postalCode":"27150","schedule":"L-D: 07:00-22:00","fuels":{"gasoline95":1.789,"gasoline98":1.889,"diesel":1.759},"extra":{"saleType":"P","margin":"D","reportingType":"dm","ideess":"319","idMunicipio":"4246","idProvincia":"27","idCCAA":"12"}}},{"type":"Feature","geometry":{"type":"Point","coordinates":[-7.05125,43.470806]},"properties":{"id":"es-389","source":"ES","brand":"PETRONOR","address":"CL AVENIDA DE ASTURIAS, 67","municipality":"Vegadeo","province":"ASTURIAS","postalCode":"33770","schedule":"L-D: 07:00-23:00","fuels":{"gasoline95":1.879,"diesel":1.875,"dieselPremium":1.925,"dieselB":1.739},"extra":{"saleType":"P","margin":"D","reportingType":"OM","ideess":"389","idMunicipio":"5037","idProvincia":"33","idCCAA":"03"}}},{"type":"Feature","geometry":{"type":"Point","coordinates":[-7.606361,43.084528]},"properties":{"id":"es-426","source":"ES","brand":"Q8","address":"ACCESO CTRA. N-VI.  ROBRA, ","municipality":"Outeiro de Rei","province":"LUGO","postalCode":"27150","schedule":"L-D: 24H","fuels":{"gasoline95":1.839,"gasoline98":1.919,"diesel":1.799,"adblue":0.899},"extra":{"saleType":"P","margin":"I","reportingType":"dm","ideess":"426","idMunicipio":"4246","idProvincia":"27","idCCAA":"12"}}},{"type":"Feature","geometry":{"type":"Point","coordinates":[-7.060222,43.540278]},"properties":{"id":"es-427","source":"ES","brand":"EROSKI","address":"CARRETERA CTRA NAC.634 KM. 554,8","municipality":"Ribadeo","province":"LUGO","postalCode":"27700","schedule":"L-S: 09:00-22:00","fuels":{"gasoline95":1.739,"gasoline98":1.939,"diesel":1.659},"extra":{"saleType":"P","margin":"N","reportingType":"dm","ideess":"427","idMunicipio":"4259","idProvincia":"27","idCCAA":"12"}}},{"type":"Feature","geometry":{"type":"Point","coordinates":[-7.336389,43.296722]},"properties":{"id":"es-461","source":"ES","brand":"CEPSA","address":"CARRETERA LINDIN-PARAXES KM. 9,350","municipality":"Pastoriza (A)","province":"LUGO","postalCode":"27287","schedule":"L-D: 07:00-23:00","fuels":{"gasoline95":1.869,"gasoline98":1.969,"diesel":1.909,"dieselB":1.729},"extra":{"saleType":"P","margin":"D","reportingType":"dm","ideess":"461","idMunicipio":"4251","idProvincia":"27","idCCAA":"12"}}},{"type":"Feature","geometry":{"type":"Point","coordinates":[-7.517,43.043667]},"properties":{"id":"es-468","source":"ES","brand":"REPSOL","address":"CARRETERA NACIONAL 640 KM. 87,400","municipality":"Lugo","province":"LUGO","postalCode":"27192","schedule":"L: 07:00-23:00","fuels":{"gasoline95":1.889,"gasoline98":2.049,"diesel":1.809,"dieselRenewable":1.919,"lpg":1.185},"extra":{"saleType":"P","margin":"I","reportingType":"OM","ideess":"468","idMunicipio":"4236","idProvincia":"27","idCCAA":"12"}}},{"type":"Feature","geometry":{"type":"Point","coordinates":[-7.84625,43.442611]},"properties":{"id":"es-479","source":"ES","brand":"REPSOL","address":"AVENIDA AVENIDA DE LUGO, 94","municipality":"Pontes de García Rodríguez (As)","province":"CORUÑA (A)","postalCode":"15320","schedule":"L-D: 07:00-23:00","fuels":{"gasoline95":1.885,"gasoline98":2.045,"diesel":1.809,"dieselB":1.709,"dieselRenewable":1.919},"extra":{"saleType":"P","margin":"I","reportingType":"OM","ideess":"479","idMunicipio":"2188","idProvincia":"15","idCCAA":"12"}}},{"type":"Feature","geometry":{"type":"Point","coordinates":[-7.326361,43.030139]},"properties":{"id":"es-516","source":"ES","brand":"ESTACION DE SERVICIO LA FORTALEZA","address":"CARRETERA COMARCAL 630 KM. ","municipality":"Castroverde","province":"LUGO","postalCode":"27120","schedule":"L-D: 07:00-22:00","fuels":{"gasoline95":1.724,"diesel":1.809,"dieselB":1.549,"adblue":0.975},"extra":{"saleType":"P","margin":"D","reportingType":"dm","ideess":"516","idMunicipio":"4221","idProvincia":"27","idCCAA":"12"}}},{"type":"Feature","geometry":{"type":"Point","coordinates":[-7.069833,43.121639]},"properties":{"id":"es-517","source":"ES","brand":"REPSOL","address":"CARRETERA LU-530 KM. 56,80","municipality":"Fonsagrada (A)","province":"LUGO","postalCode":"27100","schedule":"L-S: 07:00-23:00; D: 08:00-23:00","fuels":{"gasoline95":1.919,"gasoline98":2.059,"diesel":1.829,"dieselB":1.699,"dieselRenewable":1.959,"adblue":0.999},"extra":{"saleType":"P","margin":"D","reportingType":"dm","ideess":"517","idMunicipio":"4228","idProvincia":"27","idCCAA":"12"}}},{"type":"Feature","geometry":{"type":"Point","coordinates":[-7.309028,43.215694]},"properties":{"id":"es-518","source":"ES","brand":"MOEVE","address":"CARRETERA N-640 KM. 59,800","municipality":"Meira","province":"LUGO","postalCode":"27240","schedule":"L-D: 07:00-23:00","fuels":{"gasoline95":1.869,"diesel":1.879,"dieselPremium":1.939,"dieselB":1.699,"adblue":0.99},"extra":{"saleType":"P","margin":"D","reportingType":"dm","ideess":"518","idMunicipio":"4237","idProvincia":"27","idCCAA":"12"}}},{"type":"Feature","geometry":{"type":"Point","coordinates":[-7.775,43.355389]},"properties":{"id":"es-521","source":"ES","brand":"REPSOL","address":"CARRETERA CARRETERA GENERAL KM. 32,1","municipality":"Xermade","province":"LUGO","postalCode":"27832","schedule":"L-S: 07:00-23:00","fuels":{"gasoline95":1.855,"gasoline98":2.015,"diesel":1.795,"dieselB":1.679,"dieselRenewable":1.905},"extra":{"saleType":"P","margin":"I","reportingType":"OM","ideess":"521","idMunicipio":"4274","idProvincia":"27","idCCAA":"12"}}},{"type":"Feature","geometry":{"type":"Point","coordinates":[-7.523389,43.012861]},"properties":{"id":"es-526","source":"ES","brand":"REPSOL","address":"CARRETERA LU-530 KM. 2,97","municipality":"Lugo","province":"LUGO","postalCode":"27295","schedule":"L-D: 07:00-23:00","fuels":{"gasoline95":1.879,"gasoline98":2.029,"diesel":1.809,"dieselPremium":1.849,"dieselB":1.699,"adblue":0.84},"extra":{"saleType":"P","margin":"D","reportingType":"dm","ideess":"526","idMunicipio":"4236","idProvincia":"27","idCCAA":"12"}}},{"type":"Feature","geometry":{"type":"Point","coordinates":[-7.78675,43.029722]},"properties":{"id":"es-527","source":"ES","brand":"REPSOL","address":"AVENIDA LUGO, 0","municipality":"Friol","province":"LUGO","postalCode":"27220","schedule":"L: 07:00-23:00","fuels":{"gasoline95":1.859,"gasoline98":2.019,"diesel":1.795,"dieselB":1.735,"dieselRenewable":1.905},"extra":{"saleType":"P","margin":"I","reportingType":"OM","ideess":"527","idMunicipio":"4230","idProvincia":"27","idCCAA":"12"}}},{"type":"Feature","geometry":{"type":"Point","coordinates":[-7.562778,43.012278]},"properties":{"id":"es-536","source":"ES","brand":"REPSOL","address":"RUA FUT. RDA.MURALLA-VICEDO, 134","municipality":"Lugo","province":"LUGO","postalCode":"27004","schedule":"L-D: 07:00-23:00","fuels":{"gasoline95":1.909,"gasoline98":2.069,"diesel":1.815,"dieselPremium":1.895},"extra":{"saleType":"P","margin":"D","reportingType":"OM","ideess":"536","idMunicipio":"4236","idProvincia":"27","idCCAA":"12"}}},{"type":"Feature","geometry":{"type":"Point","coordinates":[-7.574611,43.03475]},"properties":{"id":"es-538","source":"ES","brand":"MOEVE","address":"N-VI km 504","municipality":"Lugo","province":"LUGO","postalCode":"27298","schedule":"L-D: 07:00-23:00","fuels":{"gasoline95":1.869,"gasoline95Premium":1.949,"gasoline98":1.999,"diesel":1.829,"dieselPremium":1.899},"extra":{"saleType":"P","margin":"D","reportingType":"OM","ideess":"538","idMunicipio":"4236","idProvincia":"27","idCCAA":"12"}}},{"type":"Feature","geometry":{"type":"Point","coordinates":[-7.574722,43.034694]},"properties":{"id":"es-539","source":"ES","brand":"MOEVE","address":"N-VI km 504","municipality":"Lugo","province":"LUGO","postalCode":"27298","schedule":"L-D: 07:00-23:00","fuels":{"gasoline95":1.879,"gasoline95Premium":1.979,"gasoline98":2.029,"diesel":1.849,"dieselPremium":1.919},"extra":{"saleType":"P","margin":"I","reportingType":"OM","ideess":"539","idMunicipio":"4236","idProvincia":"27","idCCAA":"12"}}},{"type":"Feature","geometry":{"type":"Point","coordinates":[-7.284139,43.490083]},"properties":{"id":"es-543","source":"ES","brand":"GALP","address":"CARRETERA N-634 KM. 578","municipality":"Lourenzá","province":"LUGO","postalCode":"27760","schedule":"L-D: 07:00-23:00","fuels":{"gasoline95":1.899,"gasoline95Premium":1.949,"diesel":1.849,"dieselPremium":1.899,"dieselB":1.609},"extra":{"saleType":"P","margin":"D","reportingType":"OM","ideess":"543","idMunicipio":"4235","idProvincia":"27","idCCAA":"12"}}},{"type":"Feature","geometry":{"type":"Point","coordinates":[-7.49325,43.681694]},"properties":{"id":"es-553","source":"ES","brand":"REPSOL","address":"CARRETERA CARRETERA DE LA COSTA KM. 97,00","municipality":"Xove","province":"LUGO","postalCode":"27870","schedule":"L-S: 07:00-23:00","fuels":{"gasoline95":1.889,"diesel":1.835,"dieselRenewable":1.945},"extra":{"saleType":"P","margin":"I","reportingType":"OM","ideess":"553","idMunicipio":"4275","idProvincia":"27","idCCAA":"12"}}},{"type":"Feature","geometry":{"type":"Point","coordinates":[-7.269056,43.576306]},"properties":{"id":"es-554","source":"ES","brand":"CAMPSA","address":"CALLE RUA MIGUEL DE CERVANTES, 44","municipality":"Foz","province":"LUGO","postalCode":"27780","schedule":"L-D: 07:00-23:00","fuels":{"gasoline95":1.895,"gasoline98":2.025,"diesel":1.859,"dieselPremium":1.899},"extra":{"saleType":"P","margin":"D","reportingType":"OM","ideess":"554","idMunicipio":"4229","idProvincia":"27","idCCAA":"12"}}},{"type":"Feature","geometry":{"type":"Point","coordinates":[-7.234194,43.001139]},"properties":{"id":"es-564","source":"ES","brand":"MOEVE","address":"AVENIDA DE BARALLA, 5","municipality":"Baleira","province":"LUGO","postalCode":"27130","schedule":"L-D: 07:30-22:00","fuels":{"gasoline95":1.875,"diesel":1.838,"dieselPremium":1.908,"dieselB":1.869},"extra":{"saleType":"P","margin":"I","reportingType":"dm","ideess":"564","idMunicipio":"4212","idProvincia":"27","idCCAA":"12"}}},{"type":"Feature","geometry":{"type":"Point","coordinates":[-7.672333,43.302639]},"properties":{"id":"es-573","source":"ES","brand":"REPSOL","address":"CALLE CAMPO DEL PUENTE, SN","municipality":"Vilalba","province":"LUGO","postalCode":"27800","schedule":"L-D: 07:00-23:00","fuels":{"gasoline95":1.865,"gasoline98":2.025,"diesel":1.809,"dieselPremium":1.879,"dieselB":1.725},"extra":{"saleType":"P","margin":"D","reportingType":"OM","ideess":"573","idMunicipio":"4272","idProvincia":"27","idCCAA":"12"}}},{"type":"Feature","geometry":{"type":"Point","coordinates":[-7.567167,43.025667]},"properties":{"id":"es-577","source":"ES","brand":"REPSOL","address":"AVENIDA LA CORUÑA, 310","municipality":"Lugo","province":"LUGO","postalCode":"27003","schedule":"L-D: 07:00-23:00","fuels":{"gasoline95":1.909,"gasoline98":2.039,"diesel":1.825,"dieselRenewable":1.935},"extra":{"saleType":"P","margin":"D","reportingType":"OM","ideess":"577","idMunicipio":"4236","idProvincia":"27","idCCAA":"12"}}},{"type":"Feature","geometry":{"type":"Point","coordinates":[-7.05425,43.538333]},"properties":{"id":"es-580","source":"ES","brand":"REPSOL","address":"AVENIDA AMERICA, 10","municipality":"Ribadeo","province":"LUGO","postalCode":"27700","schedule":"L-D: 07:00-23:00","fuels":{"gasoline95":1.909,"gasoline98":2.039,"diesel":1.849,"dieselB":1.715,"dieselRenewable":1.959},"extra":{"saleType":"P","margin":"I","reportingType":"OM","ideess":"580","idMunicipio":"4259","idProvincia":"27","idCCAA":"12"}}},{"type":"Feature","geometry":{"type":"Point","coordinates":[-7.361861,43.43325]},"properties":{"id":"es-589","source":"ES","brand":"REPSOL","address":"CL AVENIDA ELADIO LORENZO, 2","municipality":"Mondoñedo","province":"LUGO","postalCode":"27740","schedule":"L-D: 07:00-23:00","fuels":{"gasoline95":1.875,"gasoline98":2.025,"diesel":1.849,"dieselB":1.715,"dieselRenewable":1.959},"extra":{"saleType":"P","margin":"I","reportingType":"OM","ideess":"589","idMunicipio":"4238","idProvincia":"27","idCCAA":"12"}}},{"type":"Feature","geometry":{"type":"Point","coordinates":[-7.191639,43.351389]},"properties":{"id":"es-591","source":"ES","brand":"REPSOL","address":"VÍA N-640, 36,850","municipality":"Pontenova (A)","province":"LUGO","postalCode":"27720","schedule":"L-D: 07:00-23:00","fuels":{"gasoline95":1.879,"gasoline98":2.039,"diesel":1.869,"dieselRenewable":1.989},"extra":{"saleType":"P","margin":"D","reportingType":"dm","ideess":"591","idMunicipio":"4255","idProvincia":"27","idCCAA":"12"}}},{"type":"Feature","geometry":{"type":"Point","coordinates":[-7.621028,43.122306]},"properties":{"id":"es-597","source":"ES","brand":"REPSOL","address":"AVENIDA DE FERROL, 67","municipality":"Rábade","province":"LUGO","postalCode":"27370","schedule":"L-D: 07:00-23:00","fuels":{"gasoline95":1.895,"diesel":1.819,"dieselPremium":1.859,"dieselB":1.715},"extra":{"saleType":"P","margin":"I","reportingType":"OM","ideess":"597","idMunicipio":"4258","idProvincia":"27","idCCAA":"12"}}},{"type":"Feature","geometry":{"type":"Point","coordinates":[-7.879917,43.179167]},"properties":{"id":"es-609","source":"ES","brand":"REPSOL","address":"CR N-6, 539,6","municipality":"Guitiriz","province":"LUGO","postalCode":"27300","schedule":"L-D: 07:00-23:00","fuels":{"gasoline95":1.875,"gasoline98":2.035,"diesel":1.835,"dieselB":1.725,"dieselRenewable":1.945},"extra":{"saleType":"P","margin":"D","reportingType":"OM","ideess":"609","idMunicipio":"4231","idProvincia":"27","idCCAA":"12"}}},{"type":"Feature","geometry":{"type":"Point","coordinates":[-7.591806,43.667167]},"properties":{"id":"es-610","source":"ES","brand":"REPSOL","address":"CALLE SAN LAZARO, 3","municipality":"Viveiro","province":"LUGO","postalCode":"27850","schedule":"L-D: 07:00-23:00","fuels":{"gasoline95":1.886,"gasoline95Premium":1.956,"gasoline98":2.036,"diesel":1.844,"dieselRenewable":1.964},"extra":{"saleType":"P","margin":"D","reportingType":"dm","ideess":"610","idMunicipio":"4273","idProvincia":"27","idCCAA":"12"}}},{"type":"Feature","geometry":{"type":"Point","coordinates":[-7.867222,43.452417]},"properties":{"id":"es-615","source":"ES","brand":"REPSOL","address":"CALLE LA CASILLA, S/N","municipality":"Pontes de García Rodríguez (As)","province":"CORUÑA (A)","postalCode":"15320","schedule":"L-V: 07:00-21:30; S: 07:00-14:30","fuels":{"gasoline95":1.889,"gasoline98":2.049,"diesel":1.815,"dieselRenewable":1.925},"extra":{"saleType":"P","margin":"I","reportingType":"OM","ideess":"615","idMunicipio":"2188","idProvincia":"15","idCCAA":"12"}}},{"type":"Feature","geometry":{"type":"Point","coordinates":[-7.432972,43.253583]},"properties":{"id":"es-618","source":"ES","brand":"REPSOL","address":"CARRETERA LU-120 KM. 20,8","municipality":"Cospeito","province":"LUGO","postalCode":"27377","schedule":"L-D: 07:00-23:00","fuels":{"gasoline95":1.879,"gasoline98":2.069,"diesel":1.859,"dieselPremium":1.919,"dieselB":1.699,"adblue":0.99},"extra":{"saleType":"P","margin":"I","reportingType":"dm","ideess":"618","idMunicipio":"4226","idProvincia":"27","idCCAA":"12"}}},{"type":"Feature","geometry":{"type":"Point","coordinates":[-7.241778,43.539972]},"properties":{"id":"es-629","source":"ES","brand":"REPSOL","address":"CR N-634, 570,4","municipality":"Barreiros","province":"LUGO","postalCode":"27790","schedule":"L-D: 07:00-23:00","fuels":{"gasoline95":1.895,"gasoline98":2.025,"diesel":1.859,"dieselPremium":1.899,"dieselB":1.685},"extra":{"saleType":"P","margin":"D","reportingType":"OM","ideess":"629","idMunicipio":"4214","idProvincia":"27","idCCAA":"12"}}},{"type":"Feature","geometry":{"type":"Point","coordinates":[-7.353889,43.651333]},"properties":{"id":"es-635","source":"ES","brand":"ENI","address":"AVENIDA ARCADIO PARDIÑAS, 201","municipality":"Burela","province":"LUGO","postalCode":"27880","schedule":"L-D: 07:00-23:00","fuels":{"gasoline95":1.84,"gasoline98":2.03,"diesel":1.774,"dieselPremium":1.844},"extra":{"saleType":"P","margin":"N","reportingType":"OM","ideess":"635","idMunicipio":"4218","idProvincia":"27","idCCAA":"12"}}},{"type":"Feature","geometry":{"type":"Point","coordinates":[-7.569472,43.044333]},"properties":{"id":"es-647","source":"ES","brand":"REPSOL","address":"AVENIDA BENIGNO RIVERA, 99","municipality":"Lugo","province":"LUGO","postalCode":"27290","schedule":"L-D: 07:00-23:00","fuels":{"gasoline95":1.899,"gasoline98":2.029,"diesel":1.829,"dieselRenewable":1.939},"extra":{"saleType":"P","margin":"D","reportingType":"OM","ideess":"647","idMunicipio":"4236","idProvincia":"27","idCCAA":"12"}}},{"type":"Feature","geometry":{"type":"Point","coordinates":[-7.929917,43.188222]},"properties":{"id":"es-652","source":"ES","brand":"GALP","address":"AUTOVIA A-6 KM. 538","municipality":"Guitiriz","province":"LUGO","postalCode":"27300","schedule":"L-D: 24H","fuels":{"gasoline95":1.869,"gasoline95Premium":1.919,"diesel":1.799,"dieselPremium":1.889,"lpg":1.099,"adblue":0.799},"extra":{"saleType":"P","margin":"D","reportingType":"OM","ideess":"652","idMunicipio":"4231","idProvincia":"27","idCCAA":"12"}}},{"type":"Feature","geometry":{"type":"Point","coordinates":[-7.565611,43.050806]},"properties":{"id":"es-655","source":"ES","brand":"REPSOL","address":"AVENIDA BENIGNO RIVERA, S/N","municipality":"Lugo","province":"LUGO","postalCode":"27003","schedule":"L-V: 06:00-23:00; S-D: 07:30-23:00","fuels":{"gasoline95":1.919,"gasoline98":2.049,"diesel":1.829,"dieselPremium":1.879,"adblue":1.239},"extra":{"saleType":"P","margin":"D","reportingType":"dm","ideess":"655","idMunicipio":"4236","idProvincia":"27","idCCAA":"12"}}},{"type":"Feature","geometry":{"type":"Point","coordinates":[-7.967889,43.18125]},"properties":{"id":"es-657","source":"ES","brand":"DISA_SHELL","address":"CARRETERA N-634 KM. 659","municipality":"Curtis","province":"CORUÑA (A)","postalCode":"15310","schedule":"L-V: 07:00-22:00; S: 08:00-15:00; D: 15:00-22:00","fuels":{"gasoline95":1.849,"diesel":1.819,"dieselPremium":1.879,"dieselB":1.679,"adblue":1.0},"extra":{"saleType":"P","margin":"D","reportingType":"dm","ideess":"657","idMunicipio":"2150","idProvincia":"15","idCCAA":"12"}}},{"type":"Feature","geometry":{"type":"Point","coordinates":[-7.911556,43.655528]},"properties":{"id":"es-665","source":"ES","brand":"GALP","address":"CARRETERA AC 862 KM. 41","municipality":"Ortigueira","province":"CORUÑA (A)","postalCode":"15330","schedule":"L-D: 24H","fuels":{"gasoline95":1.769,"gasoline98":1.859,"diesel":1.899,"dieselPremium":1.959,"dieselB":1.45,"adblue":0.769},"extra":{"saleType":"P","margin":"N","reportingType":"dm","ideess":"665","idMunicipio":"2179","idProvincia":"15","idCCAA":"12"}}},{"type":"Feature","geometry":{"type":"Point","coordinates":[-7.572028,43.005694]},"properties":{"id":"es-684","source":"ES","brand":"GALP","address":"Avda. Los Deportes 12","municipality":"Lugo","province":"LUGO","postalCode":"27002","schedule":"L-S: 07:00-23:00; D: 07:00-22:00","fuels":{"gasoline95":1.839,"gasoline95Premium":1.889,"diesel":1.769,"dieselPremium":1.819},"extra":{"saleType":"P","margin":"N","reportingType":"OM","ideess":"684","idMunicipio":"4236","idProvincia":"27","idCCAA":"12"}}},{"type":"Feature","geometry":{"type":"Point","coordinates":[-7.679278,43.288806]},"properties":{"id":"es-690","source":"ES","brand":"GALP","address":"AVENIDA CIUDAD DE LUGO, 68,70","municipality":"Vilalba","province":"LUGO","postalCode":"27800","schedule":"L-D: 08:00-22:00","fuels":{"gasoline95":1.865,"gasoline98":2.025,"diesel":1.809,"dieselPremium":1.869,"adblue":0.95},"extra":{"saleType":"P","margin":"N","reportingType":"dm","ideess":"690","idMunicipio":"4272","idProvincia":"27","idCCAA":"12"}}},{"type":"Feature","geometry":{"type":"Point","coordinates":[-7.655694,43.212667]},"properties":{"id":"es-8024","source":"ES","brand":"PETROCASH FONTEFRIA","address":"CARRETERA RABADE- VILLALBA KM. 9,8","municipality":"Begonte","province":"LUGO","postalCode":"27373","schedule":"L-V: 06:00-23:00; S-D: 07:00-23:00","fuels":{"gasoline95":1.739,"gasoline98":1.799,"diesel":1.699,"dieselPremium":1.739,"adblue":0.799},"extra":{"saleType":"P","margin":"D","reportingType":"dm","ideess":"8024","idMunicipio":"4216","idProvincia":"27","idCCAA":"12"}}},{"type":"Feature","geometry":{"type":"Point","coordinates":[-7.503028,43.268083]},"properties":{"id":"es-8033","source":"ES","brand":"CEPSA","address":"CARRERA LU120, ","municipality":"Cospeito","province":"LUGO","postalCode":"27112","schedule":"D: 07:30-22:00","fuels":{"gasoline95":1.859,"diesel":1.829,"dieselPremium":1.909,"dieselB":1.739},"extra":{"saleType":"P","margin":"I","reportingType":"dm","ideess":"8033","idMunicipio":"4226","idProvincia":"27","idCCAA":"12"}}},{"type":"Feature","geometry":{"type":"Point","coordinates":[-7.549944,43.002583]},"properties":{"id":"es-8335","source":"ES","brand":"REPSOL","address":"CALLE SAN ROQUE, 90","municipality":"Lugo","province":"LUGO","postalCode":"27002","schedule":"L-D: 07:00-23:00","fuels":{"gasoline95":1.919,"diesel":1.829,"dieselPremium":1.879},"extra":{"saleType":"P","margin":"D","reportingType":"dm","ideess":"8335","idMunicipio":"4236","idProvincia":"27","idCCAA":"12"}}},{"type":"Feature","geometry":{"type":"Point","coordinates":[-7.573278,43.039389]},"properties":{"id":"es-8342","source":"ES","brand":"CAMPSA","address":"AVENIDA BENIGNO REIVERA, 50","municipality":"Lugo","province":"LUGO","postalCode":"27003","schedule":"L-D: 07:00-23:00","fuels":{"gasoline95":1.9,"gasoline98":2.02,"diesel":1.818,"dieselPremium":1.868},"extra":{"saleType":"P","margin":"D","reportingType":"dm","ideess":"8342","idMunicipio":"4236","idProvincia":"27","idCCAA":"12"}}},{"type":"Feature","geometry":{"type":"Point","coordinates":[-7.878278,43.731806]},"properties":{"id":"es-9195","source":"ES","brand":"ORTEGAL OIL","address":"A PEDRA","municipality":"Cariño","province":"CORUÑA (A)","postalCode":"15360","schedule":"L-D: 07:00-22:00","fuels":{"gasoline95":1.749,"diesel":1.869},"extra":{"saleType":"P","margin":"I","reportingType":"dm","ideess":"9195","idMunicipio":"2137","idProvincia":"15","idCCAA":"12"}}},{"type":"Feature","geometry":{"type":"Point","coordinates":[-7.84675,43.678056]},"properties":{"id":"es-9196","source":"ES","brand":"HNOS. LÓPEZ GUNTÍN C.B.","address":"LG LAGAREA","municipality":"Ortigueira","province":"CORUÑA (A)","postalCode":"15330","schedule":"L-D: 24H","fuels":{"gasoline95":1.749,"gasoline98":1.859,"diesel":1.869,"dieselPremium":1.979,"dieselB":1.24},"extra":{"saleType":"P","margin":"D","reportingType":"dm","ideess":"9196","idMunicipio":"2179","idProvincia":"15","idCCAA":"12"}}},{"type":"Feature","geometry":{"type":"Point","coordinates":[-7.953694,43.603583]},"properties":{"id":"es-9199","source":"ES","brand":"ORTEGAL OIL","address":"AC-862 km 31,30","municipality":"Cerdido","province":"CORUÑA (A)","postalCode":"15569","schedule":"L-S: 08:00-14:00 y 16:00-20:00","fuels":{"gasoline95":1.749,"diesel":1.919},"extra":{"saleType":"P","margin":"I","reportingType":"dm","ideess":"9199","idMunicipio":"2143","idProvincia":"15","idCCAA":"12"}}},{"type":"Feature","geometry":{"type":"Point","coordinates":[-7.148583,43.412944]},"properties":{"id":"es-941","source":"ES","brand":"PETRONOR","address":"CARRETERA 640 KM. 26","municipality":"San Tirso de Abres","province":"ASTURIAS","postalCode":"33774","schedule":"L: 07:00-23:00","fuels":{"gasoline95":1.879,"gasoline98":2.039,"diesel":1.869,"dieselB":1.705,"dieselRenewable":1.979},"extra":{"saleType":"P","margin":"I","reportingType":"OM","ideess":"941","idMunicipio":"5024","idProvincia":"33","idCCAA":"03"}}},{"type":"Feature","geometry":{"type":"Point","coordinates":[-7.560694,43.045472]},"properties":{"id":"es-9642","source":"ES","brand":"CONFORT AUTO","address":"POLIGONO RUA MERCADURIAS, 218 PG. CEAO, 218","municipality":"Lugo","province":"LUGO","postalCode":"27290","schedule":"L-V: 07:00-21:00; S: 09:00-14:00","fuels":{"gasoline95":1.699,"diesel":1.753,"adblue":0.95},"extra":{"saleType":"P","margin":"D","reportingType":"dm","ideess":"9642","idMunicipio":"4236","idProvincia":"27","idCCAA":"12"}}},{"type":"Feature","geometry":{"type":"Point","coordinates":[-7.260694,43.345333]},"properties":{"id":"es-9746","source":"ES","brand":"MOEVE","address":"RUA ALCALDE CASTRIN, 10","municipality":"Riotorto","province":"LUGO","postalCode":"27744","schedule":"L-V: 07:30-21:00; S-D: 09:00-20:00","fuels":{"gasoline95":1.859,"diesel":1.879,"dieselPremium":1.929,"dieselB":1.769},"extra":{"saleType":"P","margin":"I","reportingType":"dm","ideess":"9746","idMunicipio":"4262","idProvincia":"27","idCCAA":"12"}}},{"type":"Feature","geometry":{"type":"Point","coordinates":[-7.601528,43.635806]},"properties":{"id":"es-9759","source":"ES","brand":"REPSOL","address":"RIO PEDROSO S/N MAGAZOS (C-640 km 3100)","municipality":"Viveiro","province":"LUGO","postalCode":"27850","schedule":"L-D: 07:00-22:00","fuels":{"gasoline95":1.829,"diesel":1.849,"dieselPremium":1.969},"extra":{"saleType":"P","margin":"I","reportingType":"dm","ideess":"9759","idMunicipio":"4273","idProvincia":"27","idCCAA":"12"}}},{"type":"Feature","geometry":{"type":"Point","coordinates":[-7.584972,43.675278]},"properties":{"id":"es-9764","source":"ES","brand":"REPSOL","address":"CALLE LAVANDEIRAS S/N, S/N","municipality":"Viveiro","province":"LUGO","postalCode":"27850","schedule":"L-D: 07:00-22:00","fuels":{"gasoline95":1.829,"gasoline98":1.879,"diesel":1.849,"dieselPremium":1.969},"extra":{"saleType":"P","margin":"I","reportingType":"dm","ideess":"9764","idMunicipio":"4273","idProvincia":"27","idCCAA":"12"}}},{"type":"Feature","geometry":{"type":"Point","coordinates":[-7.450417,43.370306]},"properties":{"id":"es-9893","source":"ES","brand":"MOEVE","address":"CARRETERA N-634 KM. 603","municipality":"Abadín","province":"LUGO","postalCode":"27730","schedule":"L-D: 24H","fuels":{"gasoline95":1.875,"diesel":1.828,"dieselPremium":1.898,"dieselB":1.769},"extra":{"saleType":"P","margin":"I","reportingType":"dm","ideess":"9893","idMunicipio":"4209","idProvincia":"27","idCCAA":"12"}}},{"type":"Feature","geometry":{"type":"Point","coordinates":[-7.421278,43.674861]},"properties":{"id":"es-9997","source":"ES","brand":"REPSOL","address":"N-642 km 3,9","municipality":"Cervo","province":"LUGO","postalCode":"27891","schedule":"L-V: 07:00-22:00; S: 08:00-22:00; D: 09:00-22:00","fuels":{"gasoline95":1.889,"gasoline98":2.049,"diesel":1.845,"dieselRenewable":1.955,"lpg":1.185},"extra":{"saleType":"P","margin":"D","reportingType":"OM","ideess":"9997","idMunicipio":"4223","idProvincia":"27","idCCAA":"12"}}}]}