{"type":"FeatureCollection","features":[{"type":"Feature","geometry":{"type":"Point","coordinates":[-7.285694,41.982722]},"properties":{"id":"es-12243","source":"ES","brand":"REPSOL","address":"LUGAR RIOS, ","municipality":"Riós","province":"OURENSE","postalCode":"32611","schedule":"L-D: 24H","fuels":{"gasoline95":1.762,"gasoline98":1.939,"diesel":1.828,"dieselB":1.633,"dieselRenewable":1.922},"extra":{"saleType":"P","margin":"D","reportingType":"dm","ideess":"12243","idMunicipio":"4938","idProvincia":"32","idCCAA":"12"}}},{"type":"Feature","geometry":{"type":"Point","coordinates":[-7.461306,41.893611]},"properties":{"id":"es-14382","source":"ES","brand":"O SURTIDOR","address":"CARRETERA CARRETERA DE OÍMBRA (OU-1011) KM. 2,2","municipality":"Oímbra","province":"OURENSE","postalCode":"32613","schedule":"L-D: 07:00-23:00","fuels":{"gasoline95":1.669,"diesel":1.779,"dieselB":1.539},"extra":{"saleType":"P","margin":"D","reportingType":"dm","ideess":"14382","idMunicipio":"4921","idProvincia":"32","idCCAA":"12"}}},{"type":"Feature","geometry":{"type":"Point","coordinates":[-7.460306,41.930222]},"properties":{"id":"es-16118","source":"ES","brand":"BP 24 HORAS","address":"RUA DEL POLIGONO INDUSTRIAL DE PAZOS, S/N","municipality":"Verín","province":"OURENSE","postalCode":"32619","schedule":"L-D: 24H","fuels":{"gasoline95":1.639,"diesel":1.729,"dieselB":1.499,"lpg":1.06},"extra":{"saleType":"P","margin":"D","reportingType":"dm","ideess":"16118","idMunicipio":"4953","idProvincia":"32","idCCAA":"12"}}},{"type":"Feature","geometry":{"type":"Point","coordinates":[-7.420361,41.835972]},"properties":{"id":"es-16243","source":"ES","brand":"CEPSA","address":"AUTOVIA A-75 VERIN- PORTUGAL KM. 10,5","municipality":"Verín","province":"OURENSE","postalCode":"32698","schedule":"L-D: 07:00-23:00","fuels":{"gasoline95":1.729,"gasoline98":1.854,"diesel":1.856,"dieselPremium":1.936},"extra":{"saleType":"P","margin":"D","reportingType":"OM","ideess":"16243","idMunicipio":"4953","idProvincia":"32","idCCAA":"12"}}},{"type":"Feature","geometry":{"type":"Point","coordinates":[-7.720583,41.945583]},"properties":{"id":"es-16387","source":"ES","brand":"PETROBAL","address":"ESTRADA PORTUGAL, 3","municipality":"Baltar","province":"OURENSE","postalCode":"32632","schedule":"L: 24H","fuels":{"gasoline95":1.675,"diesel":1.755,"adblue":0.889},"extra":{"saleType":"P","margin":"D","reportingType":"dm","ideess":"16387","idMunicipio":"4876","idProvincia":"32","idCCAA":"12"}}},{"type":"Feature","geometry":{"type":"Point","coordinates":[-7.425222,41.825222]},"properties":{"id":"es-364","source":"ES","brand":"GALP","address":"CARRETERA CARRETERA DE VERÍN PORTUGAL KM. 13,100","municipality":"Verín","province":"OURENSE","postalCode":"32699","schedule":"L-D: 24H","fuels":{"gasoline95":1.719,"gasoline98":1.859,"diesel":1.829,"adblue":1.0},"extra":{"saleType":"P","margin":"I","reportingType":"dm","ideess":"364","idMunicipio":"4953","idProvincia":"32","idCCAA":"12"}}},{"type":"Feature","geometry":{"type":"Point","coordinates":[-7.445944,41.939472]},"properties":{"id":"es-7756","source":"ES","brand":"REPSOL","address":"CALLE SAN LAZARO, 83","municipality":"Verín","province":"OURENSE","postalCode":"32600","schedule":"L-D: 06:00-22:00","fuels":{"gasoline95":1.709,"gasoline98":1.829,"diesel":1.869,"dieselPremium":1.929},"extra":{"saleType":"P","margin":"I","reportingType":"OM","ideess":"7756","idMunicipio":"4953","idProvincia":"32","idCCAA":"12"}}},{"type":"Feature","geometry":{"type":"Point","coordinates":[-7.415861,41.945472]},"properties":{"id":"es-7757","source":"ES","brand":"REPSOL","address":"CARRETERA N-525 KM. 165,18","municipality":"Verín","province":"OURENSE","postalCode":"32600","schedule":"L-V: 06:00-23:00","fuels":{"gasoline95":1.705,"gasoline95Premium":1.765,"gasoline98":1.845,"diesel":1.869,"dieselPremium":1.929,"dieselB":1.579},"extra":{"saleType":"P","margin":"D","reportingType":"OM","ideess":"7757","idMunicipio":"4953","idProvincia":"32","idCCAA":"12"}}},{"type":"Feature","geometry":{"type":"Point","coordinates":[-7.541972,41.98325]},"properties":{"id":"es-820","source":"ES","brand":"GALP","address":"CARRETERA CV-202 REBORDONDO-CUALEDRO KM. 1,700","municipality":"Cualedro","province":"OURENSE","postalCode":"32689","schedule":"L-D: 24H","fuels":{"gasoline95":1.689,"diesel":1.789,"dieselPremium":1.829,"adblue":0.779},"extra":{"saleType":"P","margin":"D","reportingType":"dm","ideess":"820","idMunicipio":"4900","idProvincia":"32","idCCAA":"12"}}}]}