{"type":"FeatureCollection","features":[{"type":"Feature","geometry":{"type":"Point","coordinates":[-9.072028,42.785278]},"properties":{"id":"es-12072","source":"ES","brand":"REPSOL","address":"POLIGONO DE MUROS - VENTIN, S/N","municipality":"Muros","province":"CORUÑA (A)","postalCode":"15250","schedule":"L: 07:00-23:00","fuels":{"gasoline95":2.059,"gasoline98":2.199,"diesel":1.999,"dieselRenewable":2.109,"adblue":0.8},"extra":{"saleType":"P","margin":"D","reportingType":"dm","ideess":"12072","idMunicipio":"2170","idProvincia":"15","idCCAA":"12"}}},{"type":"Feature","geometry":{"type":"Point","coordinates":[-9.191,42.977694]},"properties":{"id":"es-14425","source":"ES","brand":"LOW COST REPOST","address":"PARQUE PARQUE EMPRESARIAL DE CEE, 19","municipality":"Cee","province":"CORUÑA (A)","postalCode":"15270","schedule":"L-D: 24H","fuels":{"gasoline95":1.899,"diesel":1.849},"extra":{"saleType":"P","margin":"D","reportingType":"dm","ideess":"14425","idMunicipio":"2141","idProvincia":"15","idCCAA":"12"}}},{"type":"Feature","geometry":{"type":"Point","coordinates":[-9.193167,42.972917]},"properties":{"id":"es-14460","source":"ES","brand":"CARBUGAL CEE","address":"POLIGONO PARCELA 38-39 DEL PARQUE EMPRESARIAL DE CEE (A CORUÑA), S/N","municipality":"Cee","province":"CORUÑA (A)","postalCode":"15270","schedule":"L-D: 07:00-22:00","fuels":{"gasoline95":1.879,"diesel":1.829,"adblue":0.879},"extra":{"saleType":"P","margin":"N","reportingType":"dm","ideess":"14460","idMunicipio":"2141","idProvincia":"15","idCCAA":"12"}}},{"type":"Feature","geometry":{"type":"Point","coordinates":[-9.002389,42.587389]},"properties":{"id":"es-261","source":"ES","brand":"AGRO DO FORNO","address":"CTRA. C-550 (CTRA C-550 km 45)","municipality":"Ribeira","province":"CORUÑA (A)","postalCode":"15960","schedule":"L-D: 24H","fuels":{"gasoline95":1.999,"gasoline98":2.139,"diesel":1.959,"dieselPremium":2.029},"extra":{"saleType":"P","margin":"I","reportingType":"dm","ideess":"261","idMunicipio":"2191","idProvincia":"15","idCCAA":"12"}}},{"type":"Feature","geometry":{"type":"Point","coordinates":[-9.055806,42.787361]},"properties":{"id":"es-266","source":"ES","brand":"SHELL","address":"CALLE PORTOCARRAL, 1","municipality":"Muros","province":"CORUÑA (A)","postalCode":"15250","schedule":"L: 07:00-23:00","fuels":{"gasoline95":2.009,"gasoline98":2.199,"diesel":1.979,"dieselPremium":2.029},"extra":{"saleType":"P","margin":"D","reportingType":"dm","ideess":"266","idMunicipio":"2170","idProvincia":"15","idCCAA":"12"}}},{"type":"Feature","geometry":{"type":"Point","coordinates":[-9.265167,42.917722]},"properties":{"id":"es-482","source":"ES","brand":"CAMPSA","address":"CARRETERA C-552 CORUÑA-FINISTERRE KM. 107","municipality":"Fisterra","province":"CORUÑA (A)","postalCode":"15155","schedule":"L-D: 07:00-22:00","fuels":{"gasoline95":2.009,"gasoline98":2.169,"diesel":1.959,"dieselRenewable":2.069},"extra":{"saleType":"P","margin":"D","reportingType":"OM","ideess":"482","idMunicipio":"2155","idProvincia":"15","idCCAA":"12"}}},{"type":"Feature","geometry":{"type":"Point","coordinates":[-9.049167,42.771667]},"properties":{"id":"es-513","source":"ES","brand":"CEPSA","address":"CARRETERA C-550 KM. 34","municipality":"Muros","province":"CORUÑA (A)","postalCode":"15250","schedule":"L-V: 07:00-23:00; S-D: 08:00-23:00","fuels":{"gasoline95":2.019,"gasoline95Premium":2.059,"diesel":2.019,"dieselPremium":2.069},"extra":{"saleType":"P","margin":"D","reportingType":"dm","ideess":"513","idMunicipio":"2170","idProvincia":"15","idCCAA":"12"}}},{"type":"Feature","geometry":{"type":"Point","coordinates":[-9.193611,42.966056]},"properties":{"id":"es-519","source":"ES","brand":"REPSOL","address":"CARRETERA C-552 CORUÑA-FINISTERRE KM. 94","municipality":"Cee","province":"CORUÑA (A)","postalCode":"15270","schedule":"L-D: 07:00-23:00","fuels":{"gasoline95":2.049,"gasoline98":2.199,"diesel":1.979,"dieselB":1.859,"dieselRenewable":2.099,"lpg":1.149},"extra":{"saleType":"P","margin":"D","reportingType":"dm","ideess":"519","idMunicipio":"2141","idProvincia":"15","idCCAA":"12"}}},{"type":"Feature","geometry":{"type":"Point","coordinates":[-9.106333,42.811361]},"properties":{"id":"es-529","source":"ES","brand":"CEPSA","address":"CARRETERA AC-550 KM. 26,600","municipality":"Carnota","province":"CORUÑA (A)","postalCode":"15293","schedule":"L-D: 07:00-23:00","fuels":{"gasoline95":2.029,"gasoline98":2.129,"diesel":1.969,"dieselPremium":2.029},"extra":{"saleType":"P","margin":"I","reportingType":"dm","ideess":"529","idMunicipio":"2138","idProvincia":"15","idCCAA":"12"}}}]}