{"type":"FeatureCollection","features":[{"type":"Feature","geometry":{"type":"Point","coordinates":[-6.978833,42.415444]},"properties":{"id":"es-10000","source":"ES","brand":"CEPSA","address":"MANUEL QUIROGA, 50","municipality":"Barco de Valdeorras (O)","province":"OURENSE","postalCode":"32300","schedule":"L-D: 24H","fuels":{"gasoline95":1.605,"gasoline98":1.775,"diesel":1.692,"dieselPremium":1.772},"extra":{"saleType":"P","margin":"N","reportingType":"dm","ideess":"10000","idMunicipio":"4880","idProvincia":"32","idCCAA":"12"}}},{"type":"Feature","geometry":{"type":"Point","coordinates":[-6.638222,42.565778]},"properties":{"id":"es-10523","source":"ES","brand":"VALCARCE","address":"AVENIDA DE GALICIA, 241","municipality":"Ponferrada","province":"LEÓN","postalCode":"24400","schedule":"L-V: 06:30-23:30; S-D: 07:00-23:00","fuels":{"gasoline95":1.699,"diesel":1.849,"dieselPremium":1.899,"adblue":0.779},"extra":{"saleType":"P","margin":"I","reportingType":"dm","ideess":"10523","idMunicipio":"3699","idProvincia":"24","idCCAA":"08"}}},{"type":"Feature","geometry":{"type":"Point","coordinates":[-6.600222,42.56925]},"properties":{"id":"es-10560","source":"ES","brand":"GASOLEOS VILLAGER","address":"NACIONAL VI km 386.200","municipality":"Ponferrada","province":"LEÓN","postalCode":"24400","schedule":"L: 06:00-23:00","fuels":{"gasoline95":1.619,"gasoline98":1.729,"diesel":1.619,"dieselPremium":1.699,"adblue":0.84},"extra":{"saleType":"P","margin":"I","reportingType":"dm","ideess":"10560","idMunicipio":"3699","idProvincia":"24","idCCAA":"08"}}},{"type":"Feature","geometry":{"type":"Point","coordinates":[-6.824944,42.504472]},"properties":{"id":"es-10717","source":"ES","brand":"GASOLEOS CERECEDO","address":"CARRETERA NACIONAL 120 KM. 435,2","municipality":"Carucedo","province":"LEÓN","postalCode":"24441","schedule":"L-D: 24H","fuels":{"gasoline95":1.629,"diesel":1.729},"extra":{"saleType":"P","margin":"D","reportingType":"dm","ideess":"10717","idMunicipio":"3631","idProvincia":"24","idCCAA":"08"}}},{"type":"Feature","geometry":{"type":"Point","coordinates":[-6.625778,42.584417]},"properties":{"id":"es-10877","source":"ES","brand":"REPSOL","address":"CARRETERA A6 KM. 390,3","municipality":"Ponferrada","province":"LEÓN","postalCode":"24400","schedule":"L-D: 24H","fuels":{"gasoline95":1.685,"gasoline98":1.855,"diesel":1.859,"dieselRenewable":1.979,"lpg":1.105},"extra":{"saleType":"P","margin":"D","reportingType":"OM","ideess":"10877","idMunicipio":"3699","idProvincia":"24","idCCAA":"08"}}},{"type":"Feature","geometry":{"type":"Point","coordinates":[-6.628056,42.583917]},"properties":{"id":"es-10878","source":"ES","brand":"REPSOL","address":"AUTOVIA A-6 KM. 390,3","municipality":"Ponferrada","province":"LEÓN","postalCode":"24400","schedule":"L-D: 24H","fuels":{"gasoline95":1.685,"gasoline98":1.855,"diesel":1.859,"dieselRenewable":1.979},"extra":{"saleType":"P","margin":"I","reportingType":"OM","ideess":"10878","idMunicipio":"3699","idProvincia":"24","idCCAA":"08"}}},{"type":"Feature","geometry":{"type":"Point","coordinates":[-6.605778,42.565278]},"properties":{"id":"es-10923","source":"ES","brand":"REPSOL","address":"AVENIDA ASTURIAS, 137","municipality":"Ponferrada","province":"LEÓN","postalCode":"24400","schedule":"L-D: 07:00-23:00","fuels":{"gasoline95":1.685,"gasoline98":1.855,"diesel":1.859,"dieselPremium":1.949},"extra":{"saleType":"P","margin":"I","reportingType":"OM","ideess":"10923","idMunicipio":"3699","idProvincia":"24","idCCAA":"08"}}},{"type":"Feature","geometry":{"type":"Point","coordinates":[-6.414611,42.619167]},"properties":{"id":"es-11352","source":"ES","brand":"DST","address":"CALLE LOS JUNCOS, S/N","municipality":"Bembibre","province":"LEÓN","postalCode":"24300","schedule":"L-D: 07:00-23:00","fuels":{"gasoline95":1.719,"gasoline98":1.819,"diesel":1.799,"dieselPremium":1.889},"extra":{"saleType":"P","margin":"D","reportingType":"dm","ideess":"11352","idMunicipio":"3605","idProvincia":"24","idCCAA":"08"}}},{"type":"Feature","geometry":{"type":"Point","coordinates":[-6.602861,42.55775]},"properties":{"id":"es-11495","source":"ES","brand":"CARREFOUR","address":"AVENIDA DE LA CONSTITUCIÓN, 2","municipality":"Ponferrada","province":"LEÓN","postalCode":"24400","schedule":"L-D: 24H","fuels":{"gasoline95":1.669,"gasoline98":1.829,"diesel":1.819,"dieselPremium":1.859},"extra":{"saleType":"P","margin":"N","reportingType":"dm","ideess":"11495","idMunicipio":"3699","idProvincia":"24","idCCAA":"08"}}},{"type":"Feature","geometry":{"type":"Point","coordinates":[-6.3245,42.934361]},"properties":{"id":"es-11851","source":"ES","brand":"SHELL","address":"CARRETERA CL-631 KM. 58,500","municipality":"Villablino","province":"LEÓN","postalCode":"24100","schedule":"L-D: 07:00-23:00","fuels":{"gasoline95":1.695,"gasoline98":1.795,"diesel":1.795,"dieselPremium":1.855},"extra":{"saleType":"P","margin":"I","reportingType":"dm","ideess":"11851","idMunicipio":"3776","idProvincia":"24","idCCAA":"08"}}},{"type":"Feature","geometry":{"type":"Point","coordinates":[-6.58275,42.54525]},"properties":{"id":"es-12856","source":"ES","brand":"SHELL","address":"AVENIDA MOLINASECA  EN  PONFERRADA, 2","municipality":"Ponferrada","province":"LEÓN","postalCode":"24400","schedule":"L-D: 24H","fuels":{"gasoline95":1.705,"gasoline98":1.835,"diesel":1.835,"dieselPremium":1.895},"extra":{"saleType":"P","margin":"D","reportingType":"dm","ideess":"12856","idMunicipio":"3699","idProvincia":"24","idCCAA":"08"}}},{"type":"Feature","geometry":{"type":"Point","coordinates":[-6.345222,42.944833]},"properties":{"id":"es-12938","source":"ES","brand":"VILLAGER","address":"CALLE SAN LORENZO PI-VI  EN  VILLABLINO, 2","municipality":"Villablino","province":"LEÓN","postalCode":"24212","schedule":"L-D: 07:00-23:00","fuels":{"gasoline95":1.649,"diesel":1.719,"dieselPremium":1.789,"adblue":1.49},"extra":{"saleType":"P","margin":"D","reportingType":"dm","ideess":"12938","idMunicipio":"3776","idProvincia":"24","idCCAA":"08"}}},{"type":"Feature","geometry":{"type":"Point","coordinates":[-6.569222,42.553806]},"properties":{"id":"es-13091","source":"ES","brand":"VALCARCE","address":"AVENIDA MONTEARENAS  EN  PONFERRADA, S/N","municipality":"Ponferrada","province":"LEÓN","postalCode":"24400","schedule":"L-D: 07:00-23:00","fuels":{"gasoline95":1.699,"diesel":1.819,"dieselPremium":1.849,"adblue":0.729},"extra":{"saleType":"P","margin":"D","reportingType":"dm","ideess":"13091","idMunicipio":"3699","idProvincia":"24","idCCAA":"08"}}},{"type":"Feature","geometry":{"type":"Point","coordinates":[-6.074111,42.465361]},"properties":{"id":"es-13163","source":"ES","brand":"PETROAS","address":"AVENIDA MADRID - CORUÑA, 394","municipality":"Astorga","province":"LEÓN","postalCode":"24700","schedule":"L-D: 24H","fuels":{"gasoline95":1.659,"diesel":1.739},"extra":{"saleType":"P","margin":"D","reportingType":"dm","ideess":"13163","idMunicipio":"3600","idProvincia":"24","idCCAA":"08"}}},{"type":"Feature","geometry":{"type":"Point","coordinates":[-6.675806,42.587944]},"properties":{"id":"es-14561","source":"ES","brand":"CEPSA","address":"AUTOVIA A6 KM. 394","municipality":"Camponaraya","province":"LEÓN","postalCode":"24410","schedule":"L-D: 24H","fuels":{"gasoline95":1.769,"gasoline98":1.949,"diesel":1.879,"dieselPremium":1.989},"extra":{"saleType":"P","margin":"D","reportingType":"dm","ideess":"14561","idMunicipio":"3625","idProvincia":"24","idCCAA":"08"}}},{"type":"Feature","geometry":{"type":"Point","coordinates":[-6.45225,42.623778]},"properties":{"id":"es-14571","source":"ES","brand":"REPSOL","address":"POLIGONO POLIGONO INDUST. PIBASA  EN  BEMBIBRE, SN","municipality":"Bembibre","province":"LEÓN","postalCode":"24318","schedule":"L-V: 07:00-20:00; S: 09:00-14:00; D: 15:00-20:00","fuels":{"gasoline95":1.743,"gasoline98":1.859,"diesel":1.829,"dieselRenewable":1.969,"adblue":0.99},"extra":{"saleType":"P","margin":"D","reportingType":"dm","ideess":"14571","idMunicipio":"3605","idProvincia":"24","idCCAA":"08"}}},{"type":"Feature","geometry":{"type":"Point","coordinates":[-6.617694,42.554306]},"properties":{"id":"es-14760","source":"ES","brand":"PETROPRIX","address":"POLIGONO AV DE MILAN 1, 8","municipality":"Ponferrada","province":"LEÓN","postalCode":"24400","schedule":"L-D: 24H","fuels":{"gasoline95":1.649,"diesel":1.685},"extra":{"saleType":"P","margin":"D","reportingType":"dm","ideess":"14760","idMunicipio":"3699","idProvincia":"24","idCCAA":"08"}}},{"type":"Feature","geometry":{"type":"Point","coordinates":[-6.613417,42.554389]},"properties":{"id":"es-14909","source":"ES","brand":"ZEPXA ECO","address":"CALLE BURDEOS  EN  PONFERRADA, 3","municipality":"Ponferrada","province":"LEÓN","postalCode":"24400","schedule":"L-D: 24H","fuels":{"gasoline95E10":1.685,"gasoline98E10":1.755,"diesel":1.685,"dieselPremium":1.755,"adblue":0.955},"extra":{"saleType":"P","margin":"D","reportingType":"dm","ideess":"14909","idMunicipio":"3699","idProvincia":"24","idCCAA":"08"}}},{"type":"Feature","geometry":{"type":"Point","coordinates":[-6.636,42.565222]},"properties":{"id":"es-14958","source":"ES","brand":"PLENERGY","address":"AVENIDA GALICIA, 221","municipality":"Ponferrada","province":"LEÓN","postalCode":"24400","schedule":"L-D: 24H","fuels":{"gasoline95":1.619,"diesel":1.705},"extra":{"saleType":"P","margin":"D","reportingType":"dm","ideess":"14958","idMunicipio":"3699","idProvincia":"24","idCCAA":"08"}}},{"type":"Feature","geometry":{"type":"Point","coordinates":[-6.463417,42.618]},"properties":{"id":"es-4734","source":"ES","brand":"(SIN RÓTULO)","address":"PARQUE INDUSTRIAL PARCELA H km ...","municipality":"Bembibre","province":"LEÓN","postalCode":"24300","schedule":"L-D: 00:00-00:01","fuels":{"gasoline95":1.799,"gasoline98":1.899,"diesel":1.809,"dieselPremium":1.9},"extra":{"saleType":"P","margin":"N","reportingType":"dm","ideess":"4734","idMunicipio":"3605","idProvincia":"24","idCCAA":"08"}}},{"type":"Feature","geometry":{"type":"Point","coordinates":[-6.464528,42.042972]},"properties":{"id":"es-4921","source":"ES","brand":"E.S. EL PINO","address":"CARRETERA NACIONAL 525 KM. 69,200","municipality":"Asturianos","province":"ZAMORA","postalCode":"49325","schedule":"L-D: 07:00-23:00","fuels":{"gasoline95":1.599,"gasoline98":1.679,"diesel":1.715},"extra":{"saleType":"P","margin":"I","reportingType":"dm","ideess":"4921","idMunicipio":"7584","idProvincia":"49","idCCAA":"08"}}},{"type":"Feature","geometry":{"type":"Point","coordinates":[-6.876556,42.646333]},"properties":{"id":"es-4936","source":"ES","brand":"E.S. TRABADELO","address":"AUTOVIA A-6 KM. 414,5","municipality":"Trabadelo","province":"LEÓN","postalCode":"24523","schedule":"L-D: 07:00-23:00","fuels":{"gasoline95":1.699,"gasoline98":1.849,"diesel":1.799,"dieselRenewable":1.899},"extra":{"saleType":"P","margin":"D","reportingType":"dm","ideess":"4936","idMunicipio":"3749","idProvincia":"24","idCCAA":"08"}}},{"type":"Feature","geometry":{"type":"Point","coordinates":[-6.230444,42.599222]},"properties":{"id":"es-4937","source":"ES","brand":"EASYGAS","address":"CARRETERA N - VI KM. 351","municipality":"Villagatón","province":"LEÓN","postalCode":"24369","schedule":"L-D: 24H","fuels":{"gasoline95":1.609,"gasoline95Premium":1.609,"diesel":1.699,"dieselPremium":1.699},"extra":{"saleType":"P","margin":"I","reportingType":"dm","ideess":"4937","idMunicipio":"3782","idProvincia":"24","idCCAA":"08"}}},{"type":"Feature","geometry":{"type":"Point","coordinates":[-6.64025,42.081417]},"properties":{"id":"es-4954","source":"ES","brand":"REPOSTAR,  ANTONIO  DEL ESTAL LÓPEZ S.L.","address":"CARRETERA CRTA. ZA-104 KM. 4,723","municipality":"Robleda-Cervantes","province":"ZAMORA","postalCode":"49390","schedule":"L-D: 08:00-23:00","fuels":{"gasoline95":1.619,"gasoline98":1.699,"diesel":1.699,"dieselPremium":1.739,"lpg":0.95},"extra":{"saleType":"P","margin":"D","reportingType":"dm","ideess":"4954","idMunicipio":"7733","idProvincia":"49","idCCAA":"08"}}},{"type":"Feature","geometry":{"type":"Point","coordinates":[-6.504278,42.597833]},"properties":{"id":"es-4992","source":"ES","brand":"MOEVE","address":"AUTOVIA A-6 KM. 374,8","municipality":"Congosto","province":"LEÓN","postalCode":"24398","schedule":"L-D: 06:00-23:00","fuels":{"gasoline95":1.739,"gasoline95Premium":1.799,"diesel":1.849,"dieselPremium":1.909,"lpg":1.119,"adblue":0.99},"extra":{"saleType":"P","margin":"I","reportingType":"dm","ideess":"4992","idMunicipio":"3646","idProvincia":"24","idCCAA":"08"}}},{"type":"Feature","geometry":{"type":"Point","coordinates":[-6.605778,42.547361]},"properties":{"id":"es-4999","source":"ES","brand":"CEPSA","address":"AVDA. DE LA PLATA, 2 (N-VIA km 383,5)","municipality":"Ponferrada","province":"LEÓN","postalCode":"24400","schedule":"L-D: 07:00-23:00","fuels":{"gasoline95":1.709,"gasoline95Premium":1.799,"gasoline98":1.834,"diesel":1.836,"dieselPremium":1.916,"dieselB":1.716},"extra":{"saleType":"P","margin":"D","reportingType":"OM","ideess":"4999","idMunicipio":"3699","idProvincia":"24","idCCAA":"08"}}},{"type":"Feature","geometry":{"type":"Point","coordinates":[-6.63975,42.540917]},"properties":{"id":"es-5000","source":"ES","brand":"CEPSA","address":"AVENIDA PORTUGAL, SN","municipality":"Ponferrada","province":"LEÓN","postalCode":"24400","schedule":"L-D: 07:00-23:00","fuels":{"gasoline95":1.719,"gasoline95Premium":1.809,"diesel":1.869,"dieselPremium":1.949},"extra":{"saleType":"P","margin":"I","reportingType":"dm","ideess":"5000","idMunicipio":"3699","idProvincia":"24","idCCAA":"08"}}},{"type":"Feature","geometry":{"type":"Point","coordinates":[-6.515639,42.705389]},"properties":{"id":"es-5012","source":"ES","brand":"CEPSA","address":"CARRETERA CL-631 KM24 KM. 24","municipality":"Toreno","province":"LEÓN","postalCode":"24450","schedule":"L-D: 07:00-22:00","fuels":{"gasoline95":1.699,"gasoline95Premium":1.799,"diesel":1.869,"dieselPremium":1.969},"extra":{"saleType":"P","margin":"I","reportingType":"dm","ideess":"5012","idMunicipio":"3747","idProvincia":"24","idCCAA":"08"}}},{"type":"Feature","geometry":{"type":"Point","coordinates":[-6.767972,42.570806]},"properties":{"id":"es-5021","source":"ES","brand":"MOEVE","address":"CARRETERA N-VI KM. 405","municipality":"Villadecanes","province":"LEÓN","postalCode":"24560","schedule":"L-D: 07:00-23:00","fuels":{"gasoline95":1.699,"gasoline95Premium":1.789,"diesel":1.869,"dieselPremium":1.949,"dieselB":1.739},"extra":{"saleType":"P","margin":"I","reportingType":"dm","ideess":"5021","idMunicipio":"3779","idProvincia":"24","idCCAA":"08"}}},{"type":"Feature","geometry":{"type":"Point","coordinates":[-6.653417,42.725944]},"properties":{"id":"es-5045","source":"ES","brand":"REPSOL","address":"AVENIDA ANCARES, 27","municipality":"Vega de Espinareda","province":"LEÓN","postalCode":"24430","schedule":"L-S: 07:00-23:00; D: 09:00-21:00","fuels":{"gasoline95":1.689,"diesel":1.839,"dieselRenewable":1.959},"extra":{"saleType":"P","margin":"D","reportingType":"OM","ideess":"5045","idMunicipio":"3770","idProvincia":"24","idCCAA":"08"}}},{"type":"Feature","geometry":{"type":"Point","coordinates":[-6.657917,42.566694]},"properties":{"id":"es-5050","source":"ES","brand":"REPSOL","address":"POLIGONO POLIGONO INDUSTRIAL DE CAMPONARAYA, S/N","municipality":"Camponaraya","province":"LEÓN","postalCode":"24410","schedule":"L-S: 06:00-23:00; D: 00:08-23:00","fuels":{"gasoline95":1.689,"gasoline98":1.859,"diesel":1.859,"dieselRenewable":1.979},"extra":{"saleType":"P","margin":"D","reportingType":"OM","ideess":"5050","idMunicipio":"3625","idProvincia":"24","idCCAA":"08"}}},{"type":"Feature","geometry":{"type":"Point","coordinates":[-6.576194,42.550889]},"properties":{"id":"es-5061","source":"ES","brand":"REPSOL","address":"CALLE MONTEARENAS (ANTIGUA N-VI), S/N","municipality":"Ponferrada","province":"LEÓN","postalCode":"24400","schedule":"L-D: 07:00-23:00","fuels":{"gasoline95":1.699,"gasoline98":1.819,"diesel":1.875,"dieselRenewable":1.995},"extra":{"saleType":"P","margin":"I","reportingType":"OM","ideess":"5061","idMunicipio":"3699","idProvincia":"24","idCCAA":"08"}}},{"type":"Feature","geometry":{"type":"Point","coordinates":[-6.675389,42.58525]},"properties":{"id":"es-5063","source":"ES","brand":"PETRONOR","address":"AUTOVIA A-6 KM. 396,7","municipality":"Camponaraya","province":"LEÓN","postalCode":"24410","schedule":"L-D: 07:00-22:00","fuels":{"gasoline95":1.689,"diesel":1.855,"dieselPremium":1.965},"extra":{"saleType":"P","margin":"D","reportingType":"OM","ideess":"5063","idMunicipio":"3625","idProvincia":"24","idCCAA":"08"}}},{"type":"Feature","geometry":{"type":"Point","coordinates":[-6.079889,42.444917]},"properties":{"id":"es-5081","source":"ES","brand":"CEPSA","address":"AUTOVIA A-6 KM. 326","municipality":"Astorga","province":"LEÓN","postalCode":"24700","schedule":"L-D: 07:30-21:30","fuels":{"gasoline95":1.664,"gasoline98":1.824,"diesel":1.814,"dieselPremium":1.874},"extra":{"saleType":"P","margin":"I","reportingType":"dm","ideess":"5081","idMunicipio":"3600","idProvincia":"24","idCCAA":"08"}}},{"type":"Feature","geometry":{"type":"Point","coordinates":[-6.631611,42.7625]},"properties":{"id":"es-5516","source":"ES","brand":"REPSOL","address":"AVENIDA BIERZO, 65","municipality":"Fabero","province":"LEÓN","postalCode":"24420","schedule":"L-D: 07:00-23:00","fuels":{"gasoline95":1.689,"gasoline98":1.859,"diesel":1.845,"dieselPremium":1.955},"extra":{"saleType":"P","margin":"D","reportingType":"OM","ideess":"5516","idMunicipio":"3658","idProvincia":"24","idCCAA":"08"}}},{"type":"Feature","geometry":{"type":"Point","coordinates":[-6.233,42.599]},"properties":{"id":"es-5521","source":"ES","brand":"MOEVE","address":"AUTOVIA A-6 (MRG.IZDO.) KM. 350","municipality":"Villagatón","province":"LEÓN","postalCode":"24360","schedule":"L-D: 06:00-23:59","fuels":{"gasoline95":1.729,"gasoline98":1.854,"diesel":1.836,"dieselPremium":1.916},"extra":{"saleType":"P","margin":"I","reportingType":"dm","ideess":"5521","idMunicipio":"3782","idProvincia":"24","idCCAA":"08"}}},{"type":"Feature","geometry":{"type":"Point","coordinates":[-6.232,42.60175]},"properties":{"id":"es-5524","source":"ES","brand":"MOEVE","address":"AUTOVIA A-6 (MRG.DCHO.) KM. 350","municipality":"Villagatón","province":"LEÓN","postalCode":"24360","schedule":"L-D: 08:00-22:00","fuels":{"gasoline95":1.729,"gasoline98":1.854,"diesel":1.836,"dieselPremium":1.916},"extra":{"saleType":"P","margin":"D","reportingType":"dm","ideess":"5524","idMunicipio":"3782","idProvincia":"24","idCCAA":"08"}}},{"type":"Feature","geometry":{"type":"Point","coordinates":[-6.600833,42.552333]},"properties":{"id":"es-5527","source":"ES","brand":"REPSOL","address":"AVENIDA LIBERTAD, S/N","municipality":"Ponferrada","province":"LEÓN","postalCode":"24400","schedule":"L-D: 07:00-23:00","fuels":{"gasoline95":1.685,"gasoline98":1.855,"diesel":1.865,"dieselPremium":1.925},"extra":{"saleType":"P","margin":"I","reportingType":"OM","ideess":"5527","idMunicipio":"3699","idProvincia":"24","idCCAA":"08"}}},{"type":"Feature","geometry":{"type":"Point","coordinates":[-6.615861,42.555667]},"properties":{"id":"es-5536","source":"ES","brand":"GALP","address":"AVENIDA DE GALICIA, S/N","municipality":"Ponferrada","province":"LEÓN","postalCode":"24400","schedule":"L-D: 07:00-23:00","fuels":{"gasoline95":1.685,"gasoline98":1.865,"diesel":1.835,"dieselPremium":1.905,"adblue":0.8},"extra":{"saleType":"P","margin":"I","reportingType":"dm","ideess":"5536","idMunicipio":"3699","idProvincia":"24","idCCAA":"08"}}},{"type":"Feature","geometry":{"type":"Point","coordinates":[-6.064389,42.459917]},"properties":{"id":"es-5540","source":"ES","brand":"REPSOL","address":"CR N-6, 325","municipality":"Astorga","province":"LEÓN","postalCode":"24700","schedule":"L-D: 07:00-23:00","fuels":{"gasoline95":1.745,"gasoline95Premium":1.825,"gasoline98":1.865,"diesel":1.855,"dieselB":1.645,"dieselRenewable":1.975},"extra":{"saleType":"P","margin":"D","reportingType":"OM","ideess":"5540","idMunicipio":"3600","idProvincia":"24","idCCAA":"08"}}},{"type":"Feature","geometry":{"type":"Point","coordinates":[-6.589972,42.615778]},"properties":{"id":"es-5977","source":"ES","brand":"REPSOL","address":"CARRETERA COMARCAL 631 KM. 8","municipality":"Cubillos del Sil","province":"LEÓN","postalCode":"24492","schedule":"L-V: 07:00-22:00; S: 07:00-15:00","fuels":{"gasoline95":1.689,"diesel":1.845,"dieselPremium":1.955},"extra":{"saleType":"P","margin":"I","reportingType":"OM","ideess":"5977","idMunicipio":"3653","idProvincia":"24","idCCAA":"08"}}},{"type":"Feature","geometry":{"type":"Point","coordinates":[-6.313667,42.939611]},"properties":{"id":"es-5985","source":"ES","brand":"AVIA","address":"CALLE SIERRA PAMBLEY, 29","municipality":"Villablino","province":"LEÓN","postalCode":"24100","schedule":"L-D: 06:00-22:00","fuels":{"gasoline95":1.699,"gasoline98":1.799,"diesel":1.799,"dieselPremium":1.859},"extra":{"saleType":"P","margin":"D","reportingType":"dm","ideess":"5985","idMunicipio":"3776","idProvincia":"24","idCCAA":"08"}}},{"type":"Feature","geometry":{"type":"Point","coordinates":[-6.625694,42.560583]},"properties":{"id":"es-5988","source":"ES","brand":"REPSOL","address":"AVENIDA GALICIA, 86","municipality":"Ponferrada","province":"LEÓN","postalCode":"24400","schedule":"L-S: 07:00-22:00; D: 08:00-22:00","fuels":{"gasoline95":1.689,"gasoline98":1.859,"diesel":1.855,"dieselRenewable":1.975},"extra":{"saleType":"P","margin":"D","reportingType":"OM","ideess":"5988","idMunicipio":"3699","idProvincia":"24","idCCAA":"08"}}},{"type":"Feature","geometry":{"type":"Point","coordinates":[-6.401389,42.608861]},"properties":{"id":"es-5995","source":"ES","brand":"REPSOL","address":"ANTIGUA NACIONAL VI KM 368","municipality":"Bembibre","province":"LEÓN","postalCode":"24300","schedule":"L-X: 08:00-15:00; V: 08:00-15:00; S: 09:00-14:00","fuels":{"gasoline95":1.685,"gasoline98":1.855,"diesel":1.829,"dieselPremium":1.939},"extra":{"saleType":"P","margin":"D","reportingType":"OM","ideess":"5995","idMunicipio":"3605","idProvincia":"24","idCCAA":"08"}}},{"type":"Feature","geometry":{"type":"Point","coordinates":[-6.125972,42.517306]},"properties":{"id":"es-6014","source":"ES","brand":"REPSOL","address":"CARRETERA CTRA. N-VI KM. 335","municipality":"Brazuelo","province":"LEÓN","postalCode":"24715","schedule":"L-D: 24H","fuels":{"gasoline95":1.699,"gasoline98":1.829,"diesel":1.849,"dieselRenewable":1.929,"adblue":1.345},"extra":{"saleType":"P","margin":"D","reportingType":"dm","ideess":"6014","idMunicipio":"3614","idProvincia":"24","idCCAA":"08"}}},{"type":"Feature","geometry":{"type":"Point","coordinates":[-6.524778,42.807139]},"properties":{"id":"es-6032","source":"ES","brand":"REPSOL","address":"CARRETERA C-631 KM. 36","municipality":"Páramo del Sil","province":"LEÓN","postalCode":"24470","schedule":"L-D: 08:00-20:00","fuels":{"gasoline95":1.685,"diesel":1.849,"dieselPremium":1.929},"extra":{"saleType":"P","margin":"D","reportingType":"OM","ideess":"6032","idMunicipio":"3695","idProvincia":"24","idCCAA":"08"}}},{"type":"Feature","geometry":{"type":"Point","coordinates":[-6.720333,42.594917]},"properties":{"id":"es-6037","source":"ES","brand":"REPSOL","address":"CR N-6 401","municipality":"Cacabelos","province":"LEÓN","postalCode":"24540","schedule":"L-D: 08:00-22:00","fuels":{"gasoline95":1.685,"diesel":1.859,"dieselRenewable":1.979},"extra":{"saleType":"P","margin":"D","reportingType":"OM","ideess":"6037","idMunicipio":"3621","idProvincia":"24","idCCAA":"08"}}},{"type":"Feature","geometry":{"type":"Point","coordinates":[-6.823944,42.417889]},"properties":{"id":"es-6043","source":"ES","brand":"REPSOL","address":"CR N-536, 33,3","municipality":"Puente de Domingo Flórez","province":"LEÓN","postalCode":"24380","schedule":"L: 06:30-22:30","fuels":{"gasoline95":1.685,"gasoline98":1.855,"diesel":1.845,"dieselPremium":1.935},"extra":{"saleType":"P","margin":"D","reportingType":"OM","ideess":"6043","idMunicipio":"3706","idProvincia":"24","idCCAA":"08"}}},{"type":"Feature","geometry":{"type":"Point","coordinates":[-6.606694,42.549333]},"properties":{"id":"es-6056","source":"ES","brand":"REPSOL","address":"CALLE AVDA. DE LOS ESCRITORES, SN","municipality":"Ponferrada","province":"LEÓN","postalCode":"24400","schedule":"L-D: 07:00-23:00","fuels":{"gasoline95":1.685,"gasoline95Premium":1.745,"gasoline98":1.855,"diesel":1.865,"dieselPremium":1.925},"extra":{"saleType":"P","margin":"D","reportingType":"OM","ideess":"6056","idMunicipio":"3699","idProvincia":"24","idCCAA":"08"}}},{"type":"Feature","geometry":{"type":"Point","coordinates":[-6.316917,42.020583]},"properties":{"id":"es-6121","source":"ES","brand":"CEPSA","address":"CARRETERA N-525 KM. 56,400","municipality":"Mombuey","province":"ZAMORA","postalCode":"49310","schedule":"L-D: 24H","fuels":{"gasoline95":1.729,"gasoline98":1.829,"diesel":1.841,"dieselPremium":1.941},"extra":{"saleType":"P","margin":"D","reportingType":"OM","ideess":"6121","idMunicipio":"7678","idProvincia":"49","idCCAA":"08"}}},{"type":"Feature","geometry":{"type":"Point","coordinates":[-6.838472,42.033417]},"properties":{"id":"es-6278","source":"ES","brand":"REPSOL","address":"CARRETERA N-525 KM. 103","municipality":"Lubián","province":"ZAMORA","postalCode":"49574","schedule":"L-D: 07:00-23:00","fuels":{"gasoline95":1.729,"gasoline98":1.899,"diesel":1.859,"dieselPremium":1.919},"extra":{"saleType":"P","margin":"I","reportingType":"OM","ideess":"6278","idMunicipio":"7658","idProvincia":"49","idCCAA":"08"}}},{"type":"Feature","geometry":{"type":"Point","coordinates":[-6.640583,42.06075]},"properties":{"id":"es-6287","source":"ES","brand":"BP PUEBLA DE SANABRIA MD","address":"CARRETERA N-525 KM. 84,500","municipality":"Cobreros","province":"ZAMORA","postalCode":"49396","schedule":"L-D: 24H","fuels":{"gasoline95":1.729,"gasoline98":1.869,"diesel":1.849,"dieselPremium":1.939},"extra":{"saleType":"P","margin":"D","reportingType":"OM","ideess":"6287","idMunicipio":"7615","idProvincia":"49","idCCAA":"08"}}},{"type":"Feature","geometry":{"type":"Point","coordinates":[-6.640167,42.060361]},"properties":{"id":"es-6288","source":"ES","brand":"BP PUEBLA DE SANABRIA MI","address":"CARRETERA N-525 KM. 84,5","municipality":"Cobreros","province":"ZAMORA","postalCode":"49396","schedule":"L-D: 07:00-22:00","fuels":{"gasoline95":1.729,"gasoline98":1.869,"diesel":1.849,"dieselPremium":1.939,"adblue":1.195},"extra":{"saleType":"P","margin":"I","reportingType":"OM","ideess":"6288","idMunicipio":"7615","idProvincia":"49","idCCAA":"08"}}},{"type":"Feature","geometry":{"type":"Point","coordinates":[-6.921639,42.660583]},"properties":{"id":"es-8011","source":"ES","brand":"REPSOL","address":"CARRETERA NACIONAL VI KM. 418","municipality":"Vega de Valcarce","province":"LEÓN","postalCode":"24524","schedule":"L-D: 07:00-23:00","fuels":{"gasoline95":1.699,"gasoline98":1.869,"diesel":1.829,"dieselPremium":1.939},"extra":{"saleType":"P","margin":"N","reportingType":"dm","ideess":"8011","idMunicipio":"3772","idProvincia":"24","idCCAA":"08"}}},{"type":"Feature","geometry":{"type":"Point","coordinates":[-6.914083,42.658806]},"properties":{"id":"es-8073","source":"ES","brand":"VALCARCE","address":"A-6, SALIDA 419/420 km 419","municipality":"Vega de Valcarce","province":"LEÓN","postalCode":"24524","schedule":"L-D: 24H","fuels":{"gasoline95":1.699,"diesel":1.849,"dieselB":1.459,"adblue":0.779},"extra":{"saleType":"P","margin":"I","reportingType":"dm","ideess":"8073","idMunicipio":"3772","idProvincia":"24","idCCAA":"08"}}},{"type":"Feature","geometry":{"type":"Point","coordinates":[-6.993889,42.421278]},"properties":{"id":"es-8327","source":"ES","brand":"GALP","address":"AVENIDA PORTUGAL, 2","municipality":"Barco de Valdeorras (O)","province":"OURENSE","postalCode":"32300","schedule":"L-D: 06:00-22:00","fuels":{"gasoline95":1.689,"gasoline98":1.869,"diesel":1.769,"dieselPremium":1.849,"adblue":0.8},"extra":{"saleType":"P","margin":"D","reportingType":"dm","ideess":"8327","idMunicipio":"4880","idProvincia":"32","idCCAA":"12"}}},{"type":"Feature","geometry":{"type":"Point","coordinates":[-6.782139,42.544639]},"properties":{"id":"es-9111","source":"ES","brand":"VALCARCE","address":"N-120 km 429","municipality":"Villadecanes","province":"LEÓN","postalCode":"24560","schedule":"L-D: 07:00-23:00","fuels":{"gasoline95":1.699,"diesel":1.869,"dieselPremium":1.919,"adblue":0.799},"extra":{"saleType":"P","margin":"D","reportingType":"dm","ideess":"9111","idMunicipio":"3779","idProvincia":"24","idCCAA":"08"}}}]}