{"type":"FeatureCollection","features":[{"type":"Feature","geometry":{"type":"Point","coordinates":[-3.334167,38.031389]},"properties":{"id":"es-10006","source":"ES","brand":"EUROIL LARECTA","address":"N-322 km 151.800","municipality":"Úbeda","province":"JAÉN","postalCode":"23400","schedule":"L-D: 24H","fuels":{"gasoline95":1.639,"diesel":1.809,"adblue":0.899},"extra":{"saleType":"P","margin":"I","reportingType":"dm","ideess":"10006","idMunicipio":"3583","idProvincia":"23","idCCAA":"01"}}},{"type":"Feature","geometry":{"type":"Point","coordinates":[-3.064361,38.588361]},"properties":{"id":"es-10051","source":"ES","brand":"REPSOL","address":"CARRETERA TORRENUEVA, 6 KM. ","municipality":"Torre de Juan Abad","province":"CIUDAD REAL","postalCode":"13344","schedule":"L-V: 07:15-21:00; S: 07:15-15:00; D: 07:15-21:00","fuels":{"gasoline95":1.735,"gasoline98":1.905,"diesel":1.905},"extra":{"saleType":"P","margin":"D","reportingType":"OM","ideess":"10051","idMunicipio":"2028","idProvincia":"13","idCCAA":"07"}}},{"type":"Feature","geometry":{"type":"Point","coordinates":[-3.369528,38.026167]},"properties":{"id":"es-10059","source":"ES","brand":"REPSOL","address":"CALLE CARRETERA DE VILCHES, S/N","municipality":"Úbeda","province":"JAÉN","postalCode":"23400","schedule":"L-D: 06:00-22:00","fuels":{"gasoline95":1.755,"gasoline98":1.925,"diesel":1.969,"dieselPremium":2.089,"dieselB":1.654,"adblue":1.79},"extra":{"saleType":"P","margin":"D","reportingType":"dm","ideess":"10059","idMunicipio":"3583","idProvincia":"23","idCCAA":"01"}}},{"type":"Feature","geometry":{"type":"Point","coordinates":[-3.346917,38.978667]},"properties":{"id":"es-10672","source":"ES","brand":"GALÁN DE MEMBRILLA","address":"CARRETERA LA SOLANA, 23 KM. ","municipality":"Membrilla","province":"CIUDAD REAL","postalCode":"13230","schedule":"L-D: 24H","fuels":{"gasoline95":1.565,"diesel":1.729,"dieselPremium":1.749,"dieselB":1.389},"extra":{"saleType":"P","margin":"I","reportingType":"dm","ideess":"10672","idMunicipio":"1996","idProvincia":"13","idCCAA":"07"}}},{"type":"Feature","geometry":{"type":"Point","coordinates":[-3.677333,38.904139]},"properties":{"id":"es-10674","source":"ES","brand":"Q8","address":"CALLE CTRA. C-417, PK. KM 17,, 17","municipality":"Bolaños de Calatrava","province":"CIUDAD REAL","postalCode":"13260","schedule":"L-D: 24H","fuels":{"gasoline95":1.719,"gasoline98":1.799,"diesel":1.919,"dieselPremium":1.989},"extra":{"saleType":"P","margin":"D","reportingType":"dm","ideess":"10674","idMunicipio":"1964","idProvincia":"13","idCCAA":"07"}}},{"type":"Feature","geometry":{"type":"Point","coordinates":[-3.336417,38.973667]},"properties":{"id":"es-10991","source":"ES","brand":"REPSOL","address":"CARRETERA NACIONAL 430 KM 368 KM. 368","municipality":"Membrilla","province":"CIUDAD REAL","postalCode":"13230","schedule":"L-V: 06:30-21:30; S-D: 09:00-14:00","fuels":{"gasoline95":1.745,"gasoline98":1.915,"diesel":1.905,"dieselB":1.674,"dieselRenewable":2.025},"extra":{"saleType":"P","margin":"D","reportingType":"OM","ideess":"10991","idMunicipio":"1996","idProvincia":"13","idCCAA":"07"}}},{"type":"Feature","geometry":{"type":"Point","coordinates":[-3.380194,38.987028]},"properties":{"id":"es-10992","source":"ES","brand":"REPSOL","address":"CARRETERA CRTA.CR-141 KM 3,70 KM. 3,70","municipality":"Manzanares","province":"CIUDAD REAL","postalCode":"13200","schedule":"L-D: 24H","fuels":{"gasoline95":1.755,"gasoline98":1.925,"diesel":1.925,"dieselB":1.674,"dieselRenewable":2.045,"lpg":1.169},"extra":{"saleType":"P","margin":"I","reportingType":"OM","ideess":"10992","idMunicipio":"1995","idProvincia":"13","idCCAA":"07"}}},{"type":"Feature","geometry":{"type":"Point","coordinates":[-3.466944,38.631944]},"properties":{"id":"es-11123","source":"ES","brand":"VALCARCE","address":"AUTOVIA A-4 KM. 217,350","municipality":"Santa Cruz de Mudela","province":"CIUDAD REAL","postalCode":"13730","schedule":"L-D: 24H","fuels":{"gasoline95":1.769,"diesel":1.939,"dieselPremium":1.989,"adblue":0.859},"extra":{"saleType":"P","margin":"I","reportingType":"dm","ideess":"11123","idMunicipio":"2021","idProvincia":"13","idCCAA":"07"}}},{"type":"Feature","geometry":{"type":"Point","coordinates":[-3.064778,38.362333]},"properties":{"id":"es-11169","source":"ES","brand":"STMO CRISTO DE LA EXPIRACION","address":"CARRETERA A 6203 KM. 39,200","municipality":"Montizón","province":"JAÉN","postalCode":"23265","schedule":"L-S: 07:00-15:00 y 18:00-22:00","fuels":{"gasoline95":1.719,"diesel":1.839,"dieselPremium":1.859,"dieselB":1.539},"extra":{"saleType":"P","margin":"D","reportingType":"dm","ideess":"11169","idMunicipio":"3556","idProvincia":"23","idCCAA":"01"}}},{"type":"Feature","geometry":{"type":"Point","coordinates":[-3.34125,38.975472]},"properties":{"id":"es-11339","source":"ES","brand":"GALAN DE MEMBRILLA","address":"CARRETERA DE LA SOLANA 34","municipality":"Membrilla","province":"CIUDAD REAL","postalCode":"13230","schedule":"L-D: 24H","fuels":{"diesel":1.729,"dieselB":1.389},"extra":{"saleType":"P","margin":"D","reportingType":"dm","ideess":"11339","idMunicipio":"1996","idProvincia":"13","idCCAA":"07"}}},{"type":"Feature","geometry":{"type":"Point","coordinates":[-3.764611,38.173083]},"properties":{"id":"es-11492","source":"ES","brand":"AGLA","address":"CARRETERA BAÑOS - LINARES S/N KM. 0800","municipality":"Baños de la Encina","province":"JAÉN","postalCode":"23711","schedule":"L: 06:00-22:00","fuels":{"gasoline95":1.769,"diesel":1.929,"dieselB":1.569},"extra":{"saleType":"P","margin":"N","reportingType":"dm","ideess":"11492","idMunicipio":"3507","idProvincia":"23","idCCAA":"01"}}},{"type":"Feature","geometry":{"type":"Point","coordinates":[-3.57125,38.313278]},"properties":{"id":"es-11729","source":"ES","brand":"BP PUERTA ANDALUCIA","address":"CARRETERA E-5/A-4 KM. 262","municipality":"Santa Elena","province":"JAÉN","postalCode":"23213","schedule":"L-D: 24H","fuels":{"gasoline95":1.779,"gasoline98":1.919,"diesel":1.985,"dieselPremium":2.075,"adblue":1.035},"extra":{"saleType":"P","margin":"D","reportingType":"OM","ideess":"11729","idMunicipio":"3569","idProvincia":"23","idCCAA":"01"}}},{"type":"Feature","geometry":{"type":"Point","coordinates":[-3.7285,38.1435]},"properties":{"id":"es-11734","source":"ES","brand":"BP ABADES BAILEN","address":"AUTOVIA E-5/A-4 KM. 288","municipality":"Bailén","province":"JAÉN","postalCode":"23710","schedule":"L-D: 24H","fuels":{"gasoline95":1.779,"gasoline98":1.919,"diesel":1.985,"dieselPremium":2.075,"adblue":1.135},"extra":{"saleType":"P","margin":"D","reportingType":"OM","ideess":"11734","idMunicipio":"3506","idProvincia":"23","idCCAA":"01"}}},{"type":"Feature","geometry":{"type":"Point","coordinates":[-3.390306,38.780917]},"properties":{"id":"es-12034","source":"ES","brand":"CEPSA","address":"CARRETERA 601 KM. 0,700","municipality":"Valdepeñas","province":"CIUDAD REAL","postalCode":"13300","schedule":"L-D: 06:00-23:30","fuels":{"gasoline95":1.779,"gasoline95Premium":1.859,"diesel":1.929,"dieselPremium":1.999,"lpg":1.099},"extra":{"saleType":"P","margin":"N","reportingType":"dm","ideess":"12034","idMunicipio":"2031","idProvincia":"13","idCCAA":"07"}}},{"type":"Feature","geometry":{"type":"Point","coordinates":[-3.000694,38.174889]},"properties":{"id":"es-12275","source":"ES","brand":"JAENCOOP","address":"AVENIDA VALENCIA DE, S/N","municipality":"Villanueva del Arzobispo","province":"JAÉN","postalCode":"23330","schedule":"L-D: 24H","fuels":{"gasoline95":1.715,"diesel":1.895,"dieselB":1.585},"extra":{"saleType":"P","margin":"D","reportingType":"dm","ideess":"12275","idMunicipio":"3588","idProvincia":"23","idCCAA":"01"}}},{"type":"Feature","geometry":{"type":"Point","coordinates":[-3.211167,38.261056]},"properties":{"id":"es-12342","source":"ES","brand":"JAENCOOP","address":"PARAJE LA LAGUNA, S/N","municipality":"Santisteban del Puerto","province":"JAÉN","postalCode":"23250","schedule":"L-D: 06:00-22:00","fuels":{"gasoline95":1.715,"diesel":1.895,"dieselB":1.585},"extra":{"saleType":"P","margin":"D","reportingType":"dm","ideess":"12342","idMunicipio":"3572","idProvincia":"23","idCCAA":"01"}}},{"type":"Feature","geometry":{"type":"Point","coordinates":[-3.045167,38.307472]},"properties":{"id":"es-12353","source":"ES","brand":"JAENCOOP ENERGY","address":"CARRETERA J-6230 KM. 3","municipality":"Chiclana de Segura","province":"JAÉN","postalCode":"23264","schedule":"L: 24H","fuels":{"gasoline95":1.715,"diesel":1.895,"dieselB":1.585},"extra":{"saleType":"P","margin":"D","reportingType":"dm","ideess":"12353","idMunicipio":"3524","idProvincia":"23","idCCAA":"01"}}},{"type":"Feature","geometry":{"type":"Point","coordinates":[-3.377444,38.0075]},"properties":{"id":"es-12414","source":"ES","brand":"PETROANDALUS S.A.","address":"CALLE COMENDADOR MESSIAS, 44","municipality":"Úbeda","province":"JAÉN","postalCode":"23400","schedule":"L-D: 24H","fuels":{"gasoline95":1.659,"diesel":1.819,"dieselB":1.477,"adblue":0.76},"extra":{"saleType":"P","margin":"D","reportingType":"dm","ideess":"12414","idMunicipio":"3583","idProvincia":"23","idCCAA":"01"}}},{"type":"Feature","geometry":{"type":"Point","coordinates":[-3.0995,38.106056]},"properties":{"id":"es-12569","source":"ES","brand":"JAENCOOP ENERGY","address":"CARRETERA CORDOBA-VALENCIA KM. 175","municipality":"Villacarrillo","province":"JAÉN","postalCode":"23300","schedule":"L-D: 05:30-23:00","fuels":{"gasoline95":1.715,"diesel":1.895,"dieselB":1.585},"extra":{"saleType":"P","margin":"D","reportingType":"dm","ideess":"12569","idMunicipio":"3586","idProvincia":"23","idCCAA":"01"}}},{"type":"Feature","geometry":{"type":"Point","coordinates":[-3.390194,38.004556]},"properties":{"id":"es-12601","source":"ES","brand":"JAENCOOP","address":"CARRETERA JODAR KM. S/N","municipality":"Úbeda","province":"JAÉN","postalCode":"23400","schedule":"L-V: 06:00-22:00","fuels":{"gasoline95":1.715,"diesel":1.895,"dieselB":1.585,"adblue":0.899},"extra":{"saleType":"P","margin":"D","reportingType":"dm","ideess":"12601","idMunicipio":"3583","idProvincia":"23","idCCAA":"01"}}},{"type":"Feature","geometry":{"type":"Point","coordinates":[-3.077111,38.110111]},"properties":{"id":"es-12609","source":"ES","brand":"JAENCOOP","address":"CARRETERA MOGON KM. S/N","municipality":"Villacarrillo","province":"JAÉN","postalCode":"23300","schedule":"L-D: 06:00-22:00","fuels":{"gasoline95":1.715,"diesel":1.895,"dieselB":1.585,"adblue":0.899},"extra":{"saleType":"P","margin":"D","reportingType":"dm","ideess":"12609","idMunicipio":"3586","idProvincia":"23","idCCAA":"01"}}},{"type":"Feature","geometry":{"type":"Point","coordinates":[-3.6075,38.111667]},"properties":{"id":"es-12629","source":"ES","brand":"S.C.A. SANAGUSTIN","address":"CARRETERA A-312 KM. 2","municipality":"Linares","province":"JAÉN","postalCode":"23700","schedule":"L-V: 07:00-14:00","fuels":{"gasoline95":1.599,"diesel":1.739,"dieselPremium":1.789,"dieselB":1.439},"extra":{"saleType":"P","margin":"D","reportingType":"dm","ideess":"12629","idMunicipio":"3549","idProvincia":"23","idCCAA":"01"}}},{"type":"Feature","geometry":{"type":"Point","coordinates":[-3.741778,38.799389]},"properties":{"id":"es-12709","source":"ES","brand":"SOCIEDAD COOPERATIVA AGRARIA EL SANTO CRISTO S. COOP. DE C-LM","address":"CALLE ALMAGRO, 3","municipality":"Granátula de Calatrava","province":"CIUDAD REAL","postalCode":"13360","schedule":"L-D: 24H","fuels":{"diesel":1.82,"dieselB":1.42},"extra":{"saleType":"P","margin":"D","reportingType":"dm","ideess":"12709","idMunicipio":"1986","idProvincia":"13","idCCAA":"07"}}},{"type":"Feature","geometry":{"type":"Point","coordinates":[-3.437139,38.686944]},"properties":{"id":"es-12909","source":"ES","brand":"LA PARÁ ROCIERA","address":"CARRETERA N - IV KM. 210","municipality":"Valdepeñas","province":"CIUDAD REAL","postalCode":"13300","schedule":"L-D: 24H","fuels":{"gasoline95":1.739,"diesel":1.879},"extra":{"saleType":"P","margin":"N","reportingType":"dm","ideess":"12909","idMunicipio":"2031","idProvincia":"13","idCCAA":"07"}}},{"type":"Feature","geometry":{"type":"Point","coordinates":[-3.259361,38.939333]},"properties":{"id":"es-13119","source":"ES","brand":"GALANES SOCIEDAD COOPERATIVA DE CLM","address":"POLIGONO MAQUINA DE VAPOR, 1","municipality":"Solana (La)","province":"CIUDAD REAL","postalCode":"13240","schedule":"L-D: 24H","fuels":{"diesel":1.739,"lpg":0.9},"extra":{"saleType":"P","margin":"I","reportingType":"dm","ideess":"13119","idMunicipio":"2023","idProvincia":"13","idCCAA":"07"}}},{"type":"Feature","geometry":{"type":"Point","coordinates":[-3.369639,38.026917]},"properties":{"id":"es-13188","source":"ES","brand":"DIESELPRIX","address":"CALLE CARRETERA DE VILCHES, 107","municipality":"Úbeda","province":"JAÉN","postalCode":"23400","schedule":"L-D: 24H","fuels":{"gasoline95":1.655,"diesel":1.825},"extra":{"saleType":"P","margin":"I","reportingType":"dm","ideess":"13188","idMunicipio":"3583","idProvincia":"23","idCCAA":"01"}}},{"type":"Feature","geometry":{"type":"Point","coordinates":[-3.033417,38.155556]},"properties":{"id":"es-13211","source":"ES","brand":"JAENCOOP","address":"CALLE MOLINOS, 18","municipality":"Iznatoraf","province":"JAÉN","postalCode":"23338","schedule":"L-D: 24H","fuels":{"gasoline95":1.715,"diesel":1.895,"dieselB":1.585},"extra":{"saleType":"P","margin":"D","reportingType":"dm","ideess":"13211","idMunicipio":"3541","idProvincia":"23","idCCAA":"01"}}},{"type":"Feature","geometry":{"type":"Point","coordinates":[-3.136917,38.260472]},"properties":{"id":"es-13268","source":"ES","brand":"Q8 CASTELLAR","address":"CARRETERA A-312 KM. 53","municipality":"Castellar","province":"JAÉN","postalCode":"23260","schedule":"L-D: 24H","fuels":{"gasoline95":1.75,"diesel":1.948,"dieselB":1.49},"extra":{"saleType":"P","margin":"D","reportingType":"dm","ideess":"13268","idMunicipio":"3520","idProvincia":"23","idCCAA":"01"}}},{"type":"Feature","geometry":{"type":"Point","coordinates":[-3.412944,38.763639]},"properties":{"id":"es-13424","source":"ES","brand":"TENGO!!","address":"CALLE SUIZA, 1","municipality":"Valdepeñas","province":"CIUDAD REAL","postalCode":"13300","schedule":"L-D: 24H","fuels":{"diesel":1.785,"dieselRenewable":1.885,"adblue":0.7},"extra":{"saleType":"P","margin":"D","reportingType":"dm","ideess":"13424","idMunicipio":"2031","idProvincia":"13","idCCAA":"07"}}},{"type":"Feature","geometry":{"type":"Point","coordinates":[-3.896333,38.965667]},"properties":{"id":"es-13649","source":"ES","brand":"GASOLINERAS HT","address":"CARRETERA VALDEPEÑAS KM. 12","municipality":"Miguelturra","province":"CIUDAD REAL","postalCode":"13170","schedule":"L-D: 24H","fuels":{"gasoline95":1.509,"diesel":1.728},"extra":{"saleType":"P","margin":"D","reportingType":"dm","ideess":"13649","idMunicipio":"1998","idProvincia":"13","idCCAA":"07"}}},{"type":"Feature","geometry":{"type":"Point","coordinates":[-3.393889,38.770972]},"properties":{"id":"es-13659","source":"ES","brand":"HAFESA OIL","address":"AVENIDA DE LOS ESTUDIANTES, 70","municipality":"Valdepeñas","province":"CIUDAD REAL","postalCode":"13300","schedule":"L-D: 24H","fuels":{"gasoline95":1.679,"diesel":1.789},"extra":{"saleType":"P","margin":"D","reportingType":"dm","ideess":"13659","idMunicipio":"2031","idProvincia":"13","idCCAA":"07"}}},{"type":"Feature","geometry":{"type":"Point","coordinates":[-3.723167,38.021889]},"properties":{"id":"es-13701","source":"ES","brand":"JAENCOOP ENERGY","address":"CARRETERA DE LINARES KM. 1","municipality":"Jabalquinto","province":"JAÉN","postalCode":"23629","schedule":"L-D: 06:00-18:00","fuels":{"gasoline95":1.715,"diesel":1.895,"dieselB":1.585},"extra":{"saleType":"P","margin":"D","reportingType":"dm","ideess":"13701","idMunicipio":"3542","idProvincia":"23","idCCAA":"01"}}},{"type":"Feature","geometry":{"type":"Point","coordinates":[-3.250639,38.944139]},"properties":{"id":"es-13823","source":"ES","brand":"PLENERGY","address":"CALLE COOPERATIVA, 9","municipality":"Solana (La)","province":"CIUDAD REAL","postalCode":"13240","schedule":"L-D: 24H","fuels":{"gasoline95":1.569,"diesel":1.729},"extra":{"saleType":"P","margin":"D","reportingType":"dm","ideess":"13823","idMunicipio":"2023","idProvincia":"13","idCCAA":"07"}}},{"type":"Feature","geometry":{"type":"Point","coordinates":[-3.612083,38.267528]},"properties":{"id":"es-13961","source":"ES","brand":"GASOLWIN","address":"CARRETERA MADRID-CADIZ, N-4 KM. 269,2","municipality":"Carolina (La)","province":"JAÉN","postalCode":"23200","schedule":"L-D: 24H","fuels":{"gasoline95":1.669,"diesel":1.839,"lpg":0.989},"extra":{"saleType":"P","margin":"D","reportingType":"dm","ideess":"13961","idMunicipio":"3519","idProvincia":"23","idCCAA":"01"}}},{"type":"Feature","geometry":{"type":"Point","coordinates":[-3.640361,38.085167]},"properties":{"id":"es-13995","source":"ES","brand":"MLC","address":"CALLE JUAN DIEGO DE DIOS BARRERO, 30","municipality":"Linares","province":"JAÉN","postalCode":"23700","schedule":"L-D: 06:00-00:00","fuels":{"gasoline95":1.799,"gasoline98":1.899,"diesel":1.979,"dieselPremium":2.049,"dieselB":1.579,"adblue":0.899},"extra":{"saleType":"P","margin":"D","reportingType":"dm","ideess":"13995","idMunicipio":"3549","idProvincia":"23","idCCAA":"01"}}},{"type":"Feature","geometry":{"type":"Point","coordinates":[-3.479194,38.002194]},"properties":{"id":"es-14052","source":"ES","brand":"BP BAEZA-SAN GONZALO","address":"CARRETERA 326 KM. 12,1","municipality":"Baeza","province":"JAÉN","postalCode":"23440","schedule":"L-D: 07:00-23:00","fuels":{"gasoline95":1.779,"gasoline98":1.919,"diesel":1.969,"dieselPremium":2.059,"dieselB":1.609,"lpg":0.945,"adblue":0.675},"extra":{"saleType":"P","margin":"D","reportingType":"dm","ideess":"14052","idMunicipio":"3505","idProvincia":"23","idCCAA":"01"}}},{"type":"Feature","geometry":{"type":"Point","coordinates":[-3.050972,38.24]},"properties":{"id":"es-14067","source":"ES","brand":"JAENCOOP ENERGY","address":"AVENIDA ANDALUCIA, 0","municipality":"Sorihuela del Guadalimar","province":"JAÉN","postalCode":"23270","schedule":"L-D: 24H","fuels":{"gasoline95":1.715,"diesel":1.895,"dieselB":1.585},"extra":{"saleType":"P","margin":"D","reportingType":"dm","ideess":"14067","idMunicipio":"3576","idProvincia":"23","idCCAA":"01"}}},{"type":"Feature","geometry":{"type":"Point","coordinates":[-3.353639,38.98625]},"properties":{"id":"es-14282","source":"ES","brand":"RODEROIL","address":"CARRETERA N 430 KM. 366,1","municipality":"Membrilla","province":"CIUDAD REAL","postalCode":"13230","schedule":"L-D: 24H","fuels":{"gasoline95":1.587,"diesel":1.737,"dieselB":1.417,"lpg":0.907},"extra":{"saleType":"P","margin":"D","reportingType":"dm","ideess":"14282","idMunicipio":"1996","idProvincia":"13","idCCAA":"07"}}},{"type":"Feature","geometry":{"type":"Point","coordinates":[-3.452778,38.644833]},"properties":{"id":"es-14357","source":"ES","brand":"CH2M","address":"CALLE PEDRO VARELA, S/N","municipality":"Santa Cruz de Mudela","province":"CIUDAD REAL","postalCode":"13730","schedule":"L-D: 24H","fuels":{"diesel":1.759},"extra":{"saleType":"P","margin":"D","reportingType":"dm","ideess":"14357","idMunicipio":"2021","idProvincia":"13","idCCAA":"07"}}},{"type":"Feature","geometry":{"type":"Point","coordinates":[-3.304417,38.03175]},"properties":{"id":"es-14366","source":"ES","brand":"E S PETROANDALUS","address":"CALLE SEVILLA, 22","municipality":"Torreperogil","province":"JAÉN","postalCode":"23320","schedule":"L-D: 24H","fuels":{"gasoline95":1.659,"diesel":1.819,"dieselB":1.477,"adblue":0.76},"extra":{"saleType":"P","margin":"D","reportingType":"dm","ideess":"14366","idMunicipio":"3580","idProvincia":"23","idCCAA":"01"}}},{"type":"Feature","geometry":{"type":"Point","coordinates":[-3.782861,38.090306]},"properties":{"id":"es-14432","source":"ES","brand":"URBAN OIL","address":"CARRETERA ANTIGUA CARRETERA MADRID - CADIZ , KM - 84 KM. 84","municipality":"Bailén","province":"JAÉN","postalCode":"23710","schedule":"L-D: 24H","fuels":{"gasoline95":1.689,"diesel":1.779},"extra":{"saleType":"P","margin":"D","reportingType":"dm","ideess":"14432","idMunicipio":"3506","idProvincia":"23","idCCAA":"01"}}},{"type":"Feature","geometry":{"type":"Point","coordinates":[-3.176222,38.259944]},"properties":{"id":"es-14475","source":"ES","brand":"SEGUROIL SLU","address":"POLIGONO POL. IND.  EL CONDADO. C/ SORIHUELA, S/N","municipality":"Santisteban del Puerto","province":"JAÉN","postalCode":"23250","schedule":"L-D: 05:30-10:30","fuels":{"gasoline95":1.65,"diesel":1.8},"extra":{"saleType":"P","margin":"D","reportingType":"dm","ideess":"14475","idMunicipio":"3572","idProvincia":"23","idCCAA":"01"}}},{"type":"Feature","geometry":{"type":"Point","coordinates":[-3.909472,38.981667]},"properties":{"id":"es-14482","source":"ES","brand":"EE SS PUENTE DEL AVE","address":"CALLE EINSTEIN, 39","municipality":"Ciudad Real","province":"CIUDAD REAL","postalCode":"13005","schedule":"L-D: 24H","fuels":{"gasoline95":1.549,"diesel":1.719},"extra":{"saleType":"P","margin":"D","reportingType":"dm","ideess":"14482","idMunicipio":"1976","idProvincia":"13","idCCAA":"07"}}},{"type":"Feature","geometry":{"type":"Point","coordinates":[-3.715222,38.895444]},"properties":{"id":"es-14515","source":"ES","brand":"TEB  24/7","address":"CALLE ADOLFO SUAREZ, 5","municipality":"Almagro","province":"CIUDAD REAL","postalCode":"13270","schedule":"L-D: 24H","fuels":{"gasoline95":1.569,"diesel":1.769},"extra":{"saleType":"P","margin":"I","reportingType":"dm","ideess":"14515","idMunicipio":"1953","idProvincia":"13","idCCAA":"07"}}},{"type":"Feature","geometry":{"type":"Point","coordinates":[-3.931917,38.974389]},"properties":{"id":"es-14619","source":"ES","brand":"URBAN OIL","address":"CALLE VILLARUBIA DE LOS OJOS, 18","municipality":"Ciudad Real","province":"CIUDAD REAL","postalCode":"13005","schedule":"L-D: 24H","fuels":{"gasoline95":1.589,"diesel":1.739},"extra":{"saleType":"P","margin":"D","reportingType":"dm","ideess":"14619","idMunicipio":"1976","idProvincia":"13","idCCAA":"07"}}},{"type":"Feature","geometry":{"type":"Point","coordinates":[-3.39175,38.883583]},"properties":{"id":"es-14621","source":"ES","brand":"MLC","address":"AUTOVIA A-4 KM. 187","municipality":"Valdepeñas","province":"CIUDAD REAL","postalCode":"13310","schedule":"L-D: 24H","fuels":{"gasoline95":1.789,"gasoline98":1.959,"diesel":1.929,"dieselPremium":1.999,"dieselB":1.659,"lpg":0.999,"adblue":0.899},"extra":{"saleType":"P","margin":"I","reportingType":"dm","ideess":"14621","idMunicipio":"2031","idProvincia":"13","idCCAA":"07"}}},{"type":"Feature","geometry":{"type":"Point","coordinates":[-3.123722,38.324583]},"properties":{"id":"es-14639","source":"ES","brand":"ESTACIÓN DE SERVICIO ACEITES ALDEAHERMOSA","address":"CARRETERA CASTELLAR-ALDEAHERMOSA KM. 0,5","municipality":"Montizón","province":"JAÉN","postalCode":"23267","schedule":"L-D: 24H","fuels":{"gasoline95":1.709,"diesel":1.839,"dieselB":1.429},"extra":{"saleType":"P","margin":"D","reportingType":"dm","ideess":"14639","idMunicipio":"3556","idProvincia":"23","idCCAA":"01"}}},{"type":"Feature","geometry":{"type":"Point","coordinates":[-3.931194,38.975028]},"properties":{"id":"es-14650","source":"ES","brand":"NATURGY ES CIUDAD REAL","address":"CALLE VILLARRUBIA DE LOS OJOS, 11","municipality":"Ciudad Real","province":"CIUDAD REAL","postalCode":"13005","schedule":"L-D: 24H","fuels":{"cng":1.646},"extra":{"saleType":"P","margin":"D","reportingType":"dm","ideess":"14650","idMunicipio":"1976","idProvincia":"13","idCCAA":"07"}}},{"type":"Feature","geometry":{"type":"Point","coordinates":[-3.912889,38.987722]},"properties":{"id":"es-14651","source":"ES","brand":"SIS CARBURANTES","address":"CARRETERA CARRION KM. 309","municipality":"Ciudad Real","province":"CIUDAD REAL","postalCode":"13005","schedule":"L-D: 24H","fuels":{"gasoline95":1.589,"gasoline95Premium":1.689,"diesel":1.759,"dieselPremium":1.859},"extra":{"saleType":"P","margin":"D","reportingType":"dm","ideess":"14651","idMunicipio":"1976","idProvincia":"13","idCCAA":"07"}}},{"type":"Feature","geometry":{"type":"Point","coordinates":[-3.648417,38.090556]},"properties":{"id":"es-14658","source":"ES","brand":"GASOLINERAS HF","address":"AVENIDA SAN CRISTOBAL, SN","municipality":"Linares","province":"JAÉN","postalCode":"23700","schedule":"L-D: 24H","fuels":{"gasoline95":1.655,"diesel":1.779},"extra":{"saleType":"P","margin":"D","reportingType":"dm","ideess":"14658","idMunicipio":"3549","idProvincia":"23","idCCAA":"01"}}},{"type":"Feature","geometry":{"type":"Point","coordinates":[-3.723639,38.142917]},"properties":{"id":"es-14875","source":"ES","brand":"MOLGAS","address":"POLIGONO POLÍGONO INDUSTRIAL DEL GUADIEL, 288","municipality":"Guarromán","province":"JAÉN","postalCode":"23210","schedule":"L-D: 24H","fuels":{"cng":1.739,"lng":1.659},"extra":{"saleType":"P","margin":"D","reportingType":"dm","ideess":"14875","idMunicipio":"3533","idProvincia":"23","idCCAA":"01"}}},{"type":"Feature","geometry":{"type":"Point","coordinates":[-3.382972,38.018639]},"properties":{"id":"es-15179","source":"ES","brand":"PLENERGY","address":"AVENIDA CIUDAD DE LINARES, 25","municipality":"Úbeda","province":"JAÉN","postalCode":"23400","schedule":"L-D: 24H","fuels":{"gasoline95":1.629,"diesel":1.789},"extra":{"saleType":"P","margin":"D","reportingType":"dm","ideess":"15179","idMunicipio":"3583","idProvincia":"23","idCCAA":"01"}}},{"type":"Feature","geometry":{"type":"Point","coordinates":[-3.224694,38.941472]},"properties":{"id":"es-15197","source":"ES","brand":"CARBURANTES LOS SEÑORITOS SL","address":"RONDA DE LOS EMIGRANTES, SN","municipality":"Solana (La)","province":"CIUDAD REAL","postalCode":"13240","schedule":"L-D: 24H","fuels":{"gasoline95":1.639,"diesel":1.779,"dieselB":1.439},"extra":{"saleType":"P","margin":"D","reportingType":"dm","ideess":"15197","idMunicipio":"2023","idProvincia":"13","idCCAA":"07"}}},{"type":"Feature","geometry":{"type":"Point","coordinates":[-3.361917,38.763222]},"properties":{"id":"es-15211","source":"ES","brand":"MELLADO","address":"CARRETERA CM 412 KM. 92","municipality":"Valdepeñas","province":"CIUDAD REAL","postalCode":"13300","schedule":"L-D: 06:00-00:00","fuels":{"gasoline95":1.759,"diesel":1.979},"extra":{"saleType":"P","margin":"I","reportingType":"dm","ideess":"15211","idMunicipio":"2031","idProvincia":"13","idCCAA":"07"}}},{"type":"Feature","geometry":{"type":"Point","coordinates":[-3.841528,38.912667]},"properties":{"id":"es-15281","source":"ES","brand":"COOPERATIVA NTRA SRA DE LOS SANTOS","address":"CALLE ALARCOS, 64","municipality":"Pozuelo de Calatrava","province":"CIUDAD REAL","postalCode":"13179","schedule":"L-D: 07:00-22:00","fuels":{"gasoline95":1.579,"diesel":1.759,"dieselB":1.409},"extra":{"saleType":"P","margin":"D","reportingType":"dm","ideess":"15281","idMunicipio":"2008","idProvincia":"13","idCCAA":"07"}}},{"type":"Feature","geometry":{"type":"Point","coordinates":[-3.467944,38.631389]},"properties":{"id":"es-15296","source":"ES","brand":"TRANSLOGISTICA MARIN SA","address":"CARRETERA NACIONAL IV KM. 217,5","municipality":"Santa Cruz de Mudela","province":"CIUDAD REAL","postalCode":"13730","schedule":"L-D: 24H","fuels":{"diesel":1.763,"adblue":0.7},"extra":{"saleType":"P","margin":"D","reportingType":"dm","ideess":"15296","idMunicipio":"2021","idProvincia":"13","idCCAA":"07"}}},{"type":"Feature","geometry":{"type":"Point","coordinates":[-3.387889,38.767556]},"properties":{"id":"es-15323","source":"ES","brand":"E.E.S.S. MIRA","address":"AVENIDA GREGORIO PRIETO, 27","municipality":"Valdepeñas","province":"CIUDAD REAL","postalCode":"13300","schedule":"L-S: 06:00-22:00","fuels":{"gasoline95":1.799,"diesel":1.949,"dieselB":1.659},"extra":{"saleType":"P","margin":"I","reportingType":"dm","ideess":"15323","idMunicipio":"2031","idProvincia":"13","idCCAA":"07"}}},{"type":"Feature","geometry":{"type":"Point","coordinates":[-3.389194,38.759528]},"properties":{"id":"es-15392","source":"ES","brand":"SIS CARBURANTES","address":"CALLE CRISTO, 72","municipality":"Valdepeñas","province":"CIUDAD REAL","postalCode":"13300","schedule":"L: 24H","fuels":{"diesel":1.789},"extra":{"saleType":"P","margin":"N","reportingType":"dm","ideess":"15392","idMunicipio":"2031","idProvincia":"13","idCCAA":"07"}}},{"type":"Feature","geometry":{"type":"Point","coordinates":[-3.32425,38.186556]},"properties":{"id":"es-15430","source":"ES","brand":"MEROIL","address":"CARRETERA LINARES KM. 32,750","municipality":"Navas de San Juan","province":"JAÉN","postalCode":"23240","schedule":"L-S: 07:00-22:00","fuels":{"gasoline95":1.719,"diesel":1.889,"dieselB":1.675},"extra":{"saleType":"P","margin":"D","reportingType":"dm","ideess":"15430","idMunicipio":"3557","idProvincia":"23","idCCAA":"01"}}},{"type":"Feature","geometry":{"type":"Point","coordinates":[-3.374417,38.760778]},"properties":{"id":"es-15447","source":"ES","brand":"E.S. MIRA","address":"CALLE VERACRUZ, 90","municipality":"Valdepeñas","province":"CIUDAD REAL","postalCode":"13300","schedule":"L-S: 06:00-10:00","fuels":{"gasoline95":1.799,"diesel":1.949,"dieselB":1.659},"extra":{"saleType":"P","margin":"D","reportingType":"dm","ideess":"15447","idMunicipio":"2031","idProvincia":"13","idCCAA":"07"}}},{"type":"Feature","geometry":{"type":"Point","coordinates":[-3.732583,38.891306]},"properties":{"id":"es-15496","source":"ES","brand":"ENERGIAS AF","address":"CALLE ISAAC PERAL, 13","municipality":"Almagro","province":"CIUDAD REAL","postalCode":"13260","schedule":"L-D: 24H","fuels":{"gasoline95":1.579,"diesel":1.779},"extra":{"saleType":"P","margin":"I","reportingType":"dm","ideess":"15496","idMunicipio":"1953","idProvincia":"13","idCCAA":"07"}}},{"type":"Feature","geometry":{"type":"Point","coordinates":[-3.932167,38.973556]},"properties":{"id":"es-15513","source":"ES","brand":"PLENERGY","address":"CALLE TOMELLOSO, 12","municipality":"Ciudad Real","province":"CIUDAD REAL","postalCode":"13005","schedule":"L-D: 24H","fuels":{"gasoline95":1.579,"diesel":1.739},"extra":{"saleType":"P","margin":"D","reportingType":"dm","ideess":"15513","idMunicipio":"1976","idProvincia":"13","idCCAA":"07"}}},{"type":"Feature","geometry":{"type":"Point","coordinates":[-3.456861,38.663278]},"properties":{"id":"es-15583","source":"ES","brand":"HAM","address":"POLIGONO CAMPO DE AVIACIÓN, 1","municipality":"Santa Cruz de Mudela","province":"CIUDAD REAL","postalCode":"13730","schedule":"L-D: 24H","fuels":{"cng":1.644,"lng":1.599,"bioCng":1.624,"bioLng":1.569},"extra":{"saleType":"P","margin":"D","reportingType":"dm","ideess":"15583","idMunicipio":"2021","idProvincia":"13","idCCAA":"07"}}},{"type":"Feature","geometry":{"type":"Point","coordinates":[-3.891583,38.993667]},"properties":{"id":"es-15648","source":"ES","brand":"BALTRAN S.A","address":"CARRETERA CARRION KM. S/N","municipality":"Ciudad Real","province":"CIUDAD REAL","postalCode":"13005","schedule":"L-D: 24H","fuels":{"diesel":1.84},"extra":{"saleType":"P","margin":"N","reportingType":"dm","ideess":"15648","idMunicipio":"1976","idProvincia":"13","idCCAA":"07"}}},{"type":"Feature","geometry":{"type":"Point","coordinates":[-3.653778,38.897083]},"properties":{"id":"es-15672","source":"ES","brand":"COOVIMAG","address":"SECTOR 5 LOS CALARES, 1","municipality":"Bolaños de Calatrava","province":"CIUDAD REAL","postalCode":"13260","schedule":"L: 24H","fuels":{"gasoline95":1.567,"diesel":1.759,"dieselB":1.407,"lpg":1.078},"extra":{"saleType":"P","margin":"D","reportingType":"dm","ideess":"15672","idMunicipio":"1964","idProvincia":"13","idCCAA":"07"}}},{"type":"Feature","geometry":{"type":"Point","coordinates":[-3.578889,38.824194]},"properties":{"id":"es-15689","source":"ES","brand":"SDAD. COOP. SANTIAGO APOSTOL","address":"CALLE C/ DIMAS MARTÍN C/V A C/ CALDERON, 2","municipality":"Moral de Calatrava","province":"CIUDAD REAL","postalCode":"13350","schedule":"L-D: 24H","fuels":{"gasoline95":1.609,"diesel":1.799,"dieselB":1.399},"extra":{"saleType":"P","margin":"D","reportingType":"dm","ideess":"15689","idMunicipio":"2000","idProvincia":"13","idCCAA":"07"}}},{"type":"Feature","geometry":{"type":"Point","coordinates":[-3.396389,38.82475]},"properties":{"id":"es-15946","source":"ES","brand":"MOLGAS","address":"AUTOPISTA A4 KM. 193,6","municipality":"Valdepeñas","province":"CIUDAD REAL","postalCode":"13300","schedule":"L-D: 00:00-23:59","fuels":{"lng":1.649},"extra":{"saleType":"P","margin":"D","reportingType":"dm","ideess":"15946","idMunicipio":"2031","idProvincia":"13","idCCAA":"07"}}},{"type":"Feature","geometry":{"type":"Point","coordinates":[-3.984944,38.043611]},"properties":{"id":"es-15953","source":"ES","brand":"MOLGAS","address":"AUTOPISTA 4A KM. 316,7","municipality":"Andújar","province":"JAÉN","postalCode":"23740","schedule":"L-D: 00:00-23:59","fuels":{"lng":1.649},"extra":{"saleType":"P","margin":"D","reportingType":"dm","ideess":"15953","idMunicipio":"3500","idProvincia":"23","idCCAA":"01"}}},{"type":"Feature","geometry":{"type":"Point","coordinates":[-3.914222,38.987528]},"properties":{"id":"es-15963","source":"ES","brand":"PLENERGY","address":"CARRETERA DE CARRION KM. 20","municipality":"Ciudad Real","province":"CIUDAD REAL","postalCode":"13005","schedule":"L-D: 24H","fuels":{"gasoline95":1.569,"diesel":1.739},"extra":{"saleType":"P","margin":"D","reportingType":"dm","ideess":"15963","idMunicipio":"1976","idProvincia":"13","idCCAA":"07"}}},{"type":"Feature","geometry":{"type":"Point","coordinates":[-3.00625,38.740806]},"properties":{"id":"es-16050","source":"ES","brand":"A&A","address":"CALLE PIO XII,93, 93","municipality":"Villanueva de los Infantes","province":"CIUDAD REAL","postalCode":"13320","schedule":"L: 24H","fuels":{"gasoline95":1.639,"diesel":1.788,"dieselPremium":1.849},"extra":{"saleType":"P","margin":"N","reportingType":"dm","ideess":"16050","idMunicipio":"2037","idProvincia":"13","idCCAA":"07"}}},{"type":"Feature","geometry":{"type":"Point","coordinates":[-3.362722,38.996139]},"properties":{"id":"es-16128","source":"ES","brand":"BALLENOIL","address":"CALLE DUQUE DE AHUMADA, 13","municipality":"Manzanares","province":"CIUDAD REAL","postalCode":"13200","schedule":"L-D: 24H","fuels":{"gasoline95":1.579,"diesel":1.769,"dieselPremium":1.779},"extra":{"saleType":"P","margin":"N","reportingType":"OM","ideess":"16128","idMunicipio":"1995","idProvincia":"13","idCCAA":"07"}}},{"type":"Feature","geometry":{"type":"Point","coordinates":[-3.652361,38.091944]},"properties":{"id":"es-16151","source":"ES","brand":"BALLENOIL","address":"CARRETERA CTRA. N-322 CORDOBA-VALENCIA KM. 6","municipality":"Linares","province":"JAÉN","postalCode":"23700","schedule":"L-D: 24H","fuels":{"gasoline95":1.549,"diesel":1.809,"dieselPremium":1.819},"extra":{"saleType":"P","margin":"N","reportingType":"OM","ideess":"16151","idMunicipio":"3549","idProvincia":"23","idCCAA":"01"}}},{"type":"Feature","geometry":{"type":"Point","coordinates":[-3.393222,38.749111]},"properties":{"id":"es-16261","source":"ES","brand":"BALLENOIL","address":"AVENIDA DEL SUR, SN","municipality":"Valdepeñas","province":"CIUDAD REAL","postalCode":"13300","schedule":"L-D: 24H","fuels":{"gasoline95":1.706,"gasoline95Premium":1.726,"diesel":1.826,"dieselPremium":1.846},"extra":{"saleType":"P","margin":"N","reportingType":"OM","ideess":"16261","idMunicipio":"2031","idProvincia":"13","idCCAA":"07"}}},{"type":"Feature","geometry":{"type":"Point","coordinates":[-3.718389,38.150806]},"properties":{"id":"es-16283","source":"ES","brand":"MOEVE","address":"AVENIDA LINARES - POLIGONO INDUSTRIAL GUADIEL, 168","municipality":"Guarromán","province":"JAÉN","postalCode":"23210","schedule":"L-D: 00:00-23:59","fuels":{"diesel":1.88,"dieselB":1.794,"dieselRenewable":1.964},"extra":{"saleType":"P","margin":"D","reportingType":"OM","ideess":"16283","idMunicipio":"3533","idProvincia":"23","idCCAA":"01"}}},{"type":"Feature","geometry":{"type":"Point","coordinates":[-3.771528,38.090722]},"properties":{"id":"es-16371","source":"ES","brand":"PETROPRIX","address":"CARRETERA MADRID-CADIZ KM. 60","municipality":"Bailén","province":"JAÉN","postalCode":"23710","schedule":"L-D: 24H","fuels":{"gasoline95":1.679,"diesel":1.769},"extra":{"saleType":"P","margin":"D","reportingType":"dm","ideess":"16371","idMunicipio":"3506","idProvincia":"23","idCCAA":"01"}}},{"type":"Feature","geometry":{"type":"Point","coordinates":[-3.495,38.515278]},"properties":{"id":"es-16429","source":"ES","brand":"BEROIL","address":"CALLE DOCTOR PATRICIO FERNANDEZ, 2","municipality":"Almuradiel","province":"CIUDAD REAL","postalCode":"13760","schedule":"L-D: 24H","fuels":{"gasoline95":1.649,"diesel":1.749,"adblue":0.6},"extra":{"saleType":"P","margin":"D","reportingType":"dm","ideess":"16429","idMunicipio":"1956","idProvincia":"13","idCCAA":"07"}}},{"type":"Feature","geometry":{"type":"Point","coordinates":[-3.919306,38.977194]},"properties":{"id":"es-16478","source":"ES","brand":"BALLENOIL","address":"AVENIDA PARQUE DE CABAÑEROS, 1","municipality":"Ciudad Real","province":"CIUDAD REAL","postalCode":"13002","schedule":"L-D: 24H","fuels":{"gasoline95":1.579,"gasoline95Premium":1.589,"diesel":1.749,"dieselPremium":1.759},"extra":{"saleType":"P","margin":"N","reportingType":"OM","ideess":"16478","idMunicipio":"1976","idProvincia":"13","idCCAA":"07"}}},{"type":"Feature","geometry":{"type":"Point","coordinates":[-3.655967,38.897112]},"properties":{"id":"es-4365","source":"ES","brand":"CARBURANTES BOLAÑOS S.L.","address":"CARDENAL CISNEROS, S/N","municipality":"Bolaños de Calatrava","province":"CIUDAD REAL","postalCode":"13260","schedule":"L: 07:00-21:00","fuels":{"gasoline95":1.679,"diesel":1.809,"dieselB":1.415},"extra":{"saleType":"P","margin":"N","reportingType":"dm","ideess":"4365","idMunicipio":"1964","idProvincia":"13","idCCAA":"07"}}},{"type":"Feature","geometry":{"type":"Point","coordinates":[-3.937111,38.992333]},"properties":{"id":"es-4380","source":"ES","brand":"E.LECLERC","address":"CARRETERA DE PORZUNA KM. ","municipality":"Ciudad Real","province":"CIUDAD REAL","postalCode":"13002","schedule":"L-D: 24H","fuels":{"gasoline95":1.539,"gasoline98":1.829,"diesel":1.709},"extra":{"saleType":"P","margin":"D","reportingType":"dm","ideess":"4380","idMunicipio":"1976","idProvincia":"13","idCCAA":"07"}}},{"type":"Feature","geometry":{"type":"Point","coordinates":[-3.9145,38.986]},"properties":{"id":"es-4427","source":"ES","brand":"CARREFOUR","address":"AVENIDA EUROPA, 45","municipality":"Ciudad Real","province":"CIUDAD REAL","postalCode":"13004","schedule":"L-S: 08:00-22:00; D: 09:00-21:00","fuels":{"gasoline95":1.699,"gasoline98":1.839,"diesel":1.869,"dieselPremium":1.909},"extra":{"saleType":"P","margin":"N","reportingType":"dm","ideess":"4427","idMunicipio":"1976","idProvincia":"13","idCCAA":"07"}}},{"type":"Feature","geometry":{"type":"Point","coordinates":[-3.472944,38.590194]},"properties":{"id":"es-4817","source":"ES","brand":"MOEVE","address":"AUTOVIA ANDALUCIA KM. 222,5","municipality":"Santa Cruz de Mudela","province":"CIUDAD REAL","postalCode":"13730","schedule":"L-D: 24H","fuels":{"gasoline95":1.789,"gasoline98":1.925,"diesel":1.945,"dieselPremium":2.039,"adblue":0.98},"extra":{"saleType":"P","margin":"D","reportingType":"dm","ideess":"4817","idMunicipio":"2021","idProvincia":"13","idCCAA":"07"}}},{"type":"Feature","geometry":{"type":"Point","coordinates":[-3.436778,38.686917]},"properties":{"id":"es-4819","source":"ES","brand":"GALP","address":"CTRA. N-IV, P.K. 210","municipality":"Valdepeñas","province":"CIUDAD REAL","postalCode":"13300","schedule":"L-D: 24H","fuels":{"gasoline95":1.769,"gasoline98":1.879,"diesel":1.929,"dieselPremium":2.019,"adblue":0.799},"extra":{"saleType":"P","margin":"D","reportingType":"OM","ideess":"4819","idMunicipio":"2031","idProvincia":"13","idCCAA":"07"}}},{"type":"Feature","geometry":{"type":"Point","coordinates":[-3.567944,38.824611]},"properties":{"id":"es-4834","source":"ES","brand":"REPSOL","address":"CARRETERA CM-412 KM. 69,92","municipality":"Moral de Calatrava","province":"CIUDAD REAL","postalCode":"13350","schedule":"L-D: 06:00-22:00","fuels":{"gasoline95":1.755,"gasoline95Premium":1.825,"gasoline98":1.925,"diesel":1.919,"dieselRenewable":2.039},"extra":{"saleType":"P","margin":"I","reportingType":"OM","ideess":"4834","idMunicipio":"2000","idProvincia":"13","idCCAA":"07"}}},{"type":"Feature","geometry":{"type":"Point","coordinates":[-3.908611,38.62325]},"properties":{"id":"es-4838","source":"ES","brand":"E.S. VADILLO","address":"CR CR-504, 18,2","municipality":"Villanueva de San Carlos","province":"CIUDAD REAL","postalCode":"13379","schedule":"L: 07:00-20:00","fuels":{"gasoline95":1.775,"diesel":1.965,"dieselB":1.665},"extra":{"saleType":"P","margin":"D","reportingType":"dm","ideess":"4838","idMunicipio":"2038","idProvincia":"13","idCCAA":"07"}}},{"type":"Feature","geometry":{"type":"Point","coordinates":[-3.885472,38.956111]},"properties":{"id":"es-4844","source":"ES","brand":"CEPSA","address":"CARRETERA CTRA VALDEPEÑAS-CIUDAD REAL KM. 4700","municipality":"Miguelturra","province":"CIUDAD REAL","postalCode":"13170","schedule":"L-D: 07:00-23:00","fuels":{"gasoline95":1.759,"gasoline95Premium":1.849,"diesel":1.929,"dieselPremium":1.999,"adblue":0.969},"extra":{"saleType":"P","margin":"D","reportingType":"dm","ideess":"4844","idMunicipio":"1998","idProvincia":"13","idCCAA":"07"}}},{"type":"Feature","geometry":{"type":"Point","coordinates":[-3.383194,38.957472]},"properties":{"id":"es-4847","source":"ES","brand":"MOEVE","address":"AUTOVIA CARRETERA GENERAL DE ANDALUCIA KM. 178,800","municipality":"Membrilla","province":"CIUDAD REAL","postalCode":"13230","schedule":"L-D: 24H","fuels":{"gasoline95":1.784,"gasoline95Premium":1.844,"diesel":1.924,"dieselPremium":1.984},"extra":{"saleType":"P","margin":"I","reportingType":"dm","ideess":"4847","idMunicipio":"1996","idProvincia":"13","idCCAA":"07"}}},{"type":"Feature","geometry":{"type":"Point","coordinates":[-3.925472,38.97075]},"properties":{"id":"es-4850","source":"ES","brand":"REPSOL","address":"CR CR-514, 0,3","municipality":"Ciudad Real","province":"CIUDAD REAL","postalCode":"13005","schedule":"L-D: 06:30-22:30","fuels":{"gasoline95":1.755,"gasoline98":1.925,"diesel":1.925,"dieselRenewable":2.045,"lpg":1.189},"extra":{"saleType":"P","margin":"D","reportingType":"OM","ideess":"4850","idMunicipio":"1976","idProvincia":"13","idCCAA":"07"}}},{"type":"Feature","geometry":{"type":"Point","coordinates":[-3.947306,38.975917]},"properties":{"id":"es-4862","source":"ES","brand":"CEPSA","address":"CARRETERA N-430 KM KM. 305,1","municipality":"Ciudad Real","province":"CIUDAD REAL","postalCode":"13005","schedule":"L-D: 07:00-23:00","fuels":{"gasoline95":1.769,"gasoline95Premium":1.829,"gasoline98":1.939,"diesel":1.929,"dieselPremium":2.029,"adblue":0.969},"extra":{"saleType":"P","margin":"D","reportingType":"dm","ideess":"4862","idMunicipio":"1976","idProvincia":"13","idCCAA":"07"}}},{"type":"Feature","geometry":{"type":"Point","coordinates":[-3.396417,38.824694]},"properties":{"id":"es-4863","source":"ES","brand":"MOEVE","address":"AUTOVIA A-4 KM. 193,6","municipality":"Valdepeñas","province":"CIUDAD REAL","postalCode":"13300","schedule":"L-D: 24H","fuels":{"gasoline95":1.784,"gasoline95Premium":1.839,"diesel":1.934,"dieselPremium":2.034,"dieselB":1.654,"dieselRenewable":2.064},"extra":{"saleType":"P","margin":"D","reportingType":"OM","ideess":"4863","idMunicipio":"2031","idProvincia":"13","idCCAA":"07"}}},{"type":"Feature","geometry":{"type":"Point","coordinates":[-3.958361,38.9745]},"properties":{"id":"es-4864","source":"ES","brand":"REPSOL","address":"CARRETERA N-430 KM. 304,42","municipality":"Ciudad Real","province":"CIUDAD REAL","postalCode":"13005","schedule":"L-V: 07:00-21:00; S-D: 08:00-15:00","fuels":{"gasoline95":1.745,"gasoline98":1.915,"diesel":1.909,"dieselRenewable":2.029},"extra":{"saleType":"P","margin":"I","reportingType":"dm","ideess":"4864","idMunicipio":"1976","idProvincia":"13","idCCAA":"07"}}},{"type":"Feature","geometry":{"type":"Point","coordinates":[-3.768889,38.093694]},"properties":{"id":"es-5095","source":"ES","brand":"AREA DE SERVICIO EL DELFIN","address":"AVENIDA MADRID-CADIZ, 295","municipality":"Bailén","province":"JAÉN","postalCode":"23710","schedule":"L-D: 24H","fuels":{"gasoline95":1.799,"diesel":1.959,"dieselB":1.709,"lpg":1.159,"adblue":0.899},"extra":{"saleType":"P","margin":"N","reportingType":"dm","ideess":"5095","idMunicipio":"3506","idProvincia":"23","idCCAA":"01"}}},{"type":"Feature","geometry":{"type":"Point","coordinates":[-3.902361,38.970417]},"properties":{"id":"es-5100","source":"ES","brand":"CEPSA","address":"CARRETERA CM-4127 KM. 2,350","municipality":"Miguelturra","province":"CIUDAD REAL","postalCode":"13170","schedule":"L-D: 06:00-00:00","fuels":{"gasoline95":1.739,"gasoline98":1.854,"diesel":1.899,"dieselPremium":1.979},"extra":{"saleType":"P","margin":"D","reportingType":"dm","ideess":"5100","idMunicipio":"1998","idProvincia":"13","idCCAA":"07"}}},{"type":"Feature","geometry":{"type":"Point","coordinates":[-3.139194,38.75575]},"properties":{"id":"es-5112","source":"ES","brand":"CEPSA","address":"CALLE REAL, S/N","municipality":"Alcubillas","province":"CIUDAD REAL","postalCode":"13391","schedule":"L-V: 07:00-20:00; S: 08:00-14:30; D: 08:00-14:30 y 17:00-20:00","fuels":{"gasoline95":1.779,"diesel":1.929,"dieselPremium":1.999,"dieselB":1.659},"extra":{"saleType":"P","margin":"I","reportingType":"dm","ideess":"5112","idMunicipio":"1948","idProvincia":"13","idCCAA":"07"}}},{"type":"Feature","geometry":{"type":"Point","coordinates":[-3.390639,38.752111]},"properties":{"id":"es-5119","source":"ES","brand":"ENI","address":"CL SEIS DE JUNIO, 247","municipality":"Valdepeñas","province":"CIUDAD REAL","postalCode":"13300","schedule":"L-D: 06:00-00:00","fuels":{"gasoline95":1.775,"gasoline98":1.975,"diesel":1.929,"dieselPremium":1.989,"dieselB":1.609,"adblue":0.899},"extra":{"saleType":"P","margin":"N","reportingType":"dm","ideess":"5119","idMunicipio":"2031","idProvincia":"13","idCCAA":"07"}}},{"type":"Feature","geometry":{"type":"Point","coordinates":[-3.715389,38.890417]},"properties":{"id":"es-5144","source":"ES","brand":"REPSOL","address":"CALLE RONDA SANTO DOMINGO, S/N","municipality":"Almagro","province":"CIUDAD REAL","postalCode":"13270","schedule":"L-S: 06:00-22:00","fuels":{"gasoline95":1.769,"diesel":1.979},"extra":{"saleType":"P","margin":"D","reportingType":"OM","ideess":"5144","idMunicipio":"1953","idProvincia":"13","idCCAA":"07"}}},{"type":"Feature","geometry":{"type":"Point","coordinates":[-3.928111,38.996083]},"properties":{"id":"es-5146","source":"ES","brand":"REPSOL","address":"RONDA PUERTA DE TOLEDO, 5","municipality":"Ciudad Real","province":"CIUDAD REAL","postalCode":"13003","schedule":"L-V: 07:00-22:00; S-D: 08:00-15:00","fuels":{"gasoline95":1.755,"diesel":1.909,"dieselRenewable":2.029},"extra":{"saleType":"P","margin":"D","reportingType":"dm","ideess":"5146","idMunicipio":"1976","idProvincia":"13","idCCAA":"07"}}},{"type":"Feature","geometry":{"type":"Point","coordinates":[-3.372222,38.997972]},"properties":{"id":"es-5153","source":"ES","brand":"REPSOL","address":" PASEO COLÓN, S/N","municipality":"Manzanares","province":"CIUDAD REAL","postalCode":"13200","schedule":"L-S: 08:00-14:00","fuels":{"gasoline95":1.745,"diesel":1.919},"extra":{"saleType":"P","margin":"D","reportingType":"OM","ideess":"5153","idMunicipio":"1995","idProvincia":"13","idCCAA":"07"}}},{"type":"Feature","geometry":{"type":"Point","coordinates":[-3.3985,38.766444]},"properties":{"id":"es-5158","source":"ES","brand":"REPSOL","address":"CR CM-412, 84,8","municipality":"Valdepeñas","province":"CIUDAD REAL","postalCode":"13300","schedule":"L-D: 07:00-22:00","fuels":{"gasoline95":1.785,"gasoline98":1.955,"diesel":1.959,"dieselRenewable":2.079},"extra":{"saleType":"P","margin":"D","reportingType":"OM","ideess":"5158","idMunicipio":"2031","idProvincia":"13","idCCAA":"07"}}},{"type":"Feature","geometry":{"type":"Point","coordinates":[-3.281306,38.540778]},"properties":{"id":"es-5164","source":"ES","brand":"REPSOL","address":"CALLE BAILEN, 2","municipality":"Castellar de Santiago","province":"CIUDAD REAL","postalCode":"13750","schedule":"L-S: 07:00-23:00; D: 07:30-23:00","fuels":{"gasoline95":1.799,"diesel":1.959,"dieselB":1.679,"dieselRenewable":2.079},"extra":{"saleType":"P","margin":"D","reportingType":"dm","ideess":"5164","idMunicipio":"1974","idProvincia":"13","idCCAA":"07"}}},{"type":"Feature","geometry":{"type":"Point","coordinates":[-3.395806,38.781139]},"properties":{"id":"es-5168","source":"ES","brand":"FAST FUEL","address":"AUTOVIA A-4 KM. 198,7","municipality":"Valdepeñas","province":"CIUDAD REAL","postalCode":"13300","schedule":"L-D: 24H","fuels":{"gasoline95":1.699,"diesel":1.799,"adblue":0.819},"extra":{"saleType":"P","margin":"D","reportingType":"dm","ideess":"5168","idMunicipio":"2031","idProvincia":"13","idCCAA":"07"}}},{"type":"Feature","geometry":{"type":"Point","coordinates":[-3.395389,38.780917]},"properties":{"id":"es-5169","source":"ES","brand":"FAST FUEL","address":"AUTOVIA A-4 KM. 198,7","municipality":"Valdepeñas","province":"CIUDAD REAL","postalCode":"13300","schedule":"L-D: 24H","fuels":{"gasoline95":1.699,"diesel":1.799,"adblue":0.819},"extra":{"saleType":"P","margin":"I","reportingType":"dm","ideess":"5169","idMunicipio":"2031","idProvincia":"13","idCCAA":"07"}}},{"type":"Feature","geometry":{"type":"Point","coordinates":[-3.025528,38.7385]},"properties":{"id":"es-5197","source":"ES","brand":"CAMPSA","address":"CR CR-604, 1,4","municipality":"Villanueva de los Infantes","province":"CIUDAD REAL","postalCode":"13320","schedule":"L-D: 06:00-22:00","fuels":{"gasoline95":1.735,"gasoline98":1.905,"diesel":1.905,"dieselB":1.62,"dieselRenewable":2.025},"extra":{"saleType":"P","margin":"D","reportingType":"OM","ideess":"5197","idMunicipio":"2037","idProvincia":"13","idCCAA":"07"}}},{"type":"Feature","geometry":{"type":"Point","coordinates":[-3.497778,38.508444]},"properties":{"id":"es-5210","source":"ES","brand":"REPSOL","address":"AUTOVIA N-IV KM. 232","municipality":"Almuradiel","province":"CIUDAD REAL","postalCode":"13760","schedule":"L-D: 07:00-22:00","fuels":{"gasoline95":1.799,"gasoline98":1.919,"diesel":1.955,"dieselRenewable":2.075},"extra":{"saleType":"P","margin":"D","reportingType":"OM","ideess":"5210","idMunicipio":"1956","idProvincia":"13","idCCAA":"07"}}},{"type":"Feature","geometry":{"type":"Point","coordinates":[-3.496667,38.506639]},"properties":{"id":"es-5211","source":"ES","brand":"REPSOL","address":"AUTOVIA N-4 KM. 232","municipality":"Almuradiel","province":"CIUDAD REAL","postalCode":"13760","schedule":"L-D: 24H","fuels":{"gasoline95":1.799,"gasoline98":1.919,"diesel":1.955,"dieselRenewable":2.075},"extra":{"saleType":"P","margin":"I","reportingType":"OM","ideess":"5211","idMunicipio":"1956","idProvincia":"13","idCCAA":"07"}}},{"type":"Feature","geometry":{"type":"Point","coordinates":[-3.920833,38.983083]},"properties":{"id":"es-5227","source":"ES","brand":"REPSOL","address":"CALLE RONDA DE LA MATA, S/N","municipality":"Ciudad Real","province":"CIUDAD REAL","postalCode":"13004","schedule":"L-D: 06:30-22:30","fuels":{"gasoline95":1.755,"gasoline98":1.875,"diesel":1.915,"dieselRenewable":2.035},"extra":{"saleType":"P","margin":"D","reportingType":"OM","ideess":"5227","idMunicipio":"1976","idProvincia":"13","idCCAA":"07"}}},{"type":"Feature","geometry":{"type":"Point","coordinates":[-3.248528,38.94275]},"properties":{"id":"es-5244","source":"ES","brand":"REPSOL","address":"CR N-430, 307,3","municipality":"Solana (La)","province":"CIUDAD REAL","postalCode":"13240","schedule":"L: 06:00-22:30","fuels":{"gasoline95":1.739,"diesel":1.909,"dieselRenewable":2.029},"extra":{"saleType":"P","margin":"I","reportingType":"OM","ideess":"5244","idMunicipio":"2023","idProvincia":"13","idCCAA":"07"}}},{"type":"Feature","geometry":{"type":"Point","coordinates":[-3.836639,38.914806]},"properties":{"id":"es-5248","source":"ES","brand":"DURAMAX","address":"CARRETERA CM-412 KM. 11","municipality":"Pozuelo de Calatrava","province":"CIUDAD REAL","postalCode":"13179","schedule":"L-S: 06:00-22:00; D: 08:00-22:00","fuels":{"gasoline95":1.699,"diesel":1.899,"dieselB":1.429},"extra":{"saleType":"P","margin":"I","reportingType":"dm","ideess":"5248","idMunicipio":"2008","idProvincia":"13","idCCAA":"07"}}},{"type":"Feature","geometry":{"type":"Point","coordinates":[-3.237083,38.937278]},"properties":{"id":"es-5254","source":"ES","brand":"REPSOL","address":"CARRETERA L-603 KM. 24,8","municipality":"Solana (La)","province":"CIUDAD REAL","postalCode":"13240","schedule":"L-D: 06:30-22:00","fuels":{"gasoline95":1.735,"gasoline98":1.905,"diesel":1.905,"dieselB":1.674,"dieselRenewable":2.025},"extra":{"saleType":"P","margin":"I","reportingType":"OM","ideess":"5254","idMunicipio":"2023","idProvincia":"13","idCCAA":"07"}}},{"type":"Feature","geometry":{"type":"Point","coordinates":[-3.9345,38.98475]},"properties":{"id":"es-5266","source":"ES","brand":"REPSOL","address":"RONDA DE ALARCOS, 21","municipality":"Ciudad Real","province":"CIUDAD REAL","postalCode":"13002","schedule":"L-D: 06:30-22:30","fuels":{"gasoline95":1.749,"gasoline98":1.919,"diesel":1.915,"dieselRenewable":2.035},"extra":{"saleType":"P","margin":"I","reportingType":"OM","ideess":"5266","idMunicipio":"1976","idProvincia":"13","idCCAA":"07"}}},{"type":"Feature","geometry":{"type":"Point","coordinates":[-3.391639,38.9015]},"properties":{"id":"es-5292","source":"ES","brand":"ENI","address":"AUTOVIA ANDALUCIA KM. 185","municipality":"Valdepeñas","province":"CIUDAD REAL","postalCode":"13310","schedule":"L-D: 24H","fuels":{"gasoline95":1.789,"gasoline98":1.929,"diesel":1.919,"dieselPremium":1.999,"dieselB":1.609,"adblue":0.899},"extra":{"saleType":"P","margin":"D","reportingType":"dm","ideess":"5292","idMunicipio":"2031","idProvincia":"13","idCCAA":"07"}}},{"type":"Feature","geometry":{"type":"Point","coordinates":[-3.390278,38.899917]},"properties":{"id":"es-5293","source":"ES","brand":"ATENOIL","address":"AUTOVIA ANDALUCIA KM. 185","municipality":"Valdepeñas","province":"CIUDAD REAL","postalCode":"13310","schedule":"L-D: 24H","fuels":{"gasoline95":1.739,"diesel":1.829,"dieselPremium":1.899,"dieselB":1.569,"adblue":0.899},"extra":{"saleType":"P","margin":"I","reportingType":"dm","ideess":"5293","idMunicipio":"2031","idProvincia":"13","idCCAA":"07"}}},{"type":"Feature","geometry":{"type":"Point","coordinates":[-3.363361,38.997972]},"properties":{"id":"es-5297","source":"ES","brand":"REPSOL","address":"CALLE CTRA LA SOLANA, 56","municipality":"Manzanares","province":"CIUDAD REAL","postalCode":"13200","schedule":"L-D: 06:30-22:30","fuels":{"gasoline95":1.755,"gasoline98":1.925,"diesel":1.929,"dieselB":1.644,"dieselRenewable":2.039},"extra":{"saleType":"P","margin":"I","reportingType":"OM","ideess":"5297","idMunicipio":"1995","idProvincia":"13","idCCAA":"07"}}},{"type":"Feature","geometry":{"type":"Point","coordinates":[-3.471583,38.635528]},"properties":{"id":"es-5300","source":"ES","brand":"REPSOL","address":"CARRETERA N- 4 KM. 216,9","municipality":"Santa Cruz de Mudela","province":"CIUDAD REAL","postalCode":"13730","schedule":"L-D: 06:30-22:30","fuels":{"gasoline95":1.809,"diesel":1.965,"dieselRenewable":2.075},"extra":{"saleType":"P","margin":"D","reportingType":"OM","ideess":"5300","idMunicipio":"2021","idProvincia":"13","idCCAA":"07"}}},{"type":"Feature","geometry":{"type":"Point","coordinates":[-3.471361,38.636167]},"properties":{"id":"es-5301","source":"ES","brand":"REPSOL","address":"CARRETERA N 4 KM. 216,9","municipality":"Santa Cruz de Mudela","province":"CIUDAD REAL","postalCode":"13730","schedule":"L-D: 24H","fuels":{"gasoline95":1.809,"gasoline98":1.919,"diesel":1.965,"dieselB":1.674,"dieselRenewable":2.075},"extra":{"saleType":"P","margin":"I","reportingType":"OM","ideess":"5301","idMunicipio":"2021","idProvincia":"13","idCCAA":"07"}}},{"type":"Feature","geometry":{"type":"Point","coordinates":[-3.935972,38.977778]},"properties":{"id":"es-5302","source":"ES","brand":"REPSOL","address":"POLIGONO LARACHE, 93","municipality":"Ciudad Real","province":"CIUDAD REAL","postalCode":"13005","schedule":"L-D: 24H","fuels":{"gasoline95":1.755,"gasoline95Premium":1.825,"gasoline98":1.925,"diesel":1.925,"dieselRenewable":2.045},"extra":{"saleType":"P","margin":"D","reportingType":"OM","ideess":"5302","idMunicipio":"1976","idProvincia":"13","idCCAA":"07"}}},{"type":"Feature","geometry":{"type":"Point","coordinates":[-3.388167,38.779139]},"properties":{"id":"es-5480","source":"ES","brand":"ALCAMPO","address":"AVENIDA DEL VINO, SN","municipality":"Valdepeñas","province":"CIUDAD REAL","postalCode":"13300","schedule":"L-S: 08:15-22:00; D: 09:00-21:00","fuels":{"gasoline95":1.668,"gasoline98":1.738,"diesel":1.785,"dieselPremium":1.827},"extra":{"saleType":"P","margin":"N","reportingType":"dm","ideess":"5480","idMunicipio":"2031","idProvincia":"13","idCCAA":"07"}}},{"type":"Feature","geometry":{"type":"Point","coordinates":[-3.845833,38.079056]},"properties":{"id":"es-5595","source":"ES","brand":"ASC CARBURANTES","address":"AUTOVIA A-5 KM. 303","municipality":"Guarromán","province":"JAÉN","postalCode":"23210","schedule":"L-D: 06:00-22:00","fuels":{"gasoline95":1.659,"diesel":1.759,"adblue":0.89},"extra":{"saleType":"P","margin":"I","reportingType":"dm","ideess":"5595","idMunicipio":"3533","idProvincia":"23","idCCAA":"01"}}},{"type":"Feature","geometry":{"type":"Point","coordinates":[-3.719694,38.141056]},"properties":{"id":"es-5596","source":"ES","brand":"IDS","address":"POLIGONO GUADIEL, 139","municipality":"Guarromán","province":"JAÉN","postalCode":"23210","schedule":"L-D: 24H","fuels":{"diesel":1.929,"dieselB":1.649,"adblue":1.105},"extra":{"saleType":"P","margin":"N","reportingType":"dm","ideess":"5596","idMunicipio":"3533","idProvincia":"23","idCCAA":"01"}}},{"type":"Feature","geometry":{"type":"Point","coordinates":[-3.077972,38.119306]},"properties":{"id":"es-5606","source":"ES","brand":"PETRONOR","address":"AVENIDA GOMEZ DE LLANO, 73","municipality":"Villacarrillo","province":"JAÉN","postalCode":"23300","schedule":"L-V: 07:30-14:30 y 17:00-21:00; S: 08:00-14:00","fuels":{"gasoline95":1.735,"diesel":1.949},"extra":{"saleType":"P","margin":"D","reportingType":"OM","ideess":"5606","idMunicipio":"3586","idProvincia":"23","idCCAA":"01"}}},{"type":"Feature","geometry":{"type":"Point","coordinates":[-3.320306,38.059833]},"properties":{"id":"es-5649","source":"ES","brand":"REPSOL","address":"CR C-604, 6,2","municipality":"Sabiote","province":"JAÉN","postalCode":"23410","schedule":"L: 06:30-22:30","fuels":{"gasoline95":1.735,"gasoline98":1.905,"diesel":1.949,"dieselB":1.654,"dieselRenewable":2.069},"extra":{"saleType":"P","margin":"I","reportingType":"OM","ideess":"5649","idMunicipio":"3568","idProvincia":"23","idCCAA":"01"}}},{"type":"Feature","geometry":{"type":"Point","coordinates":[-3.644583,38.092806]},"properties":{"id":"es-5655","source":"ES","brand":"REPSOL","address":"C/AUREA GALINDO,69 (CARRETERA km 119)","municipality":"Linares","province":"JAÉN","postalCode":"23700","schedule":"L-D: 06:00-23:00","fuels":{"gasoline95":1.785,"diesel":1.979},"extra":{"saleType":"P","margin":"D","reportingType":"OM","ideess":"5655","idMunicipio":"3549","idProvincia":"23","idCCAA":"01"}}},{"type":"Feature","geometry":{"type":"Point","coordinates":[-3.673444,38.196361]},"properties":{"id":"es-5723","source":"ES","brand":"REPSOL","address":"CR N-4, 280","municipality":"Guarromán","province":"JAÉN","postalCode":"23210","schedule":"L-D: 24H","fuels":{"gasoline95":1.795,"gasoline98":1.905,"diesel":1.965,"dieselB":1.71,"dieselRenewable":2.085,"lpg":1.135},"extra":{"saleType":"P","margin":"D","reportingType":"OM","ideess":"5723","idMunicipio":"3533","idProvincia":"23","idCCAA":"01"}}},{"type":"Feature","geometry":{"type":"Point","coordinates":[-3.321861,38.183722]},"properties":{"id":"es-5809","source":"ES","brand":"REPSOL","address":"CARRETERA NAVAS PUENTE ARIZA KM. 0,25","municipality":"Navas de San Juan","province":"JAÉN","postalCode":"23240","schedule":"L-S: 07:00-21:00","fuels":{"gasoline95":1.735,"gasoline98":1.905,"diesel":1.965,"dieselB":1.72,"dieselRenewable":2.085},"extra":{"saleType":"P","margin":"D","reportingType":"OM","ideess":"5809","idMunicipio":"3557","idProvincia":"23","idCCAA":"01"}}},{"type":"Feature","geometry":{"type":"Point","coordinates":[-3.3815,38.016722]},"properties":{"id":"es-6430","source":"ES","brand":"CARREFOUR","address":"AVENIDA DE LINARES, S/N","municipality":"Úbeda","province":"JAÉN","postalCode":"23400","schedule":"L-D: 24H","fuels":{"gasoline95":1.749,"gasoline98":1.839,"diesel":1.949,"dieselPremium":1.989},"extra":{"saleType":"P","margin":"N","reportingType":"dm","ideess":"6430","idMunicipio":"3583","idProvincia":"23","idCCAA":"01"}}},{"type":"Feature","geometry":{"type":"Point","coordinates":[-3.723639,38.142917]},"properties":{"id":"es-6456","source":"ES","brand":"ANDAMUR \"GUARROMAN\"","address":"N-LV SALIDA 288, km 288","municipality":"Guarromán","province":"JAÉN","postalCode":"23210","schedule":"L-D: 24H","fuels":{"gasoline95":1.779,"gasoline98":1.898,"diesel":1.898,"dieselPremium":1.948,"dieselB":1.764,"adblue":0.924},"extra":{"saleType":"P","margin":"D","reportingType":"dm","ideess":"6456","idMunicipio":"3533","idProvincia":"23","idCCAA":"01"}}},{"type":"Feature","geometry":{"type":"Point","coordinates":[-3.545361,38.329917]},"properties":{"id":"es-6459","source":"ES","brand":"E.S. MIRA, S.L.","address":"AUTOVIA DE ANDALUCIA km 259,1","municipality":"Santa Elena","province":"JAÉN","postalCode":"23213","schedule":"L-D: 08:00-22:00","fuels":{"gasoline95":1.639,"diesel":1.799,"dieselPremium":1.869,"adblue":0.75},"extra":{"saleType":"P","margin":"D","reportingType":"dm","ideess":"6459","idMunicipio":"3569","idProvincia":"23","idCCAA":"01"}}},{"type":"Feature","geometry":{"type":"Point","coordinates":[-3.544917,38.32925]},"properties":{"id":"es-6503","source":"ES","brand":"GALP","address":"AUTOVIA A-4 KM. 259","municipality":"Santa Elena","province":"JAÉN","postalCode":"23213","schedule":"L-J: 24H; V-D: 07:00-23:00","fuels":{"gasoline95":1.799,"gasoline98":1.929,"diesel":1.979,"dieselPremium":2.039,"lpg":1.099,"adblue":0.859},"extra":{"saleType":"P","margin":"I","reportingType":"dm","ideess":"6503","idMunicipio":"3569","idProvincia":"23","idCCAA":"01"}}},{"type":"Feature","geometry":{"type":"Point","coordinates":[-3.591167,38.281917]},"properties":{"id":"es-6504","source":"ES","brand":"ORELLANA PERDIZ","address":"AUTOVIA AUTOVIA DE ANDALUCIA KM. 266","municipality":"Carolina (La)","province":"JAÉN","postalCode":"23200","schedule":"L: 07:00-23:00","fuels":{"gasoline95":1.789,"gasoline98":1.929,"diesel":1.999,"dieselPremium":2.079},"extra":{"saleType":"P","margin":"I","reportingType":"dm","ideess":"6504","idMunicipio":"3519","idProvincia":"23","idCCAA":"01"}}},{"type":"Feature","geometry":{"type":"Point","coordinates":[-3.693083,38.180472]},"properties":{"id":"es-6505","source":"ES","brand":"E.S. GUARROMAN","address":"AUTOVIA A-4 MADRID- CADIZ   KM. 283 KM. ","municipality":"Guarromán","province":"JAÉN","postalCode":"23210","schedule":"L-D: 24H","fuels":{"gasoline95":1.829,"diesel":1.949,"dieselPremium":1.969},"extra":{"saleType":"P","margin":"I","reportingType":"dm","ideess":"6505","idMunicipio":"3533","idProvincia":"23","idCCAA":"01"}}},{"type":"Feature","geometry":{"type":"Point","coordinates":[-3.493722,38.016583]},"properties":{"id":"es-6506","source":"ES","brand":"E.S. VIRGEN DE LOS REMEDIOS.","address":"CARRETERA COMARCAL 326 KM. 9,7","municipality":"Ibros","province":"JAÉN","postalCode":"23450","schedule":"L-D: 06:30-22:30","fuels":{"gasoline95":1.769,"diesel":1.979,"dieselPremium":2.069,"dieselB":1.629},"extra":{"saleType":"P","margin":"I","reportingType":"dm","ideess":"6506","idMunicipio":"3539","idProvincia":"23","idCCAA":"01"}}},{"type":"Feature","geometry":{"type":"Point","coordinates":[-3.370556,38.019889]},"properties":{"id":"es-6518","source":"ES","brand":"EUROIL CUATROCAMINOS","address":"CARRETERA CORDOBA-VALENCIA KM 149 KM. 149","municipality":"Úbeda","province":"JAÉN","postalCode":"23400","schedule":"L-D: 24H","fuels":{"gasoline95":1.659,"diesel":1.809},"extra":{"saleType":"P","margin":"I","reportingType":"dm","ideess":"6518","idMunicipio":"3583","idProvincia":"23","idCCAA":"01"}}},{"type":"Feature","geometry":{"type":"Point","coordinates":[-3.199389,38.251944]},"properties":{"id":"es-6519","source":"ES","brand":"REPSOL","address":"CARRERA LINARES-ORCERA PK. 48, S/N","municipality":"Santisteban del Puerto","province":"JAÉN","postalCode":"23250","schedule":"L-D: 06:00-22:00","fuels":{"gasoline95":1.789,"diesel":1.979,"dieselPremium":2.099,"dieselB":1.72},"extra":{"saleType":"P","margin":"I","reportingType":"dm","ideess":"6519","idMunicipio":"3572","idProvincia":"23","idCCAA":"01"}}},{"type":"Feature","geometry":{"type":"Point","coordinates":[-3.647417,38.08975]},"properties":{"id":"es-6532","source":"ES","brand":"ALCAMPO","address":"AVENIDA SAN CRISTOBAL, S/N (C.C ALCAMPO), ","municipality":"Linares","province":"JAÉN","postalCode":"23700","schedule":"L-D: 24H","fuels":{"gasoline95":1.655,"gasoline98":1.695,"diesel":1.779,"dieselPremium":1.819},"extra":{"saleType":"P","margin":"N","reportingType":"dm","ideess":"6532","idMunicipio":"3549","idProvincia":"23","idCCAA":"01"}}},{"type":"Feature","geometry":{"type":"Point","coordinates":[-3.578167,38.071333]},"properties":{"id":"es-6671","source":"ES","brand":"REPSOL","address":"CR N-322, 128","municipality":"Ibros","province":"JAÉN","postalCode":"23450","schedule":"L-V: 07:00-15:00","fuels":{"gasoline95":1.799,"diesel":1.999,"dieselB":1.309},"extra":{"saleType":"P","margin":"I","reportingType":"dm","ideess":"6671","idMunicipio":"3539","idProvincia":"23","idCCAA":"01"}}},{"type":"Feature","geometry":{"type":"Point","coordinates":[-3.779111,38.088833]},"properties":{"id":"es-6751","source":"ES","brand":"REPSOL","address":"CR N-323   A, 0","municipality":"Bailén","province":"JAÉN","postalCode":"23710","schedule":"L-D: 24H","fuels":{"gasoline95":1.795,"gasoline98":1.935,"diesel":1.975,"dieselB":1.71,"dieselRenewable":2.095},"extra":{"saleType":"P","margin":"D","reportingType":"OM","ideess":"6751","idMunicipio":"3506","idProvincia":"23","idCCAA":"01"}}},{"type":"Feature","geometry":{"type":"Point","coordinates":[-3.458111,38.04125]},"properties":{"id":"es-6756","source":"ES","brand":"AGLA","address":"CR N-322, KM 138,5","municipality":"Rus","province":"JAÉN","postalCode":"23430","schedule":"L-D: 06:00-22:00","fuels":{"gasoline95":1.69,"diesel":1.82,"dieselPremium":1.87,"dieselB":1.42},"extra":{"saleType":"P","margin":"I","reportingType":"dm","ideess":"6756","idMunicipio":"3567","idProvincia":"23","idCCAA":"01"}}},{"type":"Feature","geometry":{"type":"Point","coordinates":[-3.589139,38.295167]},"properties":{"id":"es-6758","source":"ES","brand":"ORELLANA PERDIZ","address":"AUTOVIA N-4 KM. 264,6","municipality":"Carolina (La)","province":"JAÉN","postalCode":"23200","schedule":"L-D: 07:00-23:00","fuels":{"gasoline95":1.779,"gasoline98":1.929,"diesel":1.989,"dieselPremium":2.069},"extra":{"saleType":"P","margin":"D","reportingType":"dm","ideess":"6758","idMunicipio":"3519","idProvincia":"23","idCCAA":"01"}}},{"type":"Feature","geometry":{"type":"Point","coordinates":[-3.984889,38.043667]},"properties":{"id":"es-6770","source":"ES","brand":"MOEVE","address":"AUTOVIA A-4 KM. 316,7","municipality":"Andújar","province":"JAÉN","postalCode":"23740","schedule":"L-D: 24H","fuels":{"gasoline95":1.784,"gasoline95Premium":1.859,"diesel":1.994,"dieselPremium":2.064},"extra":{"saleType":"P","margin":"I","reportingType":"OM","ideess":"6770","idMunicipio":"3500","idProvincia":"23","idCCAA":"01"}}},{"type":"Feature","geometry":{"type":"Point","coordinates":[-3.647583,38.104361]},"properties":{"id":"es-6775","source":"ES","brand":"CEPSA","address":"CARRETERA BAÑOS (A-6100) KM. S/N","municipality":"Linares","province":"JAÉN","postalCode":"23700","schedule":"L-D: 24H","fuels":{"gasoline95":1.789,"gasoline95Premium":1.869,"diesel":1.989,"dieselPremium":2.069,"dieselB":1.609},"extra":{"saleType":"P","margin":"D","reportingType":"dm","ideess":"6775","idMunicipio":"3549","idProvincia":"23","idCCAA":"01"}}},{"type":"Feature","geometry":{"type":"Point","coordinates":[-3.103111,38.028778]},"properties":{"id":"es-6776","source":"ES","brand":"CEPSA","address":"CARRETERA DE PEAL KM. 15,100","municipality":"Santo Tomé","province":"JAÉN","postalCode":"23311","schedule":"L-D: 07:00-21:00","fuels":{"gasoline95":1.785,"gasoline98":1.949,"diesel":1.976,"dieselPremium":2.055,"dieselB":1.515},"extra":{"saleType":"P","margin":"D","reportingType":"dm","ideess":"6776","idMunicipio":"3573","idProvincia":"23","idCCAA":"01"}}},{"type":"Feature","geometry":{"type":"Point","coordinates":[-3.096556,38.112694]},"properties":{"id":"es-6777","source":"ES","brand":"ENI","address":"CARRETERA N-322 (CÓRDOBA-VALENCIA) KM. 175,8","municipality":"Villacarrillo","province":"JAÉN","postalCode":"23300","schedule":"L-D: 06:00-22:00","fuels":{"gasoline95":1.765,"gasoline98":1.929,"diesel":1.909,"dieselPremium":1.989,"dieselB":1.589,"adblue":0.899},"extra":{"saleType":"P","margin":"D","reportingType":"dm","ideess":"6777","idMunicipio":"3586","idProvincia":"23","idCCAA":"01"}}},{"type":"Feature","geometry":{"type":"Point","coordinates":[-3.640472,38.086417]},"properties":{"id":"es-6778","source":"ES","brand":"MOEVE","address":"CALLE JUAN DIEGO DE DIOS BARRERO, S/N","municipality":"Linares","province":"JAÉN","postalCode":"23700","schedule":"L-D: 06:00-22:00","fuels":{"gasoline95":1.804,"gasoline95Premium":1.869,"gasoline98":1.894,"diesel":2.004,"dieselPremium":2.064,"dieselB":1.704},"extra":{"saleType":"P","margin":"D","reportingType":"OM","ideess":"6778","idMunicipio":"3549","idProvincia":"23","idCCAA":"01"}}},{"type":"Feature","geometry":{"type":"Point","coordinates":[-3.613667,38.266861]},"properties":{"id":"es-6780","source":"ES","brand":"MOEVE","address":"AUTOVIA A-4 KM. 270","municipality":"Carolina (La)","province":"JAÉN","postalCode":"23200","schedule":"L-D: 06:00-23:59","fuels":{"gasoline95":1.779,"gasoline95Premium":1.879,"diesel":2.024,"dieselPremium":2.094,"dieselB":1.754},"extra":{"saleType":"P","margin":"D","reportingType":"OM","ideess":"6780","idMunicipio":"3519","idProvincia":"23","idCCAA":"01"}}},{"type":"Feature","geometry":{"type":"Point","coordinates":[-3.76675,38.097944]},"properties":{"id":"es-6781","source":"ES","brand":"REPSOL","address":"CARRETERA N-IVA KM. 294","municipality":"Bailén","province":"JAÉN","postalCode":"23710","schedule":"L-V: 07:00-15:00","fuels":{"gasoline95":1.779,"diesel":1.969,"dieselRenewable":2.089},"extra":{"saleType":"P","margin":"D","reportingType":"OM","ideess":"6781","idMunicipio":"3506","idProvincia":"23","idCCAA":"01"}}},{"type":"Feature","geometry":{"type":"Point","coordinates":[-3.754722,38.125806]},"properties":{"id":"es-6783","source":"ES","brand":"CEPSA","address":"CARRERA NACIONAL IV KM 291, N","municipality":"Bailén","province":"JAÉN","postalCode":"23710","schedule":"L-D: 24H","fuels":{"gasoline95":1.784,"gasoline95Premium":1.884,"diesel":1.994,"dieselPremium":2.084},"extra":{"saleType":"P","margin":"N","reportingType":"dm","ideess":"6783","idMunicipio":"3506","idProvincia":"23","idCCAA":"01"}}},{"type":"Feature","geometry":{"type":"Point","coordinates":[-3.051028,38.245778]},"properties":{"id":"es-6784","source":"ES","brand":"REPSOL","address":"AVENIDA ANDALUCIA, S,N","municipality":"Sorihuela del Guadalimar","province":"JAÉN","postalCode":"23270","schedule":"L-S: 07:00-22:00","fuels":{"gasoline95":1.735,"diesel":1.949,"dieselPremium":2.049,"dieselB":1.68},"extra":{"saleType":"P","margin":"D","reportingType":"OM","ideess":"6784","idMunicipio":"3576","idProvincia":"23","idCCAA":"01"}}},{"type":"Feature","geometry":{"type":"Point","coordinates":[-3.475306,38.046972]},"properties":{"id":"es-6791","source":"ES","brand":"AGLA","address":"PARAJE VIRGEN DEL VAL, S/N","municipality":"Rus","province":"JAÉN","postalCode":"23430","schedule":"L-S: 07:00-14:00","fuels":{"gasoline95":1.69,"diesel":1.82,"dieselPremium":1.87,"dieselB":1.42},"extra":{"saleType":"P","margin":"D","reportingType":"dm","ideess":"6791","idMunicipio":"3567","idProvincia":"23","idCCAA":"01"}}},{"type":"Feature","geometry":{"type":"Point","coordinates":[-3.37575,38.183306]},"properties":{"id":"es-6810","source":"ES","brand":"REPSOL","address":"CARRETERA A-312 KM. 28","municipality":"Arquillos","province":"JAÉN","postalCode":"23230","schedule":"L-S: 06:30-22:00","fuels":{"gasoline95":1.735,"diesel":1.949,"dieselB":1.71,"dieselRenewable":2.069},"extra":{"saleType":"P","margin":"D","reportingType":"OM","ideess":"6810","idMunicipio":"3503","idProvincia":"23","idCCAA":"01"}}},{"type":"Feature","geometry":{"type":"Point","coordinates":[-3.363806,38.016278]},"properties":{"id":"es-6817","source":"ES","brand":"REPSOL UBEDA","address":"CL AVENIDA DE LA LIBERTAD 76","municipality":"Úbeda","province":"JAÉN","postalCode":"23400","schedule":"L-D: 06:30-22:30","fuels":{"gasoline95":1.755,"gasoline98":1.925,"diesel":1.969,"dieselPremium":2.089,"dieselB":1.654},"extra":{"saleType":"P","margin":"D","reportingType":"dm","ideess":"6817","idMunicipio":"3583","idProvincia":"23","idCCAA":"01"}}},{"type":"Feature","geometry":{"type":"Point","coordinates":[-3.609972,38.272333]},"properties":{"id":"es-6897","source":"ES","brand":"REPSOL","address":"CARRETERA NACIONAL IV KM. 269 KM. 269","municipality":"Carolina (La)","province":"JAÉN","postalCode":"23200","schedule":"L-D: 06:00-21:30","fuels":{"gasoline95":1.789,"gasoline98":1.949,"diesel":1.985,"dieselB":1.714,"dieselRenewable":2.105},"extra":{"saleType":"P","margin":"D","reportingType":"OM","ideess":"6897","idMunicipio":"3519","idProvincia":"23","idCCAA":"01"}}},{"type":"Feature","geometry":{"type":"Point","coordinates":[-3.513444,38.217028]},"properties":{"id":"es-6909","source":"ES","brand":"REPSOL","address":"AVENIDA ALMERIA, SN","municipality":"Vilches","province":"JAÉN","postalCode":"23220","schedule":"L-S: 06:30-22:00; D: 08:00-14:00","fuels":{"gasoline95":1.735,"diesel":1.969,"dieselB":1.714,"dieselRenewable":2.089},"extra":{"saleType":"P","margin":"I","reportingType":"OM","ideess":"6909","idMunicipio":"3585","idProvincia":"23","idCCAA":"01"}}},{"type":"Feature","geometry":{"type":"Point","coordinates":[-3.626222,38.090222]},"properties":{"id":"es-6910","source":"ES","brand":"REPSOL","address":"CL AVENIDA DE ESPAÑA, 3","municipality":"Linares","province":"JAÉN","postalCode":"23700","schedule":"L-D: 06:00-22:00","fuels":{"gasoline95":1.789,"gasoline98":1.949,"diesel":1.985,"dieselRenewable":2.105,"lpg":1.125},"extra":{"saleType":"P","margin":"I","reportingType":"OM","ideess":"6910","idMunicipio":"3549","idProvincia":"23","idCCAA":"01"}}},{"type":"Feature","geometry":{"type":"Point","coordinates":[-3.295139,38.035444]},"properties":{"id":"es-6913","source":"ES","brand":"REPSOL","address":"CR N-322, 154,0","municipality":"Torreperogil","province":"JAÉN","postalCode":"23320","schedule":"L-D: 06:00-22:00","fuels":{"gasoline95":1.735,"gasoline98":1.905,"diesel":1.949,"dieselB":1.654,"dieselRenewable":2.069},"extra":{"saleType":"P","margin":"D","reportingType":"OM","ideess":"6913","idMunicipio":"3580","idProvincia":"23","idCCAA":"01"}}},{"type":"Feature","geometry":{"type":"Point","coordinates":[-3.004083,38.172556]},"properties":{"id":"es-6928","source":"ES","brand":"REPSOL","address":"AVENIDA VALENCIA DE, 116","municipality":"Villanueva del Arzobispo","province":"JAÉN","postalCode":"23330","schedule":"L-D: 06:00-22:00","fuels":{"gasoline95":1.735,"gasoline98":1.905,"diesel":1.955,"dieselPremium":2.035,"dieselB":1.71},"extra":{"saleType":"P","margin":"D","reportingType":"OM","ideess":"6928","idMunicipio":"3588","idProvincia":"23","idCCAA":"01"}}},{"type":"Feature","geometry":{"type":"Point","coordinates":[-3.383806,38.014389]},"properties":{"id":"es-6938","source":"ES","brand":"CAMPSA","address":"AVENIDA CRISTO REY, S/N","municipality":"Úbeda","province":"JAÉN","postalCode":"23400","schedule":"L-D: 06:00-22:00","fuels":{"gasoline95":1.755,"gasoline98":1.925,"diesel":1.969,"dieselB":1.654,"dieselRenewable":2.089,"lpg":1.119},"extra":{"saleType":"P","margin":"N","reportingType":"OM","ideess":"6938","idMunicipio":"3583","idProvincia":"23","idCCAA":"01"}}},{"type":"Feature","geometry":{"type":"Point","coordinates":[-3.671972,38.193306]},"properties":{"id":"es-6940","source":"ES","brand":"REPSOL","address":"CARRETERA N4 KM. 280,5","municipality":"Guarromán","province":"JAÉN","postalCode":"23210","schedule":"L-D: 24H","fuels":{"gasoline95":1.785,"gasoline98":1.905,"diesel":1.975,"dieselB":1.71,"dieselRenewable":2.085,"cng":1.529,"lng":1.499},"extra":{"saleType":"P","margin":"I","reportingType":"OM","ideess":"6940","idMunicipio":"3533","idProvincia":"23","idCCAA":"01"}}},{"type":"Feature","geometry":{"type":"Point","coordinates":[-3.779222,38.023833]},"properties":{"id":"es-6969","source":"ES","brand":"REPSOL","address":"CR N-323, 11,9","municipality":"Jabalquinto","province":"JAÉN","postalCode":"23712","schedule":"L-D: 24H","fuels":{"gasoline95":1.799,"gasoline98":1.909,"diesel":1.989,"dieselRenewable":2.099},"extra":{"saleType":"P","margin":"I","reportingType":"OM","ideess":"6969","idMunicipio":"3542","idProvincia":"23","idCCAA":"01"}}},{"type":"Feature","geometry":{"type":"Point","coordinates":[-3.637917,38.111722]},"properties":{"id":"es-7023","source":"ES","brand":"BP OIL ESPAÑA E.S.SAN GONZALO","address":"CARRETERA DE POZO ANCHO S/N","municipality":"Linares","province":"JAÉN","postalCode":"23700","schedule":"L-D: 24H","fuels":{"gasoline95":1.779,"gasoline98":1.919,"diesel":1.969,"dieselPremium":2.059,"dieselB":1.609,"lpg":0.945,"adblue":0.675},"extra":{"saleType":"P","margin":"N","reportingType":"dm","ideess":"7023","idMunicipio":"3549","idProvincia":"23","idCCAA":"01"}}},{"type":"Feature","geometry":{"type":"Point","coordinates":[-3.605889,38.278361]},"properties":{"id":"es-7033","source":"ES","brand":"E.S. PASEO DE LA VIRGEN","address":"CALLE FARIÑAS FERRERO, S/N","municipality":"Carolina (La)","province":"JAÉN","postalCode":"23200","schedule":"L-D: 06:00-22:00","fuels":{"gasoline95":1.699,"gasoline98":1.859,"diesel":1.889},"extra":{"saleType":"P","margin":"N","reportingType":"dm","ideess":"7033","idMunicipio":"3519","idProvincia":"23","idCCAA":"01"}}},{"type":"Feature","geometry":{"type":"Point","coordinates":[-3.622444,38.104306]},"properties":{"id":"es-8095","source":"ES","brand":"GASOLINERA SANTANA","address":"AVDA. 1º MAYO S/N","municipality":"Linares","province":"JAÉN","postalCode":"23700","schedule":"L-D: 06:00-22:00","fuels":{"gasoline95":1.599,"gasoline98":1.809,"diesel":1.729},"extra":{"saleType":"P","margin":"D","reportingType":"dm","ideess":"8095","idMunicipio":"3549","idProvincia":"23","idCCAA":"01"}}},{"type":"Feature","geometry":{"type":"Point","coordinates":[-3.631194,38.226806]},"properties":{"id":"es-8360","source":"ES","brand":"CHEVRON","address":"CALLE LINARES, 1","municipality":"Carboneros","province":"JAÉN","postalCode":"23211","schedule":"L: 07:00-23:00","fuels":{"gasoline95":1.839,"diesel":1.949},"extra":{"saleType":"P","margin":"D","reportingType":"dm","ideess":"8360","idMunicipio":"3517","idProvincia":"23","idCCAA":"01"}}},{"type":"Feature","geometry":{"type":"Point","coordinates":[-3.545222,38.336917]},"properties":{"id":"es-8373","source":"ES","brand":"REPSOL","address":"CARRERA AUTOVIA ANDALUCIA , KM 258, 258","municipality":"Santa Elena","province":"JAÉN","postalCode":"23213","schedule":"L-D: 24H","fuels":{"gasoline95":1.795,"diesel":1.975,"dieselRenewable":2.085,"adblue":1.0},"extra":{"saleType":"P","margin":"D","reportingType":"dm","ideess":"8373","idMunicipio":"3569","idProvincia":"23","idCCAA":"01"}}},{"type":"Feature","geometry":{"type":"Point","coordinates":[-3.940806,38.972861]},"properties":{"id":"es-8420","source":"ES","brand":"PLENERGY","address":"CARRETERA CTRA PUERTOLLANO KM 195 KM. ","municipality":"Ciudad Real","province":"CIUDAD REAL","postalCode":"13197","schedule":"L-D: 24H","fuels":{"gasoline95":1.579,"diesel":1.739},"extra":{"saleType":"P","margin":"D","reportingType":"dm","ideess":"8420","idMunicipio":"1976","idProvincia":"13","idCCAA":"07"}}},{"type":"Feature","geometry":{"type":"Point","coordinates":[-3.508778,38.211833]},"properties":{"id":"es-8930","source":"ES","brand":"LIBRE","address":"POLIGONO LA MOLERA PARCELA 17 - CL. MOLINEROS, 8","municipality":"Vilches","province":"JAÉN","postalCode":"23220","schedule":"L-S: 07:00-22:00; D: 07:00-14:00","fuels":{"gasoline95":1.679,"diesel":1.899},"extra":{"saleType":"P","margin":"N","reportingType":"dm","ideess":"8930","idMunicipio":"3585","idProvincia":"23","idCCAA":"01"}}},{"type":"Feature","geometry":{"type":"Point","coordinates":[-3.6715,38.194667]},"properties":{"id":"es-9009","source":"ES","brand":"VALCARCE","address":"CARRETERA N-IV KM. 280","municipality":"Guarromán","province":"JAÉN","postalCode":"23210","schedule":"L-D: 24H","fuels":{"diesel":1.929,"dieselB":1.58,"adblue":0.899},"extra":{"saleType":"P","margin":"N","reportingType":"dm","ideess":"9009","idMunicipio":"3533","idProvincia":"23","idCCAA":"01"}}},{"type":"Feature","geometry":{"type":"Point","coordinates":[-3.756833,38.67975]},"properties":{"id":"es-9242","source":"ES","brand":"P G E HIJOS","address":"CARRETERA C-410 km 31.092","municipality":"Calzada de Calatrava","province":"CIUDAD REAL","postalCode":"13370","schedule":"L-D: 24H","fuels":{"gasoline95":1.799,"gasoline98":1.899,"diesel":1.949,"dieselPremium":1.989,"dieselB":1.559},"extra":{"saleType":"P","margin":"D","reportingType":"dm","ideess":"9242","idMunicipio":"1968","idProvincia":"13","idCCAA":"07"}}},{"type":"Feature","geometry":{"type":"Point","coordinates":[-3.92475,38.994639]},"properties":{"id":"es-9453","source":"ES","brand":"SHELL","address":"CALLE RONDA DE TOLEDO, 21","municipality":"Ciudad Real","province":"CIUDAD REAL","postalCode":"13003","schedule":"L-D: 05:30-23:30","fuels":{"gasoline95":1.719,"gasoline98":2.039,"diesel":1.895,"dieselPremium":2.015},"extra":{"saleType":"P","margin":"D","reportingType":"dm","ideess":"9453","idMunicipio":"1976","idProvincia":"13","idCCAA":"07"}}},{"type":"Feature","geometry":{"type":"Point","coordinates":[-3.252528,38.944694]},"properties":{"id":"es-9575","source":"ES","brand":"GRUPO CACHO - MOEVE","address":"CARRETERA MANZANARES KM. S/N","municipality":"Solana (La)","province":"CIUDAD REAL","postalCode":"13240","schedule":"L-D: 6:30-22:30","fuels":{"gasoline95":1.739,"diesel":1.889,"dieselPremium":1.969,"dieselB":1.459,"adblue":0.959},"extra":{"saleType":"P","margin":"D","reportingType":"dm","ideess":"9575","idMunicipio":"2023","idProvincia":"13","idCCAA":"07"}}},{"type":"Feature","geometry":{"type":"Point","coordinates":[-3.305444,38.962278]},"properties":{"id":"es-9579","source":"ES","brand":"GRUPO CACHO - MOEVE","address":"CARRETERA NACIONAL 430 KM. 371,100","municipality":"Membrilla","province":"CIUDAD REAL","postalCode":"13230","schedule":"L-D: 24H","fuels":{"gasoline95":1.739,"diesel":1.889},"extra":{"saleType":"P","margin":"I","reportingType":"dm","ideess":"9579","idMunicipio":"1996","idProvincia":"13","idCCAA":"07"}}},{"type":"Feature","geometry":{"type":"Point","coordinates":[-3.391833,38.843417]},"properties":{"id":"es-9611","source":"ES","brand":"SHELL","address":"AUTOVIA  A-4 km 191,536","municipality":"Valdepeñas","province":"CIUDAD REAL","postalCode":"13300","schedule":"L-D: 24H","fuels":{"gasoline95":1.734,"gasoline98":1.874,"diesel":1.924,"dieselPremium":2.004,"adblue":1.39},"extra":{"saleType":"P","margin":"I","reportingType":"OM","ideess":"9611","idMunicipio":"2031","idProvincia":"13","idCCAA":"07"}}},{"type":"Feature","geometry":{"type":"Point","coordinates":[-3.901917,38.990722]},"properties":{"id":"es-9671","source":"ES","brand":"SHELL CARRION","address":"CARRETERA NACIONAL 430 KM. 309,900","municipality":"Ciudad Real","province":"CIUDAD REAL","postalCode":"13005","schedule":"L: 05:30-23:30","fuels":{"gasoline95":1.739,"gasoline98":2.059,"diesel":1.909,"dieselPremium":2.029},"extra":{"saleType":"P","margin":"I","reportingType":"dm","ideess":"9671","idMunicipio":"1976","idProvincia":"13","idCCAA":"07"}}},{"type":"Feature","geometry":{"type":"Point","coordinates":[-3.367778,38.021944]},"properties":{"id":"es-9734","source":"ES","brand":"BP PUERTA DEL SOL","address":"CALLE LEON XIII S/N (N-323 KM. 125,20), ","municipality":"Úbeda","province":"JAÉN","postalCode":"23400","schedule":"L: 06:30-22:30","fuels":{"gasoline95":1.755,"diesel":1.975,"dieselPremium":2.065,"adblue":0.899},"extra":{"saleType":"P","margin":"D","reportingType":"dm","ideess":"9734","idMunicipio":"3583","idProvincia":"23","idCCAA":"01"}}},{"type":"Feature","geometry":{"type":"Point","coordinates":[-3.848639,38.077833]},"properties":{"id":"es-9811","source":"ES","brand":"BP","address":"AUTOVIA A-4 KM. 303,2","municipality":"Guarromán","province":"JAÉN","postalCode":"23210","schedule":"L-D: 06:00-22:00","fuels":{"gasoline95":1.787,"gasoline98":1.926,"diesel":1.986,"dieselPremium":2.076},"extra":{"saleType":"P","margin":"D","reportingType":"dm","ideess":"9811","idMunicipio":"3533","idProvincia":"23","idCCAA":"01"}}},{"type":"Feature","geometry":{"type":"Point","coordinates":[-3.650361,38.091389]},"properties":{"id":"es-9814","source":"ES","brand":"BP LINARES","address":"CARRETERA N-322 KM. 119","municipality":"Linares","province":"JAÉN","postalCode":"23700","schedule":"L-D: 06:00-23:00","fuels":{"gasoline95":1.779,"gasoline98":1.919,"diesel":1.969,"dieselPremium":2.059,"adblue":0.925},"extra":{"saleType":"P","margin":"D","reportingType":"OM","ideess":"9814","idMunicipio":"3549","idProvincia":"23","idCCAA":"01"}}},{"type":"Feature","geometry":{"type":"Point","coordinates":[-3.905028,38.009333]},"properties":{"id":"es-9864","source":"ES","brand":"ACEITES GUADALQUIVIR","address":"J-231 km 0,700","municipality":"Villanueva de la Reina","province":"JAÉN","postalCode":"23730","schedule":"L-D: 06:00-22:00","fuels":{"gasoline95":1.597,"diesel":1.805,"dieselB":1.369},"extra":{"saleType":"P","margin":"I","reportingType":"dm","ideess":"9864","idMunicipio":"3587","idProvincia":"23","idCCAA":"01"}}}]}