{"type":"FeatureCollection","features":[{"type":"Feature","geometry":{"type":"Point","coordinates":[-6.163639,36.682111]},"properties":{"id":"es-10520","source":"ES","brand":"SHELL","address":"A 480 KM 25,8","municipality":"Jerez de la Frontera","province":"CÁDIZ","postalCode":"11408","schedule":"L-D: 24H","fuels":{"gasoline95":1.599,"gasoline98":1.799,"diesel":1.629,"dieselPremium":1.729},"extra":{"saleType":"P","margin":"I","reportingType":"OM","ideess":"10520","idMunicipio":"1782","idProvincia":"11","idCCAA":"01"}}},{"type":"Feature","geometry":{"type":"Point","coordinates":[-6.092056,36.701556]},"properties":{"id":"es-10862","source":"ES","brand":"REPSOL","address":"CL BARRIO CAULINA -(CRTA ACCESO N-4","municipality":"Jerez de la Frontera","province":"CÁDIZ","postalCode":"11405","schedule":"L-D: 06:00-22:00","fuels":{"gasoline95":1.759,"gasoline98":1.879,"diesel":1.839,"dieselPremium":1.899},"extra":{"saleType":"P","margin":"D","reportingType":"OM","ideess":"10862","idMunicipio":"1782","idProvincia":"11","idCCAA":"01"}}},{"type":"Feature","geometry":{"type":"Point","coordinates":[-6.029806,36.867167]},"properties":{"id":"es-10911","source":"ES","brand":"REPSOL","address":"CR. NACIONAL IV km 613,700","municipality":"Cuervo de Sevilla (El)","province":"SEVILLA","postalCode":"41749","schedule":"L-D: 06:00-22:30","fuels":{"gasoline95":1.788,"diesel":1.839},"extra":{"saleType":"P","margin":"I","reportingType":"dm","ideess":"10911","idMunicipio":"6093","idProvincia":"41","idCCAA":"01"}}},{"type":"Feature","geometry":{"type":"Point","coordinates":[-6.271917,36.778722]},"properties":{"id":"es-10962","source":"ES","brand":"LIBRE","address":"CARRETERA A-471 KM. 54","municipality":"Jerez de la Frontera","province":"CÁDIZ","postalCode":"11406","schedule":"L-D: 06:00-22:00","fuels":{"gasoline95":1.729,"diesel":1.749},"extra":{"saleType":"P","margin":"I","reportingType":"dm","ideess":"10962","idMunicipio":"1782","idProvincia":"11","idCCAA":"01"}}},{"type":"Feature","geometry":{"type":"Point","coordinates":[-6.074139,36.634833]},"properties":{"id":"es-11208","source":"ES","brand":"REPSOL","address":"AUTOVIA A-381 KM. 2,5","municipality":"Jerez de la Frontera","province":"CÁDIZ","postalCode":"11406","schedule":"L-V: 06:00-22:00; S-D: 07:00-22:00","fuels":{"gasoline95":1.759,"diesel":1.829,"dieselB":1.729},"extra":{"saleType":"P","margin":"I","reportingType":"dm","ideess":"11208","idMunicipio":"1782","idProvincia":"11","idCCAA":"01"}}},{"type":"Feature","geometry":{"type":"Point","coordinates":[-6.216972,36.583889]},"properties":{"id":"es-11265","source":"ES","brand":"SHELL","address":"P.IND.POLIG. IND. LA ISLETA S/N N-IV, KM 654,7","municipality":"Puerto de Santa María (El)","province":"CÁDIZ","postalCode":"11500","schedule":"L-D: 06:00-00:00","fuels":{"gasoline95":1.619,"gasoline98":1.759,"diesel":1.689,"dieselPremium":1.769},"extra":{"saleType":"P","margin":"D","reportingType":"OM","ideess":"11265","idMunicipio":"1789","idProvincia":"11","idCCAA":"01"}}},{"type":"Feature","geometry":{"type":"Point","coordinates":[-6.172083,36.862389]},"properties":{"id":"es-11287","source":"ES","brand":"E.S EL BARRIAL S.L","address":"POLIGONO EL BARRIAL SECTOR 10 PARCELA 72, S/N","municipality":"Trebujena","province":"CÁDIZ","postalCode":"11560","schedule":"L-V: 06:00-22:00; S-D: 07:00-22:00","fuels":{"gasoline95":1.769,"gasoline98":1.889,"diesel":1.829,"dieselPremium":1.879,"dieselB":1.599},"extra":{"saleType":"P","margin":"D","reportingType":"dm","ideess":"11287","idMunicipio":"1800","idProvincia":"11","idCCAA":"01"}}},{"type":"Feature","geometry":{"type":"Point","coordinates":[-6.100917,36.694278]},"properties":{"id":"es-11294","source":"ES","brand":"MOEVE","address":"AVENIDA ARCOS C/V CALLE LAGUNA, S/N","municipality":"Jerez de la Frontera","province":"CÁDIZ","postalCode":"11406","schedule":"L-D: 06:00-23:59","fuels":{"gasoline95":1.709,"gasoline95Premium":1.799,"diesel":1.866,"dieselPremium":1.946},"extra":{"saleType":"P","margin":"N","reportingType":"OM","ideess":"11294","idMunicipio":"1782","idProvincia":"11","idCCAA":"01"}}},{"type":"Feature","geometry":{"type":"Point","coordinates":[-6.113278,36.696917]},"properties":{"id":"es-11295","source":"ES","brand":"CARREFOUR","address":"AVENIDA EUROPA, S/N","municipality":"Jerez de la Frontera","province":"CÁDIZ","postalCode":"11405","schedule":"L-J: 06:00-01:00; V-S: 06:00-01:30; D: 08:30-01:00","fuels":{"gasoline95":1.719,"gasoline98":1.879,"diesel":1.769,"dieselPremium":1.809},"extra":{"saleType":"P","margin":"D","reportingType":"dm","ideess":"11295","idMunicipio":"1782","idProvincia":"11","idCCAA":"01"}}},{"type":"Feature","geometry":{"type":"Point","coordinates":[-6.15475,36.68775]},"properties":{"id":"es-11326","source":"ES","brand":"GALP","address":"CARRETERA ANTIGUA N-IV KM. 639,5","municipality":"Jerez de la Frontera","province":"CÁDIZ","postalCode":"11408","schedule":"L-D: 24H","fuels":{"gasoline95":1.649,"gasoline98":1.789,"diesel":1.684,"dieselPremium":1.734,"adblue":0.799},"extra":{"saleType":"P","margin":"N","reportingType":"OM","ideess":"11326","idMunicipio":"1782","idProvincia":"11","idCCAA":"01"}}},{"type":"Feature","geometry":{"type":"Point","coordinates":[-6.267889,36.495306]},"properties":{"id":"es-11422","source":"ES","brand":"BP LA PEÑITA DE CADIZ","address":"AVENIDA ALCALDE SANCHEZ COSSIO, 1","municipality":"Cádiz","province":"CÁDIZ","postalCode":"11001","schedule":"L-D: 24H","fuels":{"gasoline95":1.749,"gasoline98":1.889,"diesel":1.799,"dieselPremium":1.889,"lpg":1.099,"adblue":0.999},"extra":{"saleType":"P","margin":"N","reportingType":"dm","ideess":"11422","idMunicipio":"1774","idProvincia":"11","idCCAA":"01"}}},{"type":"Feature","geometry":{"type":"Point","coordinates":[-6.174611,36.470889]},"properties":{"id":"es-11478","source":"ES","brand":"E.S. TRES CAMINOS","address":"AVENIDA MOJARRA DE LA, 5","municipality":"Puerto Real","province":"CÁDIZ","postalCode":"11510","schedule":"L-D: 06:00-23:00","fuels":{"gasoline95":1.669,"diesel":1.659,"dieselPremium":1.759,"adblue":1.149},"extra":{"saleType":"P","margin":"I","reportingType":"dm","ideess":"11478","idMunicipio":"1790","idProvincia":"11","idCCAA":"01"}}},{"type":"Feature","geometry":{"type":"Point","coordinates":[-6.057056,36.309917]},"properties":{"id":"es-11641","source":"ES","brand":"BP","address":"AUTOVIA A48 KM. 24,400","municipality":"Conil de la Frontera","province":"CÁDIZ","postalCode":"11149","schedule":"L-D: 24H","fuels":{"gasoline95":1.744,"gasoline98":1.874,"diesel":1.857,"dieselPremium":1.915},"extra":{"saleType":"P","margin":"D","reportingType":"dm","ideess":"11641","idMunicipio":"1778","idProvincia":"11","idCCAA":"01"}}},{"type":"Feature","geometry":{"type":"Point","coordinates":[-6.0555,36.309028]},"properties":{"id":"es-11642","source":"ES","brand":"BP","address":"AUTOVIA AUTOVIA DE LA LUZ KM. 24,400","municipality":"Conil de la Frontera","province":"CÁDIZ","postalCode":"11149","schedule":"L-D: 24H","fuels":{"gasoline95":1.744,"gasoline98":1.874,"diesel":1.857,"dieselPremium":1.915},"extra":{"saleType":"P","margin":"I","reportingType":"dm","ideess":"11642","idMunicipio":"1778","idProvincia":"11","idCCAA":"01"}}},{"type":"Feature","geometry":{"type":"Point","coordinates":[-6.264139,36.491472]},"properties":{"id":"es-11893","source":"ES","brand":"RADIOTAXI","address":"CALLE CHICLANA, S/N","municipality":"Cádiz","province":"CÁDIZ","postalCode":"11011","schedule":"L-D: 24H","fuels":{"diesel":1.619},"extra":{"saleType":"P","margin":"D","reportingType":"dm","ideess":"11893","idMunicipio":"1774","idProvincia":"11","idCCAA":"01"}}},{"type":"Feature","geometry":{"type":"Point","coordinates":[-6.16275,36.698722]},"properties":{"id":"es-12099","source":"ES","brand":"SHELL","address":"CARRETERA CALVARIO (EL) KM. S/N","municipality":"Jerez de la Frontera","province":"CÁDIZ","postalCode":"11408","schedule":"L-D: 06:00-00:00","fuels":{"gasoline95":1.659,"gasoline98":1.799,"diesel":1.674,"dieselPremium":1.754,"lpg":1.029,"adblue":1.25},"extra":{"saleType":"P","margin":"N","reportingType":"OM","ideess":"12099","idMunicipio":"1782","idProvincia":"11","idCCAA":"01"}}},{"type":"Feature","geometry":{"type":"Point","coordinates":[-6.236889,36.524111]},"properties":{"id":"es-12223","source":"ES","brand":"GALP","address":"AVENIDA PERU (RIO S PEDRO), 0","municipality":"Puerto Real","province":"CÁDIZ","postalCode":"11510","schedule":"L-D: 06:00-22:00","fuels":{"gasoline95":1.499,"gasoline95Premium":1.549,"diesel":1.624,"dieselPremium":1.674},"extra":{"saleType":"P","margin":"D","reportingType":"OM","ideess":"12223","idMunicipio":"1790","idProvincia":"11","idCCAA":"01"}}},{"type":"Feature","geometry":{"type":"Point","coordinates":[-6.034944,36.917056]},"properties":{"id":"es-12274","source":"ES","brand":"AVIA","address":"CARRETERA SE-6300 KM. 5","municipality":"Lebrija","province":"SEVILLA","postalCode":"41710","schedule":"L-V: 06:00-22:00; S-D: 07:00-14:00","fuels":{"gasoline95":1.559,"diesel":1.619,"dieselB":1.349,"adblue":0.999},"extra":{"saleType":"P","margin":"D","reportingType":"dm","ideess":"12274","idMunicipio":"6110","idProvincia":"41","idCCAA":"01"}}},{"type":"Feature","geometry":{"type":"Point","coordinates":[-6.3905,36.634917]},"properties":{"id":"es-12318","source":"ES","brand":"CEPSA","address":"AVENIDA PUNTA CANDOR, 2","municipality":"Rota","province":"CÁDIZ","postalCode":"11520","schedule":"L-D: 08:00-22:00","fuels":{"gasoline95":1.769,"gasoline95Premium":1.829,"diesel":1.896,"dieselPremium":1.956},"extra":{"saleType":"P","margin":"D","reportingType":"dm","ideess":"12318","idMunicipio":"1792","idProvincia":"11","idCCAA":"01"}}},{"type":"Feature","geometry":{"type":"Point","coordinates":[-6.157806,36.694972]},"properties":{"id":"es-12475","source":"ES","brand":"ALCAMPO","address":"CALLE RONDA AURORA BOREAL, 3","municipality":"Jerez de la Frontera","province":"CÁDIZ","postalCode":"11408","schedule":"L-D: 24H","fuels":{"gasoline95":1.578,"gasoline98":1.659,"diesel":1.584,"dieselPremium":1.594},"extra":{"saleType":"P","margin":"N","reportingType":"dm","ideess":"12475","idMunicipio":"1782","idProvincia":"11","idCCAA":"01"}}},{"type":"Feature","geometry":{"type":"Point","coordinates":[-6.145778,36.394194]},"properties":{"id":"es-12605","source":"ES","brand":"BP EL FLORIN","address":"CARRETERA FUENTE AMARGA KM. 151","municipality":"Chiclana de la Frontera","province":"CÁDIZ","postalCode":"11130","schedule":"L-D: 24H","fuels":{"gasoline95":1.759,"gasoline98":1.899,"diesel":1.819,"dieselPremium":1.909},"extra":{"saleType":"P","margin":"D","reportingType":"dm","ideess":"12605","idMunicipio":"1776","idProvincia":"11","idCCAA":"01"}}},{"type":"Feature","geometry":{"type":"Point","coordinates":[-6.023556,36.568944]},"properties":{"id":"es-12708","source":"ES","brand":"REPSOL","address":"CARRETERA A-381 KM. 11,500","municipality":"Jerez de la Frontera","province":"CÁDIZ","postalCode":"11595","schedule":"L-D: 24H","fuels":{"gasoline95":1.785,"gasoline98":1.905,"diesel":1.855,"dieselB":1.715,"dieselRenewable":1.975,"lpg":1.055,"cng":1.529,"lng":1.499},"extra":{"saleType":"P","margin":"D","reportingType":"OM","ideess":"12708","idMunicipio":"1782","idProvincia":"11","idCCAA":"01"}}},{"type":"Feature","geometry":{"type":"Point","coordinates":[-6.357806,36.770611]},"properties":{"id":"es-12758","source":"ES","brand":"PETROL & GO","address":"CARRETERA CHIPIONA (DE) KM. 0,5","municipality":"Sanlúcar de Barrameda","province":"CÁDIZ","postalCode":"11540","schedule":"L-D: 24H","fuels":{"gasoline95":1.649,"diesel":1.699},"extra":{"saleType":"P","margin":"D","reportingType":"dm","ideess":"12758","idMunicipio":"1796","idProvincia":"11","idCCAA":"01"}}},{"type":"Feature","geometry":{"type":"Point","coordinates":[-6.206056,36.471278]},"properties":{"id":"es-12868","source":"ES","brand":"BALLENOIL","address":"CALLE REMACHADORES, 2","municipality":"San Fernando","province":"CÁDIZ","postalCode":"11100","schedule":"L-D: 24H","fuels":{"gasoline95":1.659,"diesel":1.649},"extra":{"saleType":"P","margin":"D","reportingType":"OM","ideess":"12868","idMunicipio":"1793","idProvincia":"11","idCCAA":"01"}}},{"type":"Feature","geometry":{"type":"Point","coordinates":[-6.14375,36.43925]},"properties":{"id":"es-12941","source":"ES","brand":"PETROPRIX CHICLANA","address":"AVENIDA MUEBLE DEL, 28","municipality":"Chiclana de la Frontera","province":"CÁDIZ","postalCode":"11130","schedule":"L-D: 24H","fuels":{"gasoline95":1.669,"diesel":1.679},"extra":{"saleType":"P","margin":"D","reportingType":"dm","ideess":"12941","idMunicipio":"1776","idProvincia":"11","idCCAA":"01"}}},{"type":"Feature","geometry":{"type":"Point","coordinates":[-6.134333,36.651778]},"properties":{"id":"es-12954","source":"ES","brand":"GACOSUR JEREZ","address":"CALLE SUDAFRICA, 134","municipality":"Jerez de la Frontera","province":"CÁDIZ","postalCode":"11408","schedule":"L-D: 24H","fuels":{"gasoline95":1.619,"gasoline98":1.719,"diesel":1.659,"dieselPremium":1.719,"lpg":1.198,"adblue":0.899},"extra":{"saleType":"P","margin":"D","reportingType":"dm","ideess":"12954","idMunicipio":"1782","idProvincia":"11","idCCAA":"01"}}},{"type":"Feature","geometry":{"type":"Point","coordinates":[-6.143694,36.441972]},"properties":{"id":"es-12968","source":"ES","brand":"REPSOL","address":"AVENIDA MUEBLE DEL, 1","municipality":"Chiclana de la Frontera","province":"CÁDIZ","postalCode":"11130","schedule":"L-D: 24H","fuels":{"gasoline95":1.755,"gasoline98":1.925,"diesel":1.825,"dieselPremium":1.885},"extra":{"saleType":"P","margin":"I","reportingType":"OM","ideess":"12968","idMunicipio":"1776","idProvincia":"11","idCCAA":"01"}}},{"type":"Feature","geometry":{"type":"Point","coordinates":[-6.131389,36.658528]},"properties":{"id":"es-12991","source":"ES","brand":"ECONOIL","address":"AVENIDA ALCALDE CANTOS ROPERO, 89","municipality":"Jerez de la Frontera","province":"CÁDIZ","postalCode":"11408","schedule":"L-D: 24H","fuels":{"gasoline95":1.639,"diesel":1.649},"extra":{"saleType":"P","margin":"D","reportingType":"dm","ideess":"12991","idMunicipio":"1782","idProvincia":"11","idCCAA":"01"}}},{"type":"Feature","geometry":{"type":"Point","coordinates":[-6.082389,36.911222]},"properties":{"id":"es-13008","source":"ES","brand":"AGLA - PETROUVE","address":"AVENIDA NERVIÓN, 42","municipality":"Lebrija","province":"SEVILLA","postalCode":"41710","schedule":"L-S: 06:00-22:00; D: 09:00-22:00","fuels":{"gasoline95":1.619,"diesel":1.709},"extra":{"saleType":"P","margin":"D","reportingType":"dm","ideess":"13008","idMunicipio":"6110","idProvincia":"41","idCCAA":"01"}}},{"type":"Feature","geometry":{"type":"Point","coordinates":[-6.204056,36.474361]},"properties":{"id":"es-13108","source":"ES","brand":"PETROPRIX S. FERNANDO","address":"CALLE MECANICOS, 10","municipality":"San Fernando","province":"CÁDIZ","postalCode":"11100","schedule":"L-D: 24H","fuels":{"gasoline95":1.659,"diesel":1.649},"extra":{"saleType":"P","margin":"D","reportingType":"dm","ideess":"13108","idMunicipio":"1793","idProvincia":"11","idCCAA":"01"}}},{"type":"Feature","geometry":{"type":"Point","coordinates":[-6.154194,36.426583]},"properties":{"id":"es-13114","source":"ES","brand":"CLC CALIDAD LOW COST","address":"CALLE SEVERO OCHOA, 23","municipality":"Chiclana de la Frontera","province":"CÁDIZ","postalCode":"11130","schedule":"L-D: 24H","fuels":{"gasoline95":1.699,"diesel":1.749},"extra":{"saleType":"P","margin":"D","reportingType":"dm","ideess":"13114","idMunicipio":"1776","idProvincia":"11","idCCAA":"01"}}},{"type":"Feature","geometry":{"type":"Point","coordinates":[-6.080528,36.911]},"properties":{"id":"es-13194","source":"ES","brand":"E.S. ATENAS","address":"AVENIDA ATENAS DE, 129","municipality":"Lebrija","province":"SEVILLA","postalCode":"41710","schedule":"L-D: 06:30-22:30","fuels":{"gasoline95":1.578,"diesel":1.665},"extra":{"saleType":"P","margin":"D","reportingType":"dm","ideess":"13194","idMunicipio":"6110","idProvincia":"41","idCCAA":"01"}}},{"type":"Feature","geometry":{"type":"Point","coordinates":[-6.114778,36.708028]},"properties":{"id":"es-13207","source":"ES","brand":"PETROPRIX","address":"CARRETERA MADRID CADIZ KM. 15","municipality":"Jerez de la Frontera","province":"CÁDIZ","postalCode":"11407","schedule":"L-D: 24H","fuels":{"gasoline95":1.629,"diesel":1.619},"extra":{"saleType":"P","margin":"D","reportingType":"dm","ideess":"13207","idMunicipio":"1782","idProvincia":"11","idCCAA":"01"}}},{"type":"Feature","geometry":{"type":"Point","coordinates":[-6.152889,36.679611]},"properties":{"id":"es-13222","source":"ES","brand":"ECONOIL","address":"CALLE JARDINERIA, 1","municipality":"Jerez de la Frontera","province":"CÁDIZ","postalCode":"11408","schedule":"L-D: 24H","fuels":{"gasoline95":1.639,"diesel":1.639},"extra":{"saleType":"P","margin":"I","reportingType":"dm","ideess":"13222","idMunicipio":"1782","idProvincia":"11","idCCAA":"01"}}},{"type":"Feature","geometry":{"type":"Point","coordinates":[-6.16925,36.393583]},"properties":{"id":"es-13322","source":"ES","brand":"BALLENOIL","address":"CAMINO AGUILA REAL, 22","municipality":"Chiclana de la Frontera","province":"CÁDIZ","postalCode":"11139","schedule":"L-D: 24H","fuels":{"gasoline95":1.669,"diesel":1.679},"extra":{"saleType":"P","margin":"D","reportingType":"OM","ideess":"13322","idMunicipio":"1776","idProvincia":"11","idCCAA":"01"}}},{"type":"Feature","geometry":{"type":"Point","coordinates":[-6.342111,36.764583]},"properties":{"id":"es-13418","source":"ES","brand":"REPSOL","address":"CARRETERA CA-603 KM. 0,500","municipality":"Sanlúcar de Barrameda","province":"CÁDIZ","postalCode":"11540","schedule":"L-D: 06:00-22:00","fuels":{"gasoline95":1.789,"gasoline98":1.909,"diesel":1.859,"dieselPremium":1.919},"extra":{"saleType":"P","margin":"D","reportingType":"OM","ideess":"13418","idMunicipio":"1796","idProvincia":"11","idCCAA":"01"}}},{"type":"Feature","geometry":{"type":"Point","coordinates":[-6.141944,36.431333]},"properties":{"id":"es-13466","source":"ES","brand":"EASYFUEL","address":"URBANIZACIÓN PARCELA 2 DEL SUNC-TU 24 \"CAMINO DEL LOBO 1\", 1","municipality":"Chiclana de la Frontera","province":"CÁDIZ","postalCode":"11130","schedule":"L-D: 24H","fuels":{"gasoline95":1.699,"gasoline98":1.799,"diesel":1.719,"dieselPremium":1.749},"extra":{"saleType":"P","margin":"N","reportingType":"dm","ideess":"13466","idMunicipio":"1776","idProvincia":"11","idCCAA":"01"}}},{"type":"Feature","geometry":{"type":"Point","coordinates":[-6.173583,36.469417]},"properties":{"id":"es-13511","source":"ES","brand":"PETROL & GO (TRES CAMINOS)","address":"AVENIDA MOJARRA, 16","municipality":"Puerto Real","province":"CÁDIZ","postalCode":"11510","schedule":"L-D: 24H","fuels":{"gasoline95":1.669,"diesel":1.659,"adblue":0.968},"extra":{"saleType":"P","margin":"D","reportingType":"dm","ideess":"13511","idMunicipio":"1790","idProvincia":"11","idCCAA":"01"}}},{"type":"Feature","geometry":{"type":"Point","coordinates":[-6.36725,36.63275]},"properties":{"id":"es-13533","source":"ES","brand":"BALLENOIL","address":"AVENIDA LIBERTAD, 26","municipality":"Rota","province":"CÁDIZ","postalCode":"11520","schedule":"L-D: 24H","fuels":{"gasoline95":1.615,"diesel":1.639},"extra":{"saleType":"P","margin":"D","reportingType":"OM","ideess":"13533","idMunicipio":"1792","idProvincia":"11","idCCAA":"01"}}},{"type":"Feature","geometry":{"type":"Point","coordinates":[-6.167917,36.396639]},"properties":{"id":"es-13542","source":"ES","brand":"REPSOL","address":"CARRETERA BARROSA DE LA KM. 1,300","municipality":"Chiclana de la Frontera","province":"CÁDIZ","postalCode":"11130","schedule":"L-D: 06:00-23:00","fuels":{"gasoline95":1.755,"gasoline98":1.889,"diesel":1.856,"dieselPremium":1.936},"extra":{"saleType":"P","margin":"D","reportingType":"dm","ideess":"13542","idMunicipio":"1776","idProvincia":"11","idCCAA":"01"}}},{"type":"Feature","geometry":{"type":"Point","coordinates":[-6.084083,36.284194]},"properties":{"id":"es-13566","source":"ES","brand":"PETROLIA","address":"AVENIDA DE LA MUSICA, 8","municipality":"Conil de la Frontera","province":"CÁDIZ","postalCode":"11140","schedule":"L-D: 24H","fuels":{"gasoline95":1.737,"diesel":1.767},"extra":{"saleType":"P","margin":"D","reportingType":"dm","ideess":"13566","idMunicipio":"1778","idProvincia":"11","idCCAA":"01"}}},{"type":"Feature","geometry":{"type":"Point","coordinates":[-6.196417,36.611306]},"properties":{"id":"es-13567","source":"ES","brand":"BP LAS SALINAS","address":"CALLE ALBERT EINSTEIN, 16","municipality":"Puerto de Santa María (El)","province":"CÁDIZ","postalCode":"11500","schedule":"L-D: 24H","fuels":{"gasoline95":1.769,"gasoline98":1.909,"diesel":1.835,"dieselPremium":1.925,"adblue":1.055},"extra":{"saleType":"P","margin":"D","reportingType":"OM","ideess":"13567","idMunicipio":"1789","idProvincia":"11","idCCAA":"01"}}},{"type":"Feature","geometry":{"type":"Point","coordinates":[-6.151083,36.428444]},"properties":{"id":"es-13590","source":"ES","brand":"BALLENOIL","address":"AVENIDA DE LOS DESCUBRIMIENTOS, 64","municipality":"Chiclana de la Frontera","province":"CÁDIZ","postalCode":"11130","schedule":"L-D: 24H","fuels":{"gasoline95":1.669,"diesel":1.679},"extra":{"saleType":"P","margin":"D","reportingType":"OM","ideess":"13590","idMunicipio":"1776","idProvincia":"11","idCCAA":"01"}}},{"type":"Feature","geometry":{"type":"Point","coordinates":[-6.200583,36.606778]},"properties":{"id":"es-13605","source":"ES","brand":"CLC CALIDAD LOW COST","address":"CALLE ALFRED NOBEL, 9","municipality":"Puerto de Santa María (El)","province":"CÁDIZ","postalCode":"11500","schedule":"L-D: 24H","fuels":{"gasoline95":1.699,"diesel":1.749},"extra":{"saleType":"P","margin":"D","reportingType":"dm","ideess":"13605","idMunicipio":"1789","idProvincia":"11","idCCAA":"01"}}},{"type":"Feature","geometry":{"type":"Point","coordinates":[-6.422417,36.736083]},"properties":{"id":"es-13666","source":"ES","brand":"MOEVE","address":"AVENIDA DE LA ESTACION, S/N","municipality":"Chipiona","province":"CÁDIZ","postalCode":"11550","schedule":"L-D: 07:00-23:00","fuels":{"gasoline95":1.769,"diesel":1.859},"extra":{"saleType":"P","margin":"D","reportingType":"dm","ideess":"13666","idMunicipio":"1777","idProvincia":"11","idCCAA":"01"}}},{"type":"Feature","geometry":{"type":"Point","coordinates":[-6.034944,36.858111]},"properties":{"id":"es-13714","source":"ES","brand":"E.S. RODALABOTA","address":"CALLE TORNERO, 4","municipality":"Cuervo de Sevilla (El)","province":"SEVILLA","postalCode":"41749","schedule":"L: 06:30-22:30","fuels":{"gasoline95":1.619,"diesel":1.669},"extra":{"saleType":"P","margin":"N","reportingType":"dm","ideess":"13714","idMunicipio":"6093","idProvincia":"41","idCCAA":"01"}}},{"type":"Feature","geometry":{"type":"Point","coordinates":[-6.422611,36.735806]},"properties":{"id":"es-13826","source":"ES","brand":"AUTONET&OIL","address":"CALLE CONSTITUCION, 103","municipality":"Chipiona","province":"CÁDIZ","postalCode":"11550","schedule":"L-D: 24H","fuels":{"gasoline95":1.669,"diesel":1.759},"extra":{"saleType":"P","margin":"D","reportingType":"dm","ideess":"13826","idMunicipio":"1777","idProvincia":"11","idCCAA":"01"}}},{"type":"Feature","geometry":{"type":"Point","coordinates":[-6.370889,36.636056]},"properties":{"id":"es-13916","source":"ES","brand":"BP ROTA","address":"AVENIDA CENTENARIO DE LA AVIACIÓN, 1","municipality":"Rota","province":"CÁDIZ","postalCode":"11520","schedule":"L-D: 24H","fuels":{"gasoline95":1.805,"gasoline98":1.945,"diesel":1.869,"dieselPremium":1.959},"extra":{"saleType":"P","margin":"D","reportingType":"OM","ideess":"13916","idMunicipio":"1792","idProvincia":"11","idCCAA":"01"}}},{"type":"Feature","geometry":{"type":"Point","coordinates":[-6.40075,36.677222]},"properties":{"id":"es-13931","source":"ES","brand":"ECONOIL","address":"URBANIZACIÓN LA BALLENA, S/N","municipality":"Rota","province":"CÁDIZ","postalCode":"11520","schedule":"L-D: 24H","fuels":{"gasoline95":1.749,"diesel":1.826},"extra":{"saleType":"P","margin":"D","reportingType":"dm","ideess":"13931","idMunicipio":"1792","idProvincia":"11","idCCAA":"01"}}},{"type":"Feature","geometry":{"type":"Point","coordinates":[-6.268361,36.508028]},"properties":{"id":"es-13983","source":"ES","brand":"REPSOL","address":"AVENIDA DE LA ILUSTRACION, 1","municipality":"Cádiz","province":"CÁDIZ","postalCode":"11012","schedule":"L-D: 06:00-22:00","fuels":{"gasoline95":1.749,"gasoline95Premium":1.819,"gasoline98":1.919,"diesel":1.819,"dieselPremium":1.929,"lpg":1.089},"extra":{"saleType":"P","margin":"I","reportingType":"OM","ideess":"13983","idMunicipio":"1774","idProvincia":"11","idCCAA":"01"}}},{"type":"Feature","geometry":{"type":"Point","coordinates":[-6.130444,36.659917]},"properties":{"id":"es-13985","source":"ES","brand":"REPSOL","address":"AVENIDA ALCALDE CANTOS ROPERO, S/N","municipality":"Jerez de la Frontera","province":"CÁDIZ","postalCode":"11408","schedule":"L-V: 00:00-22:00; S: 00:00-06:00 y 07:00-23:59; D: 00:00-06:00 y 15:00-23:59","fuels":{"gasoline95":1.745,"gasoline95Premium":1.825,"gasoline98":1.915,"diesel":1.845,"dieselPremium":1.905,"dieselB":1.735},"extra":{"saleType":"P","margin":"I","reportingType":"OM","ideess":"13985","idMunicipio":"1782","idProvincia":"11","idCCAA":"01"}}},{"type":"Feature","geometry":{"type":"Point","coordinates":[-6.16525,36.401167]},"properties":{"id":"es-14103","source":"ES","brand":"LAVAOIL","address":"CAMINO HUERTA PITON, 1","municipality":"Chiclana de la Frontera","province":"CÁDIZ","postalCode":"11130","schedule":"L-D: 24H","fuels":{"gasoline95":1.699,"diesel":1.749},"extra":{"saleType":"P","margin":"N","reportingType":"dm","ideess":"14103","idMunicipio":"1776","idProvincia":"11","idCCAA":"01"}}},{"type":"Feature","geometry":{"type":"Point","coordinates":[-6.200083,36.611111]},"properties":{"id":"es-14242","source":"ES","brand":"ASC CARBURANTES","address":"CALLE ALBERT EINSTEIN, 12","municipality":"Puerto de Santa María (El)","province":"CÁDIZ","postalCode":"11500","schedule":"L-D: 24H","fuels":{"gasoline95":1.519,"diesel":1.589},"extra":{"saleType":"P","margin":"D","reportingType":"dm","ideess":"14242","idMunicipio":"1789","idProvincia":"11","idCCAA":"01"}}},{"type":"Feature","geometry":{"type":"Point","coordinates":[-6.361472,36.7645]},"properties":{"id":"es-14268","source":"ES","brand":"BALLENOIL","address":"CALLE GENIL, 1","municipality":"Sanlúcar de Barrameda","province":"CÁDIZ","postalCode":"11540","schedule":"L-D: 24H","fuels":{"gasoline95":1.599,"diesel":1.635},"extra":{"saleType":"P","margin":"D","reportingType":"dm","ideess":"14268","idMunicipio":"1796","idProvincia":"11","idCCAA":"01"}}},{"type":"Feature","geometry":{"type":"Point","coordinates":[-6.267417,36.498194]},"properties":{"id":"es-14278","source":"ES","brand":"HEMEGAS","address":"CALLE ALGECIRAS, 4","municipality":"Cádiz","province":"CÁDIZ","postalCode":"11001","schedule":"L-D: 24H","fuels":{"gasoline95":1.599,"diesel":1.609,"lpg":1.055,"adblue":0.999},"extra":{"saleType":"P","margin":"I","reportingType":"dm","ideess":"14278","idMunicipio":"1774","idProvincia":"11","idCCAA":"01"}}},{"type":"Feature","geometry":{"type":"Point","coordinates":[-6.210694,36.615306]},"properties":{"id":"es-14299","source":"ES","brand":"Q8EASY","address":"CALLE EL PALMAR, 3","municipality":"Puerto de Santa María (El)","province":"CÁDIZ","postalCode":"11500","schedule":"L-D: 24H","fuels":{"gasoline95":1.719,"diesel":1.779},"extra":{"saleType":"P","margin":"D","reportingType":"dm","ideess":"14299","idMunicipio":"1789","idProvincia":"11","idCCAA":"01"}}},{"type":"Feature","geometry":{"type":"Point","coordinates":[-6.129944,36.4035]},"properties":{"id":"es-14305","source":"ES","brand":"CLC","address":"AVENIDA BAHIA DE ALGECIRAS, 2","municipality":"Chiclana de la Frontera","province":"CÁDIZ","postalCode":"11130","schedule":"L-D: 24H","fuels":{"gasoline95":1.699,"diesel":1.749},"extra":{"saleType":"P","margin":"D","reportingType":"dm","ideess":"14305","idMunicipio":"1776","idProvincia":"11","idCCAA":"01"}}},{"type":"Feature","geometry":{"type":"Point","coordinates":[-6.2705,36.502139]},"properties":{"id":"es-14306","source":"ES","brand":"CLC","address":"AVENIDA ALCALDE MANUEL DE LA PINTA, 25","municipality":"Cádiz","province":"CÁDIZ","postalCode":"11001","schedule":"L-D: 24H","fuels":{"gasoline95":1.639,"diesel":1.669},"extra":{"saleType":"P","margin":"D","reportingType":"dm","ideess":"14306","idMunicipio":"1774","idProvincia":"11","idCCAA":"01"}}},{"type":"Feature","geometry":{"type":"Point","coordinates":[-6.031222,36.866639]},"properties":{"id":"es-14341","source":"ES","brand":"ECONOIL","address":"CARRETERA NACIONAL IV KM. 613,8","municipality":"Cuervo de Sevilla (El)","province":"SEVILLA","postalCode":"41749","schedule":"L-D: 24H","fuels":{"gasoline95":1.599,"diesel":1.639,"adblue":0.89},"extra":{"saleType":"P","margin":"D","reportingType":"dm","ideess":"14341","idMunicipio":"6093","idProvincia":"41","idCCAA":"01"}}},{"type":"Feature","geometry":{"type":"Point","coordinates":[-6.220694,36.596722]},"properties":{"id":"es-14438","source":"ES","brand":"PETROPRIX","address":"CALLE RIO GUADARRANQUE, 1","municipality":"Puerto de Santa María (El)","province":"CÁDIZ","postalCode":"11500","schedule":"L-D: 24H","fuels":{"gasoline95":1.489,"diesel":1.579},"extra":{"saleType":"P","margin":"N","reportingType":"dm","ideess":"14438","idMunicipio":"1789","idProvincia":"11","idCCAA":"01"}}},{"type":"Feature","geometry":{"type":"Point","coordinates":[-6.195361,36.6115]},"properties":{"id":"es-14439","source":"ES","brand":"PETROPRIX","address":"CALLE ALBERT EINSTEIN, 17","municipality":"Puerto de Santa María (El)","province":"CÁDIZ","postalCode":"11500","schedule":"L-D: 24H","fuels":{"gasoline95":1.489,"diesel":1.579},"extra":{"saleType":"P","margin":"I","reportingType":"dm","ideess":"14439","idMunicipio":"1789","idProvincia":"11","idCCAA":"01"}}},{"type":"Feature","geometry":{"type":"Point","coordinates":[-6.284472,36.533694]},"properties":{"id":"es-14453","source":"ES","brand":"SUMINISTROS MAZO","address":"CALLE MARQUES DE COMILLAS SN, SN","municipality":"Cádiz","province":"CÁDIZ","postalCode":"11006","schedule":"L-S: 08:00-20:00","fuels":{"diesel":1.498,"dieselB":1.288,"adblue":0.708},"extra":{"saleType":"P","margin":"D","reportingType":"dm","ideess":"14453","idMunicipio":"1774","idProvincia":"11","idCCAA":"01"}}},{"type":"Feature","geometry":{"type":"Point","coordinates":[-6.130472,36.407694]},"properties":{"id":"es-14480","source":"ES","brand":"GALP","address":"CALLE CRUZ DE LA CALZADA PELAGA, S/N","municipality":"Chiclana de la Frontera","province":"CÁDIZ","postalCode":"11130","schedule":"L-D: 24H","fuels":{"gasoline95":1.739,"gasoline98":1.869,"diesel":1.779,"dieselPremium":1.889,"adblue":0.929},"extra":{"saleType":"P","margin":"D","reportingType":"dm","ideess":"14480","idMunicipio":"1776","idProvincia":"11","idCCAA":"01"}}},{"type":"Feature","geometry":{"type":"Point","coordinates":[-6.201778,36.474139]},"properties":{"id":"es-14481","source":"ES","brand":"BALLENOIL","address":"CALLE FERROCARRIL, 1","municipality":"San Fernando","province":"CÁDIZ","postalCode":"11100","schedule":"L-D: 24H","fuels":{"gasoline95":1.659,"diesel":1.649,"dieselPremium":1.669},"extra":{"saleType":"P","margin":"D","reportingType":"OM","ideess":"14481","idMunicipio":"1793","idProvincia":"11","idCCAA":"01"}}},{"type":"Feature","geometry":{"type":"Point","coordinates":[-6.126889,36.712472]},"properties":{"id":"es-14496","source":"ES","brand":"BALLENOIL","address":"CARRETERA DE LEBRIJA KM. 6","municipality":"Jerez de la Frontera","province":"CÁDIZ","postalCode":"11407","schedule":"L-D: 24H","fuels":{"gasoline95":1.629,"diesel":1.619,"dieselPremium":1.639},"extra":{"saleType":"P","margin":"N","reportingType":"OM","ideess":"14496","idMunicipio":"1782","idProvincia":"11","idCCAA":"01"}}},{"type":"Feature","geometry":{"type":"Point","coordinates":[-6.270222,36.500333]},"properties":{"id":"es-14533","source":"ES","brand":"PETROL & GO","address":"CALLE CASTELLAR DE LA FRONTERA, 4","municipality":"Cádiz","province":"CÁDIZ","postalCode":"11001","schedule":"L-D: 24H","fuels":{"gasoline95":1.599,"diesel":1.639},"extra":{"saleType":"P","margin":"I","reportingType":"dm","ideess":"14533","idMunicipio":"1774","idProvincia":"11","idCCAA":"01"}}},{"type":"Feature","geometry":{"type":"Point","coordinates":[-6.209556,36.61675]},"properties":{"id":"es-14753","source":"ES","brand":"GM OIL","address":"CARRER EL PALMAR, 11","municipality":"Puerto de Santa María (El)","province":"CÁDIZ","postalCode":"11500","schedule":"L-D: 24H","fuels":{"gasoline95":1.479,"diesel":1.579},"extra":{"saleType":"P","margin":"D","reportingType":"dm","ideess":"14753","idMunicipio":"1789","idProvincia":"11","idCCAA":"01"}}},{"type":"Feature","geometry":{"type":"Point","coordinates":[-6.117222,36.705]},"properties":{"id":"es-14755","source":"ES","brand":"REPSOL","address":"AVENIDA ANDALUCÍA, 34","municipality":"Jerez de la Frontera","province":"CÁDIZ","postalCode":"11407","schedule":"L-D: 07:00-00:00","fuels":{"gasoline95":1.745,"gasoline95Premium":1.805,"gasoline98":1.915,"diesel":1.829,"dieselPremium":1.889,"lpg":1.055},"extra":{"saleType":"P","margin":"D","reportingType":"OM","ideess":"14755","idMunicipio":"1782","idProvincia":"11","idCCAA":"01"}}},{"type":"Feature","geometry":{"type":"Point","coordinates":[-6.093833,36.341028]},"properties":{"id":"es-14761","source":"ES","brand":"CARREFOUR","address":"CARRETERA CN-340, P.K. 17,300 ESQUINA CARRIL JUANA VELA KM. 17300","municipality":"Conil de la Frontera","province":"CÁDIZ","postalCode":"11149","schedule":"L-D: 24H","fuels":{"gasoline95":1.719,"diesel":1.779},"extra":{"saleType":"P","margin":"N","reportingType":"dm","ideess":"14761","idMunicipio":"1778","idProvincia":"11","idCCAA":"01"}}},{"type":"Feature","geometry":{"type":"Point","coordinates":[-6.133861,36.416111]},"properties":{"id":"es-14793","source":"ES","brand":"BP","address":"CARRETERA MEDINA KM. 1","municipality":"Chiclana de la Frontera","province":"CÁDIZ","postalCode":"11130","schedule":"L-D: 24H","fuels":{"gasoline95":1.759,"gasoline98":1.899,"diesel":1.819,"dieselPremium":1.909},"extra":{"saleType":"P","margin":"I","reportingType":"dm","ideess":"14793","idMunicipio":"1776","idProvincia":"11","idCCAA":"01"}}},{"type":"Feature","geometry":{"type":"Point","coordinates":[-6.195694,36.613139]},"properties":{"id":"es-14872","source":"ES","brand":"SHELL","address":"POLIGONO AVDA. INGENIERO FELIX SANCHO 19, POLÍGONO INDUSTRIAL SALINAS, S/N","municipality":"Puerto de Santa María (El)","province":"CÁDIZ","postalCode":"11500","schedule":"L-D: 00:00-23:59","fuels":{"gasoline95":1.519,"diesel":1.619},"extra":{"saleType":"P","margin":"D","reportingType":"OM","ideess":"14872","idMunicipio":"1789","idProvincia":"11","idCCAA":"01"}}},{"type":"Feature","geometry":{"type":"Point","coordinates":[-6.421889,36.738417]},"properties":{"id":"es-14891","source":"ES","brand":"QP CHIPIONA","address":"AVENIDA GRANADA, 102","municipality":"Chipiona","province":"CÁDIZ","postalCode":"11550","schedule":"L-D: 24H","fuels":{"gasoline95":1.639,"diesel":1.689},"extra":{"saleType":"P","margin":"D","reportingType":"dm","ideess":"14891","idMunicipio":"1777","idProvincia":"11","idCCAA":"01"}}},{"type":"Feature","geometry":{"type":"Point","coordinates":[-6.213389,36.612611]},"properties":{"id":"es-14907","source":"ES","brand":"PETROL & GO PUERTO DE SANTA MARIA","address":"CALLE RIO TAJO, 2","municipality":"Puerto de Santa María (El)","province":"CÁDIZ","postalCode":"11500","schedule":"L: 24H","fuels":{"gasoline95":1.537,"diesel":1.649,"dieselPremium":1.669,"adblue":0.968},"extra":{"saleType":"P","margin":"D","reportingType":"dm","ideess":"14907","idMunicipio":"1789","idProvincia":"11","idCCAA":"01"}}},{"type":"Feature","geometry":{"type":"Point","coordinates":[-6.205611,36.470583]},"properties":{"id":"es-14910","source":"ES","brand":"CARREFOUR","address":"CALLE FERROCARRIL 39 B, 39","municipality":"San Fernando","province":"CÁDIZ","postalCode":"11100","schedule":"L-D: 24H","fuels":{"gasoline95":1.729,"gasoline98":1.929,"diesel":1.779,"dieselPremium":1.819},"extra":{"saleType":"P","margin":"N","reportingType":"dm","ideess":"14910","idMunicipio":"1793","idProvincia":"11","idCCAA":"01"}}},{"type":"Feature","geometry":{"type":"Point","coordinates":[-6.131722,36.668167]},"properties":{"id":"es-14919","source":"ES","brand":"Q8","address":"AVENIDA ALCALDE CANTOS ROPERO, S/N","municipality":"Jerez de la Frontera","province":"CÁDIZ","postalCode":"11408","schedule":"L-D: 24H","fuels":{"gasoline95":1.659,"diesel":1.739,"adblue":0.939},"extra":{"saleType":"P","margin":"N","reportingType":"dm","ideess":"14919","idMunicipio":"1782","idProvincia":"11","idCCAA":"01"}}},{"type":"Feature","geometry":{"type":"Point","coordinates":[-6.091611,36.286111]},"properties":{"id":"es-14967","source":"ES","brand":"PLENERGY","address":"CARRETERA PRADILLO KM. 1","municipality":"Conil de la Frontera","province":"CÁDIZ","postalCode":"11140","schedule":"L-D: 24H","fuels":{"gasoline95":1.679,"diesel":1.699},"extra":{"saleType":"P","margin":"D","reportingType":"dm","ideess":"14967","idMunicipio":"1778","idProvincia":"11","idCCAA":"01"}}},{"type":"Feature","geometry":{"type":"Point","coordinates":[-6.147306,36.3945]},"properties":{"id":"es-14983","source":"ES","brand":"Q8","address":"CAMINO DE FUENTE AMARGA, 114","municipality":"Chiclana de la Frontera","province":"CÁDIZ","postalCode":"11130","schedule":"L-D: 24H","fuels":{"gasoline95":1.739,"diesel":1.799},"extra":{"saleType":"P","margin":"N","reportingType":"dm","ideess":"14983","idMunicipio":"1776","idProvincia":"11","idCCAA":"01"}}},{"type":"Feature","geometry":{"type":"Point","coordinates":[-6.13925,36.411028]},"properties":{"id":"es-14993","source":"ES","brand":"BALLENOIL","address":"CALLE ELECTRICISTAS LOS, 1","municipality":"Chiclana de la Frontera","province":"CÁDIZ","postalCode":"11130","schedule":"L-D: 24H","fuels":{"gasoline95":1.669,"diesel":1.679,"dieselPremium":1.699},"extra":{"saleType":"P","margin":"D","reportingType":"OM","ideess":"14993","idMunicipio":"1776","idProvincia":"11","idCCAA":"01"}}},{"type":"Feature","geometry":{"type":"Point","coordinates":[-6.3455,36.777778]},"properties":{"id":"es-15092","source":"ES","brand":"PETROL&GO","address":"AVENIDA AL-ANDALUS, 53","municipality":"Sanlúcar de Barrameda","province":"CÁDIZ","postalCode":"11540","schedule":"L-D: 24H","fuels":{"gasoline95":1.649,"diesel":1.699},"extra":{"saleType":"P","margin":"N","reportingType":"dm","ideess":"15092","idMunicipio":"1796","idProvincia":"11","idCCAA":"01"}}},{"type":"Feature","geometry":{"type":"Point","coordinates":[-6.143417,36.435556]},"properties":{"id":"es-15127","source":"ES","brand":"PETROPRIX","address":"AVENIDA DEL MUEBLE, 56","municipality":"Chiclana de la Frontera","province":"CÁDIZ","postalCode":"11130","schedule":"L-D: 24H","fuels":{"gasoline95":1.669,"diesel":1.679},"extra":{"saleType":"P","margin":"N","reportingType":"dm","ideess":"15127","idMunicipio":"1776","idProvincia":"11","idCCAA":"01"}}},{"type":"Feature","geometry":{"type":"Point","coordinates":[-6.284361,36.526361]},"properties":{"id":"es-15165","source":"ES","brand":"MOEVE","address":"AVENIDA ASTILLEROS, S/N","municipality":"Cádiz","province":"CÁDIZ","postalCode":"11007","schedule":"L-D: 06:00-23:59","fuels":{"gasoline95":1.739,"gasoline95Premium":1.799,"diesel":1.799,"dieselPremium":1.866},"extra":{"saleType":"P","margin":"D","reportingType":"OM","ideess":"15165","idMunicipio":"1774","idProvincia":"11","idCCAA":"01"}}},{"type":"Feature","geometry":{"type":"Point","coordinates":[-6.071444,36.921806]},"properties":{"id":"es-15173","source":"ES","brand":"PLENERGY","address":"AVENIDA JOSE MARIA TOMASSETTI, 5","municipality":"Lebrija","province":"SEVILLA","postalCode":"41710","schedule":"L-D: 24H","fuels":{"gasoline95":1.587,"diesel":1.685},"extra":{"saleType":"P","margin":"D","reportingType":"dm","ideess":"15173","idMunicipio":"6110","idProvincia":"41","idCCAA":"01"}}},{"type":"Feature","geometry":{"type":"Point","coordinates":[-6.340583,36.755889]},"properties":{"id":"es-15227","source":"ES","brand":"BALLENOIL","address":"AVENIDA DE EL PUERTO  DE SANTA MARIA, 53","municipality":"Sanlúcar de Barrameda","province":"CÁDIZ","postalCode":"11540","schedule":"L-D: 24H","fuels":{"gasoline95":1.599,"diesel":1.635,"dieselPremium":1.655},"extra":{"saleType":"P","margin":"D","reportingType":"OM","ideess":"15227","idMunicipio":"1796","idProvincia":"11","idCCAA":"01"}}},{"type":"Feature","geometry":{"type":"Point","coordinates":[-6.069583,36.291306]},"properties":{"id":"es-15298","source":"ES","brand":"CENTRO DE LAVADO LA ZORRERA SL","address":"AVENIDA PRIMERO DE MAYO (ZORRERA), 9","municipality":"Conil de la Frontera","province":"CÁDIZ","postalCode":"11149","schedule":"L: 07:00-22:00","fuels":{"gasoline95":1.729,"diesel":1.769},"extra":{"saleType":"P","margin":"D","reportingType":"dm","ideess":"15298","idMunicipio":"1778","idProvincia":"11","idCCAA":"01"}}},{"type":"Feature","geometry":{"type":"Point","coordinates":[-6.201278,36.475194]},"properties":{"id":"es-15555","source":"ES","brand":"PLENERGY","address":"CALLE FERROCARRIL, S/N","municipality":"San Fernando","province":"CÁDIZ","postalCode":"11100","schedule":"L-D: 24H","fuels":{"gasoline95":1.669,"diesel":1.669},"extra":{"saleType":"P","margin":"D","reportingType":"dm","ideess":"15555","idMunicipio":"1793","idProvincia":"11","idCCAA":"01"}}},{"type":"Feature","geometry":{"type":"Point","coordinates":[-6.077444,36.304528]},"properties":{"id":"es-15603","source":"ES","brand":"SCA. NTRA. SRA. DE LAS VIRTUDES","address":"CARRETERA CADIZ MALAGA KM. 21","municipality":"Conil de la Frontera","province":"CÁDIZ","postalCode":"11149","schedule":"L-S: 08:00-20:00; D: 07:00-14:00","fuels":{"gasoline95":1.56,"diesel":1.62,"dieselB":1.32,"adblue":0.89},"extra":{"saleType":"P","margin":"N","reportingType":"dm","ideess":"15603","idMunicipio":"1778","idProvincia":"11","idCCAA":"01"}}},{"type":"Feature","geometry":{"type":"Point","coordinates":[-6.143194,36.432167]},"properties":{"id":"es-15754","source":"ES","brand":"PLENERGY","address":"AVENIDA DEL MUEBLE, 8","municipality":"Chiclana de la Frontera","province":"CÁDIZ","postalCode":"11130","schedule":"L-D: 24H","fuels":{"gasoline95":1.679,"diesel":1.699},"extra":{"saleType":"P","margin":"D","reportingType":"dm","ideess":"15754","idMunicipio":"1776","idProvincia":"11","idCCAA":"01"}}},{"type":"Feature","geometry":{"type":"Point","coordinates":[-6.122111,36.671611]},"properties":{"id":"es-15837","source":"ES","brand":"BALLENOIL","address":"AVENIDA MEDINA SIDONIA KM.1, S/N","municipality":"Jerez de la Frontera","province":"CÁDIZ","postalCode":"11401","schedule":"L-D: 24H","fuels":{"gasoline95":1.599,"diesel":1.585,"dieselPremium":1.595},"extra":{"saleType":"P","margin":"D","reportingType":"OM","ideess":"15837","idMunicipio":"1782","idProvincia":"11","idCCAA":"01"}}},{"type":"Feature","geometry":{"type":"Point","coordinates":[-6.150278,36.696806]},"properties":{"id":"es-15839","source":"ES","brand":"PLENERGY","address":"CARRETERA CIRCUNVALACION KM. S/N","municipality":"Jerez de la Frontera","province":"CÁDIZ","postalCode":"11404","schedule":"L-D: 24H","fuels":{"gasoline95":1.587,"diesel":1.605},"extra":{"saleType":"P","margin":"D","reportingType":"dm","ideess":"15839","idMunicipio":"1782","idProvincia":"11","idCCAA":"01"}}},{"type":"Feature","geometry":{"type":"Point","coordinates":[-6.217528,36.453667]},"properties":{"id":"es-15923","source":"ES","brand":"PLENERGY","address":"CARRETERA DE LA BATERIA DE LA ARDILA KM. S/N","municipality":"San Fernando","province":"CÁDIZ","postalCode":"11100","schedule":"L-D: 24H","fuels":{"gasoline95":1.669,"diesel":1.669},"extra":{"saleType":"P","margin":"D","reportingType":"dm","ideess":"15923","idMunicipio":"1793","idProvincia":"11","idCCAA":"01"}}},{"type":"Feature","geometry":{"type":"Point","coordinates":[-6.091944,36.336167]},"properties":{"id":"es-16029","source":"ES","brand":"BALLENOIL","address":"CARRETERA CÁDIZ - MÁLAGA KM. 17,67","municipality":"Conil de la Frontera","province":"CÁDIZ","postalCode":"11149","schedule":"L-D: 24H","fuels":{"gasoline95":1.669,"diesel":1.679,"dieselPremium":1.699},"extra":{"saleType":"P","margin":"N","reportingType":"OM","ideess":"16029","idMunicipio":"1778","idProvincia":"11","idCCAA":"01"}}},{"type":"Feature","geometry":{"type":"Point","coordinates":[-6.127472,36.711444]},"properties":{"id":"es-16083","source":"ES","brand":"SEROIL ENERGY","address":"CARRETERA DE LEBRIJA KM. 6","municipality":"Jerez de la Frontera","province":"CÁDIZ","postalCode":"11407","schedule":"L-D: 24H","fuels":{"gasoline95":1.629,"diesel":1.619},"extra":{"saleType":"P","margin":"D","reportingType":"dm","ideess":"16083","idMunicipio":"1782","idProvincia":"11","idCCAA":"01"}}},{"type":"Feature","geometry":{"type":"Point","coordinates":[-6.343139,36.769917]},"properties":{"id":"es-16275","source":"ES","brand":"BALLENOIL","address":"CALLE TOMÁS IRIARTE, 2","municipality":"Sanlúcar de Barrameda","province":"CÁDIZ","postalCode":"11540","schedule":"L-D: 24H","fuels":{"gasoline95":1.599,"gasoline95Premium":1.619,"diesel":1.635,"dieselPremium":1.655},"extra":{"saleType":"P","margin":"N","reportingType":"OM","ideess":"16275","idMunicipio":"1796","idProvincia":"11","idCCAA":"01"}}},{"type":"Feature","geometry":{"type":"Point","coordinates":[-6.236028,36.523306]},"properties":{"id":"es-16332","source":"ES","brand":"BALLENOIL","address":"AVENIDA DEL PERÚ ,P.I. RIO SAN PEDRO, 1","municipality":"Puerto Real","province":"CÁDIZ","postalCode":"11519","schedule":"L-D: 24H","fuels":{"gasoline95":1.449,"gasoline95Premium":1.459,"diesel":1.539,"dieselPremium":1.549},"extra":{"saleType":"P","margin":"N","reportingType":"OM","ideess":"16332","idMunicipio":"1790","idProvincia":"11","idCCAA":"01"}}},{"type":"Feature","geometry":{"type":"Point","coordinates":[-6.139806,36.442472]},"properties":{"id":"es-16342","source":"ES","brand":"AXXON RED, SL","address":"CARRETERA PINAR DE LOS FRANCESES KM. 22","municipality":"Chiclana de la Frontera","province":"CÁDIZ","postalCode":"11130","schedule":"L-D: 24H","fuels":{"gasoline95":1.75,"diesel":1.73},"extra":{"saleType":"P","margin":"D","reportingType":"dm","ideess":"16342","idMunicipio":"1776","idProvincia":"11","idCCAA":"01"}}},{"type":"Feature","geometry":{"type":"Point","coordinates":[-6.093389,36.339222]},"properties":{"id":"es-16480","source":"ES","brand":"PETROPRIX","address":"DISEMINADO CARRETERA N-340, 17","municipality":"Conil de la Frontera","province":"CÁDIZ","postalCode":"11140","schedule":"L-D: 24H","fuels":{"gasoline95":1.669,"diesel":1.679},"extra":{"saleType":"P","margin":"D","reportingType":"dm","ideess":"16480","idMunicipio":"1778","idProvincia":"11","idCCAA":"01"}}},{"type":"Feature","geometry":{"type":"Point","coordinates":[-6.426667,36.723056]},"properties":{"id":"es-16490","source":"ES","brand":"AGLA","address":"CARRETERA CHIPIONA ROTA A-491 KM. 0,5","municipality":"Chipiona","province":"CÁDIZ","postalCode":"11550","schedule":"L-V: 06:00-23:00; S-D: 07:00-23:00","fuels":{"gasoline95":1.65,"gasoline98":1.75,"diesel":1.699,"dieselPremium":1.76,"dieselB":1.299,"adblue":1.059},"extra":{"saleType":"P","margin":"D","reportingType":"dm","ideess":"16490","idMunicipio":"1777","idProvincia":"11","idCCAA":"01"}}},{"type":"Feature","geometry":{"type":"Point","coordinates":[-6.110222,36.673722]},"properties":{"id":"es-5555","source":"ES","brand":"BP","address":"NUEVA RONDA ESTE. GTA.BARRIADA NUEVA","municipality":"Jerez de la Frontera","province":"CÁDIZ","postalCode":"11406","schedule":"L-D: 24H","fuels":{"gasoline95":1.759,"gasoline98":1.929,"diesel":1.829,"dieselPremium":1.909},"extra":{"saleType":"P","margin":"N","reportingType":"dm","ideess":"5555","idMunicipio":"1782","idProvincia":"11","idCCAA":"01"}}},{"type":"Feature","geometry":{"type":"Point","coordinates":[-6.212056,36.615083]},"properties":{"id":"es-5578","source":"ES","brand":"CARREFOUR","address":"CARRETERA MADRID CADIZ KM. 653","municipality":"Puerto de Santa María (El)","province":"CÁDIZ","postalCode":"11500","schedule":"L-D: 24H","fuels":{"gasoline95":1.719,"gasoline98":1.879,"diesel":1.779,"dieselPremium":1.819},"extra":{"saleType":"P","margin":"N","reportingType":"dm","ideess":"5578","idMunicipio":"1789","idProvincia":"11","idCCAA":"01"}}},{"type":"Feature","geometry":{"type":"Point","coordinates":[-6.151306,36.673417]},"properties":{"id":"es-5599","source":"ES","brand":"CARREFOUR","address":"CARRETERA NACIONAL IV ,KM 641 (PTA DEL SUR) KM. 641","municipality":"Jerez de la Frontera","province":"CÁDIZ","postalCode":"11407","schedule":"L-D: 24H","fuels":{"gasoline95":1.719,"gasoline98":1.879,"diesel":1.769,"dieselPremium":1.809},"extra":{"saleType":"P","margin":"N","reportingType":"dm","ideess":"5599","idMunicipio":"1782","idProvincia":"11","idCCAA":"01"}}},{"type":"Feature","geometry":{"type":"Point","coordinates":[-6.111694,36.697972]},"properties":{"id":"es-5600","source":"ES","brand":"BALLENOIL","address":"AVENIDA EUROPA, S/N","municipality":"Jerez de la Frontera","province":"CÁDIZ","postalCode":"11405","schedule":"L-D: 24H","fuels":{"gasoline95":1.629,"diesel":1.619,"dieselPremium":1.639},"extra":{"saleType":"P","margin":"N","reportingType":"OM","ideess":"5600","idMunicipio":"1782","idProvincia":"11","idCCAA":"01"}}},{"type":"Feature","geometry":{"type":"Point","coordinates":[-6.362111,36.763694]},"properties":{"id":"es-5652","source":"ES","brand":"CEPSA","address":"CALLE BREZO, 2","municipality":"Sanlúcar de Barrameda","province":"CÁDIZ","postalCode":"11540","schedule":"L-D: 07:00-23:00","fuels":{"gasoline95":1.789,"gasoline95Premium":1.889,"diesel":1.859,"dieselPremium":1.949},"extra":{"saleType":"P","margin":"I","reportingType":"dm","ideess":"5652","idMunicipio":"1796","idProvincia":"11","idCCAA":"01"}}},{"type":"Feature","geometry":{"type":"Point","coordinates":[-6.260139,36.642444]},"properties":{"id":"es-5659","source":"ES","brand":"REPSOL","address":"CARRETERA A-2001 KM. 5","municipality":"Puerto de Santa María (El)","province":"CÁDIZ","postalCode":"11500","schedule":"L-D: 07:00-23:00","fuels":{"gasoline95":1.779,"gasoline98":1.899,"diesel":1.825,"dieselPremium":1.885},"extra":{"saleType":"P","margin":"D","reportingType":"dm","ideess":"5659","idMunicipio":"1789","idProvincia":"11","idCCAA":"01"}}},{"type":"Feature","geometry":{"type":"Point","coordinates":[-6.147333,36.679306]},"properties":{"id":"es-5665","source":"ES","brand":"BALLENOIL","address":"AVENIDA SANLUCAR, ","municipality":"Jerez de la Frontera","province":"CÁDIZ","postalCode":"11408","schedule":"L-D: 24H","fuels":{"gasoline95":1.577,"diesel":1.585,"dieselPremium":1.605},"extra":{"saleType":"P","margin":"N","reportingType":"OM","ideess":"5665","idMunicipio":"1782","idProvincia":"11","idCCAA":"01"}}},{"type":"Feature","geometry":{"type":"Point","coordinates":[-6.356472,36.771639]},"properties":{"id":"es-5666","source":"ES","brand":"BP SANLUCAR AVENIDA","address":"AVENIDA QUINTO CENTENARIO, S/N","municipality":"Sanlúcar de Barrameda","province":"CÁDIZ","postalCode":"11540","schedule":"L-D: 24H","fuels":{"gasoline95":1.789,"gasoline98":1.929,"diesel":1.859,"dieselPremium":1.949},"extra":{"saleType":"P","margin":"D","reportingType":"OM","ideess":"5666","idMunicipio":"1796","idProvincia":"11","idCCAA":"01"}}},{"type":"Feature","geometry":{"type":"Point","coordinates":[-6.3465,36.770389]},"properties":{"id":"es-5667","source":"ES","brand":"BP BONANZA","address":"AVENIDA CONSTITUCION, S/N","municipality":"Sanlúcar de Barrameda","province":"CÁDIZ","postalCode":"11540","schedule":"L-D: 24H","fuels":{"gasoline95":1.789,"gasoline98":1.929,"diesel":1.859,"dieselPremium":1.949},"extra":{"saleType":"P","margin":"D","reportingType":"OM","ideess":"5667","idMunicipio":"1796","idProvincia":"11","idCCAA":"01"}}},{"type":"Feature","geometry":{"type":"Point","coordinates":[-6.203194,36.471806]},"properties":{"id":"es-5668","source":"ES","brand":"BP SAN FERNANDO","address":"AVENIDA PERI JUNQUERA S/N, SN","municipality":"San Fernando","province":"CÁDIZ","postalCode":"11100","schedule":"L-D: 06:00-00:00","fuels":{"gasoline95":1.759,"gasoline98":1.899,"diesel":1.819,"dieselPremium":1.909},"extra":{"saleType":"P","margin":"N","reportingType":"OM","ideess":"5668","idMunicipio":"1793","idProvincia":"11","idCCAA":"01"}}},{"type":"Feature","geometry":{"type":"Point","coordinates":[-6.219306,36.586667]},"properties":{"id":"es-5671","source":"ES","brand":"SHELL","address":"C/ LUIS M. FERNÁNDEZ, S/N km CENTRO COMERCIAL M","municipality":"Puerto de Santa María (El)","province":"CÁDIZ","postalCode":"11500","schedule":"L-S: 08:00-21:30","fuels":{"gasoline95":1.539,"diesel":1.619,"dieselPremium":1.699},"extra":{"saleType":"P","margin":"N","reportingType":"OM","ideess":"5671","idMunicipio":"1789","idProvincia":"11","idCCAA":"01"}}},{"type":"Feature","geometry":{"type":"Point","coordinates":[-6.041167,36.222139]},"properties":{"id":"es-5672","source":"ES","brand":"BP","address":"CARRETERA A-2230 KM. 7,1","municipality":"Vejer de la Frontera","province":"CÁDIZ","postalCode":"11159","schedule":"L-D: 06:30-22:30","fuels":{"gasoline95":1.779,"diesel":1.839,"dieselPremium":1.929,"lpg":1.099,"adblue":1.15},"extra":{"saleType":"P","margin":"D","reportingType":"dm","ideess":"5672","idMunicipio":"1802","idProvincia":"11","idCCAA":"01"}}},{"type":"Feature","geometry":{"type":"Point","coordinates":[-6.205833,36.470861]},"properties":{"id":"es-5673","source":"ES","brand":"BALLENOIL","address":"CL FERROCARRIL  34","municipality":"San Fernando","province":"CÁDIZ","postalCode":"11100","schedule":"L-D: 24H","fuels":{"gasoline95":1.659,"gasoline95Premium":1.679,"diesel":1.649,"dieselPremium":1.669},"extra":{"saleType":"P","margin":"N","reportingType":"OM","ideess":"5673","idMunicipio":"1793","idProvincia":"11","idCCAA":"01"}}},{"type":"Feature","geometry":{"type":"Point","coordinates":[-6.025333,36.253333]},"properties":{"id":"es-5676","source":"ES","brand":"GALP","address":"CARRETERA E-5/N-340 KM. 30,277","municipality":"Vejer de la Frontera","province":"CÁDIZ","postalCode":"11150","schedule":"L-V: 07:00-19:00; S: 07:00-16:00","fuels":{"gasoline95":1.699,"diesel":1.719},"extra":{"saleType":"P","margin":"N","reportingType":"dm","ideess":"5676","idMunicipio":"1802","idProvincia":"11","idCCAA":"01"}}},{"type":"Feature","geometry":{"type":"Point","coordinates":[-6.11925,36.388583]},"properties":{"id":"es-5677","source":"ES","brand":"REPSOL","address":"CARRETERA N-340 KM. 11,375","municipality":"Chiclana de la Frontera","province":"CÁDIZ","postalCode":"11130","schedule":"L-D: 06:30-22:30","fuels":{"gasoline95":1.745,"diesel":1.795,"dieselPremium":1.915},"extra":{"saleType":"P","margin":"D","reportingType":"dm","ideess":"5677","idMunicipio":"1776","idProvincia":"11","idCCAA":"01"}}},{"type":"Feature","geometry":{"type":"Point","coordinates":[-6.27075,36.497861]},"properties":{"id":"es-5679","source":"ES","brand":"BP","address":"CL GIBRALTAR ESQ SAN ROQUE","municipality":"Cádiz","province":"CÁDIZ","postalCode":"11011","schedule":"L-D: 06:30-22:30","fuels":{"gasoline95":1.679,"gasoline98":1.809,"diesel":1.679,"dieselPremium":1.749,"adblue":1.189},"extra":{"saleType":"P","margin":"N","reportingType":"dm","ideess":"5679","idMunicipio":"1774","idProvincia":"11","idCCAA":"01"}}},{"type":"Feature","geometry":{"type":"Point","coordinates":[-6.218722,36.456361]},"properties":{"id":"es-5683","source":"ES","brand":"BALLENOIL","address":"CARRETERA N-IVA KM. 680","municipality":"San Fernando","province":"CÁDIZ","postalCode":"11100","schedule":"L-D: 24H","fuels":{"gasoline95":1.659,"diesel":1.649,"dieselPremium":1.669},"extra":{"saleType":"P","margin":"I","reportingType":"OM","ideess":"5683","idMunicipio":"1793","idProvincia":"11","idCCAA":"01"}}},{"type":"Feature","geometry":{"type":"Point","coordinates":[-6.11875,36.704972]},"properties":{"id":"es-5684","source":"ES","brand":"MOEVE","address":"AVENIDA ANDALUCIA, 105","municipality":"Jerez de la Frontera","province":"CÁDIZ","postalCode":"11407","schedule":"L-D: 07:00-23:00","fuels":{"gasoline95":1.749,"gasoline95Premium":1.809,"gasoline98":1.919,"diesel":1.829,"dieselPremium":1.889,"lpg":0.959},"extra":{"saleType":"P","margin":"I","reportingType":"dm","ideess":"5684","idMunicipio":"1782","idProvincia":"11","idCCAA":"01"}}},{"type":"Feature","geometry":{"type":"Point","coordinates":[-6.095194,36.726972]},"properties":{"id":"es-5686","source":"ES","brand":"MOEVE","address":"CARRETERA N-IV KM. 632","municipality":"Jerez de la Frontera","province":"CÁDIZ","postalCode":"11407","schedule":"L-D: 24H","fuels":{"gasoline95":1.829,"gasoline98":1.929,"diesel":1.849,"dieselPremium":1.949,"adblue":0.99},"extra":{"saleType":"P","margin":"I","reportingType":"dm","ideess":"5686","idMunicipio":"1782","idProvincia":"11","idCCAA":"01"}}},{"type":"Feature","geometry":{"type":"Point","coordinates":[-6.189139,36.468639]},"properties":{"id":"es-5688","source":"ES","brand":"MOEVE","address":"AVDA. PUENTE ZUAZO, S/N (N-IVA km 677)","municipality":"San Fernando","province":"CÁDIZ","postalCode":"11100","schedule":"L-D: 24H","fuels":{"gasoline95":1.759,"gasoline95Premium":1.819,"diesel":1.866,"dieselPremium":1.946,"lpg":1.076},"extra":{"saleType":"P","margin":"I","reportingType":"OM","ideess":"5688","idMunicipio":"1793","idProvincia":"11","idCCAA":"01"}}},{"type":"Feature","geometry":{"type":"Point","coordinates":[-6.43275,36.738833]},"properties":{"id":"es-5689","source":"ES","brand":"MOEVE","address":"AVENIDA DIPUTACION, 1","municipality":"Chipiona","province":"CÁDIZ","postalCode":"11550","schedule":"L-D: 07:00-23:00","fuels":{"gasoline95":1.769,"diesel":1.859,"dieselPremium":1.929},"extra":{"saleType":"P","margin":"D","reportingType":"dm","ideess":"5689","idMunicipio":"1777","idProvincia":"11","idCCAA":"01"}}},{"type":"Feature","geometry":{"type":"Point","coordinates":[-6.193028,36.531111]},"properties":{"id":"es-5690","source":"ES","brand":"CEPSA","address":"CALLE TERESA DE CALCUTA, S/N","municipality":"Puerto Real","province":"CÁDIZ","postalCode":"11510","schedule":"L-V: 07:00-22:00; S-D: 08:00-22:00","fuels":{"gasoline95":1.694,"gasoline95Premium":1.784,"diesel":1.741,"dieselPremium":1.821},"extra":{"saleType":"P","margin":"I","reportingType":"dm","ideess":"5690","idMunicipio":"1790","idProvincia":"11","idCCAA":"01"}}},{"type":"Feature","geometry":{"type":"Point","coordinates":[-6.176694,36.393556]},"properties":{"id":"es-5691","source":"ES","brand":"MOEVE","address":"CARRETERA BARROSA-CHICLANA DE LA FRONTERA-SANCTI PETRI KM. 2,5","municipality":"Chiclana de la Frontera","province":"CÁDIZ","postalCode":"11130","schedule":"L-D: 07:00-23:00","fuels":{"gasoline95":1.759,"gasoline95Premium":1.849,"gasoline98":1.884,"diesel":1.886,"dieselPremium":1.966},"extra":{"saleType":"P","margin":"D","reportingType":"dm","ideess":"5691","idMunicipio":"1776","idProvincia":"11","idCCAA":"01"}}},{"type":"Feature","geometry":{"type":"Point","coordinates":[-6.14425,36.426639]},"properties":{"id":"es-5692","source":"ES","brand":"BALLENOIL","address":"ALAMEDA SOLANO, 18 (N-340A km 5,1)","municipality":"Chiclana de la Frontera","province":"CÁDIZ","postalCode":"11130","schedule":"L-D: 24H","fuels":{"gasoline95":1.669,"gasoline95Premium":1.689,"diesel":1.679,"dieselPremium":1.699},"extra":{"saleType":"P","margin":"I","reportingType":"OM","ideess":"5692","idMunicipio":"1776","idProvincia":"11","idCCAA":"01"}}},{"type":"Feature","geometry":{"type":"Point","coordinates":[-6.263333,36.495222]},"properties":{"id":"es-5707","source":"ES","brand":"CEPSA","address":"CALLE PUERTO REAL, S/N -ZONA FRANCA CADIZ, S/N","municipality":"Cádiz","province":"CÁDIZ","postalCode":"11012","schedule":"L-D: 06:00-22:00","fuels":{"gasoline95":1.734,"gasoline95Premium":1.824,"diesel":1.796,"dieselPremium":1.876},"extra":{"saleType":"P","margin":"D","reportingType":"dm","ideess":"5707","idMunicipio":"1774","idProvincia":"11","idCCAA":"01"}}},{"type":"Feature","geometry":{"type":"Point","coordinates":[-6.384889,36.746639]},"properties":{"id":"es-5708","source":"ES","brand":"MOEVE","address":"CARRETERA A-480 KM. 24,1","municipality":"Chipiona","province":"CÁDIZ","postalCode":"11550","schedule":"L-D: 07:00-22:00","fuels":{"gasoline95":1.729,"gasoline98":1.839,"diesel":1.806,"dieselPremium":1.886},"extra":{"saleType":"P","margin":"D","reportingType":"OM","ideess":"5708","idMunicipio":"1777","idProvincia":"11","idCCAA":"01"}}},{"type":"Feature","geometry":{"type":"Point","coordinates":[-6.362639,36.622472]},"properties":{"id":"es-5709","source":"ES","brand":"BALLENOIL","address":"AVENIDA MARIA AUXILIADORA, 35","municipality":"Rota","province":"CÁDIZ","postalCode":"11520","schedule":"L-D: 24H","fuels":{"gasoline95":1.615,"diesel":1.639,"dieselPremium":1.649},"extra":{"saleType":"P","margin":"I","reportingType":"OM","ideess":"5709","idMunicipio":"1792","idProvincia":"11","idCCAA":"01"}}},{"type":"Feature","geometry":{"type":"Point","coordinates":[-6.405556,36.742722]},"properties":{"id":"es-5721","source":"ES","brand":"REPSOL","address":"CARRETERA A 480 KM. 1,2","municipality":"Chipiona","province":"CÁDIZ","postalCode":"11550","schedule":"L-D: 06:30-22:30","fuels":{"gasoline95":1.755,"gasoline95Premium":1.815,"gasoline98":1.925,"diesel":1.855,"dieselPremium":1.925,"dieselB":1.719},"extra":{"saleType":"P","margin":"D","reportingType":"OM","ideess":"5721","idMunicipio":"1777","idProvincia":"11","idCCAA":"01"}}},{"type":"Feature","geometry":{"type":"Point","coordinates":[-6.151306,36.428583]},"properties":{"id":"es-5736","source":"ES","brand":"PLENERGY","address":"AVENIDA DE LOS DESCUBRIMIENTOS, 35","municipality":"Chiclana de la Frontera","province":"CÁDIZ","postalCode":"11130","schedule":"L-D: 24H","fuels":{"gasoline95":1.679,"diesel":1.699},"extra":{"saleType":"P","margin":"D","reportingType":"dm","ideess":"5736","idMunicipio":"1776","idProvincia":"11","idCCAA":"01"}}},{"type":"Feature","geometry":{"type":"Point","coordinates":[-6.143528,36.429333]},"properties":{"id":"es-5743","source":"ES","brand":"BP LA BAHIA","address":"POLIGONO EL TORNO, AVDA. DESCUBRIMIENTOS ESQ. ALAMEDA DE SOLANO, S/N","municipality":"Chiclana de la Frontera","province":"CÁDIZ","postalCode":"11130","schedule":"L-D: 24H","fuels":{"gasoline95":1.759,"gasoline98":1.899,"diesel":1.819,"dieselPremium":1.909},"extra":{"saleType":"P","margin":"N","reportingType":"dm","ideess":"5743","idMunicipio":"1776","idProvincia":"11","idCCAA":"01"}}},{"type":"Feature","geometry":{"type":"Point","coordinates":[-6.115361,36.381278]},"properties":{"id":"es-5762","source":"ES","brand":"REPSOL","address":"CR N-340, 12,3","municipality":"Chiclana de la Frontera","province":"CÁDIZ","postalCode":"11130","schedule":"L-V: 06:00-22:00; S: 07:00-14:00","fuels":{"gasoline95":1.749,"gasoline95Premium":1.809,"diesel":1.829,"dieselPremium":1.939},"extra":{"saleType":"P","margin":"D","reportingType":"OM","ideess":"5762","idMunicipio":"1776","idProvincia":"11","idCCAA":"01"}}},{"type":"Feature","geometry":{"type":"Point","coordinates":[-6.089806,36.281194]},"properties":{"id":"es-5774","source":"ES","brand":"REPSOL","address":"CALLE GONZALO SANCHEZ FUENTES, 2","municipality":"Conil de la Frontera","province":"CÁDIZ","postalCode":"11140","schedule":"L-D: 06:00-22:00","fuels":{"gasoline95":1.765,"gasoline98":1.885,"diesel":1.839,"dieselPremium":1.899},"extra":{"saleType":"P","margin":"D","reportingType":"OM","ideess":"5774","idMunicipio":"1778","idProvincia":"11","idCCAA":"01"}}},{"type":"Feature","geometry":{"type":"Point","coordinates":[-6.203667,36.473528]},"properties":{"id":"es-5785","source":"ES","brand":"REPSOL","address":"CALLE FERROCARRIL, 10","municipality":"San Fernando","province":"CÁDIZ","postalCode":"11100","schedule":"L-S: 07:00-22:00; D: 07:00-15:00","fuels":{"gasoline95":1.775,"gasoline98":1.945,"diesel":1.819,"dieselPremium":1.899},"extra":{"saleType":"P","margin":"N","reportingType":"OM","ideess":"5785","idMunicipio":"1793","idProvincia":"11","idCCAA":"01"}}},{"type":"Feature","geometry":{"type":"Point","coordinates":[-6.139528,36.418306]},"properties":{"id":"es-5789","source":"ES","brand":"REPSOL","address":"CARRETERA MEDINA KM. 0,625","municipality":"Chiclana de la Frontera","province":"CÁDIZ","postalCode":"11130","schedule":"L-D: 06:00-00:00","fuels":{"gasoline95":1.749,"gasoline95Premium":1.809,"diesel":1.819,"dieselPremium":1.919},"extra":{"saleType":"P","margin":"D","reportingType":"OM","ideess":"5789","idMunicipio":"1776","idProvincia":"11","idCCAA":"01"}}},{"type":"Feature","geometry":{"type":"Point","coordinates":[-6.216556,36.609]},"properties":{"id":"es-5792","source":"ES","brand":"BP PUERTO STA. MARIA","address":"CR N-IV, KM.  649.8","municipality":"Puerto de Santa María (El)","province":"CÁDIZ","postalCode":"11500","schedule":"L-D: 24H","fuels":{"gasoline95":1.769,"gasoline98":1.909,"diesel":1.835,"dieselPremium":1.925,"adblue":1.055},"extra":{"saleType":"P","margin":"I","reportingType":"OM","ideess":"5792","idMunicipio":"1789","idProvincia":"11","idCCAA":"01"}}},{"type":"Feature","geometry":{"type":"Point","coordinates":[-6.123944,36.677167]},"properties":{"id":"es-5794","source":"ES","brand":"GALP","address":"AVENIDA MEDINA SIDONIA, S/N","municipality":"Jerez de la Frontera","province":"CÁDIZ","postalCode":"11406","schedule":"L-D: 06:00-22:00","fuels":{"gasoline95":1.649,"gasoline95Premium":1.699,"diesel":1.639,"dieselPremium":1.689},"extra":{"saleType":"P","margin":"I","reportingType":"OM","ideess":"5794","idMunicipio":"1782","idProvincia":"11","idCCAA":"01"}}},{"type":"Feature","geometry":{"type":"Point","coordinates":[-6.089194,36.711556]},"properties":{"id":"es-5800","source":"ES","brand":"REPSOL","address":"CARRETERA JEREZ - GUADALCACIN KM. 0","municipality":"Jerez de la Frontera","province":"CÁDIZ","postalCode":"11591","schedule":"L-D: 06:30-23:00","fuels":{"gasoline95":1.755,"gasoline95Premium":1.815,"diesel":1.835,"dieselB":1.729,"dieselRenewable":1.955},"extra":{"saleType":"P","margin":"I","reportingType":"OM","ideess":"5800","idMunicipio":"1782","idProvincia":"11","idCCAA":"01"}}},{"type":"Feature","geometry":{"type":"Point","coordinates":[-6.2235,36.591667]},"properties":{"id":"es-6439","source":"ES","brand":"BALLENOIL","address":"CARRETERA N-IV KM. 653,2","municipality":"Puerto de Santa María (El)","province":"CÁDIZ","postalCode":"11500","schedule":"L-D: 24H","fuels":{"gasoline95":1.449,"diesel":1.539,"dieselPremium":1.549},"extra":{"saleType":"P","margin":"D","reportingType":"OM","ideess":"6439","idMunicipio":"1789","idProvincia":"11","idCCAA":"01"}}},{"type":"Feature","geometry":{"type":"Point","coordinates":[-6.125417,36.681028]},"properties":{"id":"es-6665","source":"ES","brand":"REPSOL","address":"CL PASEO DE LAS DELICIAS, 1","municipality":"Jerez de la Frontera","province":"CÁDIZ","postalCode":"11406","schedule":"L-D: 06:00-22:00","fuels":{"gasoline95":1.759,"gasoline98":1.929,"diesel":1.829,"dieselPremium":1.889},"extra":{"saleType":"P","margin":"D","reportingType":"OM","ideess":"6665","idMunicipio":"1782","idProvincia":"11","idCCAA":"01"}}},{"type":"Feature","geometry":{"type":"Point","coordinates":[-6.125056,36.707083]},"properties":{"id":"es-6681","source":"ES","brand":"REPSOL","address":"AVENIDA PRESIDENTE ADOLFO SUAREZ, 3","municipality":"Jerez de la Frontera","province":"CÁDIZ","postalCode":"11407","schedule":"L-D: 06:00-22:00","fuels":{"gasoline95":1.745,"diesel":1.835,"dieselPremium":1.895},"extra":{"saleType":"P","margin":"D","reportingType":"OM","ideess":"6681","idMunicipio":"1782","idProvincia":"11","idCCAA":"01"}}},{"type":"Feature","geometry":{"type":"Point","coordinates":[-6.125028,36.706694]},"properties":{"id":"es-6682","source":"ES","brand":"REPSOL","address":"AVENIDA PRESIDENTE ADOLFO SUAREZ, 4","municipality":"Jerez de la Frontera","province":"CÁDIZ","postalCode":"11407","schedule":"L-D: 24H","fuels":{"gasoline95":1.745,"gasoline98":1.915,"diesel":1.835,"dieselRenewable":1.955,"lpg":1.055},"extra":{"saleType":"P","margin":"I","reportingType":"OM","ideess":"6682","idMunicipio":"1782","idProvincia":"11","idCCAA":"01"}}},{"type":"Feature","geometry":{"type":"Point","coordinates":[-6.121944,36.671111]},"properties":{"id":"es-6699","source":"ES","brand":"REPSOL","address":"CARRETERA C-440 KM. 2","municipality":"Jerez de la Frontera","province":"CÁDIZ","postalCode":"11406","schedule":"L-D: 06:00-22:00","fuels":{"gasoline95":1.755,"gasoline95Premium":1.835,"gasoline98":1.925,"diesel":1.829,"dieselPremium":1.889},"extra":{"saleType":"P","margin":"D","reportingType":"OM","ideess":"6699","idMunicipio":"1782","idProvincia":"11","idCCAA":"01"}}},{"type":"Feature","geometry":{"type":"Point","coordinates":[-6.276278,36.512611]},"properties":{"id":"es-6711","source":"ES","brand":"REPSOL","address":"AV SEGUNDA AGUADA, 2  C","municipality":"Cádiz","province":"CÁDIZ","postalCode":"11012","schedule":"L-D: 06:00-00:00","fuels":{"gasoline95":1.759,"gasoline98":1.929,"diesel":1.819,"dieselPremium":1.929},"extra":{"saleType":"P","margin":"D","reportingType":"OM","ideess":"6711","idMunicipio":"1774","idProvincia":"11","idCCAA":"01"}}},{"type":"Feature","geometry":{"type":"Point","coordinates":[-6.144944,36.677889]},"properties":{"id":"es-6721","source":"ES","brand":"REPSOL","address":"ROTONDA CUATRO CAMINOS, S/N","municipality":"Jerez de la Frontera","province":"CÁDIZ","postalCode":"11408","schedule":"L-V: 06:00-22:00; S: 08:00-16:00; D: 00:00-00:01","fuels":{"gasoline95":1.749,"gasoline95Premium":1.819,"gasoline98":1.919,"diesel":1.835,"dieselPremium":1.895},"extra":{"saleType":"P","margin":"D","reportingType":"OM","ideess":"6721","idMunicipio":"1782","idProvincia":"11","idCCAA":"01"}}},{"type":"Feature","geometry":{"type":"Point","coordinates":[-6.152639,36.425389]},"properties":{"id":"es-6725","source":"ES","brand":"BP URBISUR","address":"POLIGONO EL TORNO II, S/N","municipality":"Chiclana de la Frontera","province":"CÁDIZ","postalCode":"11130","schedule":"L-D: 24H","fuels":{"gasoline95":1.759,"gasoline98":1.899,"diesel":1.819,"dieselPremium":1.909},"extra":{"saleType":"P","margin":"N","reportingType":"OM","ideess":"6725","idMunicipio":"1776","idProvincia":"11","idCCAA":"01"}}},{"type":"Feature","geometry":{"type":"Point","coordinates":[-6.208361,36.456583]},"properties":{"id":"es-6750","source":"ES","brand":"ENI","address":"CALLE REAL, 228","municipality":"San Fernando","province":"CÁDIZ","postalCode":"11100","schedule":"L-D: 05:00-23:00","fuels":{"gasoline95":1.699,"gasoline98":1.899,"diesel":1.755,"dieselPremium":1.875},"extra":{"saleType":"P","margin":"N","reportingType":"OM","ideess":"6750","idMunicipio":"1793","idProvincia":"11","idCCAA":"01"}}},{"type":"Feature","geometry":{"type":"Point","coordinates":[-6.287778,36.524722]},"properties":{"id":"es-6799","source":"ES","brand":"REPSOL","address":"AVENIDA ANDALUCIA, 2","municipality":"Cádiz","province":"CÁDIZ","postalCode":"11006","schedule":"L-D: 07:00-23:00","fuels":{"gasoline95":1.755,"gasoline95Premium":1.825,"gasoline98":1.925,"diesel":1.819,"dieselPremium":1.919},"extra":{"saleType":"P","margin":"D","reportingType":"OM","ideess":"6799","idMunicipio":"1774","idProvincia":"11","idCCAA":"01"}}},{"type":"Feature","geometry":{"type":"Point","coordinates":[-6.240222,36.599583]},"properties":{"id":"es-6807","source":"ES","brand":"REPSOL","address":"CARRETERA P-603 M.D. KM. 1","municipality":"Puerto de Santa María (El)","province":"CÁDIZ","postalCode":"11500","schedule":"L-D: 06:00-22:00","fuels":{"gasoline95":1.775,"gasoline95Premium":1.845,"gasoline98":1.895,"diesel":1.819,"dieselPremium":1.879,"lpg":1.089},"extra":{"saleType":"P","margin":"D","reportingType":"OM","ideess":"6807","idMunicipio":"1789","idProvincia":"11","idCCAA":"01"}}},{"type":"Feature","geometry":{"type":"Point","coordinates":[-6.240389,36.598972]},"properties":{"id":"es-6808","source":"ES","brand":"REPSOL","address":"CR  P-603 ,P.K. 1  M.I.","municipality":"Puerto de Santa María (El)","province":"CÁDIZ","postalCode":"11500","schedule":"L-D: 06:00-23:00","fuels":{"gasoline95":1.775,"gasoline95Premium":1.845,"gasoline98":1.895,"diesel":1.819,"dieselPremium":1.879},"extra":{"saleType":"P","margin":"I","reportingType":"OM","ideess":"6808","idMunicipio":"1789","idProvincia":"11","idCCAA":"01"}}},{"type":"Feature","geometry":{"type":"Point","coordinates":[-6.143028,36.415417]},"properties":{"id":"es-6812","source":"ES","brand":"REPSOL","address":"AVENIDA REYES CATOLICOS, 15","municipality":"Chiclana de la Frontera","province":"CÁDIZ","postalCode":"11130","schedule":"L-D: 06:00-00:00","fuels":{"gasoline95":1.745,"gasoline95Premium":1.805,"gasoline98":1.915,"diesel":1.819,"dieselPremium":1.929,"lpg":1.079},"extra":{"saleType":"P","margin":"I","reportingType":"OM","ideess":"6812","idMunicipio":"1776","idProvincia":"11","idCCAA":"01"}}},{"type":"Feature","geometry":{"type":"Point","coordinates":[-6.134167,36.695361]},"properties":{"id":"es-6813","source":"ES","brand":"REPSOL","address":"AVENIDA DUQUE DE ABRANTES, S/N","municipality":"Jerez de la Frontera","province":"CÁDIZ","postalCode":"11407","schedule":"L-D: 08:00-21:00","fuels":{"gasoline95":1.759,"gasoline95Premium":1.829,"diesel":1.829,"dieselRenewable":1.949},"extra":{"saleType":"P","margin":"D","reportingType":"OM","ideess":"6813","idMunicipio":"1782","idProvincia":"11","idCCAA":"01"}}},{"type":"Feature","geometry":{"type":"Point","coordinates":[-6.084028,36.281472]},"properties":{"id":"es-6816","source":"ES","brand":"REPSOL","address":"CALLE CARRETERA, 37","municipality":"Conil de la Frontera","province":"CÁDIZ","postalCode":"11140","schedule":"L-D: 07:00-23:00","fuels":{"gasoline95":1.765,"gasoline98":1.885,"diesel":1.839,"dieselPremium":1.899},"extra":{"saleType":"P","margin":"I","reportingType":"dm","ideess":"6816","idMunicipio":"1778","idProvincia":"11","idCCAA":"01"}}},{"type":"Feature","geometry":{"type":"Point","coordinates":[-6.143333,36.488667]},"properties":{"id":"es-6840","source":"ES","brand":"REPSOL","address":"CARRETERA N 4 KM. 668,6","municipality":"Puerto Real","province":"CÁDIZ","postalCode":"11510","schedule":"L-D: 06:00-22:00","fuels":{"gasoline95":1.759,"diesel":1.825},"extra":{"saleType":"P","margin":"I","reportingType":"OM","ideess":"6840","idMunicipio":"1790","idProvincia":"11","idCCAA":"01"}}},{"type":"Feature","geometry":{"type":"Point","coordinates":[-6.366556,36.632]},"properties":{"id":"es-6842","source":"ES","brand":"REPSOL","address":"AVENIDA LIBERTAD, S/N","municipality":"Rota","province":"CÁDIZ","postalCode":"11520","schedule":"L-D: 07:00-23:00","fuels":{"gasoline95":1.805,"gasoline98":1.955,"diesel":1.859,"dieselPremium":1.919},"extra":{"saleType":"P","margin":"D","reportingType":"OM","ideess":"6842","idMunicipio":"1792","idProvincia":"11","idCCAA":"01"}}},{"type":"Feature","geometry":{"type":"Point","coordinates":[-6.127417,36.690056]},"properties":{"id":"es-6843","source":"ES","brand":"REPSOL","address":"CALLE MARTIN FERRADOR, SN","municipality":"Jerez de la Frontera","province":"CÁDIZ","postalCode":"11405","schedule":"L-D: 06:00-23:00","fuels":{"gasoline95":1.759,"gasoline95Premium":1.839,"gasoline98":1.929,"diesel":1.825,"dieselRenewable":1.945,"lpg":1.055},"extra":{"saleType":"P","margin":"D","reportingType":"OM","ideess":"6843","idMunicipio":"1782","idProvincia":"11","idCCAA":"01"}}},{"type":"Feature","geometry":{"type":"Point","coordinates":[-6.216556,36.609083]},"properties":{"id":"es-6847","source":"ES","brand":"BP LA VICTORIA","address":"AVENIDA RAFAEL ALBERTI, S/N","municipality":"Puerto de Santa María (El)","province":"CÁDIZ","postalCode":"11500","schedule":"L-D: 24H","fuels":{"gasoline95":1.769,"gasoline98":1.909,"diesel":1.835,"dieselPremium":1.925},"extra":{"saleType":"P","margin":"N","reportingType":"OM","ideess":"6847","idMunicipio":"1789","idProvincia":"11","idCCAA":"01"}}},{"type":"Feature","geometry":{"type":"Point","coordinates":[-6.271111,36.5025]},"properties":{"id":"es-6850","source":"ES","brand":"REPSOL","address":"AVENIDA ALCALDE MANUEL DE LA PINTA, 22","municipality":"Cádiz","province":"CÁDIZ","postalCode":"11011","schedule":"L-D: 07:00-22:00","fuels":{"gasoline95":1.775,"gasoline98":1.945,"diesel":1.825,"dieselPremium":1.935},"extra":{"saleType":"P","margin":"D","reportingType":"OM","ideess":"6850","idMunicipio":"1774","idProvincia":"11","idCCAA":"01"}}},{"type":"Feature","geometry":{"type":"Point","coordinates":[-6.27275,36.498722]},"properties":{"id":"es-6870","source":"ES","brand":"REPSOL","address":"AVENIDA JOSE LEON DE CARRANZA, 16","municipality":"Cádiz","province":"CÁDIZ","postalCode":"11011","schedule":"L-D: 06:00-22:00","fuels":{"gasoline95":1.779,"gasoline98":1.929,"diesel":1.819,"dieselPremium":1.879},"extra":{"saleType":"P","margin":"D","reportingType":"OM","ideess":"6870","idMunicipio":"1774","idProvincia":"11","idCCAA":"01"}}},{"type":"Feature","geometry":{"type":"Point","coordinates":[-6.117833,36.686444]},"properties":{"id":"es-6883","source":"ES","brand":"MOEVE","address":"AVENIDA ARCOS, 59","municipality":"Jerez de la Frontera","province":"CÁDIZ","postalCode":"11405","schedule":"L-D: 06:00-22:00","fuels":{"gasoline95":1.674,"gasoline95Premium":1.764,"diesel":1.794,"dieselPremium":1.884},"extra":{"saleType":"P","margin":"D","reportingType":"OM","ideess":"6883","idMunicipio":"1782","idProvincia":"11","idCCAA":"01"}}},{"type":"Feature","geometry":{"type":"Point","coordinates":[-6.096778,36.697028]},"properties":{"id":"es-6893","source":"ES","brand":"REPSOL","address":"CARRETERA N-342 KM. 4","municipality":"Jerez de la Frontera","province":"CÁDIZ","postalCode":"11405","schedule":"L-V: 07:00-22:00; S-D: 08:00-16:00","fuels":{"gasoline95":1.749,"gasoline98":1.919,"diesel":1.835,"dieselPremium":1.935},"extra":{"saleType":"P","margin":"I","reportingType":"OM","ideess":"6893","idMunicipio":"1782","idProvincia":"11","idCCAA":"01"}}},{"type":"Feature","geometry":{"type":"Point","coordinates":[-6.093639,36.339833]},"properties":{"id":"es-6894","source":"ES","brand":"REPSOL","address":"CARRETERA CADIZ-MALAGA KM. 16,700","municipality":"Conil de la Frontera","province":"CÁDIZ","postalCode":"11140","schedule":"L-D: 06:00-23:00","fuels":{"gasoline95":1.759,"gasoline95Premium":1.829,"gasoline98":1.879,"diesel":1.835,"dieselPremium":1.895},"extra":{"saleType":"P","margin":"I","reportingType":"OM","ideess":"6894","idMunicipio":"1778","idProvincia":"11","idCCAA":"01"}}},{"type":"Feature","geometry":{"type":"Point","coordinates":[-6.275806,36.504111]},"properties":{"id":"es-6895","source":"ES","brand":"BP CADIZ","address":"CL AVENIDA CAYETANO DEL TORO, 32","municipality":"Cádiz","province":"CÁDIZ","postalCode":"11010","schedule":"L-D: 24H","fuels":{"gasoline95":1.759,"gasoline98":1.899,"diesel":1.819,"dieselPremium":1.909},"extra":{"saleType":"P","margin":"D","reportingType":"OM","ideess":"6895","idMunicipio":"1774","idProvincia":"11","idCCAA":"01"}}},{"type":"Feature","geometry":{"type":"Point","coordinates":[-6.171722,36.871722]},"properties":{"id":"es-6899","source":"ES","brand":"REPSOL","address":"AVENIDA DE SEVILLA, 45","municipality":"Trebujena","province":"CÁDIZ","postalCode":"11560","schedule":"L-D: 06:00-23:00","fuels":{"gasoline95":1.769,"gasoline98":1.889,"diesel":1.829,"dieselPremium":1.889,"dieselB":1.599},"extra":{"saleType":"P","margin":"D","reportingType":"dm","ideess":"6899","idMunicipio":"1800","idProvincia":"11","idCCAA":"01"}}},{"type":"Feature","geometry":{"type":"Point","coordinates":[-6.142833,36.692972]},"properties":{"id":"es-6927","source":"ES","brand":"MOEVE","address":"BARRIADA LA PLATA, S/N","municipality":"Jerez de la Frontera","province":"CÁDIZ","postalCode":"11404","schedule":"L-D: 08:00-21:00","fuels":{"gasoline95":1.664,"gasoline95Premium":1.754,"diesel":1.791,"dieselPremium":1.871},"extra":{"saleType":"P","margin":"D","reportingType":"OM","ideess":"6927","idMunicipio":"1782","idProvincia":"11","idCCAA":"01"}}},{"type":"Feature","geometry":{"type":"Point","coordinates":[-6.289389,36.526639]},"properties":{"id":"es-6967","source":"ES","brand":"REPSOL","address":"PLAZA VICTORIA, S/N","municipality":"Cádiz","province":"CÁDIZ","postalCode":"11006","schedule":"L-V: 07:30-15:00 y 17:00-21:00; S: 09:00-14:00","fuels":{"gasoline95":1.745,"diesel":1.819},"extra":{"saleType":"P","margin":"D","reportingType":"OM","ideess":"6967","idMunicipio":"1774","idProvincia":"11","idCCAA":"01"}}},{"type":"Feature","geometry":{"type":"Point","coordinates":[-6.212139,36.522667]},"properties":{"id":"es-6984","source":"ES","brand":"BP","address":"CALLE POLIGONO EL TROCADERO, 51","municipality":"Puerto Real","province":"CÁDIZ","postalCode":"11510","schedule":"L-D: 07:00-23:00","fuels":{"gasoline95":1.754,"diesel":1.819,"dieselPremium":1.909},"extra":{"saleType":"P","margin":"N","reportingType":"dm","ideess":"6984","idMunicipio":"1790","idProvincia":"11","idCCAA":"01"}}},{"type":"Feature","geometry":{"type":"Point","coordinates":[-6.044722,36.7815]},"properties":{"id":"es-6988","source":"ES","brand":"BP AP4 CUADREJON SEVILLA","address":"AP-4 (MRG.DCHO.) km 70","municipality":"Jerez de la Frontera","province":"CÁDIZ","postalCode":"11407","schedule":"L-D: 24H","fuels":{"gasoline95":1.779,"gasoline98":1.919,"diesel":1.849,"dieselPremium":1.939,"adblue":1.095},"extra":{"saleType":"P","margin":"D","reportingType":"OM","ideess":"6988","idMunicipio":"1782","idProvincia":"11","idCCAA":"01"}}},{"type":"Feature","geometry":{"type":"Point","coordinates":[-6.043167,36.78125]},"properties":{"id":"es-6989","source":"ES","brand":"BP AP4 CUADREJON JEREZ","address":"AP-4 (MRG.IZDO.) km 70","municipality":"Jerez de la Frontera","province":"CÁDIZ","postalCode":"11407","schedule":"L-D: 24H","fuels":{"gasoline95":1.779,"gasoline98":1.919,"diesel":1.849,"dieselPremium":1.939,"adblue":1.095},"extra":{"saleType":"P","margin":"I","reportingType":"OM","ideess":"6989","idMunicipio":"1782","idProvincia":"11","idCCAA":"01"}}},{"type":"Feature","geometry":{"type":"Point","coordinates":[-6.145167,36.670222]},"properties":{"id":"es-6991","source":"ES","brand":"TAMOIL","address":"POLIGONO SUR MANZANA 23 UE-2H, 1","municipality":"Jerez de la Frontera","province":"CÁDIZ","postalCode":"11408","schedule":"L-D: 24H","fuels":{"gasoline95":1.629,"gasoline98":1.699,"diesel":1.649,"biodiesel":1.629,"adblue":0.899},"extra":{"saleType":"P","margin":"N","reportingType":"OM","ideess":"6991","idMunicipio":"1782","idProvincia":"11","idCCAA":"01"}}},{"type":"Feature","geometry":{"type":"Point","coordinates":[-6.222861,36.593694]},"properties":{"id":"es-6992","source":"ES","brand":"MOEVE","address":"CARRETERA N-IVA KM. 654","municipality":"Puerto de Santa María (El)","province":"CÁDIZ","postalCode":"11500","schedule":"L-D: 07:00-23:00","fuels":{"gasoline95":1.644,"gasoline95Premium":1.759,"diesel":1.737,"dieselPremium":1.821},"extra":{"saleType":"P","margin":"D","reportingType":"dm","ideess":"6992","idMunicipio":"1789","idProvincia":"11","idCCAA":"01"}}},{"type":"Feature","geometry":{"type":"Point","coordinates":[-6.071222,36.927333]},"properties":{"id":"es-7085","source":"ES","brand":"ENI","address":"CARRETERA A-471 SEVILLA-CHIPIONA KM. 27,900","municipality":"Lebrija","province":"SEVILLA","postalCode":"41740","schedule":"L-D: 24H","fuels":{"gasoline95":1.739,"gasoline98":1.869,"diesel":1.779,"dieselPremium":1.859,"dieselB":1.499,"adblue":0.899},"extra":{"saleType":"P","margin":"I","reportingType":"dm","ideess":"7085","idMunicipio":"6110","idProvincia":"41","idCCAA":"01"}}},{"type":"Feature","geometry":{"type":"Point","coordinates":[-6.125389,36.900694]},"properties":{"id":"es-7099","source":"ES","brand":"LIBRE","address":"CARRETERA LEBRIJA-TREBUJENA A-471 KM. 34","municipality":"Lebrija","province":"SEVILLA","postalCode":"41740","schedule":"L-V: 06:00-22:00; S: 07:00-22:00; D: 09:00-21:00","fuels":{"gasoline95":1.568,"diesel":1.668,"dieselB":1.348},"extra":{"saleType":"P","margin":"D","reportingType":"dm","ideess":"7099","idMunicipio":"6110","idProvincia":"41","idCCAA":"01"}}},{"type":"Feature","geometry":{"type":"Point","coordinates":[-6.065778,36.920194]},"properties":{"id":"es-7297","source":"ES","brand":"CEPSA","address":"AVENIDA JOSE FERNANDEZ RUIZ, 60","municipality":"Lebrija","province":"SEVILLA","postalCode":"41740","schedule":"L-D: 24H","fuels":{"gasoline95":1.789,"gasoline95Premium":1.869,"diesel":1.899,"dieselPremium":2.019,"dieselB":1.659,"adblue":0.923},"extra":{"saleType":"P","margin":"I","reportingType":"dm","ideess":"7297","idMunicipio":"6110","idProvincia":"41","idCCAA":"01"}}},{"type":"Feature","geometry":{"type":"Point","coordinates":[-6.0835,36.926889]},"properties":{"id":"es-7365","source":"ES","brand":"CAMPSA","address":"CL AVENIDA DE ANDALUCIA, S.N.","municipality":"Lebrija","province":"SEVILLA","postalCode":"41740","schedule":"L-D: 06:00-22:00","fuels":{"gasoline95":1.665,"diesel":1.859,"dieselPremium":1.979},"extra":{"saleType":"P","margin":"D","reportingType":"dm","ideess":"7365","idMunicipio":"6110","idProvincia":"41","idCCAA":"01"}}},{"type":"Feature","geometry":{"type":"Point","coordinates":[-6.040611,36.853167]},"properties":{"id":"es-7443","source":"ES","brand":"REPSOL","address":"CALLE MANUEL LOPEZ DE SORIA, 9","municipality":"Cuervo de Sevilla (El)","province":"SEVILLA","postalCode":"41749","schedule":"L-S: 06:00-22:00; D: 08:00-14:00","fuels":{"gasoline95":1.788,"diesel":1.839},"extra":{"saleType":"P","margin":"I","reportingType":"dm","ideess":"7443","idMunicipio":"6093","idProvincia":"41","idCCAA":"01"}}},{"type":"Feature","geometry":{"type":"Point","coordinates":[-6.278444,36.609806]},"properties":{"id":"es-8006","source":"ES","brand":"SP","address":"CARRETERA CR CA-603 KM. 4,350","municipality":"Puerto de Santa María (El)","province":"CÁDIZ","postalCode":"11500","schedule":"L-D: 07:00-22:00","fuels":{"gasoline95":1.689,"diesel":1.699,"dieselPremium":1.809},"extra":{"saleType":"P","margin":"D","reportingType":"dm","ideess":"8006","idMunicipio":"1789","idProvincia":"11","idCCAA":"01"}}},{"type":"Feature","geometry":{"type":"Point","coordinates":[-6.277861,36.608889]},"properties":{"id":"es-8007","source":"ES","brand":"SP","address":"CARRETERA CR CA-603 KM. 4,2","municipality":"Puerto de Santa María (El)","province":"CÁDIZ","postalCode":"11500","schedule":"L-D: 24H","fuels":{"gasoline95":1.689,"gasoline98":1.849,"diesel":1.699,"dieselPremium":1.809},"extra":{"saleType":"P","margin":"I","reportingType":"dm","ideess":"8007","idMunicipio":"1789","idProvincia":"11","idCCAA":"01"}}},{"type":"Feature","geometry":{"type":"Point","coordinates":[-6.147111,36.526083]},"properties":{"id":"es-8017","source":"ES","brand":"B.P.","address":"CTRA. PUERTO REAL A MEDINA, km 3","municipality":"Puerto Real","province":"CÁDIZ","postalCode":"11510","schedule":"L-D: 24H","fuels":{"gasoline95":1.765,"gasoline98":1.905,"diesel":1.83,"dieselPremium":1.92},"extra":{"saleType":"P","margin":"D","reportingType":"dm","ideess":"8017","idMunicipio":"1790","idProvincia":"11","idCCAA":"01"}}},{"type":"Feature","geometry":{"type":"Point","coordinates":[-6.340306,36.763139]},"properties":{"id":"es-8018","source":"ES","brand":"REYCA - AGLA","address":"CARRETERA SAN LUCAR-JEREZ (C-440 KM 1,0) KM. 1","municipality":"Sanlúcar de Barrameda","province":"CÁDIZ","postalCode":"11540","schedule":"L-D: 07:00-23:00","fuels":{"gasoline95":1.679,"gasoline95Premium":1.799,"diesel":1.739,"dieselPremium":1.799,"dieselB":1.499},"extra":{"saleType":"P","margin":"I","reportingType":"dm","ideess":"8018","idMunicipio":"1796","idProvincia":"11","idCCAA":"01"}}},{"type":"Feature","geometry":{"type":"Point","coordinates":[-6.32075,36.822972]},"properties":{"id":"es-8019","source":"ES","brand":"EESS NTRA SRA DE LOS MILAGROS","address":"COLONIA MONTEALGAIDA CL CENTRAL, 9","municipality":"Sanlúcar de Barrameda","province":"CÁDIZ","postalCode":"11540","schedule":"L-D: 07:00-23:00","fuels":{"gasoline95":1.739,"diesel":1.759,"dieselB":1.579},"extra":{"saleType":"P","margin":"I","reportingType":"dm","ideess":"8019","idMunicipio":"1796","idProvincia":"11","idCCAA":"01"}}},{"type":"Feature","geometry":{"type":"Point","coordinates":[-6.223861,36.594667]},"properties":{"id":"es-8021","source":"ES","brand":"E.S. LA LONJA","address":"CARRETERA NACIONAL IV, MUELLE PESQUERO KM. 654","municipality":"Puerto de Santa María (El)","province":"CÁDIZ","postalCode":"11500","schedule":"L-D: 24H","fuels":{"gasoline95":1.579,"diesel":1.669,"dieselPremium":1.719,"lpg":1.079,"adblue":1.049},"extra":{"saleType":"P","margin":"D","reportingType":"dm","ideess":"8021","idMunicipio":"1789","idProvincia":"11","idCCAA":"01"}}},{"type":"Feature","geometry":{"type":"Point","coordinates":[-6.271028,36.501167]},"properties":{"id":"es-8411","source":"ES","brand":"ENI","address":"CL.GIBRALTAR (ZONA FRANCA), Nº3","municipality":"Cádiz","province":"CÁDIZ","postalCode":"11011","schedule":"L-D: 06:00-22:00","fuels":{"gasoline95":1.669,"gasoline98":1.799,"diesel":1.669,"dieselPremium":1.769},"extra":{"saleType":"P","margin":"N","reportingType":"OM","ideess":"8411","idMunicipio":"1774","idProvincia":"11","idCCAA":"01"}}},{"type":"Feature","geometry":{"type":"Point","coordinates":[-6.1425,36.430444]},"properties":{"id":"es-8413","source":"ES","brand":"SHELL","address":"AVENIDA DEL MUEBLE, S/N","municipality":"Chiclana de la Frontera","province":"CÁDIZ","postalCode":"11130","schedule":"L-D: 06:00-00:00","fuels":{"gasoline95":1.689,"gasoline98":1.829,"diesel":1.719,"dieselPremium":1.799,"lpg":1.029},"extra":{"saleType":"P","margin":"I","reportingType":"OM","ideess":"8413","idMunicipio":"1776","idProvincia":"11","idCCAA":"01"}}},{"type":"Feature","geometry":{"type":"Point","coordinates":[-6.338556,36.79075]},"properties":{"id":"es-8418","source":"ES","brand":"SHELL","address":"AVDA.DE HUELVA","municipality":"Sanlúcar de Barrameda","province":"CÁDIZ","postalCode":"11540","schedule":"L-D: 06:00-00:00","fuels":{"gasoline95":1.669,"gasoline98":1.809,"diesel":1.729,"dieselPremium":1.809},"extra":{"saleType":"P","margin":"N","reportingType":"OM","ideess":"8418","idMunicipio":"1796","idProvincia":"11","idCCAA":"01"}}},{"type":"Feature","geometry":{"type":"Point","coordinates":[-6.0715,36.758528]},"properties":{"id":"es-8975","source":"ES","brand":"SHELL","address":"A- 4 km 628.5","municipality":"Jerez de la Frontera","province":"CÁDIZ","postalCode":"11407","schedule":"L-D: 06:00-22:00","fuels":{"gasoline95":1.729,"gasoline98":1.869,"diesel":1.809,"dieselPremium":1.889,"adblue":1.25},"extra":{"saleType":"P","margin":"I","reportingType":"OM","ideess":"8975","idMunicipio":"1782","idProvincia":"11","idCCAA":"01"}}},{"type":"Feature","geometry":{"type":"Point","coordinates":[-6.236,36.608361]},"properties":{"id":"es-9260","source":"ES","brand":"ENI","address":"CARRETERA 602 KM. 2,05","municipality":"Puerto de Santa María (El)","province":"CÁDIZ","postalCode":"11500","schedule":"L-D: 07:00-23:00","fuels":{"gasoline95":1.739,"gasoline98":1.859,"diesel":1.795,"dieselPremium":1.895},"extra":{"saleType":"P","margin":"D","reportingType":"OM","ideess":"9260","idMunicipio":"1789","idProvincia":"11","idCCAA":"01"}}},{"type":"Feature","geometry":{"type":"Point","coordinates":[-6.234444,36.588889]},"properties":{"id":"es-9484","source":"ES","brand":"PETRO GRADO","address":"AVENIDA MENESTEO, SN","municipality":"Puerto de Santa María (El)","province":"CÁDIZ","postalCode":"11500","schedule":"L-D: 06:30-22:30","fuels":{"gasoline95":1.539,"gasoline95Premium":1.569,"diesel":1.619,"dieselPremium":1.699},"extra":{"saleType":"P","margin":"D","reportingType":"dm","ideess":"9484","idMunicipio":"1789","idProvincia":"11","idCCAA":"01"}}},{"type":"Feature","geometry":{"type":"Point","coordinates":[-6.353528,36.660833]},"properties":{"id":"es-9680","source":"ES","brand":"LAS MARISMAS DE ROTA (L.M.R.)","address":"CARRETERA A-491 KM. 11,200","municipality":"Rota","province":"CÁDIZ","postalCode":"11520","schedule":"L-D: 24H","fuels":{"gasoline95":1.709,"gasoline98":1.809,"diesel":1.789,"dieselPremium":1.859,"dieselB":1.359,"lpg":1.069,"adblue":1.069},"extra":{"saleType":"P","margin":"I","reportingType":"dm","ideess":"9680","idMunicipio":"1792","idProvincia":"11","idCCAA":"01"}}},{"type":"Feature","geometry":{"type":"Point","coordinates":[-6.030278,36.757333]},"properties":{"id":"es-9861","source":"ES","brand":"CNJ","address":"CALLE RONDA DEL TROBAL, S/N","municipality":"Jerez de la Frontera","province":"CÁDIZ","postalCode":"11592","schedule":"L-D: 24H","fuels":{"diesel":1.679,"dieselB":1.579},"extra":{"saleType":"P","margin":"D","reportingType":"dm","ideess":"9861","idMunicipio":"1782","idProvincia":"11","idCCAA":"01"}}},{"type":"Feature","geometry":{"type":"Point","coordinates":[-6.153028,36.684333]},"properties":{"id":"es-9896","source":"ES","brand":"SHELL","address":"CARRETERA CIRCUNVALACION KM. 639,8","municipality":"Jerez de la Frontera","province":"CÁDIZ","postalCode":"11408","schedule":"L-D: 24H","fuels":{"gasoline95":1.639,"gasoline98":1.789,"diesel":1.639,"dieselPremium":1.709,"adblue":0.95},"extra":{"saleType":"P","margin":"I","reportingType":"dm","ideess":"9896","idMunicipio":"1782","idProvincia":"11","idCCAA":"01"}}},{"type":"Feature","geometry":{"type":"Point","coordinates":[-6.107,36.697444]},"properties":{"id":"es-9960","source":"ES","brand":"BALLENOIL","address":"AVENIDA FERNANDO PORTILLO, S/N","municipality":"Jerez de la Frontera","province":"CÁDIZ","postalCode":"11405","schedule":"L-D: 24H","fuels":{"gasoline95":1.629,"diesel":1.619,"dieselPremium":1.639},"extra":{"saleType":"P","margin":"N","reportingType":"OM","ideess":"9960","idMunicipio":"1782","idProvincia":"11","idCCAA":"01"}}}]}