{"type":"FeatureCollection","features":[{"type":"Feature","geometry":{"type":"Point","coordinates":[-4.064667,43.248806]},"properties":{"id":"es-1004","source":"ES","brand":"E.S. MARJA","address":"BARRIO SOMAHOZ","municipality":"Corrales de Buelna (Los)","province":"CANTABRIA","postalCode":"39400","schedule":"L-S: 07:00-23:00","fuels":{"gasoline95":1.64,"gasoline98":1.77,"diesel":1.74,"adblue":0.8},"extra":{"saleType":"P","margin":"I","reportingType":"dm","ideess":"1004","idMunicipio":"5769","idProvincia":"39","idCCAA":"06"}}},{"type":"Feature","geometry":{"type":"Point","coordinates":[-4.011222,43.413833]},"properties":{"id":"es-10049","source":"ES","brand":"EL CENTRO","address":"AVENIDA CANTABRIA, 1495","municipality":"Miengo","province":"CANTABRIA","postalCode":"39318","schedule":"L-D: 08:00-22:00","fuels":{"gasoline95":1.639,"gasoline98":1.799,"diesel":1.729,"dieselPremium":1.779,"lpg":1.139,"adblue":1.1},"extra":{"saleType":"P","margin":"N","reportingType":"dm","ideess":"10049","idMunicipio":"5787","idProvincia":"39","idCCAA":"06"}}},{"type":"Feature","geometry":{"type":"Point","coordinates":[-4.093056,43.353889]},"properties":{"id":"es-1005","source":"ES","brand":"MOEVE","address":"CALLE LA MIES S/N AUTOVIA A8 SALIDA 234, ","municipality":"Reocín","province":"CANTABRIA","postalCode":"39538","schedule":"L-D: 07:00-23:00","fuels":{"gasoline95":1.784,"gasoline98":1.904,"diesel":1.899,"dieselPremium":1.999},"extra":{"saleType":"P","margin":"I","reportingType":"OM","ideess":"1005","idMunicipio":"5803","idProvincia":"39","idCCAA":"06"}}},{"type":"Feature","geometry":{"type":"Point","coordinates":[-4.309,43.319556]},"properties":{"id":"es-1006","source":"ES","brand":"E.S. TRECEÑO S.L.","address":"CN-634 km 255,7","municipality":"Valdáliga","province":"CANTABRIA","postalCode":"39592","schedule":"L-D: 06:00-22:00","fuels":{"gasoline95":1.779,"diesel":1.909,"dieselB":1.719,"dieselRenewable":2.039,"adblue":1.019},"extra":{"saleType":"P","margin":"I","reportingType":"dm","ideess":"1006","idMunicipio":"5835","idProvincia":"39","idCCAA":"06"}}},{"type":"Feature","geometry":{"type":"Point","coordinates":[-4.042861,43.369667]},"properties":{"id":"es-1008","source":"ES","brand":"MEROIL","address":"AVENIDA SOLVAY, 85","municipality":"Torrelavega","province":"CANTABRIA","postalCode":"39300","schedule":"L: 06:30-22:30","fuels":{"gasoline95":1.629,"gasoline98":1.685,"diesel":1.685,"dieselPremium":1.729,"dieselB":1.609,"lpg":1.135,"adblue":0.809},"extra":{"saleType":"P","margin":"I","reportingType":"dm","ideess":"1008","idMunicipio":"5830","idProvincia":"39","idCCAA":"06"}}},{"type":"Feature","geometry":{"type":"Point","coordinates":[-4.496616,43.37482]},"properties":{"id":"es-1009","source":"ES","brand":"COMBUSCAN","address":"LANSAR, S/N (N-634 km 284,5)","municipality":"Val de San Vicente","province":"CANTABRIA","postalCode":"39548","schedule":"L-S: 06:00-23:00; D: 08:00-23:00","fuels":{"gasoline95":1.609,"gasoline98":1.769,"diesel":1.729,"dieselPremium":1.829,"dieselB":1.999},"extra":{"saleType":"P","margin":"I","reportingType":"dm","ideess":"1009","idMunicipio":"5834","idProvincia":"39","idCCAA":"06"}}},{"type":"Feature","geometry":{"type":"Point","coordinates":[-4.249639,43.269333]},"properties":{"id":"es-1012","source":"ES","brand":"CEPSA","address":"CARRETERA COMARCAL 625 KM. 48400","municipality":"Ruente","province":"CANTABRIA","postalCode":"39513","schedule":"L-D: 24H","fuels":{"gasoline95":1.769,"gasoline98":1.909,"diesel":1.899,"dieselPremium":1.999},"extra":{"saleType":"P","margin":"N","reportingType":"dm","ideess":"1012","idMunicipio":"5809","idProvincia":"39","idCCAA":"06"}}},{"type":"Feature","geometry":{"type":"Point","coordinates":[-4.094167,43.356]},"properties":{"id":"es-1013","source":"ES","brand":"CEPSA","address":"AUTOVIA AUTOVIA DEL CANTABRICOA-8 KM. 234","municipality":"Reocín","province":"CANTABRIA","postalCode":"39530","schedule":"L-D: 24H","fuels":{"gasoline95":1.789,"gasoline98":1.909,"diesel":1.889,"dieselPremium":1.999,"lpg":1.139,"adblue":0.878},"extra":{"saleType":"P","margin":"N","reportingType":"dm","ideess":"1013","idMunicipio":"5803","idProvincia":"39","idCCAA":"06"}}},{"type":"Feature","geometry":{"type":"Point","coordinates":[-4.046338,43.343792]},"properties":{"id":"es-1015","source":"ES","brand":"RUYCOPETROL, S.L.","address":"AVDA. FERNANDEZ VALLEJO, 12","municipality":"Torrelavega","province":"CANTABRIA","postalCode":"39300","schedule":"L-D: 07:00-23:00","fuels":{"gasoline95":1.659,"diesel":1.719},"extra":{"saleType":"P","margin":"N","reportingType":"dm","ideess":"1015","idMunicipio":"5830","idProvincia":"39","idCCAA":"06"}}},{"type":"Feature","geometry":{"type":"Point","coordinates":[-4.606194,43.167083]},"properties":{"id":"es-1016","source":"ES","brand":"ESTACION DE SERVICIO LIEBANA S.L","address":"CN-621 km 150","municipality":"Cillorigo de Liébana","province":"CANTABRIA","postalCode":"39585","schedule":"L-D: 07:00-22:00","fuels":{"gasoline95":1.659,"diesel":1.759,"dieselB":1.529},"extra":{"saleType":"P","margin":"N","reportingType":"dm","ideess":"1016","idMunicipio":"5766","idProvincia":"39","idCCAA":"06"}}},{"type":"Feature","geometry":{"type":"Point","coordinates":[-4.05975,43.378278]},"properties":{"id":"es-1034","source":"ES","brand":"REPSOL","address":"CARRETERA 6316 KM.2 KM. 2","municipality":"Santillana del Mar","province":"CANTABRIA","postalCode":"39314","schedule":"L-D: 07:00-21:00","fuels":{"gasoline95":1.755,"gasoline98":1.925,"diesel":1.915,"dieselRenewable":2.035},"extra":{"saleType":"P","margin":"D","reportingType":"OM","ideess":"1034","idMunicipio":"5820","idProvincia":"39","idCCAA":"06"}}},{"type":"Feature","geometry":{"type":"Point","coordinates":[-4.052444,43.181972]},"properties":{"id":"es-1036","source":"ES","brand":"PETRONOR","address":"CARRETERA N-611 KM. 163,2","municipality":"Arenas de Iguña","province":"CANTABRIA","postalCode":"39450","schedule":"L-D: 06:00-22:00","fuels":{"gasoline95":1.795,"diesel":1.945,"dieselRenewable":2.065},"extra":{"saleType":"P","margin":"I","reportingType":"OM","ideess":"1036","idMunicipio":"5747","idProvincia":"39","idCCAA":"06"}}},{"type":"Feature","geometry":{"type":"Point","coordinates":[-4.155194,43.395944]},"properties":{"id":"es-1039","source":"ES","brand":"CEPSA","address":"CARRETERA 6316 KM. 10,5","municipality":"Alfoz de Lloredo","province":"CANTABRIA","postalCode":"39526","schedule":"L-D: 08:00-21:00","fuels":{"gasoline95":1.789,"gasoline98":1.899,"diesel":1.899,"dieselPremium":1.999,"dieselB":1.759},"extra":{"saleType":"P","margin":"I","reportingType":"dm","ideess":"1039","idMunicipio":"5744","idProvincia":"39","idCCAA":"06"}}},{"type":"Feature","geometry":{"type":"Point","coordinates":[-4.405361,43.254194]},"properties":{"id":"es-1040","source":"ES","brand":"PETRONOR","address":"CARRETERA CA-182 KM. 15,4","municipality":"Rionansa","province":"CANTABRIA","postalCode":"39554","schedule":"L-V: 07:30-22:00; S-D: 09:00-21:00","fuels":{"gasoline95":1.755,"gasoline98":1.925,"diesel":1.895,"dieselRenewable":2.015},"extra":{"saleType":"P","margin":"D","reportingType":"OM","ideess":"1040","idMunicipio":"5806","idProvincia":"39","idCCAA":"06"}}},{"type":"Feature","geometry":{"type":"Point","coordinates":[-4.089444,43.368611]},"properties":{"id":"es-1041","source":"ES","brand":"PETRONOR","address":"CARRETERA PUENTE SAN MIGUEL- SANTILLANA DEL MAR KM. 1,2","municipality":"Reocín","province":"CANTABRIA","postalCode":"39530","schedule":"L-S: 07:00-22:00; D: 08:00-22:00","fuels":{"gasoline95":1.769,"diesel":1.899,"dieselRenewable":1.989,"adblue":1.139},"extra":{"saleType":"P","margin":"D","reportingType":"dm","ideess":"1041","idMunicipio":"5803","idProvincia":"39","idCCAA":"06"}}},{"type":"Feature","geometry":{"type":"Point","coordinates":[-4.049,43.131389]},"properties":{"id":"es-1045","source":"ES","brand":"PETRONOR","address":"CARRETERA N-611 KM. 159","municipality":"Molledo","province":"CANTABRIA","postalCode":"39430","schedule":"L-D: 24H","fuels":{"gasoline95":1.809,"diesel":1.945,"dieselB":1.579},"extra":{"saleType":"P","margin":"D","reportingType":"dm","ideess":"1045","idMunicipio":"5789","idProvincia":"39","idCCAA":"06"}}},{"type":"Feature","geometry":{"type":"Point","coordinates":[-4.235,43.309389]},"properties":{"id":"es-1049","source":"ES","brand":"REPSOL","address":"CALLE CORREOS, SN","municipality":"Cabezón de la Sal","province":"CANTABRIA","postalCode":"39500","schedule":"L-V: 07:00-22:00; S: 08:00-15:00; D: 09:00-15:00","fuels":{"gasoline95":1.759,"diesel":1.899,"dieselRenewable":2.019},"extra":{"saleType":"P","margin":"I","reportingType":"OM","ideess":"1049","idMunicipio":"5755","idProvincia":"39","idCCAA":"06"}}},{"type":"Feature","geometry":{"type":"Point","coordinates":[-4.029417,43.341]},"properties":{"id":"es-1067","source":"ES","brand":"REPSOL","address":"AVENIDA DE BILBAO, 117 / CTRA. N-634 KM 232, 5","municipality":"Torrelavega","province":"CANTABRIA","postalCode":"39317","schedule":"L-D: 06:00-00:00","fuels":{"gasoline95":1.775,"gasoline98":1.895,"diesel":1.935,"dieselRenewable":2.055},"extra":{"saleType":"P","margin":"D","reportingType":"OM","ideess":"1067","idMunicipio":"5830","idProvincia":"39","idCCAA":"06"}}},{"type":"Feature","geometry":{"type":"Point","coordinates":[-4.069472,43.356056]},"properties":{"id":"es-1072","source":"ES","brand":"CEPSA","address":"AVENIDA DE OVIEDO, 24","municipality":"Torrelavega","province":"CANTABRIA","postalCode":"39300","schedule":"L-D: 06:00-22:00","fuels":{"gasoline95":1.789,"gasoline98":1.909,"diesel":1.899,"dieselPremium":1.999,"dieselB":1.729,"adblue":0.878},"extra":{"saleType":"P","margin":"D","reportingType":"dm","ideess":"1072","idMunicipio":"5830","idProvincia":"39","idCCAA":"06"}}},{"type":"Feature","geometry":{"type":"Point","coordinates":[-4.281556,43.370333]},"properties":{"id":"es-10722","source":"ES","brand":"COOPERATIVA RUISEÑADA","address":"PASEO ESTRADA","municipality":"Comillas","province":"CANTABRIA","postalCode":"39520","schedule":"L-V: 09:00-14:00 y 15:00-19:00","fuels":{"gasoline95":1.595,"diesel":1.675,"dieselPremium":1.725},"extra":{"saleType":"P","margin":"N","reportingType":"dm","ideess":"10722","idMunicipio":"5768","idProvincia":"39","idCCAA":"06"}}},{"type":"Feature","geometry":{"type":"Point","coordinates":[-4.069472,43.355972]},"properties":{"id":"es-1073","source":"ES","brand":"BALLENOIL","address":"AVDA. OVIEDO, 24 (N-634A km 232,3)","municipality":"Torrelavega","province":"CANTABRIA","postalCode":"39300","schedule":"L-D: 24H","fuels":{"gasoline95":1.659,"gasoline95Premium":1.669,"diesel":1.719,"dieselPremium":1.739},"extra":{"saleType":"P","margin":"I","reportingType":"OM","ideess":"1073","idMunicipio":"5830","idProvincia":"39","idCCAA":"06"}}},{"type":"Feature","geometry":{"type":"Point","coordinates":[-4.279472,43.387639]},"properties":{"id":"es-1081","source":"ES","brand":"REPSOL","address":"CARRETERA EL PORTILLO KM. 21,5","municipality":"Ruiloba","province":"CANTABRIA","postalCode":"39527","schedule":"L-J: 07:00-21:00; V: 07:00-22:00; S: 08:00-22:00; D: 09:00-18:00","fuels":{"gasoline95":1.789,"gasoline98":1.909,"diesel":1.945,"dieselRenewable":2.065},"extra":{"saleType":"P","margin":"I","reportingType":"OM","ideess":"1081","idMunicipio":"5811","idProvincia":"39","idCCAA":"06"}}},{"type":"Feature","geometry":{"type":"Point","coordinates":[-4.049056,43.397806]},"properties":{"id":"es-1083","source":"ES","brand":"REPSOL","address":"AVENIDA SAN SATURNINO, S/N","municipality":"Suances","province":"CANTABRIA","postalCode":"39350","schedule":"L-D: 06:00-22:00","fuels":{"gasoline95":1.799,"gasoline98":1.929,"diesel":1.919,"dieselPremium":1.999},"extra":{"saleType":"P","margin":"D","reportingType":"dm","ideess":"1083","idMunicipio":"5828","idProvincia":"39","idCCAA":"06"}}},{"type":"Feature","geometry":{"type":"Point","coordinates":[-4.0655,43.331556]},"properties":{"id":"es-1088","source":"ES","brand":"REPSOL","address":"CARRETERA N-611 (ANTIGUA) KM. 182","municipality":"Cartes","province":"CANTABRIA","postalCode":"39311","schedule":"L-V: 07:30-22:00; S-D: 08:00-22:00","fuels":{"gasoline95":1.755,"gasoline98":1.925,"diesel":1.915,"dieselRenewable":2.035,"lpg":1.125},"extra":{"saleType":"P","margin":"I","reportingType":"OM","ideess":"1088","idMunicipio":"5762","idProvincia":"39","idCCAA":"06"}}},{"type":"Feature","geometry":{"type":"Point","coordinates":[-4.329278,43.333972]},"properties":{"id":"es-1089","source":"ES","brand":"REPSOL","address":"AU  A-8 ,P.K. 256","municipality":"Valdáliga","province":"CANTABRIA","postalCode":"39593","schedule":"L-D: 24H","fuels":{"gasoline95":1.769,"gasoline98":1.889,"diesel":1.899,"dieselRenewable":2.019,"lpg":1.145},"extra":{"saleType":"P","margin":"D","reportingType":"OM","ideess":"1089","idMunicipio":"5835","idProvincia":"39","idCCAA":"06"}}},{"type":"Feature","geometry":{"type":"Point","coordinates":[-4.330611,43.334083]},"properties":{"id":"es-1090","source":"ES","brand":"REPSOL","address":"AU  A-8 ,P.K. 256","municipality":"Valdáliga","province":"CANTABRIA","postalCode":"39593","schedule":"L-D: 24H","fuels":{"gasoline95":1.769,"gasoline98":1.889,"diesel":1.899,"dieselRenewable":2.019,"lpg":1.139},"extra":{"saleType":"P","margin":"I","reportingType":"OM","ideess":"1090","idMunicipio":"5835","idProvincia":"39","idCCAA":"06"}}},{"type":"Feature","geometry":{"type":"Point","coordinates":[-4.191639,43.327028]},"properties":{"id":"es-1091","source":"ES","brand":"REPSOL","address":"CARRETERA 634 KM. 244","municipality":"Cabezón de la Sal","province":"CANTABRIA","postalCode":"39509","schedule":"L-V: 06:30-23:00; S-D: 07:00-23:00","fuels":{"gasoline95":1.779,"gasoline98":1.939,"diesel":1.899,"dieselRenewable":2.019,"lpg":1.159,"adblue":0.99},"extra":{"saleType":"P","margin":"D","reportingType":"dm","ideess":"1091","idMunicipio":"5755","idProvincia":"39","idCCAA":"06"}}},{"type":"Feature","geometry":{"type":"Point","coordinates":[-4.407833,43.388361]},"properties":{"id":"es-1092","source":"ES","brand":"E.S.SOLBAS","address":"CARRETERA E-70/N-634 KM. 270","municipality":"San Vicente de la Barquera","province":"CANTABRIA","postalCode":"39540","schedule":"L: 06:00-23:00","fuels":{"gasoline95":1.699,"gasoline98":1.899,"diesel":1.799,"dieselB":1.659},"extra":{"saleType":"P","margin":"I","reportingType":"dm","ideess":"1092","idMunicipio":"5816","idProvincia":"39","idCCAA":"06"}}},{"type":"Feature","geometry":{"type":"Point","coordinates":[-4.039,43.420056]},"properties":{"id":"es-1093","source":"ES","brand":"BALLENOIL","address":"AVDA. JOSE ANTONIO, 46,0 (S-472 km 5,3)","municipality":"Suances","province":"CANTABRIA","postalCode":"39340","schedule":"L-D: 24H","fuels":{"gasoline95":1.679,"gasoline95Premium":1.689,"diesel":1.769,"dieselPremium":1.789},"extra":{"saleType":"P","margin":"I","reportingType":"OM","ideess":"1093","idMunicipio":"5828","idProvincia":"39","idCCAA":"06"}}},{"type":"Feature","geometry":{"type":"Point","coordinates":[-4.052917,43.266639]},"properties":{"id":"es-11743","source":"ES","brand":"AREA DE SERVICIO URAL","address":"CARRETERA LOS CORRALES DE BUELNA-PUENTE VIESGO KM. 1,500","municipality":"San Felices de Buelna","province":"CANTABRIA","postalCode":"39409","schedule":"L-D: 06:00-22:00","fuels":{"gasoline95":1.659,"gasoline98":1.759,"diesel":1.759,"dieselPremium":1.829,"adblue":0.9},"extra":{"saleType":"P","margin":"D","reportingType":"dm","ideess":"11743","idMunicipio":"5812","idProvincia":"39","idCCAA":"06"}}},{"type":"Feature","geometry":{"type":"Point","coordinates":[-4.031,43.341167]},"properties":{"id":"es-11779","source":"ES","brand":"CARREFOUR","address":"AVENIDA BILBAO, POLIGONO LOS OCHOS, S/N","municipality":"Torrelavega","province":"CANTABRIA","postalCode":"39300","schedule":"L-S: 07:00-22:45; D: 09:00-21:00","fuels":{"gasoline95":1.709,"gasoline98":1.919,"diesel":1.759,"dieselPremium":1.799},"extra":{"saleType":"P","margin":"N","reportingType":"dm","ideess":"11779","idMunicipio":"5830","idProvincia":"39","idCCAA":"06"}}},{"type":"Feature","geometry":{"type":"Point","coordinates":[-4.070972,43.252444]},"properties":{"id":"es-12213","source":"ES","brand":"SHELL","address":"CARRETERA NACIONAL 611 KM. 170,940","municipality":"Corrales de Buelna (Los)","province":"CANTABRIA","postalCode":"39400","schedule":"L-D: 06:00-22:00","fuels":{"gasoline95":1.769,"gasoline98":1.909,"diesel":1.889,"dieselPremium":1.969,"lpg":1.029,"adblue":1.25},"extra":{"saleType":"P","margin":"N","reportingType":"OM","ideess":"12213","idMunicipio":"5769","idProvincia":"39","idCCAA":"06"}}},{"type":"Feature","geometry":{"type":"Point","coordinates":[-4.503889,43.375028]},"properties":{"id":"es-12795","source":"ES","brand":"MOEVE","address":"CARRETERA E-70/N-634 KM. 279","municipality":"Val de San Vicente","province":"CANTABRIA","postalCode":"39548","schedule":"L-D: 06:00-23:00","fuels":{"gasoline95":1.784,"gasoline95Premium":1.884,"gasoline98":1.904,"diesel":1.869,"dieselPremium":1.999,"dieselB":1.729,"lpg":1.179},"extra":{"saleType":"P","margin":"I","reportingType":"OM","ideess":"12795","idMunicipio":"5834","idProvincia":"39","idCCAA":"06"}}},{"type":"Feature","geometry":{"type":"Point","coordinates":[-4.021694,43.391667]},"properties":{"id":"es-13158","source":"ES","brand":"BP POLANCO","address":"BARRIO REQUEJADA  EN  REQUEJADA, 2","municipality":"Polanco","province":"CANTABRIA","postalCode":"39312","schedule":"L-D: 07:00-23:00","fuels":{"gasoline95":1.759,"gasoline98":1.899,"diesel":1.879,"dieselPremium":1.959,"lpg":1.129,"adblue":1.249},"extra":{"saleType":"P","margin":"N","reportingType":"dm","ideess":"13158","idMunicipio":"5797","idProvincia":"39","idCCAA":"06"}}},{"type":"Feature","geometry":{"type":"Point","coordinates":[-4.057694,43.351194]},"properties":{"id":"es-13683","source":"ES","brand":"BALLENOIL","address":"PASEO JULIO HAUZEUR, 2","municipality":"Torrelavega","province":"CANTABRIA","postalCode":"39316","schedule":"L-D: 24H","fuels":{"gasoline95":1.659,"diesel":1.719},"extra":{"saleType":"P","margin":"D","reportingType":"OM","ideess":"13683","idMunicipio":"5830","idProvincia":"39","idCCAA":"06"}}},{"type":"Feature","geometry":{"type":"Point","coordinates":[-4.077889,43.286083]},"properties":{"id":"es-14154","source":"ES","brand":"MOEVE","address":"BARRIO BARROS, 9","municipality":"Corrales de Buelna (Los)","province":"CANTABRIA","postalCode":"39408","schedule":"L-D: 06:00-22:00","fuels":{"gasoline95":1.784,"gasoline98":1.934,"diesel":1.909,"dieselPremium":1.999},"extra":{"saleType":"P","margin":"N","reportingType":"OM","ideess":"14154","idMunicipio":"5769","idProvincia":"39","idCCAA":"06"}}},{"type":"Feature","geometry":{"type":"Point","coordinates":[-4.065333,43.359111]},"properties":{"id":"es-14522","source":"ES","brand":"GALP","address":"AVENIDA MONECHE, SN","municipality":"Torrelavega","province":"CANTABRIA","postalCode":"39300","schedule":"L-D: 07:00-23:00","fuels":{"gasoline95":1.659,"diesel":1.719,"dieselPremium":1.769},"extra":{"saleType":"P","margin":"N","reportingType":"OM","ideess":"14522","idMunicipio":"5830","idProvincia":"39","idCCAA":"06"}}},{"type":"Feature","geometry":{"type":"Point","coordinates":[-4.029833,43.34275]},"properties":{"id":"es-14553","source":"ES","brand":"NIEVES","address":"BARRIO SIERRAPANDO, 371","municipality":"Torrelavega","province":"CANTABRIA","postalCode":"39300","schedule":"L-V: 06:30-22:00; S: 09:00-21:30; D: 10:00-16:00","fuels":{"gasoline95":1.666,"diesel":1.766,"dieselPremium":1.777,"adblue":0.777},"extra":{"saleType":"P","margin":"N","reportingType":"dm","ideess":"14553","idMunicipio":"5830","idProvincia":"39","idCCAA":"06"}}},{"type":"Feature","geometry":{"type":"Point","coordinates":[-4.043472,43.367667]},"properties":{"id":"es-14643","source":"ES","brand":"RUYCO PETROL","address":"AVENIDA SOLVAY, 48","municipality":"Torrelavega","province":"CANTABRIA","postalCode":"39300","schedule":"L-D: 07:00-23:00","fuels":{"gasoline95":1.659,"gasoline98":1.709,"diesel":1.719,"dieselPremium":1.749},"extra":{"saleType":"P","margin":"D","reportingType":"dm","ideess":"14643","idMunicipio":"5830","idProvincia":"39","idCCAA":"06"}}},{"type":"Feature","geometry":{"type":"Point","coordinates":[-4.565167,43.381861]},"properties":{"id":"es-14978","source":"ES","brand":"MOEVE","address":"CARRETERA A-8 KM. 277","municipality":"Ribadedeva","province":"ASTURIAS","postalCode":"33590","schedule":"L-D: 06:00-23:59","fuels":{"gasoline95":1.774,"gasoline98":1.914,"diesel":1.919,"dieselPremium":2.019,"lpg":1.189},"extra":{"saleType":"P","margin":"D","reportingType":"OM","ideess":"14978","idMunicipio":"5017","idProvincia":"33","idCCAA":"03"}}},{"type":"Feature","geometry":{"type":"Point","coordinates":[-4.071056,43.318833]},"properties":{"id":"es-15673","source":"ES","brand":"BALLENOIL","address":"POLIGONO MOLLADAR ,BARRIO CARTES-REAL Y CUARTO, 1","municipality":"Cartes","province":"CANTABRIA","postalCode":"39311","schedule":"L-D: 24H","fuels":{"gasoline95":1.659,"diesel":1.719,"dieselPremium":1.739},"extra":{"saleType":"P","margin":"D","reportingType":"OM","ideess":"15673","idMunicipio":"5762","idProvincia":"39","idCCAA":"06"}}},{"type":"Feature","geometry":{"type":"Point","coordinates":[-4.066194,43.333194]},"properties":{"id":"es-15724","source":"ES","brand":"PLENERGY","address":"CALLE SANTIAGO-LA LLANADA, 1","municipality":"Cartes","province":"CANTABRIA","postalCode":"39311","schedule":"L-D: 24H","fuels":{"gasoline95":1.659,"diesel":1.719},"extra":{"saleType":"P","margin":"D","reportingType":"dm","ideess":"15724","idMunicipio":"5762","idProvincia":"39","idCCAA":"06"}}},{"type":"Feature","geometry":{"type":"Point","coordinates":[-4.066556,43.332889]},"properties":{"id":"es-15734","source":"ES","brand":"PETROPRIX","address":"CALLE SANTIAGO-LA LLANADA, 6","municipality":"Cartes","province":"CANTABRIA","postalCode":"39311","schedule":"L-D: 24H","fuels":{"gasoline95":1.659,"diesel":1.719},"extra":{"saleType":"P","margin":"D","reportingType":"dm","ideess":"15734","idMunicipio":"5762","idProvincia":"39","idCCAA":"06"}}},{"type":"Feature","geometry":{"type":"Point","coordinates":[-4.068861,43.319056]},"properties":{"id":"es-15860","source":"ES","brand":"REPSOL","address":"BARRIO CARTES-MIES MOLLADAR, 1","municipality":"Cartes","province":"CANTABRIA","postalCode":"39311","schedule":"L-D: 06:30-22:30","fuels":{"gasoline95":1.779,"gasoline98":1.939,"diesel":1.899,"dieselRenewable":2.019,"adblue":0.99},"extra":{"saleType":"P","margin":"D","reportingType":"dm","ideess":"15860","idMunicipio":"5762","idProvincia":"39","idCCAA":"06"}}},{"type":"Feature","geometry":{"type":"Point","coordinates":[-4.049444,43.37725]},"properties":{"id":"es-16249","source":"ES","brand":"PLENERGY","address":"BARRIO VIVEDA, S/N","municipality":"Santillana del Mar","province":"CANTABRIA","postalCode":"39314","schedule":"L-D: 24H","fuels":{"gasoline95":1.629,"diesel":1.689},"extra":{"saleType":"P","margin":"D","reportingType":"dm","ideess":"16249","idMunicipio":"5820","idProvincia":"39","idCCAA":"06"}}},{"type":"Feature","geometry":{"type":"Point","coordinates":[-4.881472,43.413806]},"properties":{"id":"es-372","source":"ES","brand":"EL CENTRO","address":"CARRETERA AS-115 KM. 2","municipality":"Llanes","province":"ASTURIAS","postalCode":"33594","schedule":"L-D: 24H","fuels":{"gasoline95":1.699,"diesel":1.759,"dieselPremium":1.809,"dieselB":1.599,"lpg":1.169},"extra":{"saleType":"P","margin":"N","reportingType":"dm","ideess":"372","idMunicipio":"4998","idProvincia":"33","idCCAA":"03"}}},{"type":"Feature","geometry":{"type":"Point","coordinates":[-4.557444,43.381722]},"properties":{"id":"es-381","source":"ES","brand":"PETRONOR","address":"CARRETERA NACIONAL 634. KM. 78,8","municipality":"Ribadedeva","province":"ASTURIAS","postalCode":"33590","schedule":"L-D: 06:00-22:00","fuels":{"gasoline95":1.745,"diesel":1.899,"dieselB":1.669,"dieselRenewable":2.019},"extra":{"saleType":"P","margin":"D","reportingType":"OM","ideess":"381","idMunicipio":"5017","idProvincia":"33","idCCAA":"03"}}},{"type":"Feature","geometry":{"type":"Point","coordinates":[-4.734944,43.398667]},"properties":{"id":"es-394","source":"ES","brand":"REPSOL","address":"CARRETERA N. 634 KM. 299,1","municipality":"Llanes","province":"ASTURIAS","postalCode":"33596","schedule":"L-D: 06:00-22:00","fuels":{"gasoline95":1.809,"gasoline98":1.929,"diesel":1.939,"dieselRenewable":2.059},"extra":{"saleType":"P","margin":"I","reportingType":"OM","ideess":"394","idMunicipio":"4998","idProvincia":"33","idCCAA":"03"}}},{"type":"Feature","geometry":{"type":"Point","coordinates":[-4.050667,43.352139]},"properties":{"id":"es-419","source":"ES","brand":"CEPSA","address":"PABLO GARNICA S/N, ESQ. PINTOR PANCHO COSSIO","municipality":"Torrelavega","province":"CANTABRIA","postalCode":"39300","schedule":"L-D: 06:00-22:00","fuels":{"gasoline95":1.779,"gasoline98":1.919,"diesel":1.894,"dieselPremium":1.994},"extra":{"saleType":"P","margin":"N","reportingType":"dm","ideess":"419","idMunicipio":"5830","idProvincia":"39","idCCAA":"06"}}},{"type":"Feature","geometry":{"type":"Point","coordinates":[-4.073861,43.268583]},"properties":{"id":"es-424","source":"ES","brand":"E.S. SOMAHOZ","address":"BARRIO SAN MATEO (CR N-611  PALENCIA-SANTANDER km 174)","municipality":"Corrales de Buelna (Los)","province":"CANTABRIA","postalCode":"39408","schedule":"L-D: 24H","fuels":{"gasoline95":1.649,"gasoline98":1.779,"diesel":1.749,"dieselPremium":1.789,"dieselB":1.469,"lpg":1.109,"adblue":0.8},"extra":{"saleType":"P","margin":"D","reportingType":"dm","ideess":"424","idMunicipio":"5769","idProvincia":"39","idCCAA":"06"}}},{"type":"Feature","geometry":{"type":"Point","coordinates":[-4.131667,43.003861]},"properties":{"id":"es-7960","source":"ES","brand":"REPSOL","address":"AVENIDA CANTABRIA, 73","municipality":"Reinosa","province":"CANTABRIA","postalCode":"39200","schedule":"L-S: 07:00-22:30","fuels":{"gasoline95":1.789,"gasoline98":1.919,"diesel":1.899,"dieselPremium":1.969,"adblue":0.99},"extra":{"saleType":"P","margin":"I","reportingType":"dm","ideess":"7960","idMunicipio":"5802","idProvincia":"39","idCCAA":"06"}}},{"type":"Feature","geometry":{"type":"Point","coordinates":[-4.058583,43.351528]},"properties":{"id":"es-8143","source":"ES","brand":"AREA DE SERVICIO TORRELAVEGA","address":"PASEO JULIO HAUZEUR, 6","municipality":"Torrelavega","province":"CANTABRIA","postalCode":"39300","schedule":"L-S: 06:00-22:00; D: 08:00-22:00","fuels":{"gasoline95":1.779,"diesel":1.889},"extra":{"saleType":"P","margin":"N","reportingType":"dm","ideess":"8143","idMunicipio":"5830","idProvincia":"39","idCCAA":"06"}}},{"type":"Feature","geometry":{"type":"Point","coordinates":[-4.12875,43.007139]},"properties":{"id":"es-8145","source":"ES","brand":"MOEVE","address":"AVENIDA CANTABRIA, 99","municipality":"Reinosa","province":"CANTABRIA","postalCode":"39200","schedule":"L-D: 06:00-23:59","fuels":{"gasoline95":1.784,"gasoline98":1.924,"diesel":1.899,"dieselPremium":1.999},"extra":{"saleType":"P","margin":"N","reportingType":"OM","ideess":"8145","idMunicipio":"5802","idProvincia":"39","idCCAA":"06"}}},{"type":"Feature","geometry":{"type":"Point","coordinates":[-4.795833,43.297944]},"properties":{"id":"es-853","source":"ES","brand":"ESC-PETROLEOS","address":"CARRETERA AS-114 KM. 32,80","municipality":"Cabrales","province":"ASTURIAS","postalCode":"33554","schedule":"L-D: 08:00-22:00","fuels":{"gasoline95":1.729,"gasoline98":1.819,"diesel":1.799,"dieselB":1.55},"extra":{"saleType":"P","margin":"D","reportingType":"dm","ideess":"853","idMunicipio":"4971","idProvincia":"33","idCCAA":"03"}}},{"type":"Feature","geometry":{"type":"Point","coordinates":[-4.86225,43.426417]},"properties":{"id":"es-861","source":"ES","brand":"POSADA MENENDEZ","address":"CARRETERA AS-263 KM. 19","municipality":"Llanes","province":"ASTURIAS","postalCode":"33594","schedule":"L-D: 07:00-23:00","fuels":{"gasoline95":1.699,"gasoline98":1.799,"diesel":1.769,"dieselPremium":1.869},"extra":{"saleType":"P","margin":"N","reportingType":"dm","ideess":"861","idMunicipio":"4998","idProvincia":"33","idCCAA":"03"}}},{"type":"Feature","geometry":{"type":"Point","coordinates":[-4.583,43.327472]},"properties":{"id":"es-901","source":"ES","brand":"REPSOL","address":"CR N-621, 176","municipality":"Peñamellera Baja","province":"ASTURIAS","postalCode":"33570","schedule":"L-V: 07:00-21:00; S-D: 08:00-21:00","fuels":{"gasoline95":1.789,"gasoline98":1.919,"diesel":1.939,"dieselRenewable":2.059},"extra":{"saleType":"P","margin":"I","reportingType":"OM","ideess":"901","idMunicipio":"5009","idProvincia":"33","idCCAA":"03"}}},{"type":"Feature","geometry":{"type":"Point","coordinates":[-4.7625,43.424472]},"properties":{"id":"es-954","source":"ES","brand":"GALP","address":"CALLE MANUEL DIEZ ALEGRIA, 8","municipality":"Llanes","province":"ASTURIAS","postalCode":"33500","schedule":"L-D: 06:30-23:00","fuels":{"gasoline95":1.779,"gasoline98":1.919,"diesel":1.909,"dieselPremium":1.959},"extra":{"saleType":"P","margin":"D","reportingType":"OM","ideess":"954","idMunicipio":"4998","idProvincia":"33","idCCAA":"03"}}},{"type":"Feature","geometry":{"type":"Point","coordinates":[-4.857333,43.432722]},"properties":{"id":"es-956","source":"ES","brand":"GALP","address":"AUTOVIA AUTOVIA A8 KM. 310","municipality":"Llanes","province":"ASTURIAS","postalCode":"33594","schedule":"L-D: 24H","fuels":{"gasoline95":1.699,"gasoline98":1.799,"diesel":1.769,"dieselPremium":1.929,"dieselB":1.599,"adblue":0.8},"extra":{"saleType":"P","margin":"I","reportingType":"dm","ideess":"956","idMunicipio":"4998","idProvincia":"33","idCCAA":"03"}}},{"type":"Feature","geometry":{"type":"Point","coordinates":[-4.856611,43.431667]},"properties":{"id":"es-973","source":"ES","brand":"GALP","address":"AUTOVIA AUTOVIA A8 KM. 310","municipality":"Llanes","province":"ASTURIAS","postalCode":"33594","schedule":"L-D: 24H","fuels":{"gasoline95":1.699,"gasoline98":1.799,"diesel":1.769,"dieselPremium":1.929,"adblue":0.8},"extra":{"saleType":"P","margin":"D","reportingType":"dm","ideess":"973","idMunicipio":"4998","idProvincia":"33","idCCAA":"03"}}},{"type":"Feature","geometry":{"type":"Point","coordinates":[-4.069278,43.314472]},"properties":{"id":"es-998","source":"ES","brand":"MEROIL","address":"BARRIO DE RIOCORVO, 2 (N-611 PALENCIA-SANTANDER km 179,8)","municipality":"Cartes","province":"CANTABRIA","postalCode":"39311","schedule":"L-D: 06:30-22:30","fuels":{"gasoline95":1.649,"gasoline98":1.779,"diesel":1.719,"dieselPremium":1.739,"dieselB":1.465,"adblue":0.799},"extra":{"saleType":"P","margin":"I","reportingType":"dm","ideess":"998","idMunicipio":"5762","idProvincia":"39","idCCAA":"06"}}}]}