{"type":"FeatureCollection","features":[{"type":"Feature","geometry":{"type":"Point","coordinates":[-8.850583,41.918083]},"properties":{"id":"es-14495","source":"ES","brand":"BALLENOIL","address":"ROTONDA PINTAN, S/N","municipality":"Guarda (A)","province":"PONTEVEDRA","postalCode":"36789","schedule":"L-D: 24H","fuels":{"gasoline95":1.609,"diesel":1.729},"extra":{"saleType":"P","margin":"D","reportingType":"OM","ideess":"14495","idMunicipio":"5289","idProvincia":"36","idCCAA":"12"}}},{"type":"Feature","geometry":{"type":"Point","coordinates":[-8.852611,41.910778]},"properties":{"id":"es-326","source":"ES","brand":"REPSOL","address":"CL SAN ROQUE, 33","municipality":"Guarda (A)","province":"PONTEVEDRA","postalCode":"36789","schedule":"L-D: 24H","fuels":{"gasoline95":1.779,"gasoline98":1.919,"diesel":1.899,"dieselRenewable":2.019},"extra":{"saleType":"P","margin":"I","reportingType":"dm","ideess":"326","idMunicipio":"5289","idProvincia":"36","idCCAA":"12"}}},{"type":"Feature","geometry":{"type":"Point","coordinates":[-8.0945,41.911528]},"properties":{"id":"es-747","source":"ES","brand":"REPSOL","address":"CARRETERA N-540 KM. 59,8","municipality":"Entrimo","province":"OURENSE","postalCode":"32860","schedule":"L-D: 07:00-22:00","fuels":{"gasoline95":1.749,"diesel":1.889},"extra":{"saleType":"P","margin":"D","reportingType":"dm","ideess":"747","idMunicipio":"4901","idProvincia":"32","idCCAA":"12"}}},{"type":"Feature","geometry":{"type":"Point","coordinates":[-8.879639,41.917194]},"properties":{"id":"es-753","source":"ES","brand":"PETRONOR","address":"CR PO-552 P.K. 44","municipality":"Guarda (A)","province":"PONTEVEDRA","postalCode":"36780","schedule":"L-D: 07:00-23:00","fuels":{"gasoline95":1.779,"gasoline98":1.919,"diesel":1.899,"dieselPremium":2.019},"extra":{"saleType":"P","margin":"I","reportingType":"dm","ideess":"753","idMunicipio":"5289","idProvincia":"36","idCCAA":"12"}}},{"type":"Feature","geometry":{"type":"Point","coordinates":[-8.750028,41.972833]},"properties":{"id":"es-786","source":"ES","brand":"CEPSA","address":"CARRETERA PO-550 KM. 184","municipality":"Tomiño","province":"PONTEVEDRA","postalCode":"36740","schedule":"L-D: 24H","fuels":{"gasoline95":1.779,"gasoline98":1.919,"diesel":1.899,"dieselPremium":1.999},"extra":{"saleType":"P","margin":"D","reportingType":"dm","ideess":"786","idMunicipio":"5321","idProvincia":"36","idCCAA":"12"}}},{"type":"Feature","geometry":{"type":"Point","coordinates":[-8.749556,41.972528]},"properties":{"id":"es-787","source":"ES","brand":"CEPSA","address":"CARRETERA PO-550 KM. 186","municipality":"Tomiño","province":"PONTEVEDRA","postalCode":"36740","schedule":"L: 06:30-22:30","fuels":{"gasoline95":1.779,"diesel":1.899},"extra":{"saleType":"P","margin":"I","reportingType":"dm","ideess":"787","idMunicipio":"5321","idProvincia":"36","idCCAA":"12"}}},{"type":"Feature","geometry":{"type":"Point","coordinates":[-8.029389,41.951694]},"properties":{"id":"es-812","source":"ES","brand":"REPSOL","address":"CR N-540 51,6","municipality":"Lobeira","province":"OURENSE","postalCode":"32897","schedule":"L-D: 07:00-22:00","fuels":{"gasoline95":1.749,"gasoline98":1.859,"diesel":1.889,"dieselPremium":1.949},"extra":{"saleType":"P","margin":"D","reportingType":"dm","ideess":"812","idMunicipio":"4909","idProvincia":"32","idCCAA":"12"}}}]}