{"type":"FeatureCollection","features":[{"type":"Feature","geometry":{"type":"Point","coordinates":[-14.35875,28.048722]},"properties":{"id":"es-10133","source":"ES","brand":"H2GO MORRO JABLE","address":"POLIGONO PUERTO MORRO JABLE, S/N","municipality":"Pájara","province":"PALMAS (LAS)","postalCode":"35625","schedule":"L-D: 24H","fuels":{"gasoline95":1.452,"gasoline98":1.564,"diesel":1.529,"dieselRenewable":1.675,"hydrogen":9.9,"adblue":1.48},"extra":{"saleType":"P","margin":"N","reportingType":"dm","ideess":"10133","idMunicipio":"5248","idProvincia":"35","idCCAA":"05"}}},{"type":"Feature","geometry":{"type":"Point","coordinates":[-14.230889,28.160389]},"properties":{"id":"es-10744","source":"ES","brand":"DISA COSTA CALMA","address":"GRAL. JANDIA km 64,5","municipality":"Pájara","province":"PALMAS (LAS)","postalCode":"35627","schedule":"L-D: 06:00-22:00","fuels":{"gasoline95":1.459,"gasoline98":1.579,"diesel":1.529,"dieselPremium":1.619},"extra":{"saleType":"P","margin":"N","reportingType":"OM","ideess":"10744","idMunicipio":"5248","idProvincia":"35","idCCAA":"05"}}},{"type":"Feature","geometry":{"type":"Point","coordinates":[-14.187583,28.178722]},"properties":{"id":"es-15701","source":"ES","brand":"CEPSA","address":"AUTOVIA PUERTO DEL ROSARIO - MORRO JABLE KM. 62","municipality":"Pájara","province":"PALMAS (LAS)","postalCode":"35627","schedule":"L-D: 06:00-22:00","fuels":{"gasoline95":1.429,"gasoline98":1.559,"diesel":1.499,"dieselPremium":1.599},"extra":{"saleType":"P","margin":"D","reportingType":"OM","ideess":"15701","idMunicipio":"5248","idProvincia":"35","idCCAA":"05"}}},{"type":"Feature","geometry":{"type":"Point","coordinates":[-14.013222,28.420667]},"properties":{"id":"es-16337","source":"ES","brand":"PLENERGY","address":"CALLE REAL, 22","municipality":"Antigua","province":"PALMAS (LAS)","postalCode":"35630","schedule":"L-D: 24H","fuels":{"gasoline95":1.365,"diesel":1.429},"extra":{"saleType":"P","margin":"D","reportingType":"dm","ideess":"16337","idMunicipio":"5236","idProvincia":"35","idCCAA":"05"}}},{"type":"Feature","geometry":{"type":"Point","coordinates":[-14.020694,28.215028]},"properties":{"id":"es-7659","source":"ES","brand":"CEPSA GRAN TARAJAL","address":"AVENIDA CONSTITUCION (DE LA), 16","municipality":"Tuineje","province":"PALMAS (LAS)","postalCode":"35620","schedule":"L-D: 24H","fuels":{"gasoline95":1.429,"gasoline98":1.559,"diesel":1.499,"dieselPremium":1.599},"extra":{"saleType":"P","margin":"N","reportingType":"dm","ideess":"7659","idMunicipio":"5262","idProvincia":"35","idCCAA":"05"}}},{"type":"Feature","geometry":{"type":"Point","coordinates":[-14.103778,28.231306]},"properties":{"id":"es-7937","source":"ES","brand":"DISA EL CARACOL","address":"CARRETERA CARRETERA GENERAL DE TARAJALEJO KM. 16","municipality":"Tuineje","province":"PALMAS (LAS)","postalCode":"35627","schedule":"L-D: 24H","fuels":{"gasoline95":1.435,"gasoline98":1.555,"diesel":1.509,"dieselPremium":1.599},"extra":{"saleType":"P","margin":"N","reportingType":"OM","ideess":"7937","idMunicipio":"5262","idProvincia":"35","idCCAA":"05"}}},{"type":"Feature","geometry":{"type":"Point","coordinates":[-14.048722,28.327111]},"properties":{"id":"es-8740","source":"ES","brand":"SANTANA DOMINGUEZ","address":"AVENIDA PASEO LA LIBERTAD S/N, S/N","municipality":"Tuineje","province":"PALMAS (LAS)","postalCode":"35628","schedule":"L-V: 06:00-23:00; S: 06:00-00:00; D: 06:00-22:00","fuels":{"gasoline95":1.285,"gasoline98":1.395,"diesel":1.481,"dieselPremium":1.501},"extra":{"saleType":"P","margin":"N","reportingType":"dm","ideess":"8740","idMunicipio":"5262","idProvincia":"35","idCCAA":"05"}}},{"type":"Feature","geometry":{"type":"Point","coordinates":[-14.345361,28.049722]},"properties":{"id":"es-9151","source":"ES","brand":"SHELL JANDIA","address":"AVENIDA DE JANDIA, 2","municipality":"Pájara","province":"PALMAS (LAS)","postalCode":"35625","schedule":"L-D: 07:00-23:00","fuels":{"gasoline95":1.455,"gasoline98":1.525,"diesel":1.529},"extra":{"saleType":"P","margin":"D","reportingType":"OM","ideess":"9151","idMunicipio":"5248","idProvincia":"35","idCCAA":"05"}}}]}