{"type":"FeatureCollection","features":[{"type":"Feature","geometry":{"type":"Point","coordinates":[-15.70325,27.795472]},"properties":{"id":"es-10083","source":"ES","brand":"SHELL PUERTO RICO","address":"C/ TOMAS ROCA BOSH, S/N","municipality":"Mogán","province":"PALMAS (LAS)","postalCode":"35130","schedule":"L-D: 24H","fuels":{"gasoline95":1.429,"gasoline98":1.569,"diesel":1.479,"dieselPremium":1.599,"lpg":0.898},"extra":{"saleType":"P","margin":"N","reportingType":"OM","ideess":"10083","idMunicipio":"5245","idProvincia":"35","idCCAA":"05"}}},{"type":"Feature","geometry":{"type":"Point","coordinates":[-15.417778,27.862222]},"properties":{"id":"es-11499","source":"ES","brand":"REPSOL","address":"CALLE CANAL DERECHA, S/N","municipality":"Agüimes","province":"PALMAS (LAS)","postalCode":"35118","schedule":"L-D: 05:00-21:00","fuels":{"gasoline95":1.409,"gasoline98":1.549,"diesel":1.459,"dieselRenewable":1.609},"extra":{"saleType":"P","margin":"D","reportingType":"OM","ideess":"11499","idMunicipio":"5234","idProvincia":"35","idCCAA":"05"}}},{"type":"Feature","geometry":{"type":"Point","coordinates":[-15.429056,27.856444]},"properties":{"id":"es-11611","source":"ES","brand":"SHELL SANTA LUCIA","address":"AVENIDA DEL ATLANTICO, S/N","municipality":"Santa Lucía de Tirajana","province":"PALMAS (LAS)","postalCode":"35110","schedule":"L-D: 24H","fuels":{"gasoline95":1.449,"gasoline98":1.579,"diesel":1.489,"dieselPremium":1.579,"adblue":1.86},"extra":{"saleType":"P","margin":"D","reportingType":"OM","ideess":"11611","idMunicipio":"5254","idProvincia":"35","idCCAA":"05"}}},{"type":"Feature","geometry":{"type":"Point","coordinates":[-15.416167,27.872778]},"properties":{"id":"es-11889","source":"ES","brand":"DISA AUT.ARINAGA","address":"AUTOPISTA GC-1 KM. 24,350","municipality":"Agüimes","province":"PALMAS (LAS)","postalCode":"35118","schedule":"L-D: 06:00-22:00","fuels":{"gasoline95":1.409,"gasoline98":1.539,"diesel":1.449,"dieselPremium":1.539,"adblue":1.86},"extra":{"saleType":"P","margin":"D","reportingType":"OM","ideess":"11889","idMunicipio":"5234","idProvincia":"35","idCCAA":"05"}}},{"type":"Feature","geometry":{"type":"Point","coordinates":[-15.450972,27.834972]},"properties":{"id":"es-12043","source":"ES","brand":"BP DOCTORAL","address":"CALLE PEREZ GALDOS, 22","municipality":"Santa Lucía de Tirajana","province":"PALMAS (LAS)","postalCode":"35110","schedule":"L-D: 24H","fuels":{"gasoline95":1.419,"gasoline98":1.559,"diesel":1.469,"dieselPremium":1.589},"extra":{"saleType":"P","margin":"D","reportingType":"dm","ideess":"12043","idMunicipio":"5254","idProvincia":"35","idCCAA":"05"}}},{"type":"Feature","geometry":{"type":"Point","coordinates":[-15.391722,27.931889]},"properties":{"id":"es-12668","source":"ES","brand":"REPSOL","address":"AUTOVIA GC-1, AEROPUERTO GANDO (LADO AIRE) KM. 16,000","municipality":"Telde","province":"PALMAS (LAS)","postalCode":"35200","schedule":"L-D: 24H","fuels":{"gasoline95":1.429,"gasoline98":1.559,"diesel":1.479},"extra":{"saleType":"P","margin":"D","reportingType":"OM","ideess":"12668","idMunicipio":"5258","idProvincia":"35","idCCAA":"05"}}},{"type":"Feature","geometry":{"type":"Point","coordinates":[-15.402889,27.926028]},"properties":{"id":"es-12984","source":"ES","brand":"SANTANA DOMINGUEZ, S.L.","address":"CALLE ISORA 2, ESQUINA LOS MOCANES 10, 2","municipality":"Ingenio","province":"PALMAS (LAS)","postalCode":"35240","schedule":"L-V: 06:00-23:00; S-D: 06:00-00:00","fuels":{"gasoline95":1.245,"gasoline98":1.385,"diesel":1.399},"extra":{"saleType":"P","margin":"D","reportingType":"dm","ideess":"12984","idMunicipio":"5244","idProvincia":"35","idCCAA":"05"}}},{"type":"Feature","geometry":{"type":"Point","coordinates":[-15.43275,27.862944]},"properties":{"id":"es-13357","source":"ES","brand":"DISA BALOS","address":"CALLE ALMENDRO, 29","municipality":"Agüimes","province":"PALMAS (LAS)","postalCode":"35117","schedule":"L-D: 06:00-22:00","fuels":{"gasoline95":1.409,"gasoline98":1.539,"diesel":1.449,"dieselPremium":1.539},"extra":{"saleType":"P","margin":"N","reportingType":"OM","ideess":"13357","idMunicipio":"5234","idProvincia":"35","idCCAA":"05"}}},{"type":"Feature","geometry":{"type":"Point","coordinates":[-15.391583,27.978944]},"properties":{"id":"es-13419","source":"ES","brand":"REPSOL","address":"AUTOVIA GC-1 KM. 12,000","municipality":"Telde","province":"PALMAS (LAS)","postalCode":"35000","schedule":"L-D: 06:00-22:00","fuels":{"gasoline95":1.419,"gasoline98":1.559,"diesel":1.469,"dieselRenewable":1.619},"extra":{"saleType":"P","margin":"D","reportingType":"OM","ideess":"13419","idMunicipio":"5258","idProvincia":"35","idCCAA":"05"}}},{"type":"Feature","geometry":{"type":"Point","coordinates":[-15.423194,27.874889]},"properties":{"id":"es-13663","source":"ES","brand":"BP KM 13 CRUCE ARINAGA","address":"CALLE FRESADORA, S/N","municipality":"Agüimes","province":"PALMAS (LAS)","postalCode":"35118","schedule":"L-S: 06:00-23:00; D: 07:00-23:00","fuels":{"gasoline95":1.399,"gasoline98":1.528,"diesel":1.447,"dieselPremium":1.548,"adblue":1.26},"extra":{"saleType":"P","margin":"D","reportingType":"dm","ideess":"13663","idMunicipio":"5234","idProvincia":"35","idCCAA":"05"}}},{"type":"Feature","geometry":{"type":"Point","coordinates":[-15.419194,27.877278]},"properties":{"id":"es-13836","source":"ES","brand":"OCÉANO","address":"CALLE GARLOPA, 41","municipality":"Agüimes","province":"PALMAS (LAS)","postalCode":"35117","schedule":"L-V: 07:00-22:00; S: 08:00-21:00; D: 08:00-15:00","fuels":{"gasoline95":1.359,"gasoline95Premium":1.399,"gasoline98":1.439,"diesel":1.389,"dieselPremium":1.459},"extra":{"saleType":"P","margin":"D","reportingType":"dm","ideess":"13836","idMunicipio":"5234","idProvincia":"35","idCCAA":"05"}}},{"type":"Feature","geometry":{"type":"Point","coordinates":[-15.415417,27.892139]},"properties":{"id":"es-14149","source":"ES","brand":"REPSOL","address":"CALLE GRANADOS, 50, 50","municipality":"Agüimes","province":"PALMAS (LAS)","postalCode":"35118","schedule":"L-D: 06:00-22:00","fuels":{"gasoline95":1.409,"gasoline98":1.539,"diesel":1.459,"dieselRenewable":1.609},"extra":{"saleType":"P","margin":"D","reportingType":"OM","ideess":"14149","idMunicipio":"5234","idProvincia":"35","idCCAA":"05"}}},{"type":"Feature","geometry":{"type":"Point","coordinates":[-15.408722,27.859722]},"properties":{"id":"es-14265","source":"ES","brand":"CANARY OIL","address":"CALLE LAS ADELFAS, ESQUINA LOS OLIVOS, 8","municipality":"Agüimes","province":"PALMAS (LAS)","postalCode":"35117","schedule":"L-D: 24H","fuels":{"gasoline95":1.279,"gasoline98":1.349,"diesel":1.389,"adblue":0.98},"extra":{"saleType":"P","margin":"D","reportingType":"dm","ideess":"14265","idMunicipio":"5234","idProvincia":"35","idCCAA":"05"}}},{"type":"Feature","geometry":{"type":"Point","coordinates":[-15.711389,27.780444]},"properties":{"id":"es-14333","source":"ES","brand":"PUERTO RICO, S.A","address":"MUELLE AVENIDA JUAN DIAZ RODRIGUEZ S/N, S/N","municipality":"Mogán","province":"PALMAS (LAS)","postalCode":"35140","schedule":"L: 08:00-16:00","fuels":{"gasoline95":1.412,"gasoline98":1.529,"diesel":1.489},"extra":{"saleType":"P","margin":"D","reportingType":"dm","ideess":"14333","idMunicipio":"5245","idProvincia":"35","idCCAA":"05"}}},{"type":"Feature","geometry":{"type":"Point","coordinates":[-15.432861,27.917917]},"properties":{"id":"es-14692","source":"ES","brand":"DISA NUEVO INGENIO","address":"CALLE SAGASTA, Nº1, 1","municipality":"Ingenio","province":"PALMAS (LAS)","postalCode":"35250","schedule":"L-D: 06:00-22:00","fuels":{"gasoline95":1.445,"gasoline98":1.549,"diesel":1.499,"dieselPremium":1.569,"lpg":0.898,"adblue":1.86},"extra":{"saleType":"P","margin":"N","reportingType":"OM","ideess":"14692","idMunicipio":"5244","idProvincia":"35","idCCAA":"05"}}},{"type":"Feature","geometry":{"type":"Point","coordinates":[-15.677861,27.767306]},"properties":{"id":"es-14696","source":"ES","brand":"PCAN","address":"CALLE DELIOMA, 1","municipality":"Mogán","province":"PALMAS (LAS)","postalCode":"35120","schedule":"L-D: 24H","fuels":{"gasoline95":1.389,"gasoline98":1.529,"diesel":1.429,"dieselPremium":1.529,"lpg":0.918,"adblue":1.249},"extra":{"saleType":"P","margin":"D","reportingType":"dm","ideess":"14696","idMunicipio":"5245","idProvincia":"35","idCCAA":"05"}}},{"type":"Feature","geometry":{"type":"Point","coordinates":[-15.411639,27.913194]},"properties":{"id":"es-14944","source":"ES","brand":"OCÉANO EL CARRIZAL","address":"CALLE REPUBLICA ARGENTINA, 104","municipality":"Ingenio","province":"PALMAS (LAS)","postalCode":"35240","schedule":"L-D: 06:00-22:00","fuels":{"gasoline95":1.285,"gasoline98":1.449,"diesel":1.335,"dieselPremium":1.479},"extra":{"saleType":"P","margin":"I","reportingType":"dm","ideess":"14944","idMunicipio":"5244","idProvincia":"35","idCCAA":"05"}}},{"type":"Feature","geometry":{"type":"Point","coordinates":[-15.420139,27.867194]},"properties":{"id":"es-14961","source":"ES","brand":"PETROPRIX","address":"CALLE ADELFAS, 187","municipality":"Agüimes","province":"PALMAS (LAS)","postalCode":"35118","schedule":"L-D: 24H","fuels":{"gasoline95":1.349,"diesel":1.399},"extra":{"saleType":"P","margin":"I","reportingType":"dm","ideess":"14961","idMunicipio":"5234","idProvincia":"35","idCCAA":"05"}}},{"type":"Feature","geometry":{"type":"Point","coordinates":[-15.434361,27.862861]},"properties":{"id":"es-15540","source":"ES","brand":"PETROPRIX","address":"CALLE HIEDRA, 11","municipality":"Agüimes","province":"PALMAS (LAS)","postalCode":"35118","schedule":"L-D: 24H","fuels":{"gasoline95":1.349,"diesel":1.399},"extra":{"saleType":"P","margin":"D","reportingType":"dm","ideess":"15540","idMunicipio":"5234","idProvincia":"35","idCCAA":"05"}}},{"type":"Feature","geometry":{"type":"Point","coordinates":[-15.439028,27.914056]},"properties":{"id":"es-15548","source":"ES","brand":"PETROPRIX","address":"CALLE ANTONIO BENITEZ GALINDO, 99","municipality":"Ingenio","province":"PALMAS (LAS)","postalCode":"35250","schedule":"L-D: 24H","fuels":{"gasoline95":1.355,"diesel":1.405},"extra":{"saleType":"P","margin":"D","reportingType":"dm","ideess":"15548","idMunicipio":"5244","idProvincia":"35","idCCAA":"05"}}},{"type":"Feature","geometry":{"type":"Point","coordinates":[-15.414556,27.861583]},"properties":{"id":"es-15580","source":"ES","brand":"PLENERGY","address":"CALLE CANAL IZQUIERDA CON ALGARROBO, S/N","municipality":"Agüimes","province":"PALMAS (LAS)","postalCode":"35118","schedule":"L-D: 24H","fuels":{"gasoline95":1.349,"diesel":1.399},"extra":{"saleType":"P","margin":"D","reportingType":"dm","ideess":"15580","idMunicipio":"5234","idProvincia":"35","idCCAA":"05"}}},{"type":"Feature","geometry":{"type":"Point","coordinates":[-15.430111,27.86975]},"properties":{"id":"es-15594","source":"ES","brand":"PETROPRIX","address":"AVENIDA DEL SURESTE, 1","municipality":"Agüimes","province":"PALMAS (LAS)","postalCode":"35118","schedule":"L-D: 24H","fuels":{"gasoline95":1.349,"diesel":1.399},"extra":{"saleType":"P","margin":"D","reportingType":"dm","ideess":"15594","idMunicipio":"5234","idProvincia":"35","idCCAA":"05"}}},{"type":"Feature","geometry":{"type":"Point","coordinates":[-15.391472,27.968306]},"properties":{"id":"es-15653","source":"ES","brand":"CANARY OIL, S.L.","address":"POLIGONO IND. EL GORO, C/ EL BOSQUE ESQUINA C/ VIRGEN DEL CARMEN, 2","municipality":"Telde","province":"PALMAS (LAS)","postalCode":"35217","schedule":"L: 24H","fuels":{"gasoline95":1.249,"gasoline98":1.349,"diesel":1.369,"dieselPremium":1.429,"adblue":0.98},"extra":{"saleType":"P","margin":"D","reportingType":"dm","ideess":"15653","idMunicipio":"5258","idProvincia":"35","idCCAA":"05"}}},{"type":"Feature","geometry":{"type":"Point","coordinates":[-15.389861,27.969417]},"properties":{"id":"es-15842","source":"ES","brand":"DISA EL GORO","address":"CALLE CORREGIDOR AGUIRRE, 20","municipality":"Telde","province":"PALMAS (LAS)","postalCode":"35219","schedule":"L-D: 24H","fuels":{"gasoline95":1.355,"diesel":1.405},"extra":{"saleType":"P","margin":"D","reportingType":"OM","ideess":"15842","idMunicipio":"5258","idProvincia":"35","idCCAA":"05"}}},{"type":"Feature","geometry":{"type":"Point","coordinates":[-15.402222,27.913556]},"properties":{"id":"es-15896","source":"ES","brand":"PLENERGY","address":"AVENIDA CARLOS V, 109","municipality":"Ingenio","province":"PALMAS (LAS)","postalCode":"35240","schedule":"L-D: 24H","fuels":{"gasoline95":1.355,"diesel":1.405},"extra":{"saleType":"P","margin":"D","reportingType":"dm","ideess":"15896","idMunicipio":"5244","idProvincia":"35","idCCAA":"05"}}},{"type":"Feature","geometry":{"type":"Point","coordinates":[-15.446889,27.85275]},"properties":{"id":"es-16057","source":"ES","brand":"ESTACION DE SERVICIO P44","address":"AVENIDA AVENIDA DE LAS TIRAJANAS, 0","municipality":"Santa Lucía de Tirajana","province":"PALMAS (LAS)","postalCode":"35110","schedule":"L-D: 24H","fuels":{"gasoline95":1.409,"gasoline98":1.539,"diesel":1.449,"dieselPremium":1.549,"adblue":1.4},"extra":{"saleType":"P","margin":"D","reportingType":"dm","ideess":"16057","idMunicipio":"5254","idProvincia":"35","idCCAA":"05"}}},{"type":"Feature","geometry":{"type":"Point","coordinates":[-15.571111,27.766]},"properties":{"id":"es-16064","source":"ES","brand":"PETROPRIX","address":"CALLE ALCALDE ENRIQUE JORGE, 317","municipality":"San Bartolomé de Tirajana","province":"PALMAS (LAS)","postalCode":"35100","schedule":"L-D: 24H","fuels":{"gasoline95":1.379,"diesel":1.399},"extra":{"saleType":"P","margin":"N","reportingType":"dm","ideess":"16064","idMunicipio":"5252","idProvincia":"35","idCCAA":"05"}}},{"type":"Feature","geometry":{"type":"Point","coordinates":[-15.390583,27.994417]},"properties":{"id":"es-16124","source":"ES","brand":"BP CRUCE DE MELENARA","address":"CALLE CONCEJAL JUAN RODRÍGUEZ BETANCOR, 1","municipality":"Telde","province":"PALMAS (LAS)","postalCode":"35214","schedule":"L-D: 24H","fuels":{"gasoline95":1.429,"gasoline98":1.569,"diesel":1.479,"dieselPremium":1.599,"adblue":1.889},"extra":{"saleType":"P","margin":"N","reportingType":"OM","ideess":"16124","idMunicipio":"5258","idProvincia":"35","idCCAA":"05"}}},{"type":"Feature","geometry":{"type":"Point","coordinates":[-15.433139,27.917528]},"properties":{"id":"es-16164","source":"ES","brand":"PLENERGY","address":"CALLE ÁFRICA, 4","municipality":"Ingenio","province":"PALMAS (LAS)","postalCode":"35250","schedule":"L-D: 24H","fuels":{"gasoline95":1.355,"diesel":1.405},"extra":{"saleType":"P","margin":"D","reportingType":"dm","ideess":"16164","idMunicipio":"5244","idProvincia":"35","idCCAA":"05"}}},{"type":"Feature","geometry":{"type":"Point","coordinates":[-15.388944,27.998194]},"properties":{"id":"es-16196","source":"ES","brand":"PETROPRIX","address":"CALLE ANTONIO JOSE DE SUCRE, 1","municipality":"Telde","province":"PALMAS (LAS)","postalCode":"35214","schedule":"L-D: 24H","fuels":{"gasoline95":1.355,"diesel":1.405},"extra":{"saleType":"P","margin":"N","reportingType":"dm","ideess":"16196","idMunicipio":"5258","idProvincia":"35","idCCAA":"05"}}},{"type":"Feature","geometry":{"type":"Point","coordinates":[-15.417639,27.858417]},"properties":{"id":"es-16235","source":"ES","brand":"PETROPRIX","address":"CALLE LOS ALGARROBOS, 17","municipality":"Agüimes","province":"PALMAS (LAS)","postalCode":"35118","schedule":"L-D: 24H","fuels":{"gasoline95":1.349,"diesel":1.399},"extra":{"saleType":"P","margin":"D","reportingType":"dm","ideess":"16235","idMunicipio":"5234","idProvincia":"35","idCCAA":"05"}}},{"type":"Feature","geometry":{"type":"Point","coordinates":[-15.401806,27.915389]},"properties":{"id":"es-16445","source":"ES","brand":"PLENERGY","address":"CALLE ÁNGEL GUIMERA, S/N (POLÍGONO INDUSTIAL LAS MAJORERAS), S/N","municipality":"Ingenio","province":"PALMAS (LAS)","postalCode":"35259","schedule":"L-D: 24H","fuels":{"gasoline95":1.355,"diesel":1.405},"extra":{"saleType":"P","margin":"D","reportingType":"dm","ideess":"16445","idMunicipio":"5244","idProvincia":"35","idCCAA":"05"}}},{"type":"Feature","geometry":{"type":"Point","coordinates":[-15.429167,27.917889]},"properties":{"id":"es-7619","source":"ES","brand":"MOEVE INGENIO","address":"CALLE JULIANO BONNY GOMEZ, 36","municipality":"Ingenio","province":"PALMAS (LAS)","postalCode":"35250","schedule":"L-D: 06:00-23:00","fuels":{"gasoline95":1.399,"gasoline98":1.539,"diesel":1.449,"dieselPremium":1.549},"extra":{"saleType":"P","margin":"N","reportingType":"dm","ideess":"7619","idMunicipio":"5244","idProvincia":"35","idCCAA":"05"}}},{"type":"Feature","geometry":{"type":"Point","coordinates":[-15.601944,27.753306]},"properties":{"id":"es-7644","source":"ES","brand":"MOEVE MASPALOMAS","address":"CARRETERA C-812 KM. 56,8","municipality":"San Bartolomé de Tirajana","province":"PALMAS (LAS)","postalCode":"35100","schedule":"L-D: 24H","fuels":{"gasoline95":1.419,"gasoline98":1.549,"diesel":1.459,"dieselPremium":1.559},"extra":{"saleType":"P","margin":"D","reportingType":"dm","ideess":"7644","idMunicipio":"5252","idProvincia":"35","idCCAA":"05"}}},{"type":"Feature","geometry":{"type":"Point","coordinates":[-15.389417,27.944722]},"properties":{"id":"es-7649","source":"ES","brand":"CEPSA OJOS DE GARZA","address":"AUTOVIA GC-1 KM. 17","municipality":"Telde","province":"PALMAS (LAS)","postalCode":"35219","schedule":"L-D: 06:00-22:00","fuels":{"gasoline95":1.439,"gasoline98":1.569,"diesel":1.479,"dieselPremium":1.579},"extra":{"saleType":"P","margin":"D","reportingType":"dm","ideess":"7649","idMunicipio":"5258","idProvincia":"35","idCCAA":"05"}}},{"type":"Feature","geometry":{"type":"Point","coordinates":[-15.432306,27.864694]},"properties":{"id":"es-7656","source":"ES","brand":"MOEVE","address":"CARRETERA GRAL DEL SUR KM. 34,5","municipality":"Agüimes","province":"PALMAS (LAS)","postalCode":"35119","schedule":"L-D: 06:00-22:00","fuels":{"gasoline95":1.419,"gasoline98":1.549,"diesel":1.459,"dieselRenewable":1.509},"extra":{"saleType":"P","margin":"D","reportingType":"OM","ideess":"7656","idMunicipio":"5234","idProvincia":"35","idCCAA":"05"}}},{"type":"Feature","geometry":{"type":"Point","coordinates":[-15.432583,27.864806]},"properties":{"id":"es-7657","source":"ES","brand":"MOEVE","address":"CARRETERA CTRA. GRAL. DEL SUR KM. 34,5","municipality":"Agüimes","province":"PALMAS (LAS)","postalCode":"35119","schedule":"L-D: 06:00-22:00","fuels":{"gasoline95":1.419,"gasoline98":1.549,"diesel":1.459,"dieselRenewable":1.509},"extra":{"saleType":"P","margin":"I","reportingType":"OM","ideess":"7657","idMunicipio":"5234","idProvincia":"35","idCCAA":"05"}}},{"type":"Feature","geometry":{"type":"Point","coordinates":[-15.472639,27.995556]},"properties":{"id":"es-7658","source":"ES","brand":"CEPSA LOS ALMENDROS","address":"AVENIDA LOS ALMENDROS, 42","municipality":"Valsequillo de Gran Canaria","province":"PALMAS (LAS)","postalCode":"35217","schedule":"L-D: 06:00-22:00","fuels":{"gasoline95":1.409,"gasoline98":1.593,"diesel":1.463,"dieselPremium":1.665},"extra":{"saleType":"P","margin":"N","reportingType":"dm","ideess":"7658","idMunicipio":"5264","idProvincia":"35","idCCAA":"05"}}},{"type":"Feature","geometry":{"type":"Point","coordinates":[-15.44,27.8295]},"properties":{"id":"es-7661","source":"ES","brand":"MOEVE POZO IZQUIERDO","address":"CALLE CASA SANTA, 23","municipality":"Santa Lucía de Tirajana","province":"PALMAS (LAS)","postalCode":"35110","schedule":"L-D: 06:00-22:00","fuels":{"gasoline95":1.409,"gasoline98":1.539,"diesel":1.449,"dieselPremium":1.549},"extra":{"saleType":"P","margin":"N","reportingType":"dm","ideess":"7661","idMunicipio":"5254","idProvincia":"35","idCCAA":"05"}}},{"type":"Feature","geometry":{"type":"Point","coordinates":[-15.474333,27.805]},"properties":{"id":"es-7664","source":"ES","brand":"CEPSA JUAN GRANDE","address":"CARRETERA C-812 KM. 42","municipality":"San Bartolomé de Tirajana","province":"PALMAS (LAS)","postalCode":"35107","schedule":"L-D: 06:00-22:00","fuels":{"gasoline95":1.419,"gasoline98":1.549,"diesel":1.459,"dieselPremium":1.559},"extra":{"saleType":"P","margin":"D","reportingType":"dm","ideess":"7664","idMunicipio":"5252","idProvincia":"35","idCCAA":"05"}}},{"type":"Feature","geometry":{"type":"Point","coordinates":[-15.414806,27.992389]},"properties":{"id":"es-7679","source":"ES","brand":"REPSOL","address":"CALLE CL OBISPO VERDUGO, 39","municipality":"Telde","province":"PALMAS (LAS)","postalCode":"35200","schedule":"L-V: 06:00-22:00; S-D: 07:00-23:00","fuels":{"gasoline95":1.389,"gasoline98":1.519,"diesel":1.469,"dieselRenewable":1.619},"extra":{"saleType":"P","margin":"D","reportingType":"OM","ideess":"7679","idMunicipio":"5258","idProvincia":"35","idCCAA":"05"}}},{"type":"Feature","geometry":{"type":"Point","coordinates":[-15.392111,27.980583]},"properties":{"id":"es-7702","source":"ES","brand":"REPSOL","address":"CALLE VELAZQUEZ, 1","municipality":"Telde","province":"PALMAS (LAS)","postalCode":"35200","schedule":"L-V: 06:00-22:00; S-D: 00:00-23:59","fuels":{"gasoline95":1.419,"gasoline98":1.559,"diesel":1.459,"dieselRenewable":1.609},"extra":{"saleType":"P","margin":"D","reportingType":"OM","ideess":"7702","idMunicipio":"5258","idProvincia":"35","idCCAA":"05"}}},{"type":"Feature","geometry":{"type":"Point","coordinates":[-15.429972,27.879611]},"properties":{"id":"es-7704","source":"ES","brand":"PLENERGY","address":"CALLE ANSITE, 33","municipality":"Agüimes","province":"PALMAS (LAS)","postalCode":"35118","schedule":"L-D: 24H","fuels":{"gasoline95":1.349,"diesel":1.399},"extra":{"saleType":"P","margin":"D","reportingType":"dm","ideess":"7704","idMunicipio":"5234","idProvincia":"35","idCCAA":"05"}}},{"type":"Feature","geometry":{"type":"Point","coordinates":[-15.440833,27.84125]},"properties":{"id":"es-7710","source":"ES","brand":"REPSOL","address":"AVENIDA DEL ATLANTICO, S/N","municipality":"Santa Lucía de Tirajana","province":"PALMAS (LAS)","postalCode":"35110","schedule":"L-D: 24H","fuels":{"gasoline95":1.409,"gasoline98":1.539,"diesel":1.449,"dieselRenewable":1.599},"extra":{"saleType":"P","margin":"D","reportingType":"OM","ideess":"7710","idMunicipio":"5254","idProvincia":"35","idCCAA":"05"}}},{"type":"Feature","geometry":{"type":"Point","coordinates":[-15.607806,27.766278]},"properties":{"id":"es-7737","source":"ES","brand":"REPSOL","address":"POLIGONO EL TABLERO, S/N","municipality":"San Bartolomé de Tirajana","province":"PALMAS (LAS)","postalCode":"35109","schedule":"L-D: 06:00-23:00","fuels":{"gasoline95":1.419,"gasoline98":1.559,"diesel":1.469,"dieselRenewable":1.619},"extra":{"saleType":"P","margin":"N","reportingType":"OM","ideess":"7737","idMunicipio":"5252","idProvincia":"35","idCCAA":"05"}}},{"type":"Feature","geometry":{"type":"Point","coordinates":[-15.456972,27.838417]},"properties":{"id":"es-7792","source":"ES","brand":"BP EL TARO","address":"CALLE FRANCHY ROCA, S/N","municipality":"Santa Lucía de Tirajana","province":"PALMAS (LAS)","postalCode":"35110","schedule":"L-D: 24H","fuels":{"gasoline95":1.418,"gasoline98":1.558,"diesel":1.468,"dieselPremium":1.588,"adblue":1.47},"extra":{"saleType":"P","margin":"N","reportingType":"dm","ideess":"7792","idMunicipio":"5254","idProvincia":"35","idCCAA":"05"}}},{"type":"Feature","geometry":{"type":"Point","coordinates":[-15.558556,27.765389]},"properties":{"id":"es-7793","source":"ES","brand":"BP EL VERIL","address":"CARRETERA GRAL. DEL SUR KM. 52","municipality":"San Bartolomé de Tirajana","province":"PALMAS (LAS)","postalCode":"35100","schedule":"L-D: 24H","fuels":{"gasoline95":1.429,"gasoline98":1.569,"diesel":1.479,"dieselPremium":1.599,"adblue":1.889},"extra":{"saleType":"P","margin":"N","reportingType":"OM","ideess":"7793","idMunicipio":"5252","idProvincia":"35","idCCAA":"05"}}},{"type":"Feature","geometry":{"type":"Point","coordinates":[-15.403444,27.998167]},"properties":{"id":"es-7794","source":"ES","brand":"BP EL CALERO","address":"CALLE CALLEJON DEL CASTILLO, 215","municipality":"Telde","province":"PALMAS (LAS)","postalCode":"35214","schedule":"L-D: 06:00-22:00","fuels":{"gasoline95":1.429,"gasoline98":1.569,"diesel":1.479,"dieselPremium":1.599},"extra":{"saleType":"P","margin":"N","reportingType":"OM","ideess":"7794","idMunicipio":"5258","idProvincia":"35","idCCAA":"05"}}},{"type":"Feature","geometry":{"type":"Point","coordinates":[-15.443306,27.856083]},"properties":{"id":"es-7799","source":"ES","brand":"OCÉANO SARDINA SUR","address":"CALLE FERNANDO GUANARTEME, 82","municipality":"Santa Lucía de Tirajana","province":"PALMAS (LAS)","postalCode":"35110","schedule":"L-D: 24H","fuels":{"gasoline95":1.359,"gasoline98":1.459,"diesel":1.389,"dieselPremium":1.474},"extra":{"saleType":"P","margin":"N","reportingType":"dm","ideess":"7799","idMunicipio":"5254","idProvincia":"35","idCCAA":"05"}}},{"type":"Feature","geometry":{"type":"Point","coordinates":[-15.682167,27.760861]},"properties":{"id":"es-7802","source":"ES","brand":"BP ARGUINEGUIN","address":"CARRETERA GENERAL DEL SUR KM. 67","municipality":"Mogán","province":"PALMAS (LAS)","postalCode":"35120","schedule":"L-D: 24H","fuels":{"gasoline95":1.429,"gasoline98":1.569,"diesel":1.479,"dieselPremium":1.599},"extra":{"saleType":"P","margin":"N","reportingType":"OM","ideess":"7802","idMunicipio":"5245","idProvincia":"35","idCCAA":"05"}}},{"type":"Feature","geometry":{"type":"Point","coordinates":[-15.79575,27.989389]},"properties":{"id":"es-7804","source":"ES","brand":"REPSOL LA ALDEA","address":"CALLE DR. FLEMING, 86","municipality":"Aldea de San Nicolás (La)","province":"PALMAS (LAS)","postalCode":"35470","schedule":"L-S: 06:00-21:00; D: 07:00-20:00","fuels":{"gasoline95":1.469,"gasoline98":1.568,"diesel":1.549,"dieselRenewable":1.608},"extra":{"saleType":"P","margin":"N","reportingType":"dm","ideess":"7804","idMunicipio":"5235","idProvincia":"35","idCCAA":"05"}}},{"type":"Feature","geometry":{"type":"Point","coordinates":[-15.445833,27.844167]},"properties":{"id":"es-7812","source":"ES","brand":"REPSOL","address":"AVENIDA DE CANARIAS, 360","municipality":"Santa Lucía de Tirajana","province":"PALMAS (LAS)","postalCode":"35110","schedule":"L-V: 06:00-22:00; S: 07:00-15:00","fuels":{"gasoline95":1.409,"gasoline98":1.539,"diesel":1.449},"extra":{"saleType":"P","margin":"I","reportingType":"OM","ideess":"7812","idMunicipio":"5254","idProvincia":"35","idCCAA":"05"}}},{"type":"Feature","geometry":{"type":"Point","coordinates":[-15.404806,27.960778]},"properties":{"id":"es-7824","source":"ES","brand":"DISA CUATRO PUERTAS","address":"CARRETERA GENERAL DEL GORO KM. S/N","municipality":"Telde","province":"PALMAS (LAS)","postalCode":"35215","schedule":"L-D: 06:00-22:00","fuels":{"gasoline95":1.386,"gasoline98":1.516,"diesel":1.436,"dieselPremium":1.566},"extra":{"saleType":"P","margin":"D","reportingType":"OM","ideess":"7824","idMunicipio":"5258","idProvincia":"35","idCCAA":"05"}}},{"type":"Feature","geometry":{"type":"Point","coordinates":[-15.563361,27.886]},"properties":{"id":"es-7892","source":"ES","brand":"DISA FATAGA","address":"CALLE NESTOR ALAMO, 13","municipality":"San Bartolomé de Tirajana","province":"PALMAS (LAS)","postalCode":"35108","schedule":"L-D: 06:30-21:30","fuels":{"gasoline95":1.408,"gasoline98":1.519,"diesel":1.429},"extra":{"saleType":"P","margin":"N","reportingType":"dm","ideess":"7892","idMunicipio":"5252","idProvincia":"35","idCCAA":"05"}}},{"type":"Feature","geometry":{"type":"Point","coordinates":[-15.407611,27.909694]},"properties":{"id":"es-7894","source":"ES","brand":"DISA CARRIZAL","address":"CARLOS V (INGENIO km 1)","municipality":"Ingenio","province":"PALMAS (LAS)","postalCode":"35240","schedule":"L-D: 06:00-22:00","fuels":{"gasoline95":1.425,"gasoline98":1.529,"diesel":1.479,"dieselPremium":1.549},"extra":{"saleType":"P","margin":"N","reportingType":"OM","ideess":"7894","idMunicipio":"5244","idProvincia":"35","idCCAA":"05"}}},{"type":"Feature","geometry":{"type":"Point","coordinates":[-15.420194,27.998556]},"properties":{"id":"es-7897","source":"ES","brand":"DISA EL ROQUE","address":"LUGAR EL ROQUE, 86","municipality":"Telde","province":"PALMAS (LAS)","postalCode":"35200","schedule":"L-D: 06:30-22:30","fuels":{"gasoline95":1.404,"gasoline98":1.534,"diesel":1.454,"dieselPremium":1.584},"extra":{"saleType":"P","margin":"N","reportingType":"OM","ideess":"7897","idMunicipio":"5258","idProvincia":"35","idCCAA":"05"}}},{"type":"Feature","geometry":{"type":"Point","coordinates":[-15.755333,27.830139]},"properties":{"id":"es-7900","source":"ES","brand":"DISA MOGAN","address":"CRUCE DE MOGÁN (GENERAL C-812)","municipality":"Mogán","province":"PALMAS (LAS)","postalCode":"35140","schedule":"L-D: 06:00-22:00","fuels":{"gasoline95":1.439,"gasoline98":1.579,"diesel":1.489,"adblue":1.86},"extra":{"saleType":"P","margin":"I","reportingType":"OM","ideess":"7900","idMunicipio":"5245","idProvincia":"35","idCCAA":"05"}}},{"type":"Feature","geometry":{"type":"Point","coordinates":[-15.390944,27.967194]},"properties":{"id":"es-7904","source":"ES","brand":"CEPSA OPER CANARIOS S,L.","address":"CARRETERA GENERAL DEL SUR KM 13 KM. 13","municipality":"Telde","province":"PALMAS (LAS)","postalCode":"35219","schedule":"L-D: 24H","fuels":{"gasoline95":1.429,"gasoline98":1.559,"diesel":1.459,"dieselPremium":1.569},"extra":{"saleType":"P","margin":"N","reportingType":"dm","ideess":"7904","idMunicipio":"5258","idProvincia":"35","idCCAA":"05"}}},{"type":"Feature","geometry":{"type":"Point","coordinates":[-15.444806,27.904056]},"properties":{"id":"es-7907","source":"ES","brand":"DISA AGUIMES","address":"CALLE JUAN ALVARADO Y SANZ, 79","municipality":"Agüimes","province":"PALMAS (LAS)","postalCode":"35260","schedule":"L-S: 06:30-22:30; D: 07:00-22:00","fuels":{"gasoline95":1.435,"gasoline98":1.539,"diesel":1.489,"dieselPremium":1.559},"extra":{"saleType":"P","margin":"N","reportingType":"OM","ideess":"7907","idMunicipio":"5234","idProvincia":"35","idCCAA":"05"}}},{"type":"Feature","geometry":{"type":"Point","coordinates":[-15.495417,27.991806]},"properties":{"id":"es-7909","source":"ES","brand":"DISA","address":"CALLE JUAN CARLOS I, 9","municipality":"Valsequillo de Gran Canaria","province":"PALMAS (LAS)","postalCode":"35217","schedule":"L-D: 06:30-23:00","fuels":{"gasoline95":1.419,"gasoline98":1.559,"diesel":1.459},"extra":{"saleType":"P","margin":"N","reportingType":"dm","ideess":"7909","idMunicipio":"5264","idProvincia":"35","idCCAA":"05"}}},{"type":"Feature","geometry":{"type":"Point","coordinates":[-15.548972,27.91525]},"properties":{"id":"es-7921","source":"ES","brand":"DISA","address":"CALLE ROSIANA, 34","municipality":"Santa Lucía de Tirajana","province":"PALMAS (LAS)","postalCode":"35280","schedule":"L: 06:00-21:30","fuels":{"gasoline95":1.388,"gasoline98":1.549,"diesel":1.428},"extra":{"saleType":"P","margin":"N","reportingType":"dm","ideess":"7921","idMunicipio":"5254","idProvincia":"35","idCCAA":"05"}}},{"type":"Feature","geometry":{"type":"Point","coordinates":[-15.426333,27.876333]},"properties":{"id":"es-7922","source":"ES","brand":"REPSOL OPER CANARIOS  S,L.","address":"CALLE ANSITE, 100","municipality":"Agüimes","province":"PALMAS (LAS)","postalCode":"35260","schedule":"L-D: 24H","fuels":{"gasoline95":1.389,"gasoline98":1.518,"diesel":1.437,"dieselRenewable":1.499},"extra":{"saleType":"P","margin":"N","reportingType":"dm","ideess":"7922","idMunicipio":"5234","idProvincia":"35","idCCAA":"05"}}},{"type":"Feature","geometry":{"type":"Point","coordinates":[-15.61475,27.991278]},"properties":{"id":"es-7923","source":"ES","brand":"DISA TEJEDA","address":"CALLE LOMO LOS SANTOS, S/N","municipality":"Tejeda","province":"PALMAS (LAS)","postalCode":"35360","schedule":"L-S: 06:00-21:00; D: 08:00-19:00","fuels":{"gasoline95":1.419,"gasoline98":1.559,"diesel":1.459},"extra":{"saleType":"P","margin":"N","reportingType":"dm","ideess":"7923","idMunicipio":"5257","idProvincia":"35","idCCAA":"05"}}},{"type":"Feature","geometry":{"type":"Point","coordinates":[-15.794972,27.989028]},"properties":{"id":"es-7927","source":"ES","brand":"DISA LA ALDEA","address":"CALLE DR. FLEMING, 80","municipality":"Aldea de San Nicolás (La)","province":"PALMAS (LAS)","postalCode":"35470","schedule":"L-D: 06:00-22:00","fuels":{"gasoline95":1.479,"gasoline98":1.588,"diesel":1.559},"extra":{"saleType":"P","margin":"N","reportingType":"OM","ideess":"7927","idMunicipio":"5235","idProvincia":"35","idCCAA":"05"}}},{"type":"Feature","geometry":{"type":"Point","coordinates":[-15.568833,27.764889]},"properties":{"id":"es-7929","source":"ES","brand":"DISA MASPALOMAS","address":"CARRETERA AVENIDA DE MOYA KM. 53,300","municipality":"San Bartolomé de Tirajana","province":"PALMAS (LAS)","postalCode":"35100","schedule":"L-D: 06:00-22:00","fuels":{"gasoline95":1.419,"gasoline98":1.559,"diesel":1.459,"dieselPremium":1.579,"lpg":0.898},"extra":{"saleType":"P","margin":"D","reportingType":"dm","ideess":"7929","idMunicipio":"5252","idProvincia":"35","idCCAA":"05"}}},{"type":"Feature","geometry":{"type":"Point","coordinates":[-15.423861,27.991778]},"properties":{"id":"es-7933","source":"ES","brand":"DISA PUNTO FIELATO","address":"CALLE REYES CATOLICOS, 2","municipality":"Telde","province":"PALMAS (LAS)","postalCode":"35200","schedule":"L-D: 24H","fuels":{"gasoline95":1.404,"gasoline98":1.534,"diesel":1.454,"dieselPremium":1.584},"extra":{"saleType":"P","margin":"N","reportingType":"OM","ideess":"7933","idMunicipio":"5258","idProvincia":"35","idCCAA":"05"}}},{"type":"Feature","geometry":{"type":"Point","coordinates":[-15.573222,27.924306]},"properties":{"id":"es-7934","source":"ES","brand":"DISA","address":"CALLE TAMARAN, 10","municipality":"San Bartolomé de Tirajana","province":"PALMAS (LAS)","postalCode":"35290","schedule":"L-D: 08:00-20:00","fuels":{"gasoline95":1.479,"diesel":1.548},"extra":{"saleType":"P","margin":"N","reportingType":"dm","ideess":"7934","idMunicipio":"5252","idProvincia":"35","idCCAA":"05"}}},{"type":"Feature","geometry":{"type":"Point","coordinates":[-15.389972,27.940722]},"properties":{"id":"es-7939","source":"ES","brand":"REPSOL","address":"AUTOVIA GC-1 (AEROPUERTO DE GRAN CANARIA ) KM. 16","municipality":"Telde","province":"PALMAS (LAS)","postalCode":"35200","schedule":"L-D: 24H","fuels":{"gasoline95":1.429,"gasoline98":1.559,"diesel":1.479,"dieselRenewable":1.629},"extra":{"saleType":"P","margin":"I","reportingType":"OM","ideess":"7939","idMunicipio":"5258","idProvincia":"35","idCCAA":"05"}}},{"type":"Feature","geometry":{"type":"Point","coordinates":[-15.398972,27.917222]},"properties":{"id":"es-7940","source":"ES","brand":"BP EL CARRIZAL","address":"CARRETERA GC-812 KM. 27,3","municipality":"Ingenio","province":"PALMAS (LAS)","postalCode":"35250","schedule":"L-D: 24H","fuels":{"gasoline95":1.429,"gasoline98":1.569,"diesel":1.479,"dieselPremium":1.599,"adblue":1.889},"extra":{"saleType":"P","margin":"I","reportingType":"OM","ideess":"7940","idMunicipio":"5244","idProvincia":"35","idCCAA":"05"}}},{"type":"Feature","geometry":{"type":"Point","coordinates":[-15.590083,27.768389]},"properties":{"id":"es-7942","source":"ES","brand":"MOEVE TAXISTAS S.AGUSTIN","address":"AVENIDA ALEJANDRO DEL CASTILLO, 1","municipality":"San Bartolomé de Tirajana","province":"PALMAS (LAS)","postalCode":"35290","schedule":"L-D: 24H","fuels":{"gasoline95":1.419,"gasoline98":1.549,"diesel":1.459,"dieselPremium":1.559,"adblue":1.3},"extra":{"saleType":"P","margin":"N","reportingType":"dm","ideess":"7942","idMunicipio":"5252","idProvincia":"35","idCCAA":"05"}}},{"type":"Feature","geometry":{"type":"Point","coordinates":[-15.393556,27.994333]},"properties":{"id":"es-7954","source":"ES","brand":"DISA CRUCE DE MELENARA","address":"CALLE CRUCE MELENARA, S/N","municipality":"Telde","province":"PALMAS (LAS)","postalCode":"35200","schedule":"L-D: 24H","fuels":{"gasoline95":1.389,"gasoline98":1.519,"diesel":1.439,"dieselPremium":1.569},"extra":{"saleType":"P","margin":"N","reportingType":"OM","ideess":"7954","idMunicipio":"5258","idProvincia":"35","idCCAA":"05"}}},{"type":"Feature","geometry":{"type":"Point","coordinates":[-15.404722,27.899167]},"properties":{"id":"es-8711","source":"ES","brand":"DISA AUTOPISTA KM 21","address":"AUTOPISTA GC-1 KM. 21","municipality":"Agüimes","province":"PALMAS (LAS)","postalCode":"35260","schedule":"L-D: 24H","fuels":{"gasoline95":1.459,"gasoline98":1.589,"diesel":1.499,"dieselPremium":1.589,"dieselRenewable":1.553,"lpg":0.898,"adblue":1.86},"extra":{"saleType":"P","margin":"D","reportingType":"OM","ideess":"8711","idMunicipio":"5234","idProvincia":"35","idCCAA":"05"}}},{"type":"Feature","geometry":{"type":"Point","coordinates":[-15.432556,27.918278]},"properties":{"id":"es-8720","source":"ES","brand":"SHELL INGENIO","address":"CALLE JULIANO BONNY, 11","municipality":"Ingenio","province":"PALMAS (LAS)","postalCode":"35250","schedule":"L-D: 06:00-22:00","fuels":{"gasoline95":1.445,"gasoline98":1.549,"diesel":1.499,"dieselPremium":1.569},"extra":{"saleType":"P","margin":"N","reportingType":"OM","ideess":"8720","idMunicipio":"5244","idProvincia":"35","idCCAA":"05"}}},{"type":"Feature","geometry":{"type":"Point","coordinates":[-15.440389,27.851833]},"properties":{"id":"es-8738","source":"ES","brand":"SHELL VECINDARIO","address":"AVENIDA DE CANARIAS, 197","municipality":"Santa Lucía de Tirajana","province":"PALMAS (LAS)","postalCode":"35280","schedule":"L-D: 24H","fuels":{"gasoline95":1.429,"gasoline98":1.529,"diesel":1.459,"dieselPremium":1.549},"extra":{"saleType":"P","margin":"D","reportingType":"dm","ideess":"8738","idMunicipio":"5254","idProvincia":"35","idCCAA":"05"}}},{"type":"Feature","geometry":{"type":"Point","coordinates":[-15.414167,27.998306]},"properties":{"id":"es-8739","source":"ES","brand":"SHELL TELDE","address":"AVENIDA DE LA CONSTITUCION, 1","municipality":"Telde","province":"PALMAS (LAS)","postalCode":"35200","schedule":"L-D: 06:00-22:00","fuels":{"gasoline95":1.404,"gasoline98":1.534,"diesel":1.454,"dieselPremium":1.584,"lpg":0.898},"extra":{"saleType":"P","margin":"N","reportingType":"OM","ideess":"8739","idMunicipio":"5258","idProvincia":"35","idCCAA":"05"}}},{"type":"Feature","geometry":{"type":"Point","coordinates":[-15.482278,27.803972]},"properties":{"id":"es-8767","source":"ES","brand":"SHELL JUAN GRANDE","address":"AUTOVIA GC-1 KM. 34,6","municipality":"San Bartolomé de Tirajana","province":"PALMAS (LAS)","postalCode":"35107","schedule":"L-D: 24H","fuels":{"gasoline95":1.409,"gasoline98":1.549,"diesel":1.429,"dieselPremium":1.529,"lpg":0.898},"extra":{"saleType":"P","margin":"N","reportingType":"OM","ideess":"8767","idMunicipio":"5252","idProvincia":"35","idCCAA":"05"}}},{"type":"Feature","geometry":{"type":"Point","coordinates":[-15.399278,27.859833]},"properties":{"id":"es-8770","source":"ES","brand":"SHELL ARINAGA","address":"AVENIDA POLIZÓN, 124","municipality":"Agüimes","province":"PALMAS (LAS)","postalCode":"35118","schedule":"L-D: 06:00-23:00","fuels":{"gasoline95":1.459,"gasoline98":1.589,"diesel":1.499,"dieselPremium":1.589},"extra":{"saleType":"P","margin":"I","reportingType":"OM","ideess":"8770","idMunicipio":"5234","idProvincia":"35","idCCAA":"05"}}},{"type":"Feature","geometry":{"type":"Point","coordinates":[-15.576389,27.763889]},"properties":{"id":"es-8775","source":"ES","brand":"SHELL MASPALOMAS","address":"CARRETERA CARRETERA GC-500 KM. 14,9","municipality":"San Bartolomé de Tirajana","province":"PALMAS (LAS)","postalCode":"35100","schedule":"L-D: 24H","fuels":{"gasoline95":1.419,"gasoline98":1.549,"diesel":1.459,"dieselPremium":1.559},"extra":{"saleType":"P","margin":"D","reportingType":"OM","ideess":"8775","idMunicipio":"5252","idProvincia":"35","idCCAA":"05"}}},{"type":"Feature","geometry":{"type":"Point","coordinates":[-15.43575,27.863111]},"properties":{"id":"es-9270","source":"ES","brand":"CEPSA","address":"CALLE HIEDRA, 3","municipality":"Agüimes","province":"PALMAS (LAS)","postalCode":"35118","schedule":"L-D: 06:00-22:00","fuels":{"gasoline95":1.399,"gasoline98":1.529,"diesel":1.439,"dieselPremium":1.529},"extra":{"saleType":"P","margin":"N","reportingType":"dm","ideess":"9270","idMunicipio":"5234","idProvincia":"35","idCCAA":"05"}}}]}