{"type":"FeatureCollection","features":[{"type":"Feature","geometry":{"type":"Point","coordinates":[0.0,0.0]},"properties":{"id":"es-11988","source":"ES","brand":"PETROZAL","address":"PASSATGE Moçambic, 2","municipality":"Barcelona","province":"BARCELONA","postalCode":"08040","schedule":"L-V: 06:00-20:00","fuels":{"gasoline95":1.559,"gasoline98":1.609,"diesel":1.659},"extra":{"saleType":"P","margin":"N","reportingType":"dm","ideess":"11988","idMunicipio":"881","idProvincia":"08","idCCAA":"09"}}},{"type":"Feature","geometry":{"type":"Point","coordinates":[0.0,0.0]},"properties":{"id":"es-12883","source":"ES","brand":"SUPER GASOIL","address":"AVENIDA ANDALUCIA DE, 519","municipality":"Valdemoro","province":"MADRID","postalCode":"28340","schedule":"L-D: 24H","fuels":{"gasoline95":1.549,"diesel":1.679},"extra":{"saleType":"P","margin":"D","reportingType":"dm","ideess":"12883","idMunicipio":"4432","idProvincia":"28","idCCAA":"13"}}}]}