{"type":"FeatureCollection","features":[{"type":"Feature","geometry":{"type":"Point","coordinates":[0.008694,39.972417]},"properties":{"id":"es-10256","source":"ES","brand":"PLENERGY","address":"AVDA. DEL PUERTO S/N   GRAO","municipality":"Castellón de la Plana/Castelló de la Plana","province":"CASTELLÓN / CASTELLÓ","postalCode":"12100","schedule":"L-D: 24H","fuels":{"gasoline95":1.529,"diesel":1.589},"extra":{"saleType":"P","margin":"D","reportingType":"dm","ideess":"10256","idMunicipio":"1842","idProvincia":"12","idCCAA":"10"}}},{"type":"Feature","geometry":{"type":"Point","coordinates":[0.010667,39.976694]},"properties":{"id":"es-3536","source":"ES","brand":"REPSOL","address":"AVENIDA DEL MAR, 468","municipality":"Castellón de la Plana/Castelló de la Plana","province":"CASTELLÓN / CASTELLÓ","postalCode":"12100","schedule":"L-D: 07:00-22:00","fuels":{"gasoline95":1.695,"gasoline98":1.865,"diesel":1.859,"dieselPremium":1.969},"extra":{"saleType":"P","margin":"D","reportingType":"OM","ideess":"3536","idMunicipio":"1842","idProvincia":"12","idCCAA":"10"}}},{"type":"Feature","geometry":{"type":"Point","coordinates":[0.015917,39.966556]},"properties":{"id":"es-3704","source":"ES","brand":"MOEVE","address":"MUELLE SERRANO LLOBERAS, S/N","municipality":"Castellón de la Plana/Castelló de la Plana","province":"CASTELLÓN / CASTELLÓ","postalCode":"12100","schedule":"L-V: 07:00-19:00","fuels":{"gasoline95":1.719,"diesel":1.846,"dieselB":1.736},"extra":{"saleType":"P","margin":"D","reportingType":"dm","ideess":"3704","idMunicipio":"1842","idProvincia":"12","idCCAA":"10"}}}]}