{"type":"FeatureCollection","features":[{"type":"Feature","geometry":{"type":"Point","coordinates":[-17.769889,28.671111]},"properties":{"id":"es-10138","source":"ES","brand":"MOEVE","address":"C-832, MI, PK km 1.2","municipality":"Breña Alta","province":"SANTA CRUZ DE TENERIFE","postalCode":"38712","schedule":"L-S: 06:30-22:00; D: 07:00-22:00","fuels":{"gasoline95":1.558,"gasoline98":1.658,"diesel":1.748},"extra":{"saleType":"P","margin":"I","reportingType":"dm","ideess":"10138","idMunicipio":"5698","idProvincia":"38","idCCAA":"05"}}},{"type":"Feature","geometry":{"type":"Point","coordinates":[-17.774472,28.805194]},"properties":{"id":"es-10637","source":"ES","brand":"MOEVE","address":"CARRETERA CARRETERA GENERAL LP1 KM. 27","municipality":"San Andrés y Sauces","province":"SANTA CRUZ DE TENERIFE","postalCode":"38720","schedule":"L-S: 07:30-21:00; D: 08:00-13:00","fuels":{"gasoline95":1.558,"gasoline98":1.658,"diesel":1.748},"extra":{"saleType":"P","margin":"I","reportingType":"dm","ideess":"10637","idMunicipio":"5722","idProvincia":"38","idCCAA":"05"}}},{"type":"Feature","geometry":{"type":"Point","coordinates":[-17.934722,28.641694]},"properties":{"id":"es-10900","source":"ES","brand":"SHELL","address":"AVENIDA LA CONSTITUCION, 4","municipality":"Tazacorte","province":"SANTA CRUZ DE TENERIFE","postalCode":"38770","schedule":"L-D: 06:00-22:00","fuels":{"gasoline95":1.656,"gasoline98":1.751,"diesel":1.761},"extra":{"saleType":"P","margin":"N","reportingType":"dm","ideess":"10900","idMunicipio":"5735","idProvincia":"38","idCCAA":"05"}}},{"type":"Feature","geometry":{"type":"Point","coordinates":[-17.205972,28.035111]},"properties":{"id":"es-11782","source":"ES","brand":"OCÉANO PLAYA SANTIAGO","address":"CARRETERA TF 713 KM. 38,5","municipality":"Alajeró","province":"SANTA CRUZ DE TENERIFE","postalCode":"38812","schedule":"L-V: 07:30-19:30; S-D: 07:30-14:00 y 15:00-19:30","fuels":{"gasoline95":1.669,"gasoline98":1.849,"diesel":1.799,"dieselPremium":1.899},"extra":{"saleType":"P","margin":"N","reportingType":"dm","ideess":"11782","idMunicipio":"5693","idProvincia":"38","idCCAA":"05"}}},{"type":"Feature","geometry":{"type":"Point","coordinates":[-17.107556,28.089667]},"properties":{"id":"es-12196","source":"ES","brand":"DISA MUELLE GOMERA","address":"PASEO FRED OLSEN, 3","municipality":"San Sebastián de la Gomera","province":"SANTA CRUZ DE TENERIFE","postalCode":"38800","schedule":"L-D: 07:00-23:00","fuels":{"gasoline95":1.669,"gasoline98":1.849,"diesel":1.799,"dieselPremium":1.899},"extra":{"saleType":"P","margin":"D","reportingType":"OM","ideess":"12196","idMunicipio":"5726","idProvincia":"38","idCCAA":"05"}}},{"type":"Feature","geometry":{"type":"Point","coordinates":[-17.759917,28.69875]},"properties":{"id":"es-15957","source":"ES","brand":"PLENERGY","address":"POLIGONO INDUSTRIAL MIRCA, S/N","municipality":"Santa Cruz de la Palma","province":"SANTA CRUZ DE TENERIFE","postalCode":"38700","schedule":"L-D: 24H","fuels":{"gasoline95":1.439,"diesel":1.585},"extra":{"saleType":"P","margin":"D","reportingType":"dm","ideess":"15957","idMunicipio":"5727","idProvincia":"38","idCCAA":"05"}}},{"type":"Feature","geometry":{"type":"Point","coordinates":[-17.97775,28.7635]},"properties":{"id":"es-7673","source":"ES","brand":"REPSOL","address":"CARRETERA LP-114 KM. 78,50","municipality":"Puntagorda","province":"SANTA CRUZ DE TENERIFE","postalCode":"38789","schedule":"L-D: 06:00-23:00","fuels":{"gasoline95":1.58,"gasoline98":1.69,"diesel":1.71},"extra":{"saleType":"P","margin":"I","reportingType":"dm","ideess":"7673","idMunicipio":"5718","idProvincia":"38","idCCAA":"05"}}},{"type":"Feature","geometry":{"type":"Point","coordinates":[-17.914528,28.808194]},"properties":{"id":"es-7732","source":"ES","brand":"TGAS GARAFÍA","address":"CARRETERA LP1- CRUCE SAN ANTONIO DEL MONTE KM. S/N","municipality":"Garafía","province":"SANTA CRUZ DE TENERIFE","postalCode":"38787","schedule":"L-D: 07:30-20:00","fuels":{"gasoline95":1.656,"gasoline98":1.75,"diesel":1.762},"extra":{"saleType":"P","margin":"I","reportingType":"dm","ideess":"7732","idMunicipio":"5706","idProvincia":"38","idCCAA":"05"}}},{"type":"Feature","geometry":{"type":"Point","coordinates":[-17.835222,28.500917]},"properties":{"id":"es-7746","source":"ES","brand":"PCAN","address":"CARRETERA LP2 FUENCALIENTE KM. 24,6","municipality":"Fuencaliente de la Palma","province":"SANTA CRUZ DE TENERIFE","postalCode":"38740","schedule":"L-D: 06:00-22:00","fuels":{"gasoline95":1.501,"gasoline98":1.601,"diesel":1.645},"extra":{"saleType":"P","margin":"I","reportingType":"dm","ideess":"7746","idMunicipio":"5704","idProvincia":"38","idCCAA":"05"}}},{"type":"Feature","geometry":{"type":"Point","coordinates":[-17.768306,28.679917]},"properties":{"id":"es-7772","source":"ES","brand":"BP BAJAMAR","address":"CARRETERA BAJAMAR KM. S/N","municipality":"Santa Cruz de la Palma","province":"SANTA CRUZ DE TENERIFE","postalCode":"38700","schedule":"L-D: 24H","fuels":{"gasoline95":1.529,"gasoline98":1.669,"dieselPremium":1.659,"adblue":1.859},"extra":{"saleType":"P","margin":"N","reportingType":"OM","ideess":"7772","idMunicipio":"5727","idProvincia":"38","idCCAA":"05"}}},{"type":"Feature","geometry":{"type":"Point","coordinates":[-17.113333,28.090861]},"properties":{"id":"es-7826","source":"ES","brand":"SAN SEBASTIAN","address":"AVENIDA DE COLÓN","municipality":"San Sebastián de la Gomera","province":"SANTA CRUZ DE TENERIFE","postalCode":"38800","schedule":"L-V: 07:00-20:00; S: 08:00-13:00","fuels":{"gasoline95":1.669,"gasoline98":1.849,"diesel":1.799,"dieselPremium":1.899},"extra":{"saleType":"P","margin":"N","reportingType":"dm","ideess":"7826","idMunicipio":"5726","idProvincia":"38","idCCAA":"05"}}},{"type":"Feature","geometry":{"type":"Point","coordinates":[-17.772833,28.801028]},"properties":{"id":"es-7836","source":"ES","brand":"DISA","address":"AVENIDA LOS SAUCES, 40","municipality":"San Andrés y Sauces","province":"SANTA CRUZ DE TENERIFE","postalCode":"38720","schedule":"L-S: 07:00-21:00; D: 08:00-13:00","fuels":{"gasoline95":1.501,"gasoline98":1.601,"diesel":1.645},"extra":{"saleType":"P","margin":"N","reportingType":"dm","ideess":"7836","idMunicipio":"5722","idProvincia":"38","idCCAA":"05"}}},{"type":"Feature","geometry":{"type":"Point","coordinates":[-17.787028,28.665667]},"properties":{"id":"es-7838","source":"ES","brand":"DISA","address":"CALLE TREINTA DE MAYO, 3","municipality":"Breña Alta","province":"SANTA CRUZ DE TENERIFE","postalCode":"38710","schedule":"L-S: 07:00-22:00; D: 08:00-14:00","fuels":{"gasoline95":1.656,"gasoline98":1.751,"diesel":1.762},"extra":{"saleType":"P","margin":"N","reportingType":"dm","ideess":"7838","idMunicipio":"5698","idProvincia":"38","idCCAA":"05"}}},{"type":"Feature","geometry":{"type":"Point","coordinates":[-17.752667,28.619056]},"properties":{"id":"es-7848","source":"ES","brand":"DISA","address":"LODERO S/N (AEROPUERTO -MAZO km 5)","municipality":"Villa de Mazo","province":"SANTA CRUZ DE TENERIFE","postalCode":"38739","schedule":"L-D: 07:00-21:00","fuels":{"gasoline95":1.66,"gasoline98":1.755,"diesel":1.766},"extra":{"saleType":"P","margin":"N","reportingType":"dm","ideess":"7848","idMunicipio":"5743","idProvincia":"38","idCCAA":"05"}}},{"type":"Feature","geometry":{"type":"Point","coordinates":[-17.881472,28.650556]},"properties":{"id":"es-7876","source":"ES","brand":"DISA","address":"CARRETERA GENERAL KM. 18","municipality":"Paso (El)","province":"SANTA CRUZ DE TENERIFE","postalCode":"38750","schedule":"L-S: 06:00-22:00; D: 07:00-22:00","fuels":{"gasoline95":1.656,"gasoline98":1.751,"diesel":1.762,"dieselPremium":1.807},"extra":{"saleType":"P","margin":"N","reportingType":"dm","ideess":"7876","idMunicipio":"5716","idProvincia":"38","idCCAA":"05"}}},{"type":"Feature","geometry":{"type":"Point","coordinates":[-17.277722,28.106778]},"properties":{"id":"es-7878","source":"ES","brand":"ESTACION  SERVICIO CHIPUDE","address":"CARRETERA LOS APARTADEROS KM. 1","municipality":"Vallehermoso","province":"SANTA CRUZ DE TENERIFE","postalCode":"38869","schedule":"L-D: 08:00-19:00","fuels":{"gasoline95":1.669,"gasoline98":1.849,"diesel":1.799},"extra":{"saleType":"P","margin":"I","reportingType":"dm","ideess":"7878","idMunicipio":"5739","idProvincia":"38","idCCAA":"05"}}},{"type":"Feature","geometry":{"type":"Point","coordinates":[-17.916417,28.658861]},"properties":{"id":"es-7885","source":"ES","brand":"DISA","address":"AVENIDA CARLOS FRANCISCO LORENZO NAVARRO, 1","municipality":"Llanos de Aridane (Los)","province":"SANTA CRUZ DE TENERIFE","postalCode":"38760","schedule":"L-S: 07:00-14:00","fuels":{"gasoline95":1.656,"gasoline98":1.751,"diesel":1.762,"dieselPremium":1.807},"extra":{"saleType":"P","margin":"N","reportingType":"dm","ideess":"7885","idMunicipio":"5713","idProvincia":"38","idCCAA":"05"}}},{"type":"Feature","geometry":{"type":"Point","coordinates":[-17.188667,28.172306]},"properties":{"id":"es-7947","source":"ES","brand":"DISA HERMIGUA","address":"CARRETERA TF 711 KM. 22","municipality":"Hermigua","province":"SANTA CRUZ DE TENERIFE","postalCode":"38820","schedule":"L-D: 06:00-22:00","fuels":{"gasoline95":1.669,"gasoline98":1.849,"diesel":1.799,"dieselPremium":1.899},"extra":{"saleType":"P","margin":"N","reportingType":"OM","ideess":"7947","idMunicipio":"5711","idProvincia":"38","idCCAA":"05"}}},{"type":"Feature","geometry":{"type":"Point","coordinates":[-17.913222,28.657167]},"properties":{"id":"es-7950","source":"ES","brand":"BP LOS LLANOS","address":"AVENIDA CARLOS FRANCISCO LORENZO NAVARRO, 40","municipality":"Llanos de Aridane (Los)","province":"SANTA CRUZ DE TENERIFE","postalCode":"38760","schedule":"L-S: 06:30-22:00; D: 06:30-14:00","fuels":{"gasoline95":1.629,"gasoline98":1.769,"dieselPremium":1.739},"extra":{"saleType":"P","margin":"N","reportingType":"OM","ideess":"7950","idMunicipio":"5713","idProvincia":"38","idCCAA":"05"}}},{"type":"Feature","geometry":{"type":"Point","coordinates":[-17.264972,28.179028]},"properties":{"id":"es-7953","source":"ES","brand":"DISA VALLEHERMOSO","address":"CALLE PEDRO GARCIA CABRERA, 10","municipality":"Vallehermoso","province":"SANTA CRUZ DE TENERIFE","postalCode":"38840","schedule":"L-S: 07:30-21:00","fuels":{"gasoline95":1.669,"gasoline98":1.849,"diesel":1.799},"extra":{"saleType":"P","margin":"D","reportingType":"OM","ideess":"7953","idMunicipio":"5739","idProvincia":"38","idCCAA":"05"}}},{"type":"Feature","geometry":{"type":"Point","coordinates":[-17.803194,28.831583]},"properties":{"id":"es-8744","source":"ES","brand":"SHELL","address":"AVENIDA PRINCIPAL, 1","municipality":"Barlovento","province":"SANTA CRUZ DE TENERIFE","postalCode":"38726","schedule":"L-S: 07:00-21:00; D: 15:00-20:00","fuels":{"gasoline95":1.501,"gasoline98":1.601,"diesel":1.645,"dieselPremium":1.769},"extra":{"saleType":"P","margin":"N","reportingType":"dm","ideess":"8744","idMunicipio":"5697","idProvincia":"38","idCCAA":"05"}}},{"type":"Feature","geometry":{"type":"Point","coordinates":[-17.77125,28.661556]},"properties":{"id":"es-8745","source":"ES","brand":"SHELL","address":"CARRETERA GENERAL LA GRAMA, KM 3.8 (CARRETERA VARIANTE TF-812 km 3,8)","municipality":"Breña Alta","province":"SANTA CRUZ DE TENERIFE","postalCode":"38710","schedule":"L-D: 06:30-22:00","fuels":{"gasoline95":1.656,"gasoline98":1.751,"diesel":1.762,"dieselPremium":1.807},"extra":{"saleType":"P","margin":"D","reportingType":"dm","ideess":"8745","idMunicipio":"5698","idProvincia":"38","idCCAA":"05"}}},{"type":"Feature","geometry":{"type":"Point","coordinates":[-17.907694,28.656333]},"properties":{"id":"es-8750","source":"ES","brand":"SHELL","address":"AVENIDA CARLOS FRANCISCO LORENZO NAVARRO, 62","municipality":"Llanos de Aridane (Los)","province":"SANTA CRUZ DE TENERIFE","postalCode":"38760","schedule":"L-S: 06:00-22:00; D: 07:00-22:00","fuels":{"gasoline95":1.656,"gasoline98":1.751,"diesel":1.762,"dieselPremium":1.807},"extra":{"saleType":"P","margin":"N","reportingType":"dm","ideess":"8750","idMunicipio":"5713","idProvincia":"38","idCCAA":"05"}}},{"type":"Feature","geometry":{"type":"Point","coordinates":[-17.867278,28.651028]},"properties":{"id":"es-8752","source":"ES","brand":"SHELL","address":"CARRETERA PADRON KM. 24,300","municipality":"Paso (El)","province":"SANTA CRUZ DE TENERIFE","postalCode":"38750","schedule":"L-D: 24H","fuels":{"gasoline95":1.656,"gasoline98":1.751,"diesel":1.761,"dieselPremium":1.806},"extra":{"saleType":"P","margin":"N","reportingType":"dm","ideess":"8752","idMunicipio":"5716","idProvincia":"38","idCCAA":"05"}}},{"type":"Feature","geometry":{"type":"Point","coordinates":[-17.747861,28.725444]},"properties":{"id":"es-8755","source":"ES","brand":"SHELL PUNTALLANA","address":"CARRETERA GENERAL KM. 8,450","municipality":"Puntallana","province":"SANTA CRUZ DE TENERIFE","postalCode":"38715","schedule":"L-D: 06:30-22:30","fuels":{"gasoline95":1.535,"gasoline98":1.635,"diesel":1.68,"dieselPremium":1.759},"extra":{"saleType":"P","margin":"N","reportingType":"OM","ideess":"8755","idMunicipio":"5719","idProvincia":"38","idCCAA":"05"}}},{"type":"Feature","geometry":{"type":"Point","coordinates":[-17.335611,28.0945]},"properties":{"id":"es-9846","source":"ES","brand":"DISA VALLE GRAN REY","address":"CALLE CAIDERO, 6","municipality":"Valle Gran Rey","province":"SANTA CRUZ DE TENERIFE","postalCode":"38870","schedule":"L-D: 06:00-22:00","fuels":{"gasoline95":1.669,"gasoline98":1.849,"diesel":1.799,"dieselPremium":1.899},"extra":{"saleType":"P","margin":"D","reportingType":"OM","ideess":"9846","idMunicipio":"5738","idProvincia":"38","idCCAA":"05"}}},{"type":"Feature","geometry":{"type":"Point","coordinates":[-17.768667,28.678611]},"properties":{"id":"es-9872","source":"ES","brand":"DISA","address":"AVENIDA LOS INDIANOS S/N, S/N","municipality":"Santa Cruz de la Palma","province":"SANTA CRUZ DE TENERIFE","postalCode":"38700","schedule":"L-S: 06:30-22:00; D: 07:00-22:00","fuels":{"gasoline95":1.501,"gasoline98":1.601,"diesel":1.645},"extra":{"saleType":"P","margin":"N","reportingType":"dm","ideess":"9872","idMunicipio":"5727","idProvincia":"38","idCCAA":"05"}}}]}