{"type":"FeatureCollection","features":[{"type":"Feature","geometry":{"type":"Point","coordinates":[-9.214806,43.103083]},"properties":{"id":"es-13709","source":"ES","brand":"SHELL","address":"MUELLE MARINA MUXIA, SN","municipality":"Muxía","province":"CORUÑA (A)","postalCode":"15124","schedule":"L-D: 24H","fuels":{"gasoline95":1.819,"diesel":1.919},"extra":{"saleType":"P","margin":"D","reportingType":"dm","ideess":"13709","idMunicipio":"2171","idProvincia":"15","idCCAA":"12"}}},{"type":"Feature","geometry":{"type":"Point","coordinates":[-9.025222,43.120083]},"properties":{"id":"es-16405","source":"ES","brand":"FAST FUEL","address":"POLIGONO CALLE A, N2N3","municipality":"Vimianzo","province":"CORUÑA (A)","postalCode":"15129","schedule":"L-D: 24H","fuels":{"gasoline95":1.679,"diesel":1.779},"extra":{"saleType":"P","margin":"D","reportingType":"dm","ideess":"16405","idMunicipio":"2210","idProvincia":"15","idCCAA":"12"}}},{"type":"Feature","geometry":{"type":"Point","coordinates":[-9.112972,43.032611]},"properties":{"id":"es-484","source":"ES","brand":"REPSOL","address":"LUGAR BERDEOGAS, S/N","municipality":"Dumbría","province":"CORUÑA (A)","postalCode":"15151","schedule":"L-D: 07:00-23:00","fuels":{"gasoline95":1.839,"diesel":1.949,"dieselB":1.439,"dieselRenewable":2.009,"adblue":1.359},"extra":{"saleType":"P","margin":"I","reportingType":"dm","ideess":"484","idMunicipio":"2152","idProvincia":"15","idCCAA":"12"}}},{"type":"Feature","geometry":{"type":"Point","coordinates":[-9.112722,43.1405]},"properties":{"id":"es-622","source":"ES","brand":"REPSOL","address":"CARRETERA CTRA. VIMIANZO-CAMARIÑAS KM. 9","municipality":"Camariñas","province":"CORUÑA (A)","postalCode":"15121","schedule":"L-S: 07:00-22:00; D: 08:00-22:00","fuels":{"gasoline95":1.835,"diesel":1.939,"dieselB":1.695,"dieselRenewable":2.059},"extra":{"saleType":"P","margin":"I","reportingType":"OM","ideess":"622","idMunicipio":"2133","idProvincia":"15","idCCAA":"12"}}},{"type":"Feature","geometry":{"type":"Point","coordinates":[-9.02875,43.112]},"properties":{"id":"es-628","source":"ES","brand":"REPSOL","address":"CALLE LA TORRE, 8","municipality":"Vimianzo","province":"CORUÑA (A)","postalCode":"15129","schedule":"L-D: 07:00-23:00","fuels":{"gasoline95":1.839,"gasoline98":1.979,"diesel":1.949,"dieselB":1.439,"dieselRenewable":2.009,"adblue":1.359},"extra":{"saleType":"P","margin":"D","reportingType":"dm","ideess":"628","idMunicipio":"2210","idProvincia":"15","idCCAA":"12"}}}]}