{"type":"FeatureCollection","features":[{"type":"Feature","geometry":{"type":"Point","coordinates":[-4.507083,42.005722]},"properties":{"id":"es-10131","source":"ES","brand":"REPOSTAR","address":"C/LOS TORNEROS 61","municipality":"Palencia","province":"PALENCIA","postalCode":"34004","schedule":"L-V: 06:30-22:15; S-D: 07:30-22:15","fuels":{"gasoline95":1.699,"gasoline98":1.788,"diesel":1.789,"dieselPremium":1.839},"extra":{"saleType":"P","margin":"D","reportingType":"dm","ideess":"10131","idMunicipio":"5134","idProvincia":"34","idCCAA":"08"}}},{"type":"Feature","geometry":{"type":"Point","coordinates":[-4.249722,42.780722]},"properties":{"id":"es-10167","source":"ES","brand":"BEROIL","address":"POLIGONO AGUILAR DE CAMPOO, 121","municipality":"Aguilar de Campoo","province":"PALENCIA","postalCode":"34810","schedule":"L-D: 00:00-23:59","fuels":{"gasoline95":1.659,"diesel":1.719,"adblue":0.6},"extra":{"saleType":"P","margin":"D","reportingType":"dm","ideess":"10167","idMunicipio":"5044","idProvincia":"34","idCCAA":"08"}}},{"type":"Feature","geometry":{"type":"Point","coordinates":[-4.291778,42.718306]},"properties":{"id":"es-11020","source":"ES","brand":"PUERTA DE LA MONTAÑA","address":"AUTOVIA A-67, SALIDA KM. 94","municipality":"Alar del Rey","province":"PALENCIA","postalCode":"34815","schedule":"L: 07:00-23:00","fuels":{"gasoline95":1.699,"diesel":1.739,"dieselPremium":1.749,"adblue":0.75},"extra":{"saleType":"P","margin":"N","reportingType":"dm","ideess":"11020","idMunicipio":"5045","idProvincia":"34","idCCAA":"08"}}},{"type":"Feature","geometry":{"type":"Point","coordinates":[-4.060028,42.177028]},"properties":{"id":"es-11228","source":"ES","brand":"GALP","address":"AUTOVIA A-62 KM. 40","municipality":"Balbases (Los)","province":"BURGOS","postalCode":"09119","schedule":"L-S: 08:00-21:00","fuels":{"gasoline95":1.789,"gasoline95Premium":1.839,"diesel":1.929,"dieselPremium":1.979},"extra":{"saleType":"P","margin":"D","reportingType":"OM","ideess":"11228","idMunicipio":"1199","idProvincia":"09","idCCAA":"08"}}},{"type":"Feature","geometry":{"type":"Point","coordinates":[-4.134083,42.986361]},"properties":{"id":"es-11539","source":"ES","brand":"CEPSA","address":"AUTOVIA A-67 KM. 133,4","municipality":"Campoo de Enmedio","province":"CANTABRIA","postalCode":"39213","schedule":"L-D: 24H","fuels":{"gasoline95":1.809,"gasoline95Premium":1.909,"diesel":1.919,"dieselPremium":2.019,"lpg":1.169},"extra":{"saleType":"P","margin":"D","reportingType":"OM","ideess":"11539","idMunicipio":"5760","idProvincia":"39","idCCAA":"06"}}},{"type":"Feature","geometry":{"type":"Point","coordinates":[-4.474139,42.391861]},"properties":{"id":"es-11588","source":"ES","brand":"BP VILLAHERREROS","address":"AUTOVIA A-231.BURGOS-LEON KM. 99","municipality":"Villaherreros","province":"PALENCIA","postalCode":"34479","schedule":"L-D: 24H","fuels":{"gasoline95":1.759,"gasoline98":1.899,"diesel":1.939,"dieselPremium":2.029,"adblue":1.225},"extra":{"saleType":"P","margin":"D","reportingType":"OM","ideess":"11588","idMunicipio":"5203","idProvincia":"34","idCCAA":"08"}}},{"type":"Feature","geometry":{"type":"Point","coordinates":[-4.868444,42.776194]},"properties":{"id":"es-11629","source":"ES","brand":"COBASGUAR","address":"POLIGONO CAMPONDON, 71","municipality":"Guardo","province":"PALENCIA","postalCode":"34880","schedule":"L-D: 24H","fuels":{"gasoline95":1.685,"diesel":1.829,"adblue":0.9},"extra":{"saleType":"P","margin":"N","reportingType":"dm","ideess":"11629","idMunicipio":"5103","idProvincia":"34","idCCAA":"08"}}},{"type":"Feature","geometry":{"type":"Point","coordinates":[-4.27975,42.037306]},"properties":{"id":"es-11865","source":"ES","brand":"CEPSA","address":"AUTOVIA 62 KM. 64,300","municipality":"Torquemada","province":"PALENCIA","postalCode":"34230","schedule":"L-D: 07:00-23:00","fuels":{"gasoline95":1.82,"gasoline95Premium":1.995,"diesel":1.956,"dieselPremium":2.086,"adblue":0.95},"extra":{"saleType":"P","margin":"N","reportingType":"dm","ideess":"11865","idMunicipio":"5184","idProvincia":"34","idCCAA":"08"}}},{"type":"Feature","geometry":{"type":"Point","coordinates":[-4.524167,42.0315]},"properties":{"id":"es-12126","source":"ES","brand":"BEROIL","address":"CARRETERA CARRETERA DE SANTANDER KM. 12,3","municipality":"Palencia","province":"PALENCIA","postalCode":"34003","schedule":"L-D: 24H","fuels":{"gasoline95":1.569,"diesel":1.669,"adblue":0.6},"extra":{"saleType":"P","margin":"D","reportingType":"dm","ideess":"12126","idMunicipio":"5134","idProvincia":"34","idCCAA":"08"}}},{"type":"Feature","geometry":{"type":"Point","coordinates":[-4.38675,42.362556]},"properties":{"id":"es-12290","source":"ES","brand":"BP SANTILLANA DE CAMPOS","address":"AUTOVIA A-67 KM. 51","municipality":"Osorno la Mayor","province":"PALENCIA","postalCode":"34469","schedule":"L-D: 24H","fuels":{"gasoline95":1.779,"gasoline98":1.919,"diesel":1.945,"dieselPremium":2.035,"adblue":1.225},"extra":{"saleType":"P","margin":"D","reportingType":"OM","ideess":"12290","idMunicipio":"5133","idProvincia":"34","idCCAA":"08"}}},{"type":"Feature","geometry":{"type":"Point","coordinates":[-4.245167,42.401528]},"properties":{"id":"es-12606","source":"ES","brand":"BIESA","address":"CALLE FERNAN GONZALEZ, 1","municipality":"Melgar de Fernamental","province":"BURGOS","postalCode":"09100","schedule":"L-V: 08:00-13:30 y 15:30-18:00","fuels":{"diesel":1.879},"extra":{"saleType":"P","margin":"D","reportingType":"dm","ideess":"12606","idMunicipio":"1334","idProvincia":"09","idCCAA":"08"}}},{"type":"Feature","geometry":{"type":"Point","coordinates":[-4.203167,42.5565]},"properties":{"id":"es-12607","source":"ES","brand":"BIESA","address":"CARRETERA A BARRIO DE SAN FELICES  EN  SOTRESGUDO KM. 1","municipality":"Sotresgudo","province":"BURGOS","postalCode":"09135","schedule":"L-V: 09:00-13:30 y 15:30-19:00","fuels":{"gasoline95":1.789,"diesel":1.899},"extra":{"saleType":"P","margin":"D","reportingType":"dm","ideess":"12607","idMunicipio":"1455","idProvincia":"09","idCCAA":"08"}}},{"type":"Feature","geometry":{"type":"Point","coordinates":[-4.154528,42.86725]},"properties":{"id":"es-13376","source":"ES","brand":"REPSOL","address":"AUTOVIA A-67 KM. 116,600","municipality":"Aguilar de Campoo","province":"PALENCIA","postalCode":"34800","schedule":"L-D: 24H","fuels":{"gasoline95":1.835,"gasoline98":1.955,"diesel":1.975,"dieselB":1.652,"dieselRenewable":2.095},"extra":{"saleType":"P","margin":"I","reportingType":"OM","ideess":"13376","idMunicipio":"5044","idProvincia":"34","idCCAA":"08"}}},{"type":"Feature","geometry":{"type":"Point","coordinates":[-4.603222,42.331]},"properties":{"id":"es-13410","source":"ES","brand":"AN ENERGETICOS - CAR CARRION","address":"AVENIDA MANUELA RIZO, S/N","municipality":"Carrión de los Condes","province":"PALENCIA","postalCode":"34120","schedule":"L-D: 24H","fuels":{"gasoline95":1.569,"diesel":1.709,"dieselB":1.409,"adblue":0.705},"extra":{"saleType":"P","margin":"D","reportingType":"dm","ideess":"13410","idMunicipio":"5075","idProvincia":"34","idCCAA":"08"}}},{"type":"Feature","geometry":{"type":"Point","coordinates":[-4.246889,42.788583]},"properties":{"id":"es-13904","source":"ES","brand":"CEPSA","address":"CALLE POLIGONO AGUILAR II, 42","municipality":"Aguilar de Campoo","province":"PALENCIA","postalCode":"34800","schedule":"D: 07:00-23:00","fuels":{"gasoline95":1.839,"diesel":1.989,"dieselPremium":2.069,"adblue":1.0},"extra":{"saleType":"P","margin":"D","reportingType":"dm","ideess":"13904","idMunicipio":"5044","idProvincia":"34","idCCAA":"08"}}},{"type":"Feature","geometry":{"type":"Point","coordinates":[-4.520306,42.014056]},"properties":{"id":"es-14029","source":"ES","brand":"GASEXPRESS","address":"AVENIDA CUBA, 27","municipality":"Palencia","province":"PALENCIA","postalCode":"34001","schedule":"L-V: 06:00-00:00; S-D: 07:00-23:00","fuels":{"gasoline95":1.649,"diesel":1.749},"extra":{"saleType":"P","margin":"D","reportingType":"dm","ideess":"14029","idMunicipio":"5134","idProvincia":"34","idCCAA":"08"}}},{"type":"Feature","geometry":{"type":"Point","coordinates":[-4.131333,42.995194]},"properties":{"id":"es-14053","source":"ES","brand":"CEPSA","address":"POLIGONO SEPES-LA VEGA, PARCELA 74-80, 74","municipality":"Reinosa","province":"CANTABRIA","postalCode":"39200","schedule":"L-D: 06:00-22:00","fuels":{"gasoline95":1.759,"diesel":1.905},"extra":{"saleType":"P","margin":"N","reportingType":"OM","ideess":"14053","idMunicipio":"5802","idProvincia":"39","idCCAA":"06"}}},{"type":"Feature","geometry":{"type":"Point","coordinates":[-4.681167,42.147139]},"properties":{"id":"es-14164","source":"ES","brand":"BEROIL","address":"POLIGONO POLIGONO INDUSTRIAL NAVE 80, 80","municipality":"Paredes de Nava","province":"PALENCIA","postalCode":"34300","schedule":"L-D: 24H","fuels":{"gasoline95":1.669,"diesel":1.719,"adblue":0.6},"extra":{"saleType":"P","margin":"D","reportingType":"dm","ideess":"14164","idMunicipio":"5137","idProvincia":"34","idCCAA":"08"}}},{"type":"Feature","geometry":{"type":"Point","coordinates":[-4.51125,42.007556]},"properties":{"id":"es-14567","source":"ES","brand":"CEPSA","address":"AVENIDA COMUNIDAD EUROPEA, 36","municipality":"Palencia","province":"PALENCIA","postalCode":"34004","schedule":"L-V: 06:30-22:30; S-D: 07:30-22:30","fuels":{"gasoline95":1.829,"gasoline98":1.999,"diesel":1.979,"dieselPremium":2.049,"lpg":1.109,"adblue":0.998},"extra":{"saleType":"P","margin":"D","reportingType":"dm","ideess":"14567","idMunicipio":"5134","idProvincia":"34","idCCAA":"08"}}},{"type":"Feature","geometry":{"type":"Point","coordinates":[-4.520417,42.006861]},"properties":{"id":"es-14895","source":"ES","brand":"BALLENOIL","address":"CALLE EXTREMADURA, 1","municipality":"Palencia","province":"PALENCIA","postalCode":"34004","schedule":"L-D: 24H","fuels":{"gasoline95":1.669,"diesel":1.769,"dieselPremium":1.789},"extra":{"saleType":"P","margin":"D","reportingType":"OM","ideess":"14895","idMunicipio":"5134","idProvincia":"34","idCCAA":"08"}}},{"type":"Feature","geometry":{"type":"Point","coordinates":[-4.740361,42.513028]},"properties":{"id":"es-15071","source":"ES","brand":"MOEVE","address":"CARRETERA P-235. SAHAGÚN - SALDAÑA. PARC. 93 Y 94, POL.101 KM. 0","municipality":"Saldaña","province":"PALENCIA","postalCode":"34100","schedule":"L-D: 07:00-23:00","fuels":{"gasoline95":1.829,"gasoline98":1.939,"diesel":1.979,"dieselPremium":2.059,"adblue":0.947},"extra":{"saleType":"P","margin":"I","reportingType":"dm","ideess":"15071","idMunicipio":"5164","idProvincia":"34","idCCAA":"08"}}},{"type":"Feature","geometry":{"type":"Point","coordinates":[-4.038056,42.399444]},"properties":{"id":"es-15368","source":"ES","brand":"REPSOL","address":"CARRETERA NACIONAL 120 LOGROÑO  -VIGO KM. 145","municipality":"Sasamón","province":"BURGOS","postalCode":"09123","schedule":"L-S: 07:00-22:00; D: 08:00-22:00","fuels":{"gasoline95":1.828,"gasoline98":1.948,"diesel":1.898,"dieselRenewable":1.998,"adblue":0.995},"extra":{"saleType":"P","margin":"D","reportingType":"dm","ideess":"15368","idMunicipio":"1449","idProvincia":"09","idCCAA":"08"}}},{"type":"Feature","geometry":{"type":"Point","coordinates":[-4.528639,42.020333]},"properties":{"id":"es-15819","source":"ES","brand":"PLENERGY","address":"CALLE CRUZ ROJA, 9","municipality":"Palencia","province":"PALENCIA","postalCode":"34003","schedule":"L-D: 24H","fuels":{"gasoline95":1.669,"diesel":1.769},"extra":{"saleType":"P","margin":"D","reportingType":"dm","ideess":"15819","idMunicipio":"5134","idProvincia":"34","idCCAA":"08"}}},{"type":"Feature","geometry":{"type":"Point","coordinates":[-4.613417,42.636333]},"properties":{"id":"es-16096","source":"ES","brand":"ESTACION DE SERVICIO TOMAS TRECEÑO","address":"AVENIDA DEL CARMEN 25, 25","municipality":"Buenavista de Valdavia","province":"PALENCIA","postalCode":"34470","schedule":"L-V: 08:30-14:30","fuels":{"gasoline95":1.798,"diesel":1.898,"adblue":0.95},"extra":{"saleType":"P","margin":"D","reportingType":"dm","ideess":"16096","idMunicipio":"5068","idProvincia":"34","idCCAA":"08"}}},{"type":"Feature","geometry":{"type":"Point","coordinates":[-4.123389,42.940028]},"properties":{"id":"es-418","source":"ES","brand":"MOEVE","address":"CARRETERA N-611 KM. 130,1","municipality":"Campoo de Enmedio","province":"CANTABRIA","postalCode":"39213","schedule":"L-V: 06:00-22:00; S-D: 07:00-22:00","fuels":{"gasoline95":1.809,"gasoline98":1.949,"diesel":1.919,"dieselPremium":2.019,"dieselB":1.679,"lpg":1.169},"extra":{"saleType":"P","margin":"D","reportingType":"OM","ideess":"418","idMunicipio":"5760","idProvincia":"39","idCCAA":"06"}}},{"type":"Feature","geometry":{"type":"Point","coordinates":[-4.616639,42.341167]},"properties":{"id":"es-4740","source":"ES","brand":"RÍO NUBIS","address":"N-120A (LOGROÑO -VIGO) km 197,5","municipality":"Carrión de los Condes","province":"PALENCIA","postalCode":"34120","schedule":"L-D: 08:00-22:00","fuels":{"gasoline95":1.779,"gasoline98":1.919,"diesel":1.969,"dieselPremium":2.059,"dieselB":1.699},"extra":{"saleType":"P","margin":"D","reportingType":"dm","ideess":"4740","idMunicipio":"5075","idProvincia":"34","idCCAA":"08"}}},{"type":"Feature","geometry":{"type":"Point","coordinates":[-4.499194,42.862389]},"properties":{"id":"es-4742","source":"ES","brand":"J.L.SARDINA S.L.","address":"CARRETERA C-627 (BURGOS-POTES) KM. 107,7","municipality":"Cervera de Pisuerga","province":"PALENCIA","postalCode":"34840","schedule":"L-D: 07:00-23:00","fuels":{"gasoline95":1.838,"gasoline98":1.938,"diesel":1.948,"dieselPremium":1.998,"adblue":1.2},"extra":{"saleType":"P","margin":"D","reportingType":"dm","ideess":"4742","idMunicipio":"5083","idProvincia":"34","idCCAA":"08"}}},{"type":"Feature","geometry":{"type":"Point","coordinates":[-4.35075,42.417]},"properties":{"id":"es-4752","source":"ES","brand":"PETROCORNER LOS CHOPOS","address":"CARRETERA SANTANDER KM. 59","municipality":"Osorno la Mayor","province":"PALENCIA","postalCode":"34460","schedule":"L-D: 06:00-22:00","fuels":{"gasoline95":1.739,"diesel":1.839,"adblue":0.809},"extra":{"saleType":"P","margin":"I","reportingType":"dm","ideess":"4752","idMunicipio":"5133","idProvincia":"34","idCCAA":"08"}}},{"type":"Feature","geometry":{"type":"Point","coordinates":[-4.778028,42.080417]},"properties":{"id":"es-4909","source":"ES","brand":"S.E. SAN AGUSTIN S.L.","address":"CARRETERA CRTA.MAZARIEGOS KM.8,2 KM. 8,2","municipality":"Fuentes de Nava","province":"PALENCIA","postalCode":"34337","schedule":"L-S: 7:30-22:00","fuels":{"gasoline95":1.759,"diesel":1.879,"dieselB":1.5},"extra":{"saleType":"P","margin":"D","reportingType":"dm","ideess":"4909","idMunicipio":"5100","idProvincia":"34","idCCAA":"08"}}},{"type":"Feature","geometry":{"type":"Point","coordinates":[-4.287056,42.191833]},"properties":{"id":"es-4917","source":"ES","brand":"LA MOTA - BIESA","address":"CARRETERA PALENCIA KM. 28,8","municipality":"Astudillo","province":"PALENCIA","postalCode":"34450","schedule":"L-V: 08:00-21:00; S: 09:00-14:00","fuels":{"gasoline95":1.789,"diesel":1.899},"extra":{"saleType":"P","margin":"D","reportingType":"dm","ideess":"4917","idMunicipio":"5052","idProvincia":"34","idCCAA":"08"}}},{"type":"Feature","geometry":{"type":"Point","coordinates":[-4.287667,42.894639]},"properties":{"id":"es-4953","source":"ES","brand":"LOS LINARES","address":"AGUILAR-BARRUELO km 13,3","municipality":"Barruelo de Santullán","province":"PALENCIA","postalCode":"34820","schedule":"L-V: 08:00-21:00; S-D: 09:00-14:30 y 16:30-21:00","fuels":{"gasoline95":1.789,"diesel":1.879,"dieselB":1.519},"extra":{"saleType":"P","margin":"N","reportingType":"dm","ideess":"4953","idMunicipio":"5059","idProvincia":"34","idCCAA":"08"}}},{"type":"Feature","geometry":{"type":"Point","coordinates":[-4.96225,42.973944]},"properties":{"id":"es-5003","source":"ES","brand":"MOEVE","address":"CARRETERA N-621 KM. 98","municipality":"Riaño","province":"LEÓN","postalCode":"24900","schedule":"L-D: 09:00-20:00","fuels":{"gasoline95Premium":1.839,"diesel":1.879,"dieselPremium":1.959},"extra":{"saleType":"P","margin":"D","reportingType":"OM","ideess":"5003","idMunicipio":"3712","idProvincia":"24","idCCAA":"08"}}},{"type":"Feature","geometry":{"type":"Point","coordinates":[-4.010778,42.512111]},"properties":{"id":"es-5019","source":"ES","brand":"CEPSA","address":"C-627 km 39,5","municipality":"Villadiego","province":"BURGOS","postalCode":"09120","schedule":"L-D: 08:00-21:00","fuels":{"gasoline95":1.819,"gasoline98":1.959,"diesel":1.889,"dieselPremium":1.989},"extra":{"saleType":"P","margin":"D","reportingType":"dm","ideess":"5019","idMunicipio":"1499","idProvincia":"09","idCCAA":"08"}}},{"type":"Feature","geometry":{"type":"Point","coordinates":[-4.036889,42.189111]},"properties":{"id":"es-5039","source":"ES","brand":"BP","address":"AUTOVIA A-62 KM. 34","municipality":"Villazopeque","province":"BURGOS","postalCode":"09226","schedule":"L-D: 07:30-22:00","fuels":{"gasoline95":1.819,"gasoline98":1.929,"diesel":1.899,"dieselPremium":1.999},"extra":{"saleType":"P","margin":"N","reportingType":"dm","ideess":"5039","idMunicipio":"1533","idProvincia":"09","idCCAA":"08"}}},{"type":"Feature","geometry":{"type":"Point","coordinates":[-4.141444,42.739889]},"properties":{"id":"es-5056","source":"ES","brand":"BEROIL","address":"CARRETERA NACIONAL 627 KM. 66,150","municipality":"Valle de Valdelucio","province":"BURGOS","postalCode":"09127","schedule":"L: 07:00-23:00","fuels":{"gasoline95":1.659,"diesel":1.719,"dieselPremium":1.729,"adblue":0.6},"extra":{"saleType":"P","margin":"D","reportingType":"dm","ideess":"5056","idMunicipio":"1490","idProvincia":"09","idCCAA":"08"}}},{"type":"Feature","geometry":{"type":"Point","coordinates":[-4.141333,42.286667]},"properties":{"id":"es-5515","source":"ES","brand":"PETRONOR","address":"CARRETERA BU-P-4013 KM. 1","municipality":"Castrojeriz","province":"BURGOS","postalCode":"09110","schedule":"L-D: 24H","fuels":{"gasoline95":1.829,"diesel":1.899,"dieselRenewable":1.979},"extra":{"saleType":"P","margin":"D","reportingType":"dm","ideess":"5515","idMunicipio":"1246","idProvincia":"09","idCCAA":"08"}}},{"type":"Feature","geometry":{"type":"Point","coordinates":[-4.238167,42.403056]},"properties":{"id":"es-5991","source":"ES","brand":"MOEVE","address":"CR N-120, 162","municipality":"Melgar de Fernamental","province":"BURGOS","postalCode":"09100","schedule":"L-D: 07:00-22:00","fuels":{"gasoline95":1.819,"gasoline98":1.959,"diesel":1.889,"dieselPremium":1.989},"extra":{"saleType":"P","margin":"D","reportingType":"OM","ideess":"5991","idMunicipio":"1334","idProvincia":"09","idCCAA":"08"}}},{"type":"Feature","geometry":{"type":"Point","coordinates":[-4.978667,42.782972]},"properties":{"id":"es-6016","source":"ES","brand":"PETRONOR","address":"CR LE-232, 26,3","municipality":"Valderrueda","province":"LEÓN","postalCode":"24880","schedule":"L-D: 08:00-22:00","fuels":{"gasoline95":1.775,"gasoline98":1.945,"diesel":1.925,"dieselPremium":1.985},"extra":{"saleType":"P","margin":"D","reportingType":"dm","ideess":"6016","idMunicipio":"3762","idProvincia":"24","idCCAA":"08"}}},{"type":"Feature","geometry":{"type":"Point","coordinates":[-4.520778,42.013889]},"properties":{"id":"es-6087","source":"ES","brand":"GALP","address":"AVENIDA CUBA, 25","municipality":"Palencia","province":"PALENCIA","postalCode":"34003","schedule":"L-D: 07:00-23:00","fuels":{"gasoline95":1.719,"gasoline98":1.859,"diesel":1.819,"dieselPremium":1.869},"extra":{"saleType":"P","margin":"D","reportingType":"OM","ideess":"6087","idMunicipio":"5134","idProvincia":"34","idCCAA":"08"}}},{"type":"Feature","geometry":{"type":"Point","coordinates":[-4.528389,42.020778]},"properties":{"id":"es-6161","source":"ES","brand":"BALLENOIL","address":"CARRETERA N-611 KM. 10,9","municipality":"Palencia","province":"PALENCIA","postalCode":"34003","schedule":"L-D: 24H","fuels":{"gasoline95":1.669,"gasoline95Premium":1.689,"diesel":1.769,"dieselPremium":1.789},"extra":{"saleType":"P","margin":"D","reportingType":"OM","ideess":"6161","idMunicipio":"5134","idProvincia":"34","idCCAA":"08"}}},{"type":"Feature","geometry":{"type":"Point","coordinates":[-4.256639,42.046889]},"properties":{"id":"es-6182","source":"ES","brand":"REPSOL","address":"CR A-62, 62,5","municipality":"Torquemada","province":"PALENCIA","postalCode":"34230","schedule":"L-D: 08:00-18:00","fuels":{"gasoline95":1.795,"gasoline98":1.965,"diesel":1.969,"dieselPremium":2.069},"extra":{"saleType":"P","margin":"D","reportingType":"OM","ideess":"6182","idMunicipio":"5184","idProvincia":"34","idCCAA":"08"}}},{"type":"Feature","geometry":{"type":"Point","coordinates":[-4.346278,42.016806]},"properties":{"id":"es-6183","source":"ES","brand":"REPSOL","address":"AUTOVIA A 62 KM. 69","municipality":"Torquemada","province":"PALENCIA","postalCode":"34230","schedule":"L-S: 07:30-22:00","fuels":{"gasoline95":1.825,"gasoline98":1.995,"diesel":1.945,"dieselPremium":2.025},"extra":{"saleType":"P","margin":"D","reportingType":"OM","ideess":"6183","idMunicipio":"5184","idProvincia":"34","idCCAA":"08"}}},{"type":"Feature","geometry":{"type":"Point","coordinates":[-4.252417,42.051056]},"properties":{"id":"es-6191","source":"ES","brand":"LAS LAGUNAS","address":"CARRETERA N-620 KM. 61","municipality":"Torquemada","province":"PALENCIA","postalCode":"34230","schedule":"L-D: 24H","fuels":{"gasoline95":1.829,"diesel":1.969},"extra":{"saleType":"P","margin":"D","reportingType":"dm","ideess":"6191","idMunicipio":"5184","idProvincia":"34","idCCAA":"08"}}},{"type":"Feature","geometry":{"type":"Point","coordinates":[-4.559556,42.054389]},"properties":{"id":"es-6203","source":"ES","brand":"CEPSA","address":"CARRETERA C-615 PALENCIA-GUARDO KM. 2,400","municipality":"Grijota","province":"PALENCIA","postalCode":"34192","schedule":"L-V: 06:30-22:30; S-D: 07:30-22:30","fuels":{"gasoline95":1.829,"gasoline98":1.999,"diesel":1.979,"dieselPremium":2.049,"adblue":0.988},"extra":{"saleType":"P","margin":"D","reportingType":"dm","ideess":"6203","idMunicipio":"5102","idProvincia":"34","idCCAA":"08"}}},{"type":"Feature","geometry":{"type":"Point","coordinates":[-4.265556,42.793278]},"properties":{"id":"es-6240","source":"ES","brand":"REPSOL","address":"AVENIDA RONDA, 11","municipality":"Aguilar de Campoo","province":"PALENCIA","postalCode":"34800","schedule":"L: 08:00-22:00","fuels":{"gasoline95":1.819,"diesel":1.955,"dieselPremium":2.065},"extra":{"saleType":"P","margin":"D","reportingType":"OM","ideess":"6240","idMunicipio":"5044","idProvincia":"34","idCCAA":"08"}}},{"type":"Feature","geometry":{"type":"Point","coordinates":[-4.515778,42.003556]},"properties":{"id":"es-6241","source":"ES","brand":"REPSOL","address":"CALLE GUIPUZCOA, 5","municipality":"Palencia","province":"PALENCIA","postalCode":"34004","schedule":"L-V: 07:00-21:00; S: 08:00-15:00; D: 08:00-14:00","fuels":{"gasoline95":1.825,"diesel":1.969,"dieselPremium":2.029},"extra":{"saleType":"P","margin":"D","reportingType":"OM","ideess":"6241","idMunicipio":"5134","idProvincia":"34","idCCAA":"08"}}},{"type":"Feature","geometry":{"type":"Point","coordinates":[-4.679639,42.422417]},"properties":{"id":"es-6256","source":"ES","brand":"REPSOL","address":"CARRETERA C-615 KM. 47,50","municipality":"Serna (La)","province":"PALENCIA","postalCode":"34128","schedule":"L-D: 06:00-22:00","fuels":{"gasoline95":1.839,"gasoline98":2.029,"diesel":1.989,"dieselPremium":2.049},"extra":{"saleType":"P","margin":"I","reportingType":"dm","ideess":"6256","idMunicipio":"5177","idProvincia":"34","idCCAA":"08"}}},{"type":"Feature","geometry":{"type":"Point","coordinates":[-4.736056,42.518417]},"properties":{"id":"es-6292","source":"ES","brand":"REPSOL","address":"AVENIDA REYES CATOLICOS, 2","municipality":"Saldaña","province":"PALENCIA","postalCode":"34100","schedule":"L-D: 06:30-22:30","fuels":{"gasoline95":1.839,"gasoline98":2.029,"diesel":1.989,"dieselPremium":2.049},"extra":{"saleType":"P","margin":"N","reportingType":"dm","ideess":"6292","idMunicipio":"5164","idProvincia":"34","idCCAA":"08"}}},{"type":"Feature","geometry":{"type":"Point","coordinates":[-4.525417,42.0135]},"properties":{"id":"es-6296","source":"ES","brand":"REPSOL","address":"AVENIDA CAMPOS GOTICOS, 6","municipality":"Palencia","province":"PALENCIA","postalCode":"34003","schedule":"L-D: 06:00-22:00","fuels":{"gasoline95":1.825,"gasoline95Premium":1.895,"gasoline98":1.995,"diesel":1.975,"dieselRenewable":2.095,"lpg":1.129},"extra":{"saleType":"P","margin":"N","reportingType":"OM","ideess":"6296","idMunicipio":"5134","idProvincia":"34","idCCAA":"08"}}},{"type":"Feature","geometry":{"type":"Point","coordinates":[-4.848389,42.798639]},"properties":{"id":"es-6306","source":"ES","brand":"AVIA","address":"CR C-615, 96,4","municipality":"Guardo","province":"PALENCIA","postalCode":"34880","schedule":"L-D: 07:00-22:00","fuels":{"gasoline95":1.769,"gasoline98":1.949,"diesel":1.899,"dieselPremium":1.999},"extra":{"saleType":"P","margin":"I","reportingType":"dm","ideess":"6306","idMunicipio":"5103","idProvincia":"34","idCCAA":"08"}}},{"type":"Feature","geometry":{"type":"Point","coordinates":[-4.550361,42.027889]},"properties":{"id":"es-6312","source":"ES","brand":"REPSOL","address":"CARRETERA C-615 KM. 2,3","municipality":"Palencia","province":"PALENCIA","postalCode":"34005","schedule":"L-D: 07:00-23:00","fuels":{"gasoline95":1.825,"gasoline95Premium":1.895,"gasoline98":1.995,"diesel":1.969,"dieselRenewable":2.089},"extra":{"saleType":"P","margin":"D","reportingType":"OM","ideess":"6312","idMunicipio":"5134","idProvincia":"34","idCCAA":"08"}}},{"type":"Feature","geometry":{"type":"Point","coordinates":[-4.406917,42.264278]},"properties":{"id":"es-6314","source":"ES","brand":"REPSOL","address":"AVENIDA INGENIERO RIVERA, 0","municipality":"Frómista","province":"PALENCIA","postalCode":"34440","schedule":"L-S: 07:00-22:00; D: 08:00-22:00","fuels":{"gasoline95":1.839,"diesel":1.935,"dieselPremium":2.045,"dieselB":1.642},"extra":{"saleType":"P","margin":"D","reportingType":"OM","ideess":"6314","idMunicipio":"5099","idProvincia":"34","idCCAA":"08"}}},{"type":"Feature","geometry":{"type":"Point","coordinates":[-4.327778,42.5875]},"properties":{"id":"es-6319","source":"ES","brand":"REPSOL","address":"CARRETERA N- 611 KM. 80,6","municipality":"Herrera de Pisuerga","province":"PALENCIA","postalCode":"34400","schedule":"L-S: 07:00-22:00; D: 08:00-22:00","fuels":{"gasoline95":1.839,"gasoline98":2.009,"diesel":1.969,"dieselPremium":2.029},"extra":{"saleType":"P","margin":"I","reportingType":"OM","ideess":"6319","idMunicipio":"5106","idProvincia":"34","idCCAA":"08"}}},{"type":"Feature","geometry":{"type":"Point","coordinates":[-4.352722,42.413694]},"properties":{"id":"es-6320","source":"ES","brand":"REPSOL","address":"CARRETERA SANTANDER KM. 58","municipality":"Osorno la Mayor","province":"PALENCIA","postalCode":"34460","schedule":"L-S: 07:30-22:00; D: 08:00-22:00","fuels":{"gasoline95":1.849,"gasoline98":1.979,"diesel":1.969,"dieselPremium":2.059},"extra":{"saleType":"P","margin":"D","reportingType":"dm","ideess":"6320","idMunicipio":"5133","idProvincia":"34","idCCAA":"08"}}},{"type":"Feature","geometry":{"type":"Point","coordinates":[-4.692333,42.156778]},"properties":{"id":"es-6328","source":"ES","brand":"REPSOL","address":"CARRETERA CIRCUNVALACION, S/N KM. 18,1","municipality":"Paredes de Nava","province":"PALENCIA","postalCode":"34300","schedule":"L-V: 07:00-20:00; S: 08:00-15:00","fuels":{"gasoline95":1.809,"gasoline98":1.979,"diesel":1.955,"dieselPremium":2.065},"extra":{"saleType":"P","margin":"D","reportingType":"OM","ideess":"6328","idMunicipio":"5137","idProvincia":"34","idCCAA":"08"}}},{"type":"Feature","geometry":{"type":"Point","coordinates":[-4.255306,42.793639]},"properties":{"id":"es-6359","source":"ES","brand":"REPSOL","address":"AVENIDA GENERALISIMO, 111","municipality":"Aguilar de Campoo","province":"PALENCIA","postalCode":"34800","schedule":"L-D: 07:00-23:00","fuels":{"gasoline95":1.819,"gasoline98":1.939,"diesel":1.965,"dieselRenewable":2.085},"extra":{"saleType":"P","margin":"D","reportingType":"OM","ideess":"6359","idMunicipio":"5044","idProvincia":"34","idCCAA":"08"}}},{"type":"Feature","geometry":{"type":"Point","coordinates":[-4.804833,42.686139]},"properties":{"id":"es-6371","source":"ES","brand":"REPSOL","address":"CARRETERA CR C-615 KM. 83,1","municipality":"Fresno del Río","province":"PALENCIA","postalCode":"34889","schedule":"L-D: 07:00-22:00","fuels":{"gasoline95":1.795,"gasoline98":1.965,"diesel":1.935,"dieselPremium":2.045},"extra":{"saleType":"P","margin":"I","reportingType":"OM","ideess":"6371","idMunicipio":"5098","idProvincia":"34","idCCAA":"08"}}},{"type":"Feature","geometry":{"type":"Point","coordinates":[-4.31525,42.665861]},"properties":{"id":"es-6391","source":"ES","brand":"MOEVE","address":"CARRETERA PALENCIA-SANTANDER KM. 90","municipality":"Alar del Rey","province":"PALENCIA","postalCode":"34480","schedule":"L-D: 07:00-22:00","fuels":{"gasoline95":1.819,"gasoline98":1.919,"diesel":1.979,"dieselPremium":2.059},"extra":{"saleType":"P","margin":"D","reportingType":"dm","ideess":"6391","idMunicipio":"5045","idProvincia":"34","idCCAA":"08"}}},{"type":"Feature","geometry":{"type":"Point","coordinates":[-4.2105,42.0765]},"properties":{"id":"es-6422","source":"ES","brand":"GALP","address":"AUTOVIA A-62 KM. 56,5","municipality":"Quintana del Puente","province":"PALENCIA","postalCode":"34250","schedule":"L-D: 07:00-23:00","fuels":{"gasoline95":1.799,"diesel":1.969,"adblue":0.799},"extra":{"saleType":"P","margin":"D","reportingType":"OM","ideess":"6422","idMunicipio":"5154","idProvincia":"34","idCCAA":"08"}}},{"type":"Feature","geometry":{"type":"Point","coordinates":[-4.086528,42.151111]},"properties":{"id":"es-7751","source":"ES","brand":"CEPSA","address":"CARRETERA N-620A KM. 42,9","municipality":"Villodrigo","province":"PALENCIA","postalCode":"34257","schedule":"L-D: 06:00-22:00","fuels":{"gasoline95":1.809,"gasoline95Premium":1.869,"diesel":1.949,"dieselPremium":2.029,"dieselB":1.619},"extra":{"saleType":"P","margin":"I","reportingType":"OM","ideess":"7751","idMunicipio":"5229","idProvincia":"34","idCCAA":"08"}}},{"type":"Feature","geometry":{"type":"Point","coordinates":[-4.079667,42.159083]},"properties":{"id":"es-7753","source":"ES","brand":"CEPSA","address":"A-62 km 41,6","municipality":"Villodrigo","province":"PALENCIA","postalCode":"34257","schedule":"L-D: 07:00-23:00","fuels":{"gasoline95":1.809,"gasoline98":1.899,"diesel":1.949,"dieselPremium":2.029},"extra":{"saleType":"P","margin":"D","reportingType":"OM","ideess":"7753","idMunicipio":"5229","idProvincia":"34","idCCAA":"08"}}},{"type":"Feature","geometry":{"type":"Point","coordinates":[-4.89975,42.046278]},"properties":{"id":"es-7758","source":"ES","brand":"REPSOL","address":"CARRETERA N 610 KM. 32","municipality":"Villarramiel","province":"PALENCIA","postalCode":"34140","schedule":"L-V: 07:30-22:00; S: 07:30-15:00; D: 14:00-22:00","fuels":{"gasoline95":1.829,"gasoline98":2.009,"diesel":1.989,"dieselPremium":2.059},"extra":{"saleType":"P","margin":"D","reportingType":"dm","ideess":"7758","idMunicipio":"5221","idProvincia":"34","idCCAA":"08"}}},{"type":"Feature","geometry":{"type":"Point","coordinates":[-4.737694,42.803056]},"properties":{"id":"es-7759","source":"ES","brand":"REPSOL","address":"CARRETERA CL626 KM. 18,400","municipality":"Santibáñez de la Peña","province":"PALENCIA","postalCode":"34885","schedule":"L: 07:00-21:00","fuels":{"gasoline95":1.809,"gasoline98":1.989,"diesel":1.949,"dieselPremium":2.069},"extra":{"saleType":"P","margin":"I","reportingType":"dm","ideess":"7759","idMunicipio":"5175","idProvincia":"34","idCCAA":"08"}}},{"type":"Feature","geometry":{"type":"Point","coordinates":[-4.604917,42.240861]},"properties":{"id":"es-7761","source":"ES","brand":"REPSOL","address":"CR C-615, 28,2","municipality":"Villoldo","province":"PALENCIA","postalCode":"34131","schedule":"L: 06:00-22:00","fuels":{"gasoline95":1.795,"gasoline98":1.965,"diesel":1.935,"dieselPremium":2.035},"extra":{"saleType":"P","margin":"D","reportingType":"OM","ideess":"7761","idMunicipio":"5230","idProvincia":"34","idCCAA":"08"}}},{"type":"Feature","geometry":{"type":"Point","coordinates":[-4.510333,42.002944]},"properties":{"id":"es-8254","source":"ES","brand":"REPSOL","address":"CALLE FRANCIA, 52","municipality":"Palencia","province":"PALENCIA","postalCode":"34004","schedule":"L-S: 07:00-21:30","fuels":{"gasoline95":1.839,"gasoline98":2.015,"diesel":1.979,"dieselPremium":2.039},"extra":{"saleType":"P","margin":"I","reportingType":"dm","ideess":"8254","idMunicipio":"5134","idProvincia":"34","idCCAA":"08"}}},{"type":"Feature","geometry":{"type":"Point","coordinates":[-4.145472,42.286833]},"properties":{"id":"es-9235","source":"ES","brand":"BIESA","address":"CAMINO HERAS, S/N","municipality":"Castrojeriz","province":"BURGOS","postalCode":"09110","schedule":"L-V: 09:00-13:30 y 15:30-19:00","fuels":{"gasoline95":1.789,"diesel":1.879,"adblue":0.96},"extra":{"saleType":"P","margin":"D","reportingType":"dm","ideess":"9235","idMunicipio":"1246","idProvincia":"09","idCCAA":"08"}}},{"type":"Feature","geometry":{"type":"Point","coordinates":[-4.966333,42.243833]},"properties":{"id":"es-9243","source":"ES","brand":"SOCOTEM S.COOP.LTDA.","address":"CR. VILLALON , S/N km 11","municipality":"Villada","province":"PALENCIA","postalCode":"34340","schedule":"L-V: 09:00-14:00 y 15:30-19:00; S: 09:00-13:00","fuels":{"diesel":1.69},"extra":{"saleType":"P","margin":"D","reportingType":"dm","ideess":"9243","idMunicipio":"5200","idProvincia":"34","idCCAA":"08"}}},{"type":"Feature","geometry":{"type":"Point","coordinates":[-4.901917,42.0475]},"properties":{"id":"es-9426","source":"ES","brand":"E.S SHELL VILLARRAMIEL","address":"P-942 km 1,2","municipality":"Villarramiel","province":"PALENCIA","postalCode":"34340","schedule":"L-D: 24H","fuels":{"gasoline95":1.779,"diesel":1.939,"dieselPremium":2.009,"adblue":0.979},"extra":{"saleType":"P","margin":"I","reportingType":"dm","ideess":"9426","idMunicipio":"5221","idProvincia":"34","idCCAA":"08"}}},{"type":"Feature","geometry":{"type":"Point","coordinates":[-4.545917,42.016167]},"properties":{"id":"es-9704","source":"ES","brand":"SUANCES","address":"CTRA. PALENCIA-ORENSE km 2,00","municipality":"Palencia","province":"PALENCIA","postalCode":"34005","schedule":"L-D: 24H","fuels":{"gasoline95":1.709,"diesel":1.839,"dieselPremium":1.869},"extra":{"saleType":"P","margin":"D","reportingType":"dm","ideess":"9704","idMunicipio":"5134","idProvincia":"34","idCCAA":"08"}}},{"type":"Feature","geometry":{"type":"Point","coordinates":[-4.318528,42.04075]},"properties":{"id":"es-9778","source":"ES","brand":"AGROPAL","address":"CAMINO CM VALDESALCE 18 POLÍGONO 502 PARCELA 5014 LAS CRUCES., ","municipality":"Torquemada","province":"PALENCIA","postalCode":"34230","schedule":"L-V: 09:00-19:00","fuels":{"dieselB":1.445},"extra":{"saleType":"P","margin":"N","reportingType":"dm","ideess":"9778","idMunicipio":"5184","idProvincia":"34","idCCAA":"08"}}},{"type":"Feature","geometry":{"type":"Point","coordinates":[-4.472389,42.169361]},"properties":{"id":"es-9787","source":"ES","brand":"AGROPAL","address":"CAMINO POLÍGONO 518 PARCELA 5010 LOS PALOMARES, ","municipality":"Amusco","province":"PALENCIA","postalCode":"34420","schedule":"L-V: 09:00-19:00","fuels":{"dieselB":1.445},"extra":{"saleType":"P","margin":"N","reportingType":"dm","ideess":"9787","idMunicipio":"5049","idProvincia":"34","idCCAA":"08"}}},{"type":"Feature","geometry":{"type":"Point","coordinates":[-4.360528,42.413389]},"properties":{"id":"es-9792","source":"ES","brand":"AGROPAL","address":"CARRETERA CR ABIA 6 POLÍGONO 8 PARCELA 5246 0009015-16-1700UM89F LOS ARBEJALES KM. ","municipality":"Osorno la Mayor","province":"PALENCIA","postalCode":"34460","schedule":"L-V: 09:00-19:00","fuels":{"dieselB":1.445},"extra":{"saleType":"P","margin":"D","reportingType":"dm","ideess":"9792","idMunicipio":"5133","idProvincia":"34","idCCAA":"08"}}}]}