{"type":"FeatureCollection","features":[{"type":"Feature","geometry":{"type":"Point","coordinates":[-5.283194,43.4825]},"properties":{"id":"es-10368","source":"ES","brand":"MOEVE","address":"AUTOVIA A8 km 347,5","municipality":"Colunga","province":"ASTURIAS","postalCode":"33320","schedule":"L-D: 24H","fuels":{"gasoline95":1.794,"gasoline98":1.954,"diesel":1.954,"dieselPremium":2.054},"extra":{"saleType":"P","margin":"D","reportingType":"OM","ideess":"10368","idMunicipio":"4982","idProvincia":"33","idCCAA":"03"}}},{"type":"Feature","geometry":{"type":"Point","coordinates":[-5.289083,43.481361]},"properties":{"id":"es-10369","source":"ES","brand":"MOEVE","address":"AUTOVIA A8 km 347,5","municipality":"Colunga","province":"ASTURIAS","postalCode":"33320","schedule":"L-D: 24H","fuels":{"gasoline95":1.794,"gasoline98":1.954,"diesel":1.954,"dieselPremium":2.054},"extra":{"saleType":"P","margin":"I","reportingType":"OM","ideess":"10369","idMunicipio":"4982","idProvincia":"33","idCCAA":"03"}}},{"type":"Feature","geometry":{"type":"Point","coordinates":[-5.92925,43.575028]},"properties":{"id":"es-10374","source":"ES","brand":"E.S. CRISTALERIA","address":"AVENIDA LUGO, 110","municipality":"Avilés","province":"ASTURIAS","postalCode":"33400","schedule":"L-D: 06:00-00:00","fuels":{"gasoline95":1.695,"gasoline98":1.798,"diesel":1.745,"dieselPremium":1.745,"lpg":1.149},"extra":{"saleType":"P","margin":"N","reportingType":"dm","ideess":"10374","idMunicipio":"4967","idProvincia":"33","idCCAA":"03"}}},{"type":"Feature","geometry":{"type":"Point","coordinates":[-5.08925,43.464417]},"properties":{"id":"es-10732","source":"ES","brand":"ALIMERKA","address":"CARRETERA N-632 KM. 5,1","municipality":"Ribadesella","province":"ASTURIAS","postalCode":"33560","schedule":"L-S: 08:00-22:00; D: 8:30-15:30","fuels":{"gasoline95":1.739,"gasoline98":1.819,"diesel":1.869,"dieselPremium":1.989},"extra":{"saleType":"P","margin":"D","reportingType":"dm","ideess":"10732","idMunicipio":"5018","idProvincia":"33","idCCAA":"03"}}},{"type":"Feature","geometry":{"type":"Point","coordinates":[-5.704111,43.316361]},"properties":{"id":"es-10740","source":"ES","brand":"MOEVE","address":"C/ HIGINIO CARROCERA S/N- BARROS - LANGREO (AS-17 km 39.1)","municipality":"Langreo","province":"ASTURIAS","postalCode":"33930","schedule":"L-D: 24H","fuels":{"gasoline95":1.794,"gasoline95Premium":1.894,"diesel":1.954,"dieselPremium":2.054},"extra":{"saleType":"P","margin":"D","reportingType":"OM","ideess":"10740","idMunicipio":"4994","idProvincia":"33","idCCAA":"03"}}},{"type":"Feature","geometry":{"type":"Point","coordinates":[-5.693694,43.300806]},"properties":{"id":"es-10756","source":"ES","brand":"CASTRONALON","address":"CARRETERA AS 111 KM. 1","municipality":"Langreo","province":"ASTURIAS","postalCode":"33900","schedule":"L-D: 07:00-23:00","fuels":{"gasoline95":1.82,"gasoline98":1.94,"diesel":1.95,"dieselPremium":1.99},"extra":{"saleType":"P","margin":"N","reportingType":"dm","ideess":"10756","idMunicipio":"4994","idProvincia":"33","idCCAA":"03"}}},{"type":"Feature","geometry":{"type":"Point","coordinates":[-5.781944,43.227722]},"properties":{"id":"es-10759","source":"ES","brand":"CARREFOUR","address":"COMPLEJO CENTRO COMERCIAL CAUDALIA, S/N","municipality":"Mieres","province":"ASTURIAS","postalCode":"33611","schedule":"L-D: 24H","fuels":{"gasoline95":1.779,"gasoline98":1.919,"diesel":1.889,"dieselPremium":1.929},"extra":{"saleType":"P","margin":"N","reportingType":"dm","ideess":"10759","idMunicipio":"4999","idProvincia":"33","idCCAA":"03"}}},{"type":"Feature","geometry":{"type":"Point","coordinates":[-5.871278,43.547556]},"properties":{"id":"es-10863","source":"ES","brand":"REPSOL","address":"COMPLEJO CENTRO COMERCIAL PARQUE ASTUR, S/N","municipality":"Corvera de Asturias","province":"ASTURIAS","postalCode":"33468","schedule":"L-S: 06:30-22:30; D: 08:00-22:30","fuels":{"gasoline95":1.815,"gasoline98":1.935,"diesel":1.955,"dieselPremium":2.015},"extra":{"saleType":"P","margin":"D","reportingType":"OM","ideess":"10863","idMunicipio":"4983","idProvincia":"33","idCCAA":"03"}}},{"type":"Feature","geometry":{"type":"Point","coordinates":[-5.796806,43.267556]},"properties":{"id":"es-11006","source":"ES","brand":"VALCAMBUS S.L.","address":"POLIGONO IND. FABRICA DE MIERES,2","municipality":"Mieres","province":"ASTURIAS","postalCode":"33600","schedule":"L-D: 08:00-22:00","fuels":{"gasoline95":1.789,"diesel":1.899,"adblue":0.73},"extra":{"saleType":"P","margin":"D","reportingType":"dm","ideess":"11006","idMunicipio":"4999","idProvincia":"33","idCCAA":"03"}}},{"type":"Feature","geometry":{"type":"Point","coordinates":[-5.728083,43.322722]},"properties":{"id":"es-11007","source":"ES","brand":"VALCAMBUS S.L.","address":"POLIGONO INDUSTRIAL RIAÑO II, 2","municipality":"Langreo","province":"ASTURIAS","postalCode":"33920","schedule":"L-D: 06:00-22:00","fuels":{"gasoline95":1.759,"diesel":1.899,"dieselPremium":2.019,"adblue":0.73},"extra":{"saleType":"P","margin":"D","reportingType":"dm","ideess":"11007","idMunicipio":"4994","idProvincia":"33","idCCAA":"03"}}},{"type":"Feature","geometry":{"type":"Point","coordinates":[-5.7075,43.529889]},"properties":{"id":"es-11084","source":"ES","brand":"REPSOL","address":"POLIGONO LOS CAMPONES INTERS. AS-19 (PARC.1 Y 4) (TREMAÑES-CARRETERA), S/N","municipality":"Gijón","province":"ASTURIAS","postalCode":"33211","schedule":"L-D: 06:00-00:00","fuels":{"gasoline95":1.815,"gasoline98":1.935,"diesel":1.955,"dieselPremium":2.015,"lpg":1.165},"extra":{"saleType":"P","margin":"D","reportingType":"OM","ideess":"11084","idMunicipio":"4987","idProvincia":"33","idCCAA":"03"}}},{"type":"Feature","geometry":{"type":"Point","coordinates":[-5.694139,43.535861]},"properties":{"id":"es-11186","source":"ES","brand":"CARREFOUR","address":"CALLE MAESTRO AMADO MORAN, S/N","municipality":"Gijón","province":"ASTURIAS","postalCode":"33213","schedule":"L-D: 24H","fuels":{"gasoline95":1.779,"gasoline98":1.909,"diesel":1.889,"dieselPremium":1.929},"extra":{"saleType":"P","margin":"N","reportingType":"dm","ideess":"11186","idMunicipio":"4987","idProvincia":"33","idCCAA":"03"}}},{"type":"Feature","geometry":{"type":"Point","coordinates":[-5.834667,43.55]},"properties":{"id":"es-11217","source":"ES","brand":"AVIA","address":"POLIGONO DE TABAZA II, PARCELA 28 (AS-110 km 7,8)","municipality":"Carreño","province":"ASTURIAS","postalCode":"33438","schedule":"L-V: 06:30-21:00; S: 07:00-15:00","fuels":{"gasoline95":1.739,"diesel":1.899,"dieselPremium":1.939,"adblue":0.899},"extra":{"saleType":"P","margin":"D","reportingType":"dm","ideess":"11217","idMunicipio":"4977","idProvincia":"33","idCCAA":"03"}}},{"type":"Feature","geometry":{"type":"Point","coordinates":[-5.716944,43.495278]},"properties":{"id":"es-11347","source":"ES","brand":"GALP","address":"CARRETERA AS-II KM. 20,70","municipality":"Gijón","province":"ASTURIAS","postalCode":"33392","schedule":"L-V: 07:00-22:30; S-D: 08:00-22:30","fuels":{"gasoline95":1.729,"gasoline95Premium":1.779,"diesel":1.799,"dieselPremium":1.849},"extra":{"saleType":"P","margin":"I","reportingType":"dm","ideess":"11347","idMunicipio":"4987","idProvincia":"33","idCCAA":"03"}}},{"type":"Feature","geometry":{"type":"Point","coordinates":[-5.445583,43.489028]},"properties":{"id":"es-11393","source":"ES","brand":"MOEVE","address":"CARRETERA N-632 KM. 43,05","municipality":"Villaviciosa","province":"ASTURIAS","postalCode":"33300","schedule":"L-D: 24H","fuels":{"gasoline95":1.809,"gasoline95Premium":1.869,"gasoline98":1.929,"diesel":1.949,"dieselPremium":2.009,"lpg":1.169,"adblue":1.29},"extra":{"saleType":"P","margin":"D","reportingType":"dm","ideess":"11393","idMunicipio":"5039","idProvincia":"33","idCCAA":"03"}}},{"type":"Feature","geometry":{"type":"Point","coordinates":[-5.813417,43.442722]},"properties":{"id":"es-11502","source":"ES","brand":"REPSOL","address":"AUTOPISTA AS-II KM. 9,8","municipality":"Llanera","province":"ASTURIAS","postalCode":"33192","schedule":"L-D: 07:00-23:00","fuels":{"gasoline95":1.799,"gasoline98":1.939,"diesel":1.939,"dieselPremium":2.039},"extra":{"saleType":"P","margin":"D","reportingType":"dm","ideess":"11502","idMunicipio":"4997","idProvincia":"33","idCCAA":"03"}}},{"type":"Feature","geometry":{"type":"Point","coordinates":[-5.719306,43.323694]},"properties":{"id":"es-11621","source":"ES","brand":"DISMUSA","address":"POLIGONO INDUSTRIAL DE RIAÑO I, 26/27","municipality":"Langreo","province":"ASTURIAS","postalCode":"33920","schedule":"L-D: 07:00-22:00","fuels":{"gasoline95":1.749,"gasoline98":1.899,"diesel":1.899},"extra":{"saleType":"P","margin":"N","reportingType":"dm","ideess":"11621","idMunicipio":"4994","idProvincia":"33","idCCAA":"03"}}},{"type":"Feature","geometry":{"type":"Point","coordinates":[-5.718111,43.389472]},"properties":{"id":"es-11648","source":"ES","brand":"CEPSA","address":"POLIGONO LA BARREDA PARCELA 1ª IZQUIERDA, 1","municipality":"Noreña","province":"ASTURIAS","postalCode":"33180","schedule":"L-D: 06:30-22:30","fuels":{"gasoline95":1.809,"diesel":1.959,"dieselPremium":2.009,"dieselB":1.699},"extra":{"saleType":"P","margin":"N","reportingType":"dm","ideess":"11648","idMunicipio":"5004","idProvincia":"33","idCCAA":"03"}}},{"type":"Feature","geometry":{"type":"Point","coordinates":[-5.830056,43.386194]},"properties":{"id":"es-11768","source":"ES","brand":"BP CUYENCES","address":"GLORIETA ELEVADA DE LA CORREDORIA SOBRE LA AS-II, SN","municipality":"Oviedo","province":"ASTURIAS","postalCode":"33194","schedule":"L-D: 06:30-22:30","fuels":{"gasoline95":1.805,"gasoline98":1.945,"diesel":1.939,"dieselPremium":2.029},"extra":{"saleType":"P","margin":"D","reportingType":"OM","ideess":"11768","idMunicipio":"5006","idProvincia":"33","idCCAA":"03"}}},{"type":"Feature","geometry":{"type":"Point","coordinates":[-5.865306,43.508417]},"properties":{"id":"es-11921","source":"ES","brand":"VALCOR","address":"CAMINO CAMINO DE LA TEJERA, S/N","municipality":"Corvera de Asturias","province":"ASTURIAS","postalCode":"33470","schedule":"L-S: 08:00-22:00","fuels":{"gasoline95":1.649,"diesel":1.749},"extra":{"saleType":"P","margin":"D","reportingType":"dm","ideess":"11921","idMunicipio":"4983","idProvincia":"33","idCCAA":"03"}}},{"type":"Feature","geometry":{"type":"Point","coordinates":[-5.124972,43.354111]},"properties":{"id":"es-11962","source":"ES","brand":"ESC-PETROLEOS","address":"CARRETERA AS-114 KM. 1,100","municipality":"Cangas de Onís","province":"ASTURIAS","postalCode":"33550","schedule":"L-D: 06:00-23:00","fuels":{"gasoline95":1.779,"gasoline98":1.869,"diesel":1.849,"dieselPremium":1.899},"extra":{"saleType":"P","margin":"I","reportingType":"dm","ideess":"11962","idMunicipio":"4974","idProvincia":"33","idCCAA":"03"}}},{"type":"Feature","geometry":{"type":"Point","coordinates":[-5.673194,43.494083]},"properties":{"id":"es-12091","source":"ES","brand":"MOEVE","address":"AUTOVIA AS-I KM. 37","municipality":"Gijón","province":"ASTURIAS","postalCode":"33390","schedule":"L-D: 07:00-23:00","fuels":{"gasoline95":1.794,"gasoline98":1.954,"diesel":1.954,"dieselPremium":2.054},"extra":{"saleType":"P","margin":"D","reportingType":"OM","ideess":"12091","idMunicipio":"4987","idProvincia":"33","idCCAA":"03"}}},{"type":"Feature","geometry":{"type":"Point","coordinates":[-5.852278,43.554167]},"properties":{"id":"es-12131","source":"ES","brand":"ESOIL","address":"LUGAR LA BARCA, S/N","municipality":"Carreño","province":"ASTURIAS","postalCode":"33438","schedule":"L-V: 09:00-13:00 y 15:30-19:00","fuels":{"diesel":1.799},"extra":{"saleType":"P","margin":"N","reportingType":"dm","ideess":"12131","idMunicipio":"4977","idProvincia":"33","idCCAA":"03"}}},{"type":"Feature","geometry":{"type":"Point","coordinates":[-5.71225,43.5375]},"properties":{"id":"es-12147","source":"ES","brand":"SHELL","address":"CARRETERA AS-19 KM. S/N","municipality":"Gijón","province":"ASTURIAS","postalCode":"33211","schedule":"L-D: 06:00-00:00","fuels":{"gasoline95":1.779,"gasoline98":1.919,"diesel":1.889,"dieselPremium":1.969},"extra":{"saleType":"P","margin":"N","reportingType":"OM","ideess":"12147","idMunicipio":"4987","idProvincia":"33","idCCAA":"03"}}},{"type":"Feature","geometry":{"type":"Point","coordinates":[-5.680167,43.507444]},"properties":{"id":"es-12184","source":"ES","brand":"LA COOPERATIVA","address":"POLIGONO DE ROCES, Nº 5 - CARRETERA CARBONERA,, 2230","municipality":"Gijón","province":"ASTURIAS","postalCode":"33211","schedule":"L-D: 24H","fuels":{"gasoline95":1.659,"diesel":1.759},"extra":{"saleType":"P","margin":"D","reportingType":"dm","ideess":"12184","idMunicipio":"4987","idProvincia":"33","idCCAA":"03"}}},{"type":"Feature","geometry":{"type":"Point","coordinates":[-5.779639,43.232611]},"properties":{"id":"es-12417","source":"ES","brand":"BALLENOIL","address":"CALLE VEGA DE ARRIBA, 27","municipality":"Mieres","province":"ASTURIAS","postalCode":"33600","schedule":"L-D: 24H","fuels":{"gasoline95":1.649,"diesel":1.739},"extra":{"saleType":"P","margin":"D","reportingType":"OM","ideess":"12417","idMunicipio":"4999","idProvincia":"33","idCCAA":"03"}}},{"type":"Feature","geometry":{"type":"Point","coordinates":[-5.686722,43.395694]},"properties":{"id":"es-12446","source":"ES","brand":"REPSOL","address":"CARRETERA SI 04 KM. 5","municipality":"Siero","province":"ASTURIAS","postalCode":"33519","schedule":"L-D: 24H","fuels":{"gasoline95":1.889,"gasoline98":2.049,"diesel":1.989,"dieselRenewable":2.099},"extra":{"saleType":"P","margin":"D","reportingType":"dm","ideess":"12446","idMunicipio":"5028","idProvincia":"33","idCCAA":"03"}}},{"type":"Feature","geometry":{"type":"Point","coordinates":[-5.638167,43.541917]},"properties":{"id":"es-12659","source":"ES","brand":"WASHMAX","address":"CARRETERA AS-247 KM. 1","municipality":"Gijón","province":"ASTURIAS","postalCode":"33203","schedule":"L-D: 07:00-23:00","fuels":{"gasoline95":1.819,"diesel":1.939},"extra":{"saleType":"P","margin":"D","reportingType":"dm","ideess":"12659","idMunicipio":"4987","idProvincia":"33","idCCAA":"03"}}},{"type":"Feature","geometry":{"type":"Point","coordinates":[-5.781528,43.3905]},"properties":{"id":"es-12690","source":"ES","brand":"BP CENTRAL LECHERA","address":"POLIGONO NATALIO, 1","municipality":"Siero","province":"ASTURIAS","postalCode":"33429","schedule":"L-D: 24H","fuels":{"gasoline95":1.795,"gasoline98":1.935,"diesel":1.939,"dieselPremium":2.029,"adblue":1.225},"extra":{"saleType":"P","margin":"D","reportingType":"OM","ideess":"12690","idMunicipio":"5028","idProvincia":"33","idCCAA":"03"}}},{"type":"Feature","geometry":{"type":"Point","coordinates":[-5.959528,43.571167]},"properties":{"id":"es-12692","source":"ES","brand":"GF","address":"AVENIDA CAMPON EL, 16","municipality":"Castrillón","province":"ASTURIAS","postalCode":"33400","schedule":"L-D: 24H","fuels":{"gasoline95":1.728,"gasoline98":1.798,"diesel":1.778,"dieselPremium":1.798,"adblue":1.5},"extra":{"saleType":"P","margin":"D","reportingType":"dm","ideess":"12692","idMunicipio":"4979","idProvincia":"33","idCCAA":"03"}}},{"type":"Feature","geometry":{"type":"Point","coordinates":[-5.923194,43.570639]},"properties":{"id":"es-12770","source":"ES","brand":"PETROPRIX AVILES","address":"TRAVESÍA TORNO DEL, 2","municipality":"Avilés","province":"ASTURIAS","postalCode":"33401","schedule":"L-D: 24H","fuels":{"gasoline95":1.699,"diesel":1.749},"extra":{"saleType":"P","margin":"D","reportingType":"dm","ideess":"12770","idMunicipio":"4967","idProvincia":"33","idCCAA":"03"}}},{"type":"Feature","geometry":{"type":"Point","coordinates":[-5.716111,43.536861]},"properties":{"id":"es-12814","source":"ES","brand":"LA ESTRELLA DE QATAR","address":"ZONA CALLE MANUEL VIGIL MONTOTO, 80","municipality":"Gijón","province":"ASTURIAS","postalCode":"33691","schedule":"L-D: 24H","fuels":{"gasoline95":1.669,"diesel":1.747,"dieselPremium":1.795},"extra":{"saleType":"P","margin":"D","reportingType":"dm","ideess":"12814","idMunicipio":"4987","idProvincia":"33","idCCAA":"03"}}},{"type":"Feature","geometry":{"type":"Point","coordinates":[-5.654861,43.528778]},"properties":{"id":"es-12940","source":"ES","brand":"REPSOL","address":"CARRETERA AS-248 KM. 20","municipality":"Gijón","province":"ASTURIAS","postalCode":"33209","schedule":"L-D: 06:00-23:00","fuels":{"gasoline95":1.825,"gasoline95Premium":1.885,"gasoline98":1.945,"diesel":1.965,"dieselPremium":2.035,"lpg":1.169,"adblue":1.29},"extra":{"saleType":"P","margin":"I","reportingType":"dm","ideess":"12940","idMunicipio":"4987","idProvincia":"33","idCCAA":"03"}}},{"type":"Feature","geometry":{"type":"Point","coordinates":[-5.677944,43.508861]},"properties":{"id":"es-13209","source":"ES","brand":"BALLENOIL","address":"AVENIDA ROCES, N","municipality":"Gijón","province":"ASTURIAS","postalCode":"33211","schedule":"L-D: 24H","fuels":{"gasoline95":1.669,"diesel":1.729,"dieselPremium":1.749},"extra":{"saleType":"P","margin":"N","reportingType":"OM","ideess":"13209","idMunicipio":"4987","idProvincia":"33","idCCAA":"03"}}},{"type":"Feature","geometry":{"type":"Point","coordinates":[-5.701972,43.390333]},"properties":{"id":"es-13510","source":"ES","brand":"PETRONORA","address":"AVENIDA DE LANGREO, SN","municipality":"Noreña","province":"ASTURIAS","postalCode":"33180","schedule":"L-D: 24H","fuels":{"gasoline95Premium":1.765,"diesel":1.895},"extra":{"saleType":"P","margin":"D","reportingType":"dm","ideess":"13510","idMunicipio":"5004","idProvincia":"33","idCCAA":"03"}}},{"type":"Feature","geometry":{"type":"Point","coordinates":[-5.667917,43.387556]},"properties":{"id":"es-13514","source":"ES","brand":"LAS PALMERAS","address":"LUGAR LA CARRERA, S/N","municipality":"Siero","province":"ASTURIAS","postalCode":"33519","schedule":"L-D: 24H","fuels":{"gasoline95":1.675,"diesel":1.735,"dieselPremium":1.785},"extra":{"saleType":"P","margin":"N","reportingType":"dm","ideess":"13514","idMunicipio":"5028","idProvincia":"33","idCCAA":"03"}}},{"type":"Feature","geometry":{"type":"Point","coordinates":[-5.710583,43.495861]},"properties":{"id":"es-13690","source":"ES","brand":"OILMARAÑA","address":"CAMINO DEL FONTAN, 590","municipality":"Gijón","province":"ASTURIAS","postalCode":"33392","schedule":"L-V: 07:30-20:00; S: 08:00-14:00","fuels":{"gasoline95":1.699,"diesel":1.859,"dieselPremium":1.949,"adblue":0.999},"extra":{"saleType":"P","margin":"D","reportingType":"dm","ideess":"13690","idMunicipio":"4987","idProvincia":"33","idCCAA":"03"}}},{"type":"Feature","geometry":{"type":"Point","coordinates":[-5.014583,43.436111]},"properties":{"id":"es-13881","source":"ES","brand":"AVIA","address":"AUTOVIA A8 KM. 316","municipality":"Ribadesella","province":"ASTURIAS","postalCode":"33560","schedule":"L-D: 24H","fuels":{"gasoline95":1.799,"gasoline98":1.899,"diesel":1.879,"adblue":0.799},"extra":{"saleType":"P","margin":"D","reportingType":"dm","ideess":"13881","idMunicipio":"5018","idProvincia":"33","idCCAA":"03"}}},{"type":"Feature","geometry":{"type":"Point","coordinates":[-5.726222,43.514111]},"properties":{"id":"es-14047","source":"ES","brand":"DST","address":"CALLE JOSE LLAMA FERNANDEZ, 7","municipality":"Gijón","province":"ASTURIAS","postalCode":"33213","schedule":"L-D: 24H","fuels":{"gasoline95":1.669,"diesel":1.739,"adblue":0.829},"extra":{"saleType":"P","margin":"D","reportingType":"dm","ideess":"14047","idMunicipio":"4987","idProvincia":"33","idCCAA":"03"}}},{"type":"Feature","geometry":{"type":"Point","coordinates":[-5.696972,43.544917]},"properties":{"id":"es-14141","source":"ES","brand":"INNOGAS","address":"AVENIDA EDUARDO CASTRO, 92","municipality":"Gijón","province":"ASTURIAS","postalCode":"33212","schedule":"L-D: 24H","fuels":{"gasoline95":1.668,"diesel":1.768,"dieselPremium":1.818},"extra":{"saleType":"P","margin":"D","reportingType":"dm","ideess":"14141","idMunicipio":"4987","idProvincia":"33","idCCAA":"03"}}},{"type":"Feature","geometry":{"type":"Point","coordinates":[-5.694139,43.547972]},"properties":{"id":"es-14293","source":"ES","brand":"GALP","address":"POLIGONO CENTRO DE ALMACENAMIENTO GALP MUSEL GIJÓN, SN","municipality":"Gijón","province":"ASTURIAS","postalCode":"33212","schedule":"L-D: 24H","fuels":{"gasoline95":1.709,"diesel":1.784,"adblue":0.799},"extra":{"saleType":"P","margin":"N","reportingType":"OM","ideess":"14293","idMunicipio":"4987","idProvincia":"33","idCCAA":"03"}}},{"type":"Feature","geometry":{"type":"Point","coordinates":[-5.718667,43.322583]},"properties":{"id":"es-14378","source":"ES","brand":"DISMUSA MASYMAS","address":"CALLE ALISEDA UMERAL POLG. IND. DE RIAÑO I, 1","municipality":"Langreo","province":"ASTURIAS","postalCode":"33920","schedule":"L-D: 24H","fuels":{"gasoline95":1.639,"diesel":1.749},"extra":{"saleType":"P","margin":"N","reportingType":"dm","ideess":"14378","idMunicipio":"4994","idProvincia":"33","idCCAA":"03"}}},{"type":"Feature","geometry":{"type":"Point","coordinates":[-5.720417,43.389278]},"properties":{"id":"es-14483","source":"ES","brand":"HAM","address":"AVENIDA OVIEDO, SN","municipality":"Noreña","province":"ASTURIAS","postalCode":"33180","schedule":"L-D: 24H","fuels":{"cng":1.574,"lng":1.529,"bioCng":1.554,"bioLng":1.499},"extra":{"saleType":"P","margin":"D","reportingType":"dm","ideess":"14483","idMunicipio":"5004","idProvincia":"33","idCCAA":"03"}}},{"type":"Feature","geometry":{"type":"Point","coordinates":[-5.778444,43.237361]},"properties":{"id":"es-14560","source":"ES","brand":"PETROPRIX","address":"CALLE VEGA DE ARRIBA, 106","municipality":"Mieres","province":"ASTURIAS","postalCode":"33600","schedule":"L-D: 24H","fuels":{"gasoline95":1.649,"diesel":1.739},"extra":{"saleType":"P","margin":"N","reportingType":"dm","ideess":"14560","idMunicipio":"4999","idProvincia":"33","idCCAA":"03"}}},{"type":"Feature","geometry":{"type":"Point","coordinates":[-5.690167,43.534972]},"properties":{"id":"es-14613","source":"ES","brand":"BALLENOIL","address":"AVENIDA CAMPONES, 14","municipality":"Gijón","province":"ASTURIAS","postalCode":"33211","schedule":"L-D: 24H","fuels":{"gasoline95":1.669,"diesel":1.729,"dieselPremium":1.749},"extra":{"saleType":"P","margin":"N","reportingType":"OM","ideess":"14613","idMunicipio":"4987","idProvincia":"33","idCCAA":"03"}}},{"type":"Feature","geometry":{"type":"Point","coordinates":[-5.641444,43.524639]},"properties":{"id":"es-14689","source":"ES","brand":"MOEVE","address":"CAMINO DEL CURULLU, 71","municipality":"Gijón","province":"ASTURIAS","postalCode":"33392","schedule":"L-D: 07:00-23:00","fuels":{"gasoline95":1.819,"gasoline98":1.939,"diesel":1.959,"dieselPremium":2.019},"extra":{"saleType":"P","margin":"N","reportingType":"dm","ideess":"14689","idMunicipio":"4987","idProvincia":"33","idCCAA":"03"}}},{"type":"Feature","geometry":{"type":"Point","coordinates":[-5.856361,43.548472]},"properties":{"id":"es-14797","source":"ES","brand":"VALCARCE (GHC )","address":"CARRETERA AVILES - GIJON KM. 12,500","municipality":"Corvera de Asturias","province":"ASTURIAS","postalCode":"33468","schedule":"L-D: 24H","fuels":{"gasoline95":1.749,"diesel":1.909,"dieselPremium":1.949,"dieselB":1.579,"adblue":0.799},"extra":{"saleType":"P","margin":"D","reportingType":"dm","ideess":"14797","idMunicipio":"4983","idProvincia":"33","idCCAA":"03"}}},{"type":"Feature","geometry":{"type":"Point","coordinates":[-5.771306,43.38375]},"properties":{"id":"es-14828","source":"ES","brand":"PETROPRIX","address":"CALLE VALERIANO LEON, S/N","municipality":"Siero","province":"ASTURIAS","postalCode":"33518","schedule":"L-D: 24H","fuels":{"gasoline95":1.659,"diesel":1.719},"extra":{"saleType":"P","margin":"D","reportingType":"dm","ideess":"14828","idMunicipio":"5028","idProvincia":"33","idCCAA":"03"}}},{"type":"Feature","geometry":{"type":"Point","coordinates":[-5.715472,43.522278]},"properties":{"id":"es-14980","source":"ES","brand":"Q8","address":"CALLEJA, CALLEJÓN JOAQUIN ALONSO DIAZ, 33","municipality":"Gijón","province":"ASTURIAS","postalCode":"33394","schedule":"L-D: 24H","fuels":{"gasoline95":1.769,"diesel":1.889,"lpg":1.069,"adblue":0.899},"extra":{"saleType":"P","margin":"N","reportingType":"dm","ideess":"14980","idMunicipio":"4987","idProvincia":"33","idCCAA":"03"}}},{"type":"Feature","geometry":{"type":"Point","coordinates":[-5.927778,43.569111]},"properties":{"id":"es-15003","source":"ES","brand":"PLENERGY","address":"AVENIDA DE LUGO, 50","municipality":"Avilés","province":"ASTURIAS","postalCode":"33401","schedule":"L-D: 24H","fuels":{"gasoline95":1.699,"diesel":1.749},"extra":{"saleType":"P","margin":"D","reportingType":"dm","ideess":"15003","idMunicipio":"4967","idProvincia":"33","idCCAA":"03"}}},{"type":"Feature","geometry":{"type":"Point","coordinates":[-5.911861,43.557694]},"properties":{"id":"es-15008","source":"ES","brand":"BALLENOIL","address":"CALLE ESTIBADORES, 1","municipality":"Avilés","province":"ASTURIAS","postalCode":"33400","schedule":"L-D: 24H","fuels":{"gasoline95":1.699,"diesel":1.749,"dieselPremium":1.769},"extra":{"saleType":"P","margin":"D","reportingType":"OM","ideess":"15008","idMunicipio":"4967","idProvincia":"33","idCCAA":"03"}}},{"type":"Feature","geometry":{"type":"Point","coordinates":[-5.68825,43.305389]},"properties":{"id":"es-15033","source":"ES","brand":"REPSOL","address":"CALLE PEPITA FERNANDEZ DURO  EN  FELGUERA LA, 30","municipality":"Langreo","province":"ASTURIAS","postalCode":"33930","schedule":"L-D: 06:00-22:00","fuels":{"gasoline95":1.805,"gasoline98":1.925,"diesel":1.995,"dieselPremium":2.055},"extra":{"saleType":"P","margin":"D","reportingType":"OM","ideess":"15033","idMunicipio":"4994","idProvincia":"33","idCCAA":"03"}}},{"type":"Feature","geometry":{"type":"Point","coordinates":[-5.876611,43.3255]},"properties":{"id":"es-15060","source":"ES","brand":"ES EL CALEYU Nº 22905 CEPSA","address":"LUGAR ALTO EL CALEYO, 10","municipality":"Ribera de Arriba","province":"ASTURIAS","postalCode":"33171","schedule":"L-D: 07:00-23:00","fuels":{"gasoline95":1.794,"gasoline95Premium":1.894,"diesel":1.944,"dieselPremium":2.044,"lpg":1.061},"extra":{"saleType":"P","margin":"I","reportingType":"dm","ideess":"15060","idMunicipio":"5019","idProvincia":"33","idCCAA":"03"}}},{"type":"Feature","geometry":{"type":"Point","coordinates":[-5.949306,43.531917]},"properties":{"id":"es-15171","source":"ES","brand":"MOEVE","address":"CARRETERA CRTA CT-2 PK 6.70 . PARCELAS 217/218/219/278/283 KM. 6,7","municipality":"Castrillón","province":"ASTURIAS","postalCode":"33410","schedule":"L-D: 07:00-23:00","fuels":{"gasoline95":1.794,"gasoline98":1.954,"diesel":1.954,"dieselPremium":2.054},"extra":{"saleType":"P","margin":"D","reportingType":"OM","ideess":"15171","idMunicipio":"4979","idProvincia":"33","idCCAA":"03"}}},{"type":"Feature","geometry":{"type":"Point","coordinates":[-5.68725,43.307417]},"properties":{"id":"es-15528","source":"ES","brand":"RED CAR OIL S.L","address":"CALLE BATERIAS DE COK, S/N, S/N","municipality":"Langreo","province":"ASTURIAS","postalCode":"33930","schedule":"L-D: 24H","fuels":{"gasoline95":1.599,"diesel":1.709},"extra":{"saleType":"P","margin":"D","reportingType":"dm","ideess":"15528","idMunicipio":"4994","idProvincia":"33","idCCAA":"03"}}},{"type":"Feature","geometry":{"type":"Point","coordinates":[-5.837,43.427972]},"properties":{"id":"es-15585","source":"ES","brand":"TRAKTOS AUTOMOCIÓN","address":"POLIGONO ASIPO, 6","municipality":"Llanera","province":"ASTURIAS","postalCode":"33428","schedule":"L-V: 09:00-13:00 y 15:30-19:30","fuels":{"diesel":1.929,"adblue":1.2},"extra":{"saleType":"P","margin":"D","reportingType":"dm","ideess":"15585","idMunicipio":"4997","idProvincia":"33","idCCAA":"03"}}},{"type":"Feature","geometry":{"type":"Point","coordinates":[-5.701417,43.383722]},"properties":{"id":"es-15836","source":"ES","brand":"EESS LAS PALMERAS","address":"AVENIDA LANGREO DE, 18","municipality":"Siero","province":"ASTURIAS","postalCode":"33186","schedule":"L-D: 07:00-23:00","fuels":{"gasoline95":1.675,"gasoline98":1.805,"diesel":1.735,"dieselPremium":1.785,"adblue":1.02},"extra":{"saleType":"P","margin":"N","reportingType":"dm","ideess":"15836","idMunicipio":"5028","idProvincia":"33","idCCAA":"03"}}},{"type":"Feature","geometry":{"type":"Point","coordinates":[-5.8105,43.375667]},"properties":{"id":"es-15876","source":"ES","brand":"BALLENOIL","address":"CALLE IRLANDA, PARCELA 3A - POL.IND.ESPIRITU SANTO, S/N","municipality":"Oviedo","province":"ASTURIAS","postalCode":"33010","schedule":"L-D: 24H","fuels":{"gasoline95":1.659,"diesel":1.719,"dieselPremium":1.739},"extra":{"saleType":"P","margin":"N","reportingType":"OM","ideess":"15876","idMunicipio":"5006","idProvincia":"33","idCCAA":"03"}}},{"type":"Feature","geometry":{"type":"Point","coordinates":[-5.675,43.164861]},"properties":{"id":"es-16037","source":"ES","brand":"BLANCA","address":"CARRETERA AAS-112 KM. 5,8","municipality":"Aller","province":"ASTURIAS","postalCode":"33685","schedule":"L-D: 07:00-22:00","fuels":{"gasoline95":1.689,"gasoline98":1.789,"diesel":1.779,"dieselPremium":1.879,"dieselB":1.479},"extra":{"saleType":"P","margin":"D","reportingType":"dm","ideess":"16037","idMunicipio":"4965","idProvincia":"33","idCCAA":"03"}}},{"type":"Feature","geometry":{"type":"Point","coordinates":[-5.182694,43.377556]},"properties":{"id":"es-16070","source":"ES","brand":"BALLENOIL","address":"CALLE POZO EL BARREÑO, 18","municipality":"Parres","province":"ASTURIAS","postalCode":"33540","schedule":"L-D: 24H","fuels":{"gasoline95":1.719,"diesel":1.769,"dieselPremium":1.789},"extra":{"saleType":"P","margin":"N","reportingType":"OM","ideess":"16070","idMunicipio":"5007","idProvincia":"33","idCCAA":"03"}}},{"type":"Feature","geometry":{"type":"Point","coordinates":[-5.765472,43.392778]},"properties":{"id":"es-16125","source":"ES","brand":"BALLENOIL","address":"POLIGONO POLÍGONO INDUSTRIAL BOBES PARCELA 15-B, S/N","municipality":"Siero","province":"ASTURIAS","postalCode":"33429","schedule":"L-D: 24H","fuels":{"gasoline95":1.659,"diesel":1.719,"dieselPremium":1.739},"extra":{"saleType":"P","margin":"N","reportingType":"OM","ideess":"16125","idMunicipio":"5028","idProvincia":"33","idCCAA":"03"}}},{"type":"Feature","geometry":{"type":"Point","coordinates":[-5.830528,43.385778]},"properties":{"id":"es-16157","source":"ES","brand":"LAS PALMERAS","address":"GLORIETA GLORIETA ELEVADA DE LA CORREDORIA SOBRE LA AS-II, S/N, S/N","municipality":"Oviedo","province":"ASTURIAS","postalCode":"33194","schedule":"L-D: 07:00-23:00","fuels":{"gasoline95":1.675,"gasoline98":1.805,"diesel":1.735,"dieselPremium":1.785},"extra":{"saleType":"P","margin":"I","reportingType":"dm","ideess":"16157","idMunicipio":"5006","idProvincia":"33","idCCAA":"03"}}},{"type":"Feature","geometry":{"type":"Point","coordinates":[-5.689361,43.535667]},"properties":{"id":"es-16169","source":"ES","brand":"PETROPRIX","address":"AVENIDA DE LOS CAMPONES, 2","municipality":"Gijón","province":"ASTURIAS","postalCode":"33211","schedule":"L-D: 24H","fuels":{"gasoline95":1.669,"diesel":1.729},"extra":{"saleType":"P","margin":"N","reportingType":"dm","ideess":"16169","idMunicipio":"4987","idProvincia":"33","idCCAA":"03"}}},{"type":"Feature","geometry":{"type":"Point","coordinates":[-5.327056,43.350583]},"properties":{"id":"es-16174","source":"ES","brand":"PETROPRIX","address":"CARRETERA RECTA DE LLEU KM. 7","municipality":"Piloña","province":"ASTURIAS","postalCode":"33530","schedule":"L-D: 24H","fuels":{"gasoline95":1.709,"diesel":1.759},"extra":{"saleType":"P","margin":"N","reportingType":"dm","ideess":"16174","idMunicipio":"5011","idProvincia":"33","idCCAA":"03"}}},{"type":"Feature","geometry":{"type":"Point","coordinates":[-5.765583,43.394639]},"properties":{"id":"es-16226","source":"ES","brand":"CEPSA","address":"POLIGONO POLIGONO INDUSTRIAL BOBES - PARCELA 72E, 0","municipality":"Siero","province":"ASTURIAS","postalCode":"33429","schedule":"L-D: 07:00-23:00","fuels":{"gasoline95":1.794,"gasoline98":1.954,"diesel":1.954,"dieselPremium":2.054},"extra":{"saleType":"P","margin":"D","reportingType":"OM","ideess":"16226","idMunicipio":"5028","idProvincia":"33","idCCAA":"03"}}},{"type":"Feature","geometry":{"type":"Point","coordinates":[-5.751028,43.383528]},"properties":{"id":"es-16319","source":"ES","brand":"BALLENOIL","address":"POLIGONO INDUSTRIAL DE PRONI, CALLE K, 16","municipality":"Siero","province":"ASTURIAS","postalCode":"33199","schedule":"L-D: 24H","fuels":{"gasoline95":1.659,"gasoline95Premium":1.679,"diesel":1.719,"dieselPremium":1.739},"extra":{"saleType":"P","margin":"N","reportingType":"OM","ideess":"16319","idMunicipio":"5028","idProvincia":"33","idCCAA":"03"}}},{"type":"Feature","geometry":{"type":"Point","coordinates":[-5.811167,43.407556]},"properties":{"id":"es-16412","source":"ES","brand":"LAS PALMERAS","address":"POLIGONO INDUSTRIAL SIA COPPER, 6","municipality":"Siero","province":"ASTURIAS","postalCode":"33420","schedule":"L-D: 24H","fuels":{"gasoline95":1.659,"gasoline98":1.805,"diesel":1.719,"dieselPremium":1.775,"adblue":1.02},"extra":{"saleType":"P","margin":"D","reportingType":"dm","ideess":"16412","idMunicipio":"5028","idProvincia":"33","idCCAA":"03"}}},{"type":"Feature","geometry":{"type":"Point","coordinates":[-5.661,43.389556]},"properties":{"id":"es-16470","source":"ES","brand":"VALCARCE","address":"POLIGONO POLIGONO INDUSTRIAL EL BRAVO PARC 3-4, 3","municipality":"Siero","province":"ASTURIAS","postalCode":"33518","schedule":"L-D: 06:00-22:00","fuels":{"gasoline95":1.749,"diesel":1.909,"dieselB":1.579,"adblue":0.799},"extra":{"saleType":"P","margin":"D","reportingType":"dm","ideess":"16470","idMunicipio":"5028","idProvincia":"33","idCCAA":"03"}}},{"type":"Feature","geometry":{"type":"Point","coordinates":[-5.432833,43.482306]},"properties":{"id":"es-375","source":"ES","brand":"REPSOL","address":"CL CERVANTES 39","municipality":"Villaviciosa","province":"ASTURIAS","postalCode":"33300","schedule":"L-S: 07:00-21:00; D: 08:00-15:00","fuels":{"gasoline95":1.785,"diesel":1.989},"extra":{"saleType":"P","margin":"N","reportingType":"OM","ideess":"375","idMunicipio":"5039","idProvincia":"33","idCCAA":"03"}}},{"type":"Feature","geometry":{"type":"Point","coordinates":[-5.911444,43.551556]},"properties":{"id":"es-378","source":"ES","brand":"REPSOL","address":"AVENIDA GIJON, 70","municipality":"Avilés","province":"ASTURIAS","postalCode":"33460","schedule":"L-D: 06:00-23:00","fuels":{"gasoline95":1.825,"gasoline98":1.945,"diesel":1.955,"dieselPremium":2.025,"lpg":1.179},"extra":{"saleType":"P","margin":"I","reportingType":"OM","ideess":"378","idMunicipio":"4967","idProvincia":"33","idCCAA":"03"}}},{"type":"Feature","geometry":{"type":"Point","coordinates":[-5.430583,43.483778]},"properties":{"id":"es-383","source":"ES","brand":"REPSOL","address":"CL CARLOS CIAÑO CANTO, 3 (N-632 km 43)","municipality":"Villaviciosa","province":"ASTURIAS","postalCode":"33300","schedule":"L-D: 07:00-23:00","fuels":{"gasoline95":1.785,"gasoline98":1.905,"diesel":1.989,"dieselB":1.685,"dieselRenewable":2.109},"extra":{"saleType":"P","margin":"D","reportingType":"OM","ideess":"383","idMunicipio":"5039","idProvincia":"33","idCCAA":"03"}}},{"type":"Feature","geometry":{"type":"Point","coordinates":[-5.721278,43.538694]},"properties":{"id":"es-384","source":"ES","brand":"REPSOL","address":"CARRETERA AS-19 KM. 4,4","municipality":"Gijón","province":"ASTURIAS","postalCode":"33691","schedule":"L-V: 06:00-22:00; S-D: 08:00-18:00","fuels":{"gasoline95":1.809,"gasoline98":1.979,"diesel":1.959,"dieselPremium":2.019,"dieselB":1.739},"extra":{"saleType":"P","margin":"I","reportingType":"OM","ideess":"384","idMunicipio":"4987","idProvincia":"33","idCCAA":"03"}}},{"type":"Feature","geometry":{"type":"Point","coordinates":[-5.924028,43.562333]},"properties":{"id":"es-385","source":"ES","brand":"CEPSA","address":"AVDA. DE LOS TELARES, 27 (N-632 km 94,4)","municipality":"Avilés","province":"ASTURIAS","postalCode":"33400","schedule":"L-D: 07:00-23:00","fuels":{"gasoline95":1.794,"gasoline95Premium":1.894,"gasoline98":1.954,"diesel":1.954,"dieselPremium":2.054},"extra":{"saleType":"P","margin":"I","reportingType":"OM","ideess":"385","idMunicipio":"4967","idProvincia":"33","idCCAA":"03"}}},{"type":"Feature","geometry":{"type":"Point","coordinates":[-5.360667,43.345139]},"properties":{"id":"es-386","source":"ES","brand":"BP INFIESTO","address":"CALLE COVADONGA, 37","municipality":"Piloña","province":"ASTURIAS","postalCode":"33530","schedule":"L-D: 06:00-22:00","fuels":{"gasoline95":1.799,"diesel":1.959,"dieselPremium":2.049},"extra":{"saleType":"P","margin":"D","reportingType":"OM","ideess":"386","idMunicipio":"5011","idProvincia":"33","idCCAA":"03"}}},{"type":"Feature","geometry":{"type":"Point","coordinates":[-5.777056,43.257972]},"properties":{"id":"es-388","source":"ES","brand":"REPSOL","address":"BARRI ARROXO, S/N","municipality":"Mieres","province":"ASTURIAS","postalCode":"33600","schedule":"L-D: 06:00-22:00","fuels":{"gasoline95":1.829,"gasoline98":1.959,"diesel":1.969,"dieselRenewable":2.049},"extra":{"saleType":"P","margin":"D","reportingType":"dm","ideess":"388","idMunicipio":"4999","idProvincia":"33","idCCAA":"03"}}},{"type":"Feature","geometry":{"type":"Point","coordinates":[-5.260944,43.484417]},"properties":{"id":"es-390","source":"ES","brand":"REPSOL","address":"AVENIDA ASTURIAS, 52","municipality":"Colunga","province":"ASTURIAS","postalCode":"33320","schedule":"L-D: 06:00-22:00","fuels":{"gasoline95":1.845,"gasoline98":1.965,"diesel":1.995,"dieselPremium":2.055,"dieselB":1.735},"extra":{"saleType":"P","margin":"D","reportingType":"OM","ideess":"390","idMunicipio":"4982","idProvincia":"33","idCCAA":"03"}}},{"type":"Feature","geometry":{"type":"Point","coordinates":[-5.902833,43.538111]},"properties":{"id":"es-391","source":"ES","brand":"REPSOL","address":"CALLE SANTA APOLONIA, 161","municipality":"Avilés","province":"ASTURIAS","postalCode":"33400","schedule":"L-S: 06:30-22:30; D: 08:00-22:00","fuels":{"gasoline95":1.819,"diesel":1.949,"dieselB":1.685,"dieselRenewable":2.069},"extra":{"saleType":"P","margin":"D","reportingType":"OM","ideess":"391","idMunicipio":"4967","idProvincia":"33","idCCAA":"03"}}},{"type":"Feature","geometry":{"type":"Point","coordinates":[-5.814278,43.608194]},"properties":{"id":"es-397","source":"ES","brand":"REPSOL","address":"CARRETERA AS-238 KM. 11,1","municipality":"Gozón","province":"ASTURIAS","postalCode":"33449","schedule":"L-D: 07:00-23:00","fuels":{"gasoline95":1.845,"diesel":1.975,"dieselPremium":2.035,"dieselB":1.739},"extra":{"saleType":"P","margin":"I","reportingType":"OM","ideess":"397","idMunicipio":"4988","idProvincia":"33","idCCAA":"03"}}},{"type":"Feature","geometry":{"type":"Point","coordinates":[-5.959278,43.57125]},"properties":{"id":"es-398","source":"ES","brand":"REPSOL","address":"AVENIDA CAMPON - SALINAS, 16","municipality":"Castrillón","province":"ASTURIAS","postalCode":"33400","schedule":"L-D: 06:00-22:00","fuels":{"gasoline95":1.839,"gasoline98":1.959,"diesel":1.969,"dieselPremium":2.029},"extra":{"saleType":"P","margin":"D","reportingType":"OM","ideess":"398","idMunicipio":"4979","idProvincia":"33","idCCAA":"03"}}},{"type":"Feature","geometry":{"type":"Point","coordinates":[-5.864972,43.359444]},"properties":{"id":"es-400","source":"ES","brand":"REPSOL","address":"CALLE BUENAVISTA, SN","municipality":"Oviedo","province":"ASTURIAS","postalCode":"33006","schedule":"L-D: 09:00-17:00","fuels":{"gasoline95":1.785,"diesel":1.909},"extra":{"saleType":"P","margin":"D","reportingType":"dm","ideess":"400","idMunicipio":"5006","idProvincia":"33","idCCAA":"03"}}},{"type":"Feature","geometry":{"type":"Point","coordinates":[-5.8725,43.550694]},"properties":{"id":"es-402","source":"ES","brand":"CEPSA","address":"CARRETERA AS-19 KM. 19,4","municipality":"Corvera de Asturias","province":"ASTURIAS","postalCode":"33416","schedule":"L-V: 07:00-21:00; S-D: 09:00-21:00","fuels":{"gasoline95":1.814,"gasoline95Premium":1.914,"gasoline98":1.974,"diesel":1.974,"dieselPremium":2.074},"extra":{"saleType":"P","margin":"I","reportingType":"dm","ideess":"402","idMunicipio":"4983","idProvincia":"33","idCCAA":"03"}}},{"type":"Feature","geometry":{"type":"Point","coordinates":[-5.911,43.560056]},"properties":{"id":"es-406","source":"ES","brand":"REPSOL","address":"CARRETERA AS-238 (PARQ. EMPRES. PRINCIPADO ASTURIAS KM. 0,8","municipality":"Avilés","province":"ASTURIAS","postalCode":"33400","schedule":"L-D: 06:00-22:00","fuels":{"gasoline95":1.825,"gasoline98":1.945,"diesel":1.955,"dieselPremium":2.015,"adblue":1.29},"extra":{"saleType":"P","margin":"I","reportingType":"dm","ideess":"406","idMunicipio":"4967","idProvincia":"33","idCCAA":"03"}}},{"type":"Feature","geometry":{"type":"Point","coordinates":[-5.873333,43.365556]},"properties":{"id":"es-407","source":"ES","brand":"REPSOL","address":"CL CUDILLERO -ESQ.C/CATEDR.LUIS SEL","municipality":"Oviedo","province":"ASTURIAS","postalCode":"33012","schedule":"L-D: 07:00-23:00","fuels":{"gasoline95":1.825,"gasoline98":1.945,"diesel":1.955,"dieselPremium":2.025,"adblue":1.29},"extra":{"saleType":"P","margin":"I","reportingType":"dm","ideess":"407","idMunicipio":"5006","idProvincia":"33","idCCAA":"03"}}},{"type":"Feature","geometry":{"type":"Point","coordinates":[-5.889639,43.535167]},"properties":{"id":"es-409","source":"ES","brand":"GALP","address":"CARRETERA AS-17 KM. 3,5","municipality":"Corvera de Asturias","province":"ASTURIAS","postalCode":"33404","schedule":"L-S: 07:00-23:00; D: 07:00-22:00","fuels":{"gasoline95":1.749,"gasoline95Premium":1.799,"diesel":1.799,"dieselPremium":1.849,"dieselB":1.609},"extra":{"saleType":"P","margin":"D","reportingType":"OM","ideess":"409","idMunicipio":"4983","idProvincia":"33","idCCAA":"03"}}},{"type":"Feature","geometry":{"type":"Point","coordinates":[-5.819694,43.514361]},"properties":{"id":"es-410","source":"ES","brand":"PETRONOR","address":"AUTOVIA A-8 KM. 401,5","municipality":"Carreño","province":"ASTURIAS","postalCode":"33469","schedule":"L-D: 24H","fuels":{"gasoline95":1.815,"gasoline98":1.935,"diesel":1.945,"dieselPremium":2.005,"lpg":1.169},"extra":{"saleType":"P","margin":"D","reportingType":"OM","ideess":"410","idMunicipio":"4977","idProvincia":"33","idCCAA":"03"}}},{"type":"Feature","geometry":{"type":"Point","coordinates":[-5.817333,43.511278]},"properties":{"id":"es-411","source":"ES","brand":"PETRONOR","address":"AUTOPISTA A-8 KM. 401,5","municipality":"Carreño","province":"ASTURIAS","postalCode":"33469","schedule":"L-D: 24H","fuels":{"gasoline95":1.815,"gasoline98":1.935,"diesel":1.945,"dieselPremium":2.005,"lpg":1.159},"extra":{"saleType":"P","margin":"I","reportingType":"OM","ideess":"411","idMunicipio":"4977","idProvincia":"33","idCCAA":"03"}}},{"type":"Feature","geometry":{"type":"Point","coordinates":[-5.818139,43.388806]},"properties":{"id":"es-413","source":"ES","brand":"REPSOL","address":"CALLE MOLIN DE LA CASUCA, S/N","municipality":"Oviedo","province":"ASTURIAS","postalCode":"33011","schedule":"L-D: 07:00-23:00","fuels":{"gasoline95":1.825,"gasoline98":1.945,"diesel":1.955,"dieselPremium":2.025,"adblue":1.29},"extra":{"saleType":"P","margin":"N","reportingType":"dm","ideess":"413","idMunicipio":"5006","idProvincia":"33","idCCAA":"03"}}},{"type":"Feature","geometry":{"type":"Point","coordinates":[-5.633417,43.288917]},"properties":{"id":"es-414","source":"ES","brand":"ALCAMPO","address":"CARRETERA AS17 KM. 47","municipality":"San Martín del Rey Aurelio","province":"ASTURIAS","postalCode":"33940","schedule":"L-D: 24H","fuels":{"gasoline95":1.599,"gasoline98":1.769,"diesel":1.709,"dieselPremium":1.799},"extra":{"saleType":"P","margin":"N","reportingType":"dm","ideess":"414","idMunicipio":"5023","idProvincia":"33","idCCAA":"03"}}},{"type":"Feature","geometry":{"type":"Point","coordinates":[-5.7545,43.5785]},"properties":{"id":"es-415","source":"ES","brand":"GALP","address":"CARRETERA AS-329 KM. 4,1","municipality":"Carreño","province":"ASTURIAS","postalCode":"33439","schedule":"L-V: 07:00-21:00; S: 08:00-21:00; D: 08:00-15:00","fuels":{"gasoline95":1.779,"diesel":1.909,"dieselPremium":1.959},"extra":{"saleType":"P","margin":"I","reportingType":"OM","ideess":"415","idMunicipio":"4977","idProvincia":"33","idCCAA":"03"}}},{"type":"Feature","geometry":{"type":"Point","coordinates":[-5.837639,43.371139]},"properties":{"id":"es-416","source":"ES","brand":"MOEVE","address":"PLAZA RUIZ DE LA PEÑA, S/N (AS-18 km 0,1)","municipality":"Oviedo","province":"ASTURIAS","postalCode":"33011","schedule":"L-D: 24H","fuels":{"gasoline95":1.794,"gasoline98":1.954,"diesel":1.954,"dieselPremium":2.054},"extra":{"saleType":"P","margin":"D","reportingType":"OM","ideess":"416","idMunicipio":"5006","idProvincia":"33","idCCAA":"03"}}},{"type":"Feature","geometry":{"type":"Point","coordinates":[-5.876667,43.353806]},"properties":{"id":"es-417","source":"ES","brand":"MOEVE","address":"CARRETERA N-634 KM. 409","municipality":"Oviedo","province":"ASTURIAS","postalCode":"33006","schedule":"L-D: 07:00-23:00","fuels":{"gasoline95":1.794,"gasoline95Premium":1.894,"gasoline98":1.954,"diesel":1.954,"dieselPremium":2.054},"extra":{"saleType":"P","margin":"I","reportingType":"OM","ideess":"417","idMunicipio":"5006","idProvincia":"33","idCCAA":"03"}}},{"type":"Feature","geometry":{"type":"Point","coordinates":[-5.834667,43.555917]},"properties":{"id":"es-8025","source":"ES","brand":"BP - CARREÑO","address":"VÍA AS-110, 7","municipality":"Carreño","province":"ASTURIAS","postalCode":"33438","schedule":"L-D: 07:00-23:00","fuels":{"gasoline95":1.799,"gasoline98":1.929,"diesel":1.939,"dieselPremium":1.999},"extra":{"saleType":"P","margin":"N","reportingType":"dm","ideess":"8025","idMunicipio":"4977","idProvincia":"33","idCCAA":"03"}}},{"type":"Feature","geometry":{"type":"Point","coordinates":[-5.276528,43.014472]},"properties":{"id":"es-8197","source":"ES","brand":"CEDYC","address":"CARRETERA GENERAL (BOÑAR-CABAÑAQUINTA km 0,165)","municipality":"Puebla de Lillo","province":"LEÓN","postalCode":"24855","schedule":"L-D: 24H","fuels":{"gasoline95":1.735,"diesel":1.915},"extra":{"saleType":"P","margin":"D","reportingType":"dm","ideess":"8197","idMunicipio":"3705","idProvincia":"24","idCCAA":"08"}}},{"type":"Feature","geometry":{"type":"Point","coordinates":[-5.906889,43.537]},"properties":{"id":"es-8247","source":"ES","brand":"SHELL","address":"AVDA. CRISTOBAL COLÓN, S/N","municipality":"Avilés","province":"ASTURIAS","postalCode":"33400","schedule":"L-D: 06:00-00:00","fuels":{"gasoline95":1.789,"gasoline98":1.929,"diesel":1.869,"dieselPremium":1.949},"extra":{"saleType":"P","margin":"N","reportingType":"OM","ideess":"8247","idMunicipio":"4967","idProvincia":"33","idCCAA":"03"}}},{"type":"Feature","geometry":{"type":"Point","coordinates":[-5.933139,43.552]},"properties":{"id":"es-8248","source":"ES","brand":"SHELL","address":"AVDA. DE SAN AGUSTÍN S/N","municipality":"Avilés","province":"ASTURIAS","postalCode":"33400","schedule":"L-D: 07:00-23:00","fuels":{"gasoline95":1.779,"gasoline98":1.919,"diesel":1.869,"dieselPremium":1.949},"extra":{"saleType":"P","margin":"N","reportingType":"OM","ideess":"8248","idMunicipio":"4967","idProvincia":"33","idCCAA":"03"}}},{"type":"Feature","geometry":{"type":"Point","coordinates":[-5.818556,43.39275]},"properties":{"id":"es-8345","source":"ES","brand":"SHELL","address":"AVDA GIJON 147 (CTRA AS 18 km 2,26)","municipality":"Oviedo","province":"ASTURIAS","postalCode":"33011","schedule":"L-D: 06:00-00:00","fuels":{"gasoline95":1.789,"gasoline98":1.929,"diesel":1.929,"dieselPremium":2.009,"adblue":1.25},"extra":{"saleType":"P","margin":"D","reportingType":"OM","ideess":"8345","idMunicipio":"5006","idProvincia":"33","idCCAA":"03"}}},{"type":"Feature","geometry":{"type":"Point","coordinates":[-5.805583,43.377361]},"properties":{"id":"es-854","source":"ES","brand":"ESOIL","address":"POLIGONO ESPÌRITU SANTO, PARCELA, 17 (N-634 SANTANDER OVIEDO km 401,7)","municipality":"Oviedo","province":"ASTURIAS","postalCode":"33010","schedule":"L-S: 06:30-22:30; D: 07:30-22:30","fuels":{"gasoline95":1.679,"gasoline98":1.769,"diesel":1.769,"dieselB":1.539,"adblue":0.939},"extra":{"saleType":"P","margin":"D","reportingType":"dm","ideess":"854","idMunicipio":"5006","idProvincia":"33","idCCAA":"03"}}},{"type":"Feature","geometry":{"type":"Point","coordinates":[-5.704139,43.533139]},"properties":{"id":"es-855","source":"ES","brand":"EMPRESOIL","address":"CALLE PAULINA CANGA, 4","municipality":"Gijón","province":"ASTURIAS","postalCode":"33211","schedule":"L-S: 06:00-22:00","fuels":{"gasoline95":1.799,"gasoline98":1.929,"diesel":1.929,"adblue":0.799},"extra":{"saleType":"P","margin":"D","reportingType":"dm","ideess":"855","idMunicipio":"4987","idProvincia":"33","idCCAA":"03"}}},{"type":"Feature","geometry":{"type":"Point","coordinates":[-5.627472,43.346583]},"properties":{"id":"es-856","source":"ES","brand":"LAS PALMERAS","address":"CARRETERA AS-249 KM. 8,5","municipality":"Siero","province":"ASTURIAS","postalCode":"33936","schedule":"L-S: 08:00-14:00","fuels":{"gasoline95":1.675,"diesel":1.735,"dieselPremium":1.785},"extra":{"saleType":"P","margin":"I","reportingType":"dm","ideess":"856","idMunicipio":"5028","idProvincia":"33","idCCAA":"03"}}},{"type":"Feature","geometry":{"type":"Point","coordinates":[-5.938028,43.543389]},"properties":{"id":"es-8565","source":"ES","brand":"SHELL","address":"CALLE BUENAVISTA, 100","municipality":"Avilés","province":"ASTURIAS","postalCode":"33402","schedule":"L-D: 06:00-00:00","fuels":{"gasoline95":1.789,"gasoline98":1.929,"diesel":1.899,"dieselPremium":1.979,"adblue":1.25},"extra":{"saleType":"P","margin":"I","reportingType":"OM","ideess":"8565","idMunicipio":"4967","idProvincia":"33","idCCAA":"03"}}},{"type":"Feature","geometry":{"type":"Point","coordinates":[-5.841833,43.432167]},"properties":{"id":"es-857","source":"ES","brand":"REPSOL","address":"CARRETERA LUGONES-AVILES KM. 4,3","municipality":"Llanera","province":"ASTURIAS","postalCode":"33424","schedule":"L-D: 06:00-22:00","fuels":{"gasoline95":1.799,"gasoline98":1.939,"diesel":1.939,"dieselPremium":2.039,"dieselB":1.729,"lpg":1.159,"adblue":1.289},"extra":{"saleType":"P","margin":"I","reportingType":"dm","ideess":"857","idMunicipio":"4997","idProvincia":"33","idCCAA":"03"}}},{"type":"Feature","geometry":{"type":"Point","coordinates":[-5.119889,43.350889]},"properties":{"id":"es-858","source":"ES","brand":"REPSOL","address":"AVENIDA COVADONGA, S/N","municipality":"Cangas de Onís","province":"ASTURIAS","postalCode":"33550","schedule":"L-D: 06:00-23:00","fuels":{"gasoline95":1.829,"gasoline98":1.959,"diesel":1.969,"dieselPremium":2.049,"dieselB":1.729,"adblue":1.289},"extra":{"saleType":"P","margin":"I","reportingType":"dm","ideess":"858","idMunicipio":"4974","idProvincia":"33","idCCAA":"03"}}},{"type":"Feature","geometry":{"type":"Point","coordinates":[-5.617611,43.277417]},"properties":{"id":"es-859","source":"ES","brand":"REPSOL","address":"CARRETERA AS-17 KM. 48,5","municipality":"San Martín del Rey Aurelio","province":"ASTURIAS","postalCode":"33950","schedule":"L-D: 06:30-22:30","fuels":{"gasoline95":1.785,"gasoline98":1.959,"diesel":1.939,"dieselRenewable":1.999,"adblue":1.229},"extra":{"saleType":"P","margin":"I","reportingType":"dm","ideess":"859","idMunicipio":"5023","idProvincia":"33","idCCAA":"03"}}},{"type":"Feature","geometry":{"type":"Point","coordinates":[-5.679194,43.506472]},"properties":{"id":"es-862","source":"ES","brand":"BP GIJON - CARBONERA","address":"CALLE GRAHAM BELL, 575","municipality":"Gijón","province":"ASTURIAS","postalCode":"33211","schedule":"L-D: 07:00-22:00","fuels":{"gasoline95":1.805,"gasoline98":1.945,"diesel":1.949,"dieselPremium":2.039},"extra":{"saleType":"P","margin":"N","reportingType":"OM","ideess":"862","idMunicipio":"4987","idProvincia":"33","idCCAA":"03"}}},{"type":"Feature","geometry":{"type":"Point","coordinates":[-5.061389,43.455917]},"properties":{"id":"es-863","source":"ES","brand":"REPSOL","address":"AVENIDA PALACIO VALDES, 42","municipality":"Ribadesella","province":"ASTURIAS","postalCode":"33560","schedule":"L-D: 06:00-22:00","fuels":{"gasoline95":1.829,"gasoline98":1.959,"diesel":1.969,"dieselPremium":2.049,"dieselB":1.729,"lpg":1.179,"adblue":1.289},"extra":{"saleType":"P","margin":"N","reportingType":"dm","ideess":"863","idMunicipio":"5018","idProvincia":"33","idCCAA":"03"}}},{"type":"Feature","geometry":{"type":"Point","coordinates":[-5.828972,43.165833]},"properties":{"id":"es-864","source":"ES","brand":"BP SAN PABLO","address":"CALLE HERMANOS GRANDA, S/N","municipality":"Lena","province":"ASTURIAS","postalCode":"33630","schedule":"L: 06:00-22:00","fuels":{"gasoline95":1.795,"gasoline98":1.935,"diesel":1.955,"dieselPremium":2.045},"extra":{"saleType":"P","margin":"N","reportingType":"OM","ideess":"864","idMunicipio":"4996","idProvincia":"33","idCCAA":"03"}}},{"type":"Feature","geometry":{"type":"Point","coordinates":[-5.711889,43.525361]},"properties":{"id":"es-865","source":"ES","brand":"Q8","address":"AVENIDA DE LA METALURGIA, S/N","municipality":"Gijón","province":"ASTURIAS","postalCode":"33211","schedule":"L-D: 24H","fuels":{"gasoline95":1.689,"gasoline98":1.819,"diesel":1.749},"extra":{"saleType":"P","margin":"D","reportingType":"dm","ideess":"865","idMunicipio":"4987","idProvincia":"33","idCCAA":"03"}}},{"type":"Feature","geometry":{"type":"Point","coordinates":[-5.933444,43.545278]},"properties":{"id":"es-866","source":"ES","brand":"ZEPXA ECO","address":"CALLE BUENAVISTA, 63","municipality":"Avilés","province":"ASTURIAS","postalCode":"33400","schedule":"L-D: 07:00-23:00","fuels":{"gasoline95":1.699,"gasoline98":1.805,"diesel":1.745,"dieselPremium":1.775},"extra":{"saleType":"P","margin":"N","reportingType":"dm","ideess":"866","idMunicipio":"4967","idProvincia":"33","idCCAA":"03"}}},{"type":"Feature","geometry":{"type":"Point","coordinates":[-5.803194,43.391972]},"properties":{"id":"es-868","source":"ES","brand":"EROSKI","address":"AUTOVIA A8, SALIDA 456 (C.C EROSKI) KM. 00","municipality":"Siero","province":"ASTURIAS","postalCode":"33410","schedule":"L-D: 24H","fuels":{"gasoline95":1.659,"diesel":1.719},"extra":{"saleType":"P","margin":"N","reportingType":"dm","ideess":"868","idMunicipio":"5028","idProvincia":"33","idCCAA":"03"}}},{"type":"Feature","geometry":{"type":"Point","coordinates":[-5.82075,43.419]},"properties":{"id":"es-869","source":"ES","brand":"Q8","address":"Políg. Ind. Silvota-Ampliación","municipality":"Llanera","province":"ASTURIAS","postalCode":"33192","schedule":"L-V: 07:00-22:00; S: 08:00-14:00","fuels":{"gasoline95":1.739,"gasoline98":1.829,"diesel":1.889},"extra":{"saleType":"P","margin":"N","reportingType":"dm","ideess":"869","idMunicipio":"4997","idProvincia":"33","idCCAA":"03"}}},{"type":"Feature","geometry":{"type":"Point","coordinates":[-5.796694,43.41475]},"properties":{"id":"es-871","source":"ES","brand":"CARREFOUR","address":"CALLE AMADO MORAN S/N, S/N","municipality":"Siero","province":"ASTURIAS","postalCode":"33420","schedule":"L-D: 24H","fuels":{"gasoline95":1.769,"gasoline98":1.919,"diesel":1.869,"dieselPremium":1.909},"extra":{"saleType":"P","margin":"N","reportingType":"dm","ideess":"871","idMunicipio":"5028","idProvincia":"33","idCCAA":"03"}}},{"type":"Feature","geometry":{"type":"Point","coordinates":[-5.661278,43.393306]},"properties":{"id":"es-873","source":"ES","brand":"REPSOL","address":"PLAZA ARGUELLES, S/N","municipality":"Siero","province":"ASTURIAS","postalCode":"33510","schedule":"L-V: 07:00-20:00; S: 08:00-14:00","fuels":{"diesel":1.949},"extra":{"saleType":"P","margin":"D","reportingType":"OM","ideess":"873","idMunicipio":"5028","idProvincia":"33","idCCAA":"03"}}},{"type":"Feature","geometry":{"type":"Point","coordinates":[-5.837861,43.427333]},"properties":{"id":"es-875","source":"ES","brand":"ASIPO SERVICIOS","address":"CALLE A - POLIGONO INDUSTRIAL DE ASIPO, 21","municipality":"Llanera","province":"ASTURIAS","postalCode":"33428","schedule":"L-V: 07:00-20:00","fuels":{"gasoline95":1.809,"gasoline95E10":1.979,"gasoline95E25":2.139,"gasoline95E85":3.0,"diesel":1.899,"dieselPremium":1.969},"extra":{"saleType":"P","margin":"N","reportingType":"dm","ideess":"875","idMunicipio":"4997","idProvincia":"33","idCCAA":"03"}}},{"type":"Feature","geometry":{"type":"Point","coordinates":[-5.691222,43.533833]},"properties":{"id":"es-876","source":"ES","brand":"SHELL","address":"AVENIDA DE LOS CAMPONES, 13","municipality":"Gijón","province":"ASTURIAS","postalCode":"33211","schedule":"L-D: 07:00-23:00","fuels":{"gasoline95":1.779,"gasoline98":1.919,"diesel":1.899,"dieselPremium":1.979,"adblue":1.25},"extra":{"saleType":"P","margin":"N","reportingType":"OM","ideess":"876","idMunicipio":"4987","idProvincia":"33","idCCAA":"03"}}},{"type":"Feature","geometry":{"type":"Point","coordinates":[-5.784056,43.38275]},"properties":{"id":"es-882","source":"ES","brand":"BP LA CHALANA","address":"CARRETERA VIELLA KM. 0,250","municipality":"Siero","province":"ASTURIAS","postalCode":"33429","schedule":"L-D: 06:00-22:00","fuels":{"gasoline95":1.789,"gasoline98":1.929,"diesel":1.939,"dieselPremium":1.999,"adblue":1.289},"extra":{"saleType":"P","margin":"I","reportingType":"dm","ideess":"882","idMunicipio":"5028","idProvincia":"33","idCCAA":"03"}}},{"type":"Feature","geometry":{"type":"Point","coordinates":[-5.781639,43.246083]},"properties":{"id":"es-883","source":"ES","brand":"SARAS","address":"POLIGONO GONZALIN PARC. T-C.","municipality":"Mieres","province":"ASTURIAS","postalCode":"33614","schedule":"L-D: 24H","fuels":{"gasoline95":1.829,"gasoline98":1.949,"diesel":1.959},"extra":{"saleType":"P","margin":"D","reportingType":"dm","ideess":"883","idMunicipio":"4999","idProvincia":"33","idCCAA":"03"}}},{"type":"Feature","geometry":{"type":"Point","coordinates":[-5.689361,43.508333]},"properties":{"id":"es-886","source":"ES","brand":"EASYGAS","address":"CALLE NICOLAS COPERNICO, 311","municipality":"Gijón","province":"ASTURIAS","postalCode":"33211","schedule":"L-D: 24H","fuels":{"gasoline95":1.659,"gasoline95Premium":1.659,"diesel":1.759,"dieselPremium":1.759},"extra":{"saleType":"P","margin":"N","reportingType":"dm","ideess":"886","idMunicipio":"4987","idProvincia":"33","idCCAA":"03"}}},{"type":"Feature","geometry":{"type":"Point","coordinates":[-5.18275,43.3885]},"properties":{"id":"es-888","source":"ES","brand":"GALP ARRIONDAS","address":"ACCESO CRA. NACIONAL 625, 0","municipality":"Cangas de Onís","province":"ASTURIAS","postalCode":"33547","schedule":"L-D: 06:00-22:00","fuels":{"gasoline95Premium":1.809,"gasoline98":1.939,"diesel":1.859,"dieselPremium":1.909,"dieselB":1.649,"adblue":0.799},"extra":{"saleType":"P","margin":"D","reportingType":"OM","ideess":"888","idMunicipio":"4974","idProvincia":"33","idCCAA":"03"}}},{"type":"Feature","geometry":{"type":"Point","coordinates":[-5.754722,43.383611]},"properties":{"id":"es-889","source":"ES","brand":"REPSOL","address":"CARRETERA N-634 BERRON EL KM. 347","municipality":"Siero","province":"ASTURIAS","postalCode":"33518","schedule":"L-D: 06:00-22:30","fuels":{"gasoline95":1.805,"gasoline98":1.925,"diesel":1.949,"dieselPremium":2.009},"extra":{"saleType":"P","margin":"D","reportingType":"OM","ideess":"889","idMunicipio":"5028","idProvincia":"33","idCCAA":"03"}}},{"type":"Feature","geometry":{"type":"Point","coordinates":[-5.815778,43.371139]},"properties":{"id":"es-893","source":"ES","brand":"REPSOL","address":"CARRETERA NACIONAL 634 KM. 406","municipality":"Oviedo","province":"ASTURIAS","postalCode":"33010","schedule":"L-D: 07:00-23:00","fuels":{"gasoline95":1.815,"gasoline98":1.935,"diesel":1.949,"dieselPremium":2.009,"dieselB":1.709,"lpg":1.155},"extra":{"saleType":"P","margin":"D","reportingType":"OM","ideess":"893","idMunicipio":"5006","idProvincia":"33","idCCAA":"03"}}},{"type":"Feature","geometry":{"type":"Point","coordinates":[-5.791333,43.40025]},"properties":{"id":"es-894","source":"ES","brand":"PETRONOR","address":"CR SI-3, 2,2","municipality":"Siero","province":"ASTURIAS","postalCode":"33420","schedule":"L-D: 06:30-22:30","fuels":{"gasoline95":1.809,"gasoline98":1.959,"diesel":1.939,"dieselPremium":1.999},"extra":{"saleType":"P","margin":"D","reportingType":"OM","ideess":"894","idMunicipio":"5028","idProvincia":"33","idCCAA":"03"}}},{"type":"Feature","geometry":{"type":"Point","coordinates":[-5.752722,43.174111]},"properties":{"id":"es-8976","source":"ES","brand":"MOEVE","address":"POLIGONO INDUSTRIAL DE CABONARA, 0","municipality":"Aller","province":"ASTURIAS","postalCode":"33684","schedule":"L-D: 07:00-23:00","fuels":{"gasoline95":1.794,"gasoline98":1.954,"diesel":1.954,"dieselPremium":2.054},"extra":{"saleType":"P","margin":"D","reportingType":"OM","ideess":"8976","idMunicipio":"4965","idProvincia":"33","idCCAA":"03"}}},{"type":"Feature","geometry":{"type":"Point","coordinates":[-5.729667,43.326306]},"properties":{"id":"es-899","source":"ES","brand":"REPSOL","address":"POLIGONO POLIGONO RIAÑOI, 1","municipality":"Langreo","province":"ASTURIAS","postalCode":"33920","schedule":"L-D: 06:00-23:00","fuels":{"gasoline95":1.78,"gasoline98":1.939,"diesel":1.955,"dieselPremium":2.025,"dieselB":1.669,"lpg":1.069},"extra":{"saleType":"P","margin":"D","reportingType":"dm","ideess":"899","idMunicipio":"4994","idProvincia":"33","idCCAA":"03"}}},{"type":"Feature","geometry":{"type":"Point","coordinates":[-5.8175,43.414389]},"properties":{"id":"es-900","source":"ES","brand":"REPSOL","address":"PG INDUSTRIAL SILVOTA, S.N.","municipality":"Llanera","province":"ASTURIAS","postalCode":"33192","schedule":"L-S: 06:00-22:00; D: 07:00-15:00","fuels":{"gasoline95":1.815,"gasoline98":1.935,"diesel":1.955,"dieselRenewable":2.075},"extra":{"saleType":"P","margin":"D","reportingType":"OM","ideess":"900","idMunicipio":"4997","idProvincia":"33","idCCAA":"03"}}},{"type":"Feature","geometry":{"type":"Point","coordinates":[-5.658528,43.50775]},"properties":{"id":"es-904","source":"ES","brand":"REPSOL","address":"CARRETERA AS-248 KM. 3,600","municipality":"Gijón","province":"ASTURIAS","postalCode":"33391","schedule":"L-D: 06:00-22:00","fuels":{"gasoline95":1.819,"gasoline98":1.939,"diesel":1.959,"dieselPremium":2.019},"extra":{"saleType":"P","margin":"D","reportingType":"OM","ideess":"904","idMunicipio":"4987","idProvincia":"33","idCCAA":"03"}}},{"type":"Feature","geometry":{"type":"Point","coordinates":[-5.271472,43.365861]},"properties":{"id":"es-906","source":"ES","brand":"REPSOL","address":"CARRETERA N-634 KM. 353,7","municipality":"Piloña","province":"ASTURIAS","postalCode":"33584","schedule":"L-D: 06:00-22:00","fuels":{"gasoline95":1.829,"diesel":1.969,"dieselPremium":2.049,"dieselB":1.729},"extra":{"saleType":"P","margin":"D","reportingType":"dm","ideess":"906","idMunicipio":"5011","idProvincia":"33","idCCAA":"03"}}},{"type":"Feature","geometry":{"type":"Point","coordinates":[-5.657083,43.53825]},"properties":{"id":"es-907","source":"ES","brand":"REPSOL","address":"CL SANTA DORADIA 22","municipality":"Gijón","province":"ASTURIAS","postalCode":"33202","schedule":"L-D: 06:00-22:00","fuels":{"gasoline95":1.809,"diesel":1.935},"extra":{"saleType":"P","margin":"D","reportingType":"dm","ideess":"907","idMunicipio":"4987","idProvincia":"33","idCCAA":"03"}}},{"type":"Feature","geometry":{"type":"Point","coordinates":[-5.869306,43.340556]},"properties":{"id":"es-908","source":"ES","brand":"REPSOL","address":"AUTOPISTA A-66 KM. 33","municipality":"Oviedo","province":"ASTURIAS","postalCode":"33001","schedule":"L-D: 24H","fuels":{"gasoline95":1.815,"gasoline98":1.935,"diesel":1.945,"dieselPremium":2.035},"extra":{"saleType":"P","margin":"I","reportingType":"OM","ideess":"908","idMunicipio":"5006","idProvincia":"33","idCCAA":"03"}}},{"type":"Feature","geometry":{"type":"Point","coordinates":[-5.684722,43.521111]},"properties":{"id":"es-909","source":"ES","brand":"REPSOL","address":"AVENIDA CONSTITUCION, 220","municipality":"Gijón","province":"ASTURIAS","postalCode":"33211","schedule":"L-D: 24H","fuels":{"gasoline95":1.815,"gasoline95Premium":1.885,"gasoline98":1.935,"diesel":1.965,"dieselPremium":2.025,"lpg":1.169,"cng":1.609},"extra":{"saleType":"P","margin":"D","reportingType":"OM","ideess":"909","idMunicipio":"4987","idProvincia":"33","idCCAA":"03"}}},{"type":"Feature","geometry":{"type":"Point","coordinates":[-5.695444,43.543167]},"properties":{"id":"es-911","source":"ES","brand":"CEPSA","address":"AVENIDA PRINCIPE DE ASTURIAS, 78","municipality":"Gijón","province":"ASTURIAS","postalCode":"33212","schedule":"L: 07:00-23:00","fuels":{"gasoline95":1.809,"gasoline98":1.949,"diesel":1.939,"dieselPremium":2.009,"adblue":0.999},"extra":{"saleType":"P","margin":"D","reportingType":"dm","ideess":"911","idMunicipio":"4987","idProvincia":"33","idCCAA":"03"}}},{"type":"Feature","geometry":{"type":"Point","coordinates":[-5.881583,43.301111]},"properties":{"id":"es-913","source":"ES","brand":"PETRONOR","address":"CARRETERA N630 KM. 36,7","municipality":"Morcín","province":"ASTURIAS","postalCode":"33163","schedule":"L-D: 06:00-22:00","fuels":{"gasoline95":1.795,"gasoline98":1.965,"diesel":1.965,"dieselB":1.735,"dieselRenewable":2.085},"extra":{"saleType":"P","margin":"I","reportingType":"OM","ideess":"913","idMunicipio":"5000","idProvincia":"33","idCCAA":"03"}}},{"type":"Feature","geometry":{"type":"Point","coordinates":[-5.843889,43.366778]},"properties":{"id":"es-915","source":"ES","brand":"REPSOL","address":"CALLE GENERAL ELORZA, 30","municipality":"Oviedo","province":"ASTURIAS","postalCode":"33001","schedule":"L-D: 24H","fuels":{"diesel":1.975},"extra":{"saleType":"P","margin":"D","reportingType":"dm","ideess":"915","idMunicipio":"5006","idProvincia":"33","idCCAA":"03"}}},{"type":"Feature","geometry":{"type":"Point","coordinates":[-5.621083,43.391056]},"properties":{"id":"es-917","source":"ES","brand":"CAMPSA","address":"CARRETERA N-634 KM. 386,517","municipality":"Siero","province":"ASTURIAS","postalCode":"33519","schedule":"L-D: 24H","fuels":{"gasoline95":1.799,"gasoline98":1.949,"diesel":1.949,"dieselPremium":2.029},"extra":{"saleType":"P","margin":"I","reportingType":"OM","ideess":"917","idMunicipio":"5028","idProvincia":"33","idCCAA":"03"}}},{"type":"Feature","geometry":{"type":"Point","coordinates":[-5.643306,43.532028]},"properties":{"id":"es-920","source":"ES","brand":"REPSOL","address":"CARRETERA VIESQUES KM. S/N","municipality":"Gijón","province":"ASTURIAS","postalCode":"33204","schedule":"L-D: 07:00-23:00","fuels":{"gasoline95":1.829,"diesel":1.975,"dieselPremium":2.035},"extra":{"saleType":"P","margin":"D","reportingType":"OM","ideess":"920","idMunicipio":"4987","idProvincia":"33","idCCAA":"03"}}},{"type":"Feature","geometry":{"type":"Point","coordinates":[-5.922806,43.567861]},"properties":{"id":"es-923","source":"ES","brand":"BALLENOIL","address":"AVENIDA CONDE GUADALHORCE, 69","municipality":"Avilés","province":"ASTURIAS","postalCode":"33401","schedule":"L-D: 24H","fuels":{"gasoline95":1.699,"gasoline95Premium":1.719,"diesel":1.749,"dieselPremium":1.769},"extra":{"saleType":"P","margin":"I","reportingType":"OM","ideess":"923","idMunicipio":"4967","idProvincia":"33","idCCAA":"03"}}},{"type":"Feature","geometry":{"type":"Point","coordinates":[-5.981028,43.557306]},"properties":{"id":"es-924","source":"ES","brand":"A. G.","address":"AVDA. PRINCIPAL, 37","municipality":"Castrillón","province":"ASTURIAS","postalCode":"33450","schedule":"L-D: 07:00-23:00","fuels":{"gasoline95":1.679,"gasoline98":1.799,"diesel":1.799,"dieselPremium":1.799,"adblue":1.1},"extra":{"saleType":"P","margin":"N","reportingType":"dm","ideess":"924","idMunicipio":"4979","idProvincia":"33","idCCAA":"03"}}},{"type":"Feature","geometry":{"type":"Point","coordinates":[-5.691167,43.511556]},"properties":{"id":"es-926","source":"ES","brand":"ALCAMPO","address":"AUTOPISTA AS -2 KM. 22","municipality":"Gijón","province":"ASTURIAS","postalCode":"33211","schedule":"L-D: 24H","fuels":{"gasoline95":1.647,"gasoline98":1.766,"diesel":1.729,"dieselPremium":1.749},"extra":{"saleType":"P","margin":"N","reportingType":"dm","ideess":"926","idMunicipio":"4987","idProvincia":"33","idCCAA":"03"}}},{"type":"Feature","geometry":{"type":"Point","coordinates":[-5.927,43.566361]},"properties":{"id":"es-927","source":"ES","brand":"REPSOL","address":"AVENIDA DE LUGO, 24","municipality":"Avilés","province":"ASTURIAS","postalCode":"33400","schedule":"L-D: 07:00-23:00","fuels":{"gasoline95":1.825,"gasoline98":1.945,"diesel":1.965,"dieselRenewable":2.085,"cng":1.609},"extra":{"saleType":"P","margin":"D","reportingType":"OM","ideess":"927","idMunicipio":"4967","idProvincia":"33","idCCAA":"03"}}},{"type":"Feature","geometry":{"type":"Point","coordinates":[-5.787528,43.432889]},"properties":{"id":"es-933","source":"ES","brand":"CEPSA","address":"CARRETERA AS-18 KM. 9,2","municipality":"Llanera","province":"ASTURIAS","postalCode":"33192","schedule":"L-V: 07:30-21:00; S: 09:00-17:00; D: 10:00-15:00","fuels":{"gasoline95":1.819,"gasoline98":1.979,"diesel":1.969,"dieselPremium":2.069,"dieselB":1.829,"adblue":1.249},"extra":{"saleType":"P","margin":"I","reportingType":"dm","ideess":"933","idMunicipio":"4997","idProvincia":"33","idCCAA":"03"}}},{"type":"Feature","geometry":{"type":"Point","coordinates":[-5.7135,43.327639]},"properties":{"id":"es-940","source":"ES","brand":"REPSOL","address":"CARRETERA AS-17 KM. 37,400","municipality":"Langreo","province":"ASTURIAS","postalCode":"33920","schedule":"L-D: 06:00-22:00","fuels":{"gasoline95":1.785,"gasoline98":1.955,"diesel":1.965,"dieselPremium":2.045},"extra":{"saleType":"P","margin":"I","reportingType":"OM","ideess":"940","idMunicipio":"4994","idProvincia":"33","idCCAA":"03"}}},{"type":"Feature","geometry":{"type":"Point","coordinates":[-5.667639,43.541139]},"properties":{"id":"es-942","source":"ES","brand":"REPSOL","address":"CALLE CARMEN, 24","municipality":"Gijón","province":"ASTURIAS","postalCode":"33206","schedule":"L-D: 24H","fuels":{"gasoline95":1.829,"diesel":1.939},"extra":{"saleType":"P","margin":"D","reportingType":"dm","ideess":"942","idMunicipio":"4987","idProvincia":"33","idCCAA":"03"}}},{"type":"Feature","geometry":{"type":"Point","coordinates":[-5.568944,43.249194]},"properties":{"id":"es-943","source":"ES","brand":"MOEVE","address":"POLIGONO EL SUTU, S/N","municipality":"Laviana","province":"ASTURIAS","postalCode":"33980","schedule":"L-D: 06:30-23:30","fuels":{"gasoline95":1.794,"gasoline98":1.934,"diesel":1.934,"dieselPremium":2.034,"adblue":0.91},"extra":{"saleType":"P","margin":"D","reportingType":"dm","ideess":"943","idMunicipio":"4995","idProvincia":"33","idCCAA":"03"}}},{"type":"Feature","geometry":{"type":"Point","coordinates":[-5.703389,43.538222]},"properties":{"id":"es-945","source":"ES","brand":"GALP","address":"AVENIDA DE LA ARGENTINA, S/N","municipality":"Gijón","province":"ASTURIAS","postalCode":"33212","schedule":"L-D: 07:00-23:00","fuels":{"gasoline95":1.769,"gasoline95Premium":1.819,"diesel":1.799,"dieselPremium":1.849},"extra":{"saleType":"P","margin":"N","reportingType":"dm","ideess":"945","idMunicipio":"4987","idProvincia":"33","idCCAA":"03"}}},{"type":"Feature","geometry":{"type":"Point","coordinates":[-5.497333,43.358222]},"properties":{"id":"es-946","source":"ES","brand":"GALP","address":"CARRETERA N-634 KM. 375,1","municipality":"Nava","province":"ASTURIAS","postalCode":"33520","schedule":"L-S: 07:00-22:00; D: 07:00-15:00","fuels":{"gasoline95":1.769,"diesel":1.919,"dieselB":1.569},"extra":{"saleType":"P","margin":"I","reportingType":"OM","ideess":"946","idMunicipio":"5002","idProvincia":"33","idCCAA":"03"}}},{"type":"Feature","geometry":{"type":"Point","coordinates":[-5.966194,43.354278]},"properties":{"id":"es-9466","source":"ES","brand":"BP","address":"CARRETERA NACIONAL 634 KM. 224","municipality":"Oviedo","province":"ASTURIAS","postalCode":"33119","schedule":"L: 06:30-23:00","fuels":{"gasoline95":1.779,"diesel":1.949},"extra":{"saleType":"P","margin":"N","reportingType":"dm","ideess":"9466","idMunicipio":"5006","idProvincia":"33","idCCAA":"03"}}},{"type":"Feature","geometry":{"type":"Point","coordinates":[-5.512194,43.513389]},"properties":{"id":"es-948","source":"ES","brand":"GALP","address":"CARRETERA N-632 KM. 54","municipality":"Villaviciosa","province":"ASTURIAS","postalCode":"33314","schedule":"L-D: 07:00-23:00","fuels":{"gasoline95":1.789,"gasoline95Premium":1.839,"diesel":1.979,"dieselPremium":2.029,"dieselB":1.539},"extra":{"saleType":"P","margin":"D","reportingType":"OM","ideess":"948","idMunicipio":"5039","idProvincia":"33","idCCAA":"03"}}},{"type":"Feature","geometry":{"type":"Point","coordinates":[-5.742972,43.171833]},"properties":{"id":"es-950","source":"ES","brand":"GALP","address":"CALLE CONSTITUCIÓN, 91","municipality":"Aller","province":"ASTURIAS","postalCode":"33670","schedule":"L-D: 07:00-23:00","fuels":{"gasoline95":1.764,"gasoline95Premium":1.814,"diesel":1.924,"dieselPremium":1.974,"dieselB":1.704},"extra":{"saleType":"P","margin":"D","reportingType":"OM","ideess":"950","idMunicipio":"4965","idProvincia":"33","idCCAA":"03"}}},{"type":"Feature","geometry":{"type":"Point","coordinates":[-5.546583,43.373056]},"properties":{"id":"es-952","source":"ES","brand":"GALP","address":"CARRETERA N-634 KM. 379,7","municipality":"Nava","province":"ASTURIAS","postalCode":"33520","schedule":"L-D: 07:00-23:00","fuels":{"gasoline95":1.769,"gasoline98":1.909,"diesel":1.919,"dieselPremium":1.969,"adblue":0.799},"extra":{"saleType":"P","margin":"I","reportingType":"OM","ideess":"952","idMunicipio":"5002","idProvincia":"33","idCCAA":"03"}}},{"type":"Feature","geometry":{"type":"Point","coordinates":[-5.898833,43.359806]},"properties":{"id":"es-953","source":"ES","brand":"GALP","address":"LAS MAZAS, 55 (SAN CLAUDIO)","municipality":"Oviedo","province":"ASTURIAS","postalCode":"33199","schedule":"L-D: 07:00-22:00","fuels":{"gasoline95":1.789,"diesel":1.919,"dieselPremium":1.989},"extra":{"saleType":"P","margin":"I","reportingType":"dm","ideess":"953","idMunicipio":"5006","idProvincia":"33","idCCAA":"03"}}},{"type":"Feature","geometry":{"type":"Point","coordinates":[-5.912611,43.546778]},"properties":{"id":"es-957","source":"ES","brand":"MOEVE","address":"TRAVESIA LOS CANAPES, 2","municipality":"Avilés","province":"ASTURIAS","postalCode":"33402","schedule":"L-D: 06:00-23:59","fuels":{"gasoline95":1.794,"gasoline95Premium":1.894,"gasoline98":1.954,"diesel":1.954,"dieselPremium":2.054},"extra":{"saleType":"P","margin":"D","reportingType":"OM","ideess":"957","idMunicipio":"4967","idProvincia":"33","idCCAA":"03"}}},{"type":"Feature","geometry":{"type":"Point","coordinates":[-5.811222,43.181861]},"properties":{"id":"es-958","source":"ES","brand":"MOEVE","address":"AUTOVIA A-66 (MRG.DCHO.) KM. 58,5","municipality":"Lena","province":"ASTURIAS","postalCode":"33630","schedule":"L-D: 24H","fuels":{"gasoline95":1.794,"gasoline98":1.954,"diesel":1.954,"dieselPremium":2.054,"dieselB":1.804},"extra":{"saleType":"P","margin":"D","reportingType":"OM","ideess":"958","idMunicipio":"4996","idProvincia":"33","idCCAA":"03"}}},{"type":"Feature","geometry":{"type":"Point","coordinates":[-5.80975,43.181639]},"properties":{"id":"es-959","source":"ES","brand":"CEPSA","address":"AUTOVIA A-66 (MRG.IZDO.) KM. 58,5","municipality":"Lena","province":"ASTURIAS","postalCode":"33630","schedule":"L-D: 06:00-22:00","fuels":{"gasoline95":1.794,"gasoline98":1.954,"diesel":1.954,"dieselPremium":2.054,"dieselB":1.804},"extra":{"saleType":"P","margin":"I","reportingType":"OM","ideess":"959","idMunicipio":"4996","idProvincia":"33","idCCAA":"03"}}},{"type":"Feature","geometry":{"type":"Point","coordinates":[-5.767861,43.554833]},"properties":{"id":"es-960","source":"ES","brand":"CEPSA","address":"CARRETERA AS-19 KM. 9,600","municipality":"Carreño","province":"ASTURIAS","postalCode":"33438","schedule":"L-V: 06:30-22:30; S-D: 08:00-22:30","fuels":{"gasoline95":1.809,"gasoline98":1.959,"diesel":1.969,"dieselPremium":2.069,"dieselB":1.779,"adblue":1.0},"extra":{"saleType":"P","margin":"D","reportingType":"dm","ideess":"960","idMunicipio":"4977","idProvincia":"33","idCCAA":"03"}}},{"type":"Feature","geometry":{"type":"Point","coordinates":[-5.668889,43.521]},"properties":{"id":"es-962","source":"ES","brand":"REPSOL","address":"CALLE CARRETERA CARBONERA , (GASOLINERA), 52","municipality":"Gijón","province":"ASTURIAS","postalCode":"33210","schedule":"L-D: 06:00-22:00","fuels":{"gasoline95":1.819,"diesel":1.965,"dieselPremium":2.045},"extra":{"saleType":"P","margin":"I","reportingType":"OM","ideess":"962","idMunicipio":"4987","idProvincia":"33","idCCAA":"03"}}},{"type":"Feature","geometry":{"type":"Point","coordinates":[-5.778889,43.236944]},"properties":{"id":"es-965","source":"ES","brand":"REPSOL","address":"POLIGONO POL.IND. VEGA DE ARRIBA, S/N","municipality":"Mieres","province":"ASTURIAS","postalCode":"33600","schedule":"L-D: 07:00-23:00","fuels":{"gasoline95":1.845,"gasoline98":1.965,"diesel":1.975,"dieselPremium":2.035,"lpg":1.155},"extra":{"saleType":"P","margin":"D","reportingType":"OM","ideess":"965","idMunicipio":"4999","idProvincia":"33","idCCAA":"03"}}},{"type":"Feature","geometry":{"type":"Point","coordinates":[-5.828639,43.34875]},"properties":{"id":"es-968","source":"ES","brand":"ARBESU","address":"CARRETERA AS 242 KM. 1,600","municipality":"Oviedo","province":"ASTURIAS","postalCode":"33195","schedule":"L: 07:30-23:30","fuels":{"gasoline95":1.795,"gasoline98":1.905,"diesel":1.905,"dieselPremium":2.005,"dieselB":2.015},"extra":{"saleType":"P","margin":"N","reportingType":"dm","ideess":"968","idMunicipio":"5006","idProvincia":"33","idCCAA":"03"}}},{"type":"Feature","geometry":{"type":"Point","coordinates":[-5.797194,43.4155]},"properties":{"id":"es-970","source":"ES","brand":"GALP","address":"GLORIETA URBANIZACION LA FRESNEDA Y  AS-18 (HOY AS-266) KM, 1","municipality":"Siero","province":"ASTURIAS","postalCode":"33420","schedule":"L-S: 06:30-22:30; D: 07:30-22:30","fuels":{"gasoline95":1.789,"gasoline98":1.919,"diesel":1.919,"dieselPremium":1.979,"lpg":1.119,"adblue":1.249},"extra":{"saleType":"P","margin":"D","reportingType":"dm","ideess":"970","idMunicipio":"5028","idProvincia":"33","idCCAA":"03"}}},{"type":"Feature","geometry":{"type":"Point","coordinates":[-5.784917,43.402722]},"properties":{"id":"es-977","source":"ES","brand":"REPSOL","address":"CARRETERA AS-17 KM. 24,9","municipality":"Siero","province":"ASTURIAS","postalCode":"33429","schedule":"L-D: 06:00-22:00","fuels":{"gasoline95":1.799,"gasoline98":1.929,"diesel":1.939,"dieselPremium":1.999},"extra":{"saleType":"P","margin":"I","reportingType":"dm","ideess":"977","idMunicipio":"5028","idProvincia":"33","idCCAA":"03"}}},{"type":"Feature","geometry":{"type":"Point","coordinates":[-5.779944,43.393944]},"properties":{"id":"es-978","source":"ES","brand":"REPSOL","address":"AUTOPISTA A-8 KM. 456","municipality":"Siero","province":"ASTURIAS","postalCode":"33429","schedule":"L-D: 06:00-23:00","fuels":{"gasoline95":1.805,"gasoline98":1.925,"diesel":1.949,"dieselPremium":2.009,"dieselB":1.719},"extra":{"saleType":"P","margin":"D","reportingType":"OM","ideess":"978","idMunicipio":"5028","idProvincia":"33","idCCAA":"03"}}},{"type":"Feature","geometry":{"type":"Point","coordinates":[-5.798889,43.435556]},"properties":{"id":"es-980","source":"ES","brand":"REPSOL","address":"CARRETERA AU A-66 KM. 19","municipality":"Llanera","province":"ASTURIAS","postalCode":"33690","schedule":"L-D: 24H","fuels":{"gasoline95":1.805,"gasoline98":1.925,"diesel":1.935,"dieselPremium":2.005},"extra":{"saleType":"P","margin":"D","reportingType":"OM","ideess":"980","idMunicipio":"4997","idProvincia":"33","idCCAA":"03"}}},{"type":"Feature","geometry":{"type":"Point","coordinates":[-5.798611,43.438056]},"properties":{"id":"es-981","source":"ES","brand":"REPSOL","address":"CARRETERA AU A-66 KM. 19","municipality":"Llanera","province":"ASTURIAS","postalCode":"33690","schedule":"L-D: 24H","fuels":{"gasoline95":1.805,"gasoline98":1.925,"diesel":1.935,"dieselPremium":2.005},"extra":{"saleType":"P","margin":"I","reportingType":"OM","ideess":"981","idMunicipio":"4997","idProvincia":"33","idCCAA":"03"}}},{"type":"Feature","geometry":{"type":"Point","coordinates":[-5.568472,43.249167]},"properties":{"id":"es-9817","source":"ES","brand":"AVIA","address":"POLIGONO EL SUTU S/N","municipality":"Laviana","province":"ASTURIAS","postalCode":"33980","schedule":"L-D: 06:30-22:30","fuels":{"gasoline95":1.779,"gasoline98":1.909,"diesel":1.909,"dieselPremium":2.009,"adblue":0.899},"extra":{"saleType":"P","margin":"D","reportingType":"dm","ideess":"9817","idMunicipio":"4995","idProvincia":"33","idCCAA":"03"}}},{"type":"Feature","geometry":{"type":"Point","coordinates":[-5.584278,43.517083]},"properties":{"id":"es-982","source":"ES","brand":"CEPSA","address":"CARRETERA N-632 KM. 60,7","municipality":"Gijón","province":"ASTURIAS","postalCode":"33394","schedule":"L-V: 07:00-22:00; S-D: 08:00-22:00","fuels":{"gasoline95":1.81,"gasoline98":1.961,"diesel":1.966,"dieselPremium":2.064},"extra":{"saleType":"P","margin":"I","reportingType":"dm","ideess":"982","idMunicipio":"4987","idProvincia":"33","idCCAA":"03"}}},{"type":"Feature","geometry":{"type":"Point","coordinates":[-5.865028,43.359389]},"properties":{"id":"es-983","source":"ES","brand":"REPSOL","address":"AVENIDA BUENAVISTA, SN","municipality":"Oviedo","province":"ASTURIAS","postalCode":"33006","schedule":"L-V: 07:00-22:00; S-D: 08:00-22:00","fuels":{"gasoline95":1.785,"gasoline98":1.905,"diesel":1.909,"dieselPremium":1.969},"extra":{"saleType":"P","margin":"D","reportingType":"dm","ideess":"983","idMunicipio":"5006","idProvincia":"33","idCCAA":"03"}}},{"type":"Feature","geometry":{"type":"Point","coordinates":[-5.832528,43.365361]},"properties":{"id":"es-984","source":"ES","brand":"REPSOL","address":"CL LA TENDERINA BAJA, S.N.","municipality":"Oviedo","province":"ASTURIAS","postalCode":"33010","schedule":"L-D: 24H","fuels":{"gasoline95":1.815,"gasoline98":1.935,"diesel":1.945,"dieselRenewable":2.065},"extra":{"saleType":"P","margin":"D","reportingType":"OM","ideess":"984","idMunicipio":"5006","idProvincia":"33","idCCAA":"03"}}},{"type":"Feature","geometry":{"type":"Point","coordinates":[-5.668472,43.534333]},"properties":{"id":"es-986","source":"ES","brand":"REPSOL","address":"CALLE FERNANDEZ LADREDA, 45","municipality":"Gijón","province":"ASTURIAS","postalCode":"33208","schedule":"L-V: 06:00-22:00; S-D: 08:00-22:00","fuels":{"gasoline95":1.819,"gasoline98":1.939,"diesel":1.959,"dieselPremium":2.029},"extra":{"saleType":"P","margin":"D","reportingType":"OM","ideess":"986","idMunicipio":"4987","idProvincia":"33","idCCAA":"03"}}},{"type":"Feature","geometry":{"type":"Point","coordinates":[-5.832583,43.378028]},"properties":{"id":"es-987","source":"ES","brand":"REPSOL","address":"CL BA. PONTON DE VAQUEROS, S.N.","municipality":"Oviedo","province":"ASTURIAS","postalCode":"33011","schedule":"L-D: 07:00-23:00","fuels":{"gasoline95":1.825,"gasoline95Premium":1.895,"gasoline98":1.945,"diesel":1.955,"dieselRenewable":2.075,"lpg":1.159},"extra":{"saleType":"P","margin":"I","reportingType":"OM","ideess":"987","idMunicipio":"5006","idProvincia":"33","idCCAA":"03"}}},{"type":"Feature","geometry":{"type":"Point","coordinates":[-5.698306,43.385139]},"properties":{"id":"es-988","source":"ES","brand":"CAMPSA","address":"AVENIDA DE OVIEDO, 13","municipality":"Siero","province":"ASTURIAS","postalCode":"33186","schedule":"L-D: 06:30-10:30","fuels":{"gasoline95":1.799,"gasoline98":1.919,"diesel":1.949,"dieselB":1.689,"dieselRenewable":2.069},"extra":{"saleType":"P","margin":"I","reportingType":"OM","ideess":"988","idMunicipio":"5028","idProvincia":"33","idCCAA":"03"}}},{"type":"Feature","geometry":{"type":"Point","coordinates":[-5.671306,43.537917]},"properties":{"id":"es-991","source":"ES","brand":"REPSOL","address":"AVENIDA PORTUGAL, 44","municipality":"Gijón","province":"ASTURIAS","postalCode":"33207","schedule":"L-D: 06:00-00:00","fuels":{"gasoline95":1.829,"gasoline98":1.949,"diesel":1.965,"dieselPremium":2.025},"extra":{"saleType":"P","margin":"D","reportingType":"OM","ideess":"991","idMunicipio":"4987","idProvincia":"33","idCCAA":"03"}}},{"type":"Feature","geometry":{"type":"Point","coordinates":[-5.676278,43.527694]},"properties":{"id":"es-992","source":"ES","brand":"MOEVE","address":"AVENIDA CONSTITUCION, 105","municipality":"Gijón","province":"ASTURIAS","postalCode":"33210","schedule":"L-D: 24H","fuels":{"gasoline95":1.794,"gasoline95Premium":1.894,"gasoline98":1.954,"diesel":1.954,"dieselPremium":2.054,"dieselB":1.774},"extra":{"saleType":"P","margin":"D","reportingType":"OM","ideess":"992","idMunicipio":"4987","idProvincia":"33","idCCAA":"03"}}},{"type":"Feature","geometry":{"type":"Point","coordinates":[-5.675944,43.527167]},"properties":{"id":"es-993","source":"ES","brand":"MOEVE","address":"CALLE SEVERO OCHOA, 36","municipality":"Gijón","province":"ASTURIAS","postalCode":"33210","schedule":"L-D: 06:00-22:00","fuels":{"gasoline95":1.794,"gasoline95Premium":1.894,"gasoline98":1.954,"diesel":1.954,"dieselPremium":2.054,"dieselB":1.774},"extra":{"saleType":"P","margin":"I","reportingType":"OM","ideess":"993","idMunicipio":"4987","idProvincia":"33","idCCAA":"03"}}},{"type":"Feature","geometry":{"type":"Point","coordinates":[-5.763083,43.209917]},"properties":{"id":"es-9964","source":"ES","brand":"SHELL","address":"CARRETERA FIGAREDO TURON KM. 1,6","municipality":"Mieres","province":"ASTURIAS","postalCode":"33683","schedule":"L-D: 06:30-23:00","fuels":{"gasoline95":1.809,"gasoline98":1.937,"diesel":1.928,"dieselPremium":1.999},"extra":{"saleType":"P","margin":"D","reportingType":"dm","ideess":"9964","idMunicipio":"4999","idProvincia":"33","idCCAA":"03"}}}]}