{"type":"FeatureCollection","features":[{"type":"Feature","geometry":{"type":"Point","coordinates":[-8.670222,43.045778]},"properties":{"id":"es-10132","source":"ES","brand":"VALCARCE","address":"CTRA CARBALLO - SANTIAGO km 19.9","municipality":"Val do Dubra","province":"CORUÑA (A)","postalCode":"15873","schedule":"L-D: 07:00-23:00","fuels":{"gasoline95":1.778,"diesel":1.898},"extra":{"saleType":"P","margin":"I","reportingType":"dm","ideess":"10132","idMunicipio":"2205","idProvincia":"15","idCCAA":"12"}}},{"type":"Feature","geometry":{"type":"Point","coordinates":[-8.467889,43.230611]},"properties":{"id":"es-10144","source":"ES","brand":"LOW COST ATENDIDO O CORGO","address":"LUGAR CORGO ARRIBA, 10","municipality":"Laracha (A)","province":"CORUÑA (A)","postalCode":"15145","schedule":"L-S: 07:00-22:00","fuels":{"gasoline95":1.65,"gasoline98":1.75,"diesel":1.72,"dieselB":1.42},"extra":{"saleType":"P","margin":"I","reportingType":"dm","ideess":"10144","idMunicipio":"2158","idProvincia":"15","idCCAA":"12"}}},{"type":"Feature","geometry":{"type":"Point","coordinates":[-8.560556,43.008056]},"properties":{"id":"es-10146","source":"ES","brand":"SHELL","address":"CP-5903, km P.K. 16,603","municipality":"Trazo","province":"CORUÑA (A)","postalCode":"15687","schedule":"L-D: 07:30-23:00","fuels":{"gasoline95":1.749,"gasoline98":1.899,"diesel":1.859,"dieselPremium":1.895,"dieselB":1.499,"adblue":1.159},"extra":{"saleType":"P","margin":"D","reportingType":"dm","ideess":"10146","idMunicipio":"2204","idProvincia":"15","idCCAA":"12"}}},{"type":"Feature","geometry":{"type":"Point","coordinates":[-8.475889,43.188139]},"properties":{"id":"es-10181","source":"ES","brand":"SHELL","address":"AVDA DE GALICIA S/N (AC400 km 36)","municipality":"Cerceda","province":"CORUÑA (A)","postalCode":"15185","schedule":"L-D: 07:00-23:00","fuels":{"gasoline95":1.749,"diesel":1.869,"dieselPremium":1.909,"dieselB":1.549,"adblue":1.2},"extra":{"saleType":"P","margin":"I","reportingType":"dm","ideess":"10181","idMunicipio":"2142","idProvincia":"15","idCCAA":"12"}}},{"type":"Feature","geometry":{"type":"Point","coordinates":[-8.683722,43.222111]},"properties":{"id":"es-10231","source":"ES","brand":"CARBUGAL CARBALLO","address":"AVENIDA BERTOA, 18","municipality":"Carballo","province":"CORUÑA (A)","postalCode":"15100","schedule":"L-D: 24H","fuels":{"gasoline95":1.669,"gasoline98":1.799,"diesel":1.739,"dieselPremium":1.789,"adblue":0.799},"extra":{"saleType":"P","margin":"I","reportingType":"dm","ideess":"10231","idMunicipio":"2136","idProvincia":"15","idCCAA":"12"}}},{"type":"Feature","geometry":{"type":"Point","coordinates":[-8.701472,43.219417]},"properties":{"id":"es-10287","source":"ES","brand":"CEPSA","address":"CARRETERA AC416 KM. 1,100","municipality":"Carballo","province":"CORUÑA (A)","postalCode":"15100","schedule":"L-V: 06:15-23:00; S: 07:00-00:00; D: 07:00-23:00","fuels":{"gasoline95":1.735,"gasoline98":1.887,"diesel":1.867,"dieselPremium":1.956},"extra":{"saleType":"P","margin":"D","reportingType":"dm","ideess":"10287","idMunicipio":"2136","idProvincia":"15","idCCAA":"12"}}},{"type":"Feature","geometry":{"type":"Point","coordinates":[-8.045194,43.653333]},"properties":{"id":"es-10556","source":"ES","brand":"GALP","address":"CARRETERA FERROL-CAMPO HOSPITAL KM. 33,6","municipality":"Cedeira","province":"CORUÑA (A)","postalCode":"15350","schedule":"L-D: 07:00-23:00","fuels":{"gasoline95":1.769,"gasoline95Premium":1.819,"diesel":1.899,"dieselPremium":1.949,"dieselB":1.434,"adblue":0.799},"extra":{"saleType":"P","margin":"D","reportingType":"OM","ideess":"10556","idMunicipio":"2140","idProvincia":"15","idCCAA":"12"}}},{"type":"Feature","geometry":{"type":"Point","coordinates":[-8.341139,43.078667]},"properties":{"id":"es-10936","source":"ES","brand":"AGRARIA COMARCAL ORDES SCG","address":"LUGAR PEÑASCO - BARBEIROS, ","municipality":"Ordes","province":"CORUÑA (A)","postalCode":"15680","schedule":"L-V: 09:00-19:30; S: 09:00-13:00","fuels":{"diesel":1.874,"dieselB":1.6},"extra":{"saleType":"P","margin":"D","reportingType":"dm","ideess":"10936","idMunicipio":"2177","idProvincia":"15","idCCAA":"12"}}},{"type":"Feature","geometry":{"type":"Point","coordinates":[-8.614528,43.250472]},"properties":{"id":"es-11016","source":"ES","brand":"MOEVE","address":"CARRETERA C-552 LG.CABOVILAÑO KM. 22","municipality":"Laracha (A)","province":"CORUÑA (A)","postalCode":"15145","schedule":"L-D: 07:00-23:00","fuels":{"gasoline95":1.764,"diesel":1.924,"dieselPremium":2.004,"dieselB":1.744},"extra":{"saleType":"P","margin":"I","reportingType":"OM","ideess":"11016","idMunicipio":"2158","idProvincia":"15","idCCAA":"12"}}},{"type":"Feature","geometry":{"type":"Point","coordinates":[-8.523583,43.296361]},"properties":{"id":"es-11077","source":"ES","brand":"E.S. LA HERMIDA","address":"C-552 km 13,800","municipality":"Arteixo","province":"CORUÑA (A)","postalCode":"15142","schedule":"L-D: 06:30-22:30","fuels":{"gasoline95":1.756,"gasoline98":1.915,"diesel":1.889,"dieselB":1.736,"adblue":1.26},"extra":{"saleType":"P","margin":"I","reportingType":"dm","ideess":"11077","idMunicipio":"2122","idProvincia":"15","idCCAA":"12"}}},{"type":"Feature","geometry":{"type":"Point","coordinates":[-8.56675,43.159639]},"properties":{"id":"es-11107","source":"ES","brand":"CEPSA","address":"RUA XAQUIN LORENZO, 28","municipality":"Cerceda","province":"CORUÑA (A)","postalCode":"15185","schedule":"L-D: 08:00-23:00","fuels":{"gasoline95":1.799,"gasoline98":1.909,"diesel":1.939,"dieselPremium":1.989,"dieselB":1.759},"extra":{"saleType":"P","margin":"D","reportingType":"dm","ideess":"11107","idMunicipio":"2142","idProvincia":"15","idCCAA":"12"}}},{"type":"Feature","geometry":{"type":"Point","coordinates":[-8.362417,43.324361]},"properties":{"id":"es-11165","source":"ES","brand":"REPSOL","address":"CARRETERA NACIONAL VI KM. 589","municipality":"Oleiros","province":"CORUÑA (A)","postalCode":"15172","schedule":"L: 07:00-22:00","fuels":{"gasoline95":1.795,"gasoline98":1.915,"diesel":1.929,"dieselRenewable":2.049,"lpg":1.109},"extra":{"saleType":"P","margin":"D","reportingType":"OM","ideess":"11165","idMunicipio":"2176","idProvincia":"15","idCCAA":"12"}}},{"type":"Feature","geometry":{"type":"Point","coordinates":[-8.952361,43.153083]},"properties":{"id":"es-11341","source":"ES","brand":"ENI","address":"CTRA. A CORUÑA - FINISTERRE km 58,6","municipality":"Zas","province":"CORUÑA (A)","postalCode":"15150","schedule":"L-D: 07:00-23:00","fuels":{"gasoline95":1.809,"gasoline98":1.979,"diesel":1.909,"dieselPremium":1.989,"dieselB":1.559},"extra":{"saleType":"P","margin":"D","reportingType":"OM","ideess":"11341","idMunicipio":"2211","idProvincia":"15","idCCAA":"12"}}},{"type":"Feature","geometry":{"type":"Point","coordinates":[-8.327556,43.330167]},"properties":{"id":"es-11366","source":"ES","brand":"CEPSA","address":"AVDA. FRANCISCA HERRERA, 57","municipality":"Oleiros","province":"CORUÑA (A)","postalCode":"15173","schedule":"L-V: 07:00-23:00; S-D: 08:00-23:00","fuels":{"gasoline95":1.764,"gasoline95E10":1.854,"gasoline98":1.884,"diesel":1.914,"dieselPremium":1.994},"extra":{"saleType":"P","margin":"D","reportingType":"dm","ideess":"11366","idMunicipio":"2176","idProvincia":"15","idCCAA":"12"}}},{"type":"Feature","geometry":{"type":"Point","coordinates":[-8.699167,43.220806]},"properties":{"id":"es-11567","source":"ES","brand":"MINGACHO","address":"CARRETERA AC 416, P.K. 1,270 KM. 1,270","municipality":"Carballo","province":"CORUÑA (A)","postalCode":"15100","schedule":"L-V: 06:30-23:00; S-D: 07:00-23:00","fuels":{"gasoline95":1.698,"gasoline98":1.798,"diesel":1.798,"dieselPremium":1.858,"lpg":0.988,"adblue":0.828},"extra":{"saleType":"P","margin":"D","reportingType":"dm","ideess":"11567","idMunicipio":"2136","idProvincia":"15","idCCAA":"12"}}},{"type":"Feature","geometry":{"type":"Point","coordinates":[-8.407444,43.271056]},"properties":{"id":"es-11679","source":"ES","brand":"REPSOL","address":"POLIGONO CENTRO LOGÍSTICO DE TRANSPORTES DE CULLEREDO, 138","municipality":"Culleredo","province":"CORUÑA (A)","postalCode":"15189","schedule":"L-D: 06:00-00:00","fuels":{"gasoline95":1.799,"gasoline98":1.979,"diesel":1.929,"dieselPremium":1.989,"dieselB":1.649},"extra":{"saleType":"P","margin":"N","reportingType":"dm","ideess":"11679","idMunicipio":"2149","idProvincia":"15","idCCAA":"12"}}},{"type":"Feature","geometry":{"type":"Point","coordinates":[-8.161417,43.248389]},"properties":{"id":"es-11723","source":"ES","brand":"BP - COIROS","address":"CARRETERA NACIONAL VI KM. 567","municipality":"Coirós","province":"CORUÑA (A)","postalCode":"15316","schedule":"L: 07:00-23:00","fuels":{"gasoline95":1.765,"gasoline98":1.935,"diesel":1.919,"dieselPremium":2.039,"adblue":0.75},"extra":{"saleType":"P","margin":"I","reportingType":"dm","ideess":"11723","idMunicipio":"2145","idProvincia":"15","idCCAA":"12"}}},{"type":"Feature","geometry":{"type":"Point","coordinates":[-8.427083,43.328528]},"properties":{"id":"es-11749","source":"ES","brand":"MOEVE","address":"CARRETERA DE FEANS, S/N -BARRIO RESIDENCIAL NUEVO MESOIRO, S/N KM. SN","municipality":"Coruña (A)","province":"CORUÑA (A)","postalCode":"15190","schedule":"L-D: 07:00-23:00","fuels":{"gasoline95":1.794,"gasoline95Premium":1.854,"gasoline98":1.884,"diesel":1.934,"dieselPremium":2.014},"extra":{"saleType":"P","margin":"D","reportingType":"OM","ideess":"11749","idMunicipio":"2148","idProvincia":"15","idCCAA":"12"}}},{"type":"Feature","geometry":{"type":"Point","coordinates":[-8.135,43.240556]},"properties":{"id":"es-11833","source":"ES","brand":"REPSOL","address":"AUTOVIA E-70/A-6 KM. 558","municipality":"Coirós","province":"CORUÑA (A)","postalCode":"15316","schedule":"L-D: 24H","fuels":{"gasoline95":1.775,"gasoline98":1.945,"diesel":1.939,"dieselRenewable":2.059},"extra":{"saleType":"P","margin":"D","reportingType":"OM","ideess":"11833","idMunicipio":"2145","idProvincia":"15","idCCAA":"12"}}},{"type":"Feature","geometry":{"type":"Point","coordinates":[-8.134444,43.239167]},"properties":{"id":"es-11834","source":"ES","brand":"REPSOL","address":"AUTOVIA E-70/A-6 KM. 558","municipality":"Coirós","province":"CORUÑA (A)","postalCode":"15316","schedule":"L-D: 24H","fuels":{"gasoline95":1.775,"gasoline98":1.945,"diesel":1.939,"dieselRenewable":2.059},"extra":{"saleType":"P","margin":"I","reportingType":"OM","ideess":"11834","idMunicipio":"2145","idProvincia":"15","idCCAA":"12"}}},{"type":"Feature","geometry":{"type":"Point","coordinates":[-8.196611,43.488944]},"properties":{"id":"es-11863","source":"ES","brand":"PETROCASH","address":"RUA LUIS SEOANE, 147","municipality":"Narón","province":"CORUÑA (A)","postalCode":"15320","schedule":"L-V: 06:00-22:00; S-D: 07:00-23:00","fuels":{"gasoline95":1.599,"gasoline98":1.759,"diesel":1.699,"dieselPremium":1.729,"adblue":0.799},"extra":{"saleType":"P","margin":"D","reportingType":"dm","ideess":"11863","idMunicipio":"2172","idProvincia":"15","idCCAA":"12"}}},{"type":"Feature","geometry":{"type":"Point","coordinates":[-8.577333,43.246889]},"properties":{"id":"es-11919","source":"ES","brand":"VALCARCE","address":"AVENIDA FINISTERRE, 4","municipality":"Laracha (A)","province":"CORUÑA (A)","postalCode":"15145","schedule":"L-V: 06:30-22:30; S: 08:00-23:00; D: 08:00-22:30","fuels":{"gasoline95":1.765,"gasoline98":1.935,"diesel":1.915,"dieselPremium":1.975},"extra":{"saleType":"P","margin":"D","reportingType":"dm","ideess":"11919","idMunicipio":"2158","idProvincia":"15","idCCAA":"12"}}},{"type":"Feature","geometry":{"type":"Point","coordinates":[-8.21575,43.534194]},"properties":{"id":"es-12315","source":"ES","brand":"CEPSA","address":"LUGAR CAMPO DAS RATAS, S/N","municipality":"Narón","province":"CORUÑA (A)","postalCode":"15540","schedule":"L-D: 07:00-23:00","fuels":{"gasoline95":1.749,"gasoline98":1.929,"diesel":1.859,"dieselPremium":1.939},"extra":{"saleType":"P","margin":"D","reportingType":"dm","ideess":"12315","idMunicipio":"2172","idProvincia":"15","idCCAA":"12"}}},{"type":"Feature","geometry":{"type":"Point","coordinates":[-8.195222,43.531806]},"properties":{"id":"es-12423","source":"ES","brand":"ORTEGAL OIL","address":"RUA BERNARDO ROMERO, 3","municipality":"Narón","province":"CORUÑA (A)","postalCode":"15578","schedule":"L-D: 24H","fuels":{"gasoline95":1.729,"gasoline98":1.859,"diesel":1.889,"dieselPremium":1.949,"lpg":0.998,"adblue":0.769},"extra":{"saleType":"P","margin":"D","reportingType":"dm","ideess":"12423","idMunicipio":"2172","idProvincia":"15","idCCAA":"12"}}},{"type":"Feature","geometry":{"type":"Point","coordinates":[-8.346833,43.295861]},"properties":{"id":"es-12452","source":"ES","brand":"PETROCASH CAMBRE","address":"CARRETERA TEMPLE-CORUÑA KM. 2,66","municipality":"Cambre","province":"CORUÑA (A)","postalCode":"15660","schedule":"L-D: 07:00-23:00","fuels":{"gasoline95":1.659,"diesel":1.729,"dieselPremium":1.769,"adblue":0.799},"extra":{"saleType":"P","margin":"D","reportingType":"dm","ideess":"12452","idMunicipio":"2134","idProvincia":"15","idCCAA":"12"}}},{"type":"Feature","geometry":{"type":"Point","coordinates":[-8.429389,43.351417]},"properties":{"id":"es-12666","source":"ES","brand":"SBC","address":"CALLE SEVERO OCHOA, 39","municipality":"Coruña (A)","province":"CORUÑA (A)","postalCode":"15008","schedule":"L-D: 24H","fuels":{"gasoline95":1.649,"diesel":1.729,"adblue":0.799},"extra":{"saleType":"P","margin":"D","reportingType":"dm","ideess":"12666","idMunicipio":"2148","idProvincia":"15","idCCAA":"12"}}},{"type":"Feature","geometry":{"type":"Point","coordinates":[-8.205056,43.504111]},"properties":{"id":"es-12816","source":"ES","brand":"CARREFOUR","address":"RUA BUQUE ESCUELA GIRALDA, S/N","municipality":"Ferrol","province":"CORUÑA (A)","postalCode":"15405","schedule":"L-D: 24H","fuels":{"gasoline95":1.759,"diesel":1.829,"dieselPremium":1.869},"extra":{"saleType":"P","margin":"N","reportingType":"dm","ideess":"12816","idMunicipio":"2154","idProvincia":"15","idCCAA":"12"}}},{"type":"Feature","geometry":{"type":"Point","coordinates":[-8.19625,43.532]},"properties":{"id":"es-12840","source":"ES","brand":"VALCARCE","address":"AVENIDA GONZALO NAVARRO, 129","municipality":"Narón","province":"CORUÑA (A)","postalCode":"15578","schedule":"L-D: 24H","fuels":{"gasoline95":1.759,"diesel":1.939,"dieselPremium":1.979,"adblue":0.799},"extra":{"saleType":"P","margin":"D","reportingType":"dm","ideess":"12840","idMunicipio":"2172","idProvincia":"15","idCCAA":"12"}}},{"type":"Feature","geometry":{"type":"Point","coordinates":[-8.170167,43.450389]},"properties":{"id":"es-13401","source":"ES","brand":"HAM VILAR DO COLO","address":"POLIGONO ESTRADA VILAR COLO, S/N","municipality":"Fene","province":"CORUÑA (A)","postalCode":"15500","schedule":"L-D: 24H","fuels":{"lng":1.589,"bioLng":1.613},"extra":{"saleType":"P","margin":"D","reportingType":"dm","ideess":"13401","idMunicipio":"2153","idProvincia":"15","idCCAA":"12"}}},{"type":"Feature","geometry":{"type":"Point","coordinates":[-8.428111,43.331028]},"properties":{"id":"es-13429","source":"ES","brand":"PETROPRIX POCOMACO","address":"AVENIDA SEXTA ENSANCHE, 1","municipality":"Coruña (A)","province":"CORUÑA (A)","postalCode":"15191","schedule":"L-D: 24H","fuels":{"gasoline95":1.659,"diesel":1.729},"extra":{"saleType":"P","margin":"D","reportingType":"dm","ideess":"13429","idMunicipio":"2148","idProvincia":"15","idCCAA":"12"}}},{"type":"Feature","geometry":{"type":"Point","coordinates":[-8.420611,43.357278]},"properties":{"id":"es-13460","source":"ES","brand":"MIRAMAR OIL","address":"CALLE ISAAC PERAL, 6","municipality":"Coruña (A)","province":"CORUÑA (A)","postalCode":"15008","schedule":"L-D: 24H","fuels":{"gasoline95":1.659,"gasoline98":1.799,"diesel":1.729,"dieselPremium":1.769},"extra":{"saleType":"P","margin":"N","reportingType":"dm","ideess":"13460","idMunicipio":"2148","idProvincia":"15","idCCAA":"12"}}},{"type":"Feature","geometry":{"type":"Point","coordinates":[-8.196972,43.490167]},"properties":{"id":"es-13635","source":"ES","brand":"PETROPRIX","address":"AVENIDA MAR, 105","municipality":"Narón","province":"CORUÑA (A)","postalCode":"15570","schedule":"L-D: 24H","fuels":{"gasoline95":1.599,"diesel":1.669},"extra":{"saleType":"P","margin":"D","reportingType":"dm","ideess":"13635","idMunicipio":"2172","idProvincia":"15","idCCAA":"12"}}},{"type":"Feature","geometry":{"type":"Point","coordinates":[-8.681917,43.236667]},"properties":{"id":"es-13708","source":"ES","brand":"PETROPRIX","address":"RUA COBRE, 16","municipality":"Carballo","province":"CORUÑA (A)","postalCode":"15100","schedule":"L-D: 24H","fuels":{"gasoline95":1.655,"diesel":1.729},"extra":{"saleType":"P","margin":"N","reportingType":"dm","ideess":"13708","idMunicipio":"2136","idProvincia":"15","idCCAA":"12"}}},{"type":"Feature","geometry":{"type":"Point","coordinates":[-8.419694,43.347278]},"properties":{"id":"es-13717","source":"ES","brand":"CARBUGAL A GRELA","address":"AVENIDA ENRIQUE SALGADO TORRES, 9","municipality":"Coruña (A)","province":"CORUÑA (A)","postalCode":"15008","schedule":"L-D: 24H","fuels":{"gasoline95":1.659,"gasoline98":1.799,"diesel":1.729,"dieselPremium":1.769,"lpg":0.999,"adblue":0.799},"extra":{"saleType":"P","margin":"D","reportingType":"dm","ideess":"13717","idMunicipio":"2148","idProvincia":"15","idCCAA":"12"}}},{"type":"Feature","geometry":{"type":"Point","coordinates":[-8.28775,43.230667]},"properties":{"id":"es-13723","source":"ES","brand":"GSM","address":"CARRETERA AC 542 CARRETERA BETANZOS-MESON DO VENTO KM. 9","municipality":"Abegondo","province":"CORUÑA (A)","postalCode":"15318","schedule":"L-D: 07:00-23:00","fuels":{"gasoline95":1.648,"gasoline98":1.758,"diesel":1.728,"dieselPremium":1.788},"extra":{"saleType":"P","margin":"D","reportingType":"dm","ideess":"13723","idMunicipio":"2118","idProvincia":"15","idCCAA":"12"}}},{"type":"Feature","geometry":{"type":"Point","coordinates":[-8.200111,43.488583]},"properties":{"id":"es-13769","source":"ES","brand":"SBC","address":"AVENIDA DO MAR, 94","municipality":"Narón","province":"CORUÑA (A)","postalCode":"15570","schedule":"L-D: 24H","fuels":{"gasoline95":1.599,"diesel":1.669},"extra":{"saleType":"P","margin":"D","reportingType":"dm","ideess":"13769","idMunicipio":"2172","idProvincia":"15","idCCAA":"12"}}},{"type":"Feature","geometry":{"type":"Point","coordinates":[-8.147583,43.112]},"properties":{"id":"es-13885","source":"ES","brand":"CAR OIL","address":"CARRETERA N-634 KM. 676","municipality":"Vilasantar","province":"CORUÑA (A)","postalCode":"15807","schedule":"L-D: 24H","fuels":{"gasoline95":1.659,"diesel":1.739,"dieselPremium":1.799,"adblue":0.8},"extra":{"saleType":"P","margin":"I","reportingType":"dm","ideess":"13885","idMunicipio":"2209","idProvincia":"15","idCCAA":"12"}}},{"type":"Feature","geometry":{"type":"Point","coordinates":[-8.425944,43.344306]},"properties":{"id":"es-13986","source":"ES","brand":"EASYGAS","address":"CAMINO MARTINETE, 52","municipality":"Coruña (A)","province":"CORUÑA (A)","postalCode":"15008","schedule":"L-D: 07:00-23:00","fuels":{"gasoline95":1.659,"gasoline95Premium":1.659,"diesel":1.739,"dieselPremium":1.739},"extra":{"saleType":"P","margin":"D","reportingType":"dm","ideess":"13986","idMunicipio":"2148","idProvincia":"15","idCCAA":"12"}}},{"type":"Feature","geometry":{"type":"Point","coordinates":[-8.362444,43.298389]},"properties":{"id":"es-14207","source":"ES","brand":"TNS MOTOR","address":"POLIGONO CALLE  C, 21","municipality":"Culleredo","province":"CORUÑA (A)","postalCode":"15180","schedule":"L-D: 08:00-22:00","fuels":{"gasoline95":1.659,"diesel":1.709},"extra":{"saleType":"P","margin":"D","reportingType":"dm","ideess":"14207","idMunicipio":"2149","idProvincia":"15","idCCAA":"12"}}},{"type":"Feature","geometry":{"type":"Point","coordinates":[-8.493083,43.314778]},"properties":{"id":"es-14367","source":"ES","brand":"REPSOL","address":"ESTRADA AC-552 KM 8.38/ AVD. FISTERRA, 7","municipality":"Arteixo","province":"CORUÑA (A)","postalCode":"15142","schedule":"L-D: 07:00-23:00","fuels":{"gasoline95":1.769,"gasoline98":1.939,"diesel":1.929,"dieselPremium":1.989},"extra":{"saleType":"P","margin":"I","reportingType":"OM","ideess":"14367","idMunicipio":"2122","idProvincia":"15","idCCAA":"12"}}},{"type":"Feature","geometry":{"type":"Point","coordinates":[-8.417306,43.354444]},"properties":{"id":"es-14497","source":"ES","brand":"AUTONETOIL","address":"CALLE ISAAC PERAL, 44","municipality":"Coruña (A)","province":"CORUÑA (A)","postalCode":"15008","schedule":"L-D: 24H","fuels":{"gasoline95":1.649,"diesel":1.719},"extra":{"saleType":"P","margin":"D","reportingType":"dm","ideess":"14497","idMunicipio":"2148","idProvincia":"15","idCCAA":"12"}}},{"type":"Feature","geometry":{"type":"Point","coordinates":[-8.167944,43.386694]},"properties":{"id":"es-14512","source":"ES","brand":"CC OIL","address":"CARRETERA N-651 KM. 16","municipality":"Pontedeume","province":"CORUÑA (A)","postalCode":"15614","schedule":"L-D: 07:00-23:00","fuels":{"gasoline95":1.659,"diesel":1.739,"dieselPremium":1.789,"lpg":0.999},"extra":{"saleType":"P","margin":"I","reportingType":"dm","ideess":"14512","idMunicipio":"2187","idProvincia":"15","idCCAA":"12"}}},{"type":"Feature","geometry":{"type":"Point","coordinates":[-8.355417,43.315667]},"properties":{"id":"es-14572","source":"ES","brand":"PETROPRIX","address":"RUA POLIGONO, 19","municipality":"Cambre","province":"CORUÑA (A)","postalCode":"15679","schedule":"L-D: 24H","fuels":{"gasoline95":1.629,"diesel":1.719},"extra":{"saleType":"P","margin":"N","reportingType":"dm","ideess":"14572","idMunicipio":"2134","idProvincia":"15","idCCAA":"12"}}},{"type":"Feature","geometry":{"type":"Point","coordinates":[-8.060472,43.601222]},"properties":{"id":"es-14641","source":"ES","brand":"E.S. VILABOA","address":"LUGAR FIGUEIRA -VILABOA, 3","municipality":"Valdoviño","province":"CORUÑA (A)","postalCode":"15552","schedule":"L-D: 24H","fuels":{"gasoline95":1.74,"diesel":1.8,"dieselB":1.44},"extra":{"saleType":"P","margin":"I","reportingType":"dm","ideess":"14641","idMunicipio":"2206","idProvincia":"15","idCCAA":"12"}}},{"type":"Feature","geometry":{"type":"Point","coordinates":[-8.426889,43.350972]},"properties":{"id":"es-14645","source":"ES","brand":"PETROPRIX","address":"CALLE SEVERO OCHOA, 27","municipality":"Coruña (A)","province":"CORUÑA (A)","postalCode":"15008","schedule":"L-D: 24H","fuels":{"gasoline95":1.649,"diesel":1.719},"extra":{"saleType":"P","margin":"D","reportingType":"dm","ideess":"14645","idMunicipio":"2148","idProvincia":"15","idCCAA":"12"}}},{"type":"Feature","geometry":{"type":"Point","coordinates":[-8.216472,43.275139]},"properties":{"id":"es-14681","source":"ES","brand":"CEPSA","address":"AVENIDA IRIBARNE, S/N","municipality":"Betanzos","province":"CORUÑA (A)","postalCode":"15300","schedule":"L-D: 07:00-23:00","fuels":{"gasoline95":1.764,"diesel":1.934,"dieselPremium":2.014},"extra":{"saleType":"P","margin":"D","reportingType":"OM","ideess":"14681","idMunicipio":"2126","idProvincia":"15","idCCAA":"12"}}},{"type":"Feature","geometry":{"type":"Point","coordinates":[-8.019611,43.652278]},"properties":{"id":"es-14866","source":"ES","brand":"ESTACION DE SERVICIO A TRABE","address":"POLIGONO INDUSTRIAL A TRABE PARCELA.7, ES-G-769","municipality":"Cedeira","province":"CORUÑA (A)","postalCode":"15359","schedule":"L-D: 24H","fuels":{"gasoline95":1.682,"gasoline98":1.731,"diesel":1.799,"dieselPremium":1.849,"dieselB":1.41},"extra":{"saleType":"P","margin":"D","reportingType":"dm","ideess":"14866","idMunicipio":"2140","idProvincia":"15","idCCAA":"12"}}},{"type":"Feature","geometry":{"type":"Point","coordinates":[-8.187889,43.518639]},"properties":{"id":"es-14923","source":"ES","brand":"GALP","address":"AVENIDA AVD. DE CEDEIRA - CTRA AC-113 KM 1,539, 113","municipality":"Narón","province":"CORUÑA (A)","postalCode":"15320","schedule":"L-D: 07:00-23:00","fuels":{"gasoline95":1.779,"gasoline95Premium":1.829,"diesel":1.909,"dieselPremium":1.959,"adblue":0.799},"extra":{"saleType":"P","margin":"D","reportingType":"OM","ideess":"14923","idMunicipio":"2172","idProvincia":"15","idCCAA":"12"}}},{"type":"Feature","geometry":{"type":"Point","coordinates":[-8.238806,43.275333]},"properties":{"id":"es-14948","source":"ES","brand":"ESTACION DE SERVICIO PIADELA FASE III","address":"POLIGONO PARCELA 19.2 VIAL3, 19","municipality":"Betanzos","province":"CORUÑA (A)","postalCode":"15319","schedule":"L-D: 24H","fuels":{"gasoline95":1.659,"diesel":1.729,"adblue":0.69},"extra":{"saleType":"P","margin":"I","reportingType":"dm","ideess":"14948","idMunicipio":"2126","idProvincia":"15","idCCAA":"12"}}},{"type":"Feature","geometry":{"type":"Point","coordinates":[-8.380889,43.305944]},"properties":{"id":"es-15007","source":"ES","brand":"CEPSA","address":"CARRERA N550, 6,6","municipality":"Coruña (A)","province":"CORUÑA (A)","postalCode":"15191","schedule":"L-D: 07:00-23:00","fuels":{"gasoline95":1.784,"gasoline95Premium":1.874,"diesel":1.924,"dieselPremium":2.004},"extra":{"saleType":"P","margin":"D","reportingType":"OM","ideess":"15007","idMunicipio":"2148","idProvincia":"15","idCCAA":"12"}}},{"type":"Feature","geometry":{"type":"Point","coordinates":[-8.472028,43.326861]},"properties":{"id":"es-15190","source":"ES","brand":"Q8","address":"AVENIDA ALCALDE MANUEL PLATAS VARELA, 15","municipality":"Arteixo","province":"CORUÑA (A)","postalCode":"15141","schedule":"L-V: 07:00-21:30; S: 10:00-15:00","fuels":{"gasoline95":1.679,"gasoline98":1.799,"diesel":1.729,"dieselPremium":1.799,"adblue":0.779},"extra":{"saleType":"P","margin":"N","reportingType":"dm","ideess":"15190","idMunicipio":"2122","idProvincia":"15","idCCAA":"12"}}},{"type":"Feature","geometry":{"type":"Point","coordinates":[-8.505944,43.307444]},"properties":{"id":"es-15196","source":"ES","brand":"PETROPRIX","address":"AVENIDA DE FINISTERRE, 145","municipality":"Arteixo","province":"CORUÑA (A)","postalCode":"15142","schedule":"L-D: 24H","fuels":{"gasoline95":1.669,"diesel":1.719},"extra":{"saleType":"P","margin":"N","reportingType":"dm","ideess":"15196","idMunicipio":"2122","idProvincia":"15","idCCAA":"12"}}},{"type":"Feature","geometry":{"type":"Point","coordinates":[-8.458056,43.339611]},"properties":{"id":"es-15487","source":"ES","brand":"CARBUGAL MEICENDE","address":"TRAVESÍA MEICENDE, 5","municipality":"Arteixo","province":"CORUÑA (A)","postalCode":"15140","schedule":"L: 07:00-23:00","fuels":{"gasoline95":1.659,"gasoline98":1.799,"diesel":1.729,"lpg":0.999,"adblue":0.799},"extra":{"saleType":"P","margin":"D","reportingType":"dm","ideess":"15487","idMunicipio":"2122","idProvincia":"15","idCCAA":"12"}}},{"type":"Feature","geometry":{"type":"Point","coordinates":[-8.423083,43.357222]},"properties":{"id":"es-15517","source":"ES","brand":"PETROCASH BENS","address":"AVENIDA FINISTERRE, 265","municipality":"Coruña (A)","province":"CORUÑA (A)","postalCode":"15010","schedule":"L-V: 06:00-23:00; S-D: 07:00-23:00","fuels":{"gasoline95":1.659,"gasoline98":1.799,"diesel":1.729,"dieselPremium":1.769,"lpg":0.999,"adblue":0.799},"extra":{"saleType":"P","margin":"D","reportingType":"dm","ideess":"15517","idMunicipio":"2148","idProvincia":"15","idCCAA":"12"}}},{"type":"Feature","geometry":{"type":"Point","coordinates":[-8.498389,43.317444]},"properties":{"id":"es-15536","source":"ES","brand":"CARBUGAL SABÓN","address":"AVENIDA DIPUTACION, 0","municipality":"Arteixo","province":"CORUÑA (A)","postalCode":"15141","schedule":"L-V: 07:00-23:00; S-D: 08:00-22:00","fuels":{"gasoline95":1.679,"gasoline98":1.799,"diesel":1.729,"dieselPremium":1.789,"lpg":0.999,"adblue":0.799},"extra":{"saleType":"P","margin":"D","reportingType":"dm","ideess":"15536","idMunicipio":"2122","idProvincia":"15","idCCAA":"12"}}},{"type":"Feature","geometry":{"type":"Point","coordinates":[-8.425083,43.3515]},"properties":{"id":"es-15670","source":"ES","brand":"PLENERGY","address":"CALLE SEVERO OCHOA, 0","municipality":"Coruña (A)","province":"CORUÑA (A)","postalCode":"15008","schedule":"L-D: 24H","fuels":{"gasoline95":1.649,"diesel":1.719},"extra":{"saleType":"P","margin":"D","reportingType":"dm","ideess":"15670","idMunicipio":"2148","idProvincia":"15","idCCAA":"12"}}},{"type":"Feature","geometry":{"type":"Point","coordinates":[-8.677361,43.230444]},"properties":{"id":"es-15744","source":"ES","brand":"PLENERGY","address":"RUA ISAAC ALBENIZ, S/N","municipality":"Carballo","province":"CORUÑA (A)","postalCode":"15100","schedule":"L-D: 24H","fuels":{"gasoline95":1.655,"diesel":1.729},"extra":{"saleType":"P","margin":"D","reportingType":"dm","ideess":"15744","idMunicipio":"2136","idProvincia":"15","idCCAA":"12"}}},{"type":"Feature","geometry":{"type":"Point","coordinates":[-8.360444,43.295444]},"properties":{"id":"es-15756","source":"ES","brand":"PETROPRIX","address":"LUGAR A TELVA, 6","municipality":"Cambre","province":"CORUÑA (A)","postalCode":"15181","schedule":"L-D: 24H","fuels":{"gasoline95":1.659,"diesel":1.719},"extra":{"saleType":"P","margin":"I","reportingType":"dm","ideess":"15756","idMunicipio":"2134","idProvincia":"15","idCCAA":"12"}}},{"type":"Feature","geometry":{"type":"Point","coordinates":[-8.069722,43.52725]},"properties":{"id":"es-15774","source":"ES","brand":"GRUPO PENA","address":"LUGAR BIDUEDA, 14","municipality":"San Sadurniño","province":"CORUÑA (A)","postalCode":"15560","schedule":"L-V: 09:00-20:00","fuels":{"diesel":1.709,"adblue":0.72},"extra":{"saleType":"P","margin":"D","reportingType":"dm","ideess":"15774","idMunicipio":"2194","idProvincia":"15","idCCAA":"12"}}},{"type":"Feature","geometry":{"type":"Point","coordinates":[-8.699194,43.204222]},"properties":{"id":"es-15925","source":"ES","brand":"ENI","address":"AVENIDA A REVOLTA, 19","municipality":"Carballo","province":"CORUÑA (A)","postalCode":"15100","schedule":"L-D: 24H","fuels":{"gasoline95":1.699,"diesel":1.779},"extra":{"saleType":"P","margin":"D","reportingType":"OM","ideess":"15925","idMunicipio":"2136","idProvincia":"15","idCCAA":"12"}}},{"type":"Feature","geometry":{"type":"Point","coordinates":[-8.319444,43.322667]},"properties":{"id":"es-15967","source":"ES","brand":"CARREFOUR","address":"AVENIDA RUA O MORRAZO, 11","municipality":"Oleiros","province":"CORUÑA (A)","postalCode":"15171","schedule":"L-S: 08:00-22:00; D: 24H","fuels":{"gasoline95":1.759,"diesel":1.849},"extra":{"saleType":"P","margin":"N","reportingType":"dm","ideess":"15967","idMunicipio":"2176","idProvincia":"15","idCCAA":"12"}}},{"type":"Feature","geometry":{"type":"Point","coordinates":[-8.322611,43.323194]},"properties":{"id":"es-16062","source":"ES","brand":"PLENERGY","address":"RUA DO FARO, 4","municipality":"Oleiros","province":"CORUÑA (A)","postalCode":"15173","schedule":"L-D: 24H","fuels":{"gasoline95":1.629,"diesel":1.719},"extra":{"saleType":"P","margin":"D","reportingType":"dm","ideess":"16062","idMunicipio":"2176","idProvincia":"15","idCCAA":"12"}}},{"type":"Feature","geometry":{"type":"Point","coordinates":[-8.413083,43.263694]},"properties":{"id":"es-16092","source":"ES","brand":"CEPSA","address":"CARRETERA AC523 KM. 1,2","municipality":"Culleredo","province":"CORUÑA (A)","postalCode":"15189","schedule":"L-V: 07:00-23:00; S-D: 10:00-23:00","fuels":{"gasoline95":1.799,"gasoline98":1.969,"diesel":1.919,"dieselPremium":1.989},"extra":{"saleType":"P","margin":"I","reportingType":"dm","ideess":"16092","idMunicipio":"2149","idProvincia":"15","idCCAA":"12"}}},{"type":"Feature","geometry":{"type":"Point","coordinates":[-8.218806,43.511028]},"properties":{"id":"es-16110","source":"ES","brand":"PLENERGY","address":"RUA CAMIÑO PAU DA BANDEIRA, S/N","municipality":"Ferrol","province":"CORUÑA (A)","postalCode":"15405","schedule":"L-D: 24H","fuels":{"gasoline95":1.599,"diesel":1.669},"extra":{"saleType":"P","margin":"D","reportingType":"dm","ideess":"16110","idMunicipio":"2154","idProvincia":"15","idCCAA":"12"}}},{"type":"Feature","geometry":{"type":"Point","coordinates":[-8.494444,43.316861]},"properties":{"id":"es-16434","source":"ES","brand":"PLENERGY","address":"AVENIDA DE LA DIPUTACIÓN POLÍGONO SABÓN, 4","municipality":"Arteixo","province":"CORUÑA (A)","postalCode":"15142","schedule":"L-D: 24H","fuels":{"gasoline95":1.669,"diesel":1.719},"extra":{"saleType":"P","margin":"D","reportingType":"dm","ideess":"16434","idMunicipio":"2122","idProvincia":"15","idCCAA":"12"}}},{"type":"Feature","geometry":{"type":"Point","coordinates":[-8.369528,43.292528]},"properties":{"id":"es-16484","source":"ES","brand":"PLENERGY","address":"RUA SAN FERNANDO, S/N","municipality":"Culleredo","province":"CORUÑA (A)","postalCode":"15189","schedule":"L-D: 24H","fuels":{"gasoline95":1.669,"diesel":1.719},"extra":{"saleType":"P","margin":"D","reportingType":"dm","ideess":"16484","idMunicipio":"2149","idProvincia":"15","idCCAA":"12"}}},{"type":"Feature","geometry":{"type":"Point","coordinates":[-8.345583,43.341833]},"properties":{"id":"es-252","source":"ES","brand":"CARBUGAL SANTA CRUZ","address":"AVDA. CHE GUEVARA 166","municipality":"Oleiros","province":"CORUÑA (A)","postalCode":"15173","schedule":"L-D: 07:00-23:00","fuels":{"gasoline95":1.659,"gasoline98":1.799,"diesel":1.729,"dieselPremium":1.769,"adblue":0.799},"extra":{"saleType":"P","margin":"D","reportingType":"dm","ideess":"252","idMunicipio":"2176","idProvincia":"15","idCCAA":"12"}}},{"type":"Feature","geometry":{"type":"Point","coordinates":[-8.413056,43.066056]},"properties":{"id":"es-260","source":"ES","brand":"ESTACION DE SERVICIO ORDES","address":"LAS CASILLAS (CN-550 LA CORUÑA-SANTIAGO km 37,645)","municipality":"Ordes","province":"CORUÑA (A)","postalCode":"15680","schedule":"L-D: 07:00-23:00","fuels":{"gasoline95":1.749,"gasoline98":1.859,"diesel":1.859,"dieselPremium":1.899,"dieselB":1.719,"adblue":1.09},"extra":{"saleType":"P","margin":"D","reportingType":"dm","ideess":"260","idMunicipio":"2177","idProvincia":"15","idCCAA":"12"}}},{"type":"Feature","geometry":{"type":"Point","coordinates":[-8.81925,43.261944]},"properties":{"id":"es-262","source":"ES","brand":"VALCARCE","address":"CTRA. AC-422 (CTRA. km 37,2)","municipality":"Ponteceso","province":"CORUÑA (A)","postalCode":"15110","schedule":"L-S: 06:30-23:00; D: 07:00-23:00","fuels":{"gasoline95":1.789,"gasoline98":1.929,"diesel":1.879,"dieselPremium":1.899,"dieselB":1.409,"lpg":0.95,"adblue":0.799},"extra":{"saleType":"P","margin":"D","reportingType":"dm","ideess":"262","idMunicipio":"2186","idProvincia":"15","idCCAA":"12"}}},{"type":"Feature","geometry":{"type":"Point","coordinates":[-8.367417,43.284972]},"properties":{"id":"es-272","source":"ES","brand":"ESTACION DE SERVICIO SIGRAS","address":" ENXERTOS, 5","municipality":"Cambre","province":"CORUÑA (A)","postalCode":"15181","schedule":"L-S: 07:00-21:30","fuels":{"gasoline95":1.699,"diesel":1.799,"dieselPremium":1.869,"adblue":0.799},"extra":{"saleType":"P","margin":"D","reportingType":"dm","ideess":"272","idMunicipio":"2134","idProvincia":"15","idCCAA":"12"}}},{"type":"Feature","geometry":{"type":"Point","coordinates":[-8.728639,43.193167]},"properties":{"id":"es-274","source":"ES","brand":"REPSOL","address":"CARRETERA AC-552 KM. 37,100","municipality":"Coristanco","province":"CORUÑA (A)","postalCode":"15147","schedule":"L-D: 24H","fuels":{"gasoline95":1.789,"diesel":1.909,"dieselB":1.595,"dieselRenewable":1.999,"lpg":1.12,"adblue":0.8},"extra":{"saleType":"P","margin":"D","reportingType":"dm","ideess":"274","idMunicipio":"2147","idProvincia":"15","idCCAA":"12"}}},{"type":"Feature","geometry":{"type":"Point","coordinates":[-8.237417,43.281222]},"properties":{"id":"es-276","source":"ES","brand":"CARBUGAL CORTIÑAN","address":"CARRETERA N-VI KM. 576","municipality":"Bergondo","province":"CORUÑA (A)","postalCode":"15165","schedule":"L-D: 07:00-23:00","fuels":{"gasoline95":1.659,"gasoline98":1.799,"diesel":1.729,"lpg":0.999,"adblue":0.799},"extra":{"saleType":"P","margin":"D","reportingType":"dm","ideess":"276","idMunicipio":"2125","idProvincia":"15","idCCAA":"12"}}},{"type":"Feature","geometry":{"type":"Point","coordinates":[-8.369889,43.294056]},"properties":{"id":"es-280","source":"ES","brand":"CARBUGAL ALVEDRO","address":"CARRETERA N 550 KM. 9,400","municipality":"Culleredo","province":"CORUÑA (A)","postalCode":"15189","schedule":"L-D: 07:00-23:00","fuels":{"gasoline95":1.659,"gasoline98":1.799,"diesel":1.729,"adblue":0.799},"extra":{"saleType":"P","margin":"D","reportingType":"dm","ideess":"280","idMunicipio":"2149","idProvincia":"15","idCCAA":"12"}}},{"type":"Feature","geometry":{"type":"Point","coordinates":[-8.24925,43.494861]},"properties":{"id":"es-286","source":"ES","brand":"CEPSA","address":"CARRETERA CABANA KM. 1,33","municipality":"Ferrol","province":"CORUÑA (A)","postalCode":"15590","schedule":"L-D: 24H","fuels":{"gasoline95":1.779,"gasoline98":1.959,"diesel":1.899,"dieselPremium":1.979},"extra":{"saleType":"P","margin":"I","reportingType":"dm","ideess":"286","idMunicipio":"2154","idProvincia":"15","idCCAA":"12"}}},{"type":"Feature","geometry":{"type":"Point","coordinates":[-8.363333,43.253583]},"properties":{"id":"es-299","source":"ES","brand":"ESTACION DE SERVICIO TABEAIO","address":"CARRETERA TARROEIRA KM. ","municipality":"Carral","province":"CORUÑA (A)","postalCode":"15182","schedule":"L-S: 07:00-22:00; D: 09:00-22:00","fuels":{"gasoline95":1.689,"gasoline98":1.829,"diesel":1.799,"dieselPremium":1.839,"dieselB":1.589,"adblue":0.799},"extra":{"saleType":"P","margin":"I","reportingType":"dm","ideess":"299","idMunicipio":"2139","idProvincia":"15","idCCAA":"12"}}},{"type":"Feature","geometry":{"type":"Point","coordinates":[-8.685028,43.169]},"properties":{"id":"es-305","source":"ES","brand":"MOEVE RUS","address":"CARRETERA RUS-SANTIAGO KM. 4,5","municipality":"Carballo","province":"CORUÑA (A)","postalCode":"15109","schedule":"L-D: 07:00-23:00","fuels":{"gasoline95":1.749,"diesel":1.889,"dieselPremium":1.969,"dieselB":1.689},"extra":{"saleType":"P","margin":"I","reportingType":"dm","ideess":"305","idMunicipio":"2136","idProvincia":"15","idCCAA":"12"}}},{"type":"Feature","geometry":{"type":"Point","coordinates":[-8.208778,43.556917]},"properties":{"id":"es-306","source":"ES","brand":"ESTACION DE SERVICIO O VAL","address":"CARRETERA AC-116 A VALDOVIÑO, KM 5.7 KM. ","municipality":"Narón","province":"CORUÑA (A)","postalCode":"15578","schedule":"L-D: 07:00-22:00","fuels":{"gasoline95":1.759,"gasoline98":1.915,"diesel":1.879,"dieselPremium":1.915},"extra":{"saleType":"P","margin":"N","reportingType":"dm","ideess":"306","idMunicipio":"2172","idProvincia":"15","idCCAA":"12"}}},{"type":"Feature","geometry":{"type":"Point","coordinates":[-8.374278,43.318833]},"properties":{"id":"es-308","source":"ES","brand":"GALP","address":"AVENIDA ACEA DE AMA, 25","municipality":"Culleredo","province":"CORUÑA (A)","postalCode":"15670","schedule":"L-D: 07:00-23:00","fuels":{"gasoline95":1.669,"gasoline95Premium":1.719,"diesel":1.759,"dieselPremium":1.809},"extra":{"saleType":"P","margin":"N","reportingType":"OM","ideess":"308","idMunicipio":"2149","idProvincia":"15","idCCAA":"12"}}},{"type":"Feature","geometry":{"type":"Point","coordinates":[-8.168972,43.406833]},"properties":{"id":"es-313","source":"ES","brand":"COMBUSTIBLES RIO EUME","address":"AVENIDA AVDA RICARDO SANCHEZ, 1","municipality":"Pontedeume","province":"CORUÑA (A)","postalCode":"15600","schedule":"L-D: 06:00-23:00","fuels":{"gasoline95":1.659,"gasoline98":1.799,"diesel":1.739},"extra":{"saleType":"P","margin":"I","reportingType":"dm","ideess":"313","idMunicipio":"2187","idProvincia":"15","idCCAA":"12"}}},{"type":"Feature","geometry":{"type":"Point","coordinates":[-8.213917,43.276083]},"properties":{"id":"es-314","source":"ES","brand":"VALCARCE","address":"AVENIDA JESUS GARCIA NAVEIRA, 50/62","municipality":"Betanzos","province":"CORUÑA (A)","postalCode":"15300","schedule":"L-D: 07:00-23:00","fuels":{"gasoline95":1.749,"diesel":1.899,"dieselPremium":1.949},"extra":{"saleType":"P","margin":"N","reportingType":"dm","ideess":"314","idMunicipio":"2126","idProvincia":"15","idCCAA":"12"}}},{"type":"Feature","geometry":{"type":"Point","coordinates":[-8.403111,43.093389]},"properties":{"id":"es-436","source":"ES","brand":"GALP","address":"N-550 km 34,5","municipality":"Ordes","province":"CORUÑA (A)","postalCode":"15680","schedule":"L-D: 07:00-23:00","fuels":{"gasoline95":1.774,"gasoline95Premium":1.824,"diesel":1.894,"dieselPremium":1.944,"adblue":0.799},"extra":{"saleType":"P","margin":"D","reportingType":"OM","ideess":"436","idMunicipio":"2177","idProvincia":"15","idCCAA":"12"}}},{"type":"Feature","geometry":{"type":"Point","coordinates":[-8.673,43.204889]},"properties":{"id":"es-437","source":"ES","brand":"SHELL","address":"LG. LAS LABRADAS (CP 1905 km 1,606)","municipality":"Carballo","province":"CORUÑA (A)","postalCode":"15100","schedule":"L-D: 07:00-23:00","fuels":{"gasoline95":1.768,"gasoline98":1.907,"diesel":1.858,"dieselPremium":1.924,"dieselB":1.549},"extra":{"saleType":"P","margin":"I","reportingType":"dm","ideess":"437","idMunicipio":"2136","idProvincia":"15","idCCAA":"12"}}},{"type":"Feature","geometry":{"type":"Point","coordinates":[-8.389778,43.328528]},"properties":{"id":"es-442","source":"ES","brand":"PETRONOR","address":"CALLE LUIS LÓPEZ CASANEGRA, 1","municipality":"Coruña (A)","province":"CORUÑA (A)","postalCode":"15170","schedule":"L-V: 07:00-22:00; S-D: 08:00-22:00","fuels":{"gasoline95":1.779,"gasoline98":1.949,"diesel":1.915,"dieselRenewable":2.035},"extra":{"saleType":"P","margin":"D","reportingType":"OM","ideess":"442","idMunicipio":"2148","idProvincia":"15","idCCAA":"12"}}},{"type":"Feature","geometry":{"type":"Point","coordinates":[-8.416333,43.336528]},"properties":{"id":"es-443","source":"ES","brand":"REPSOL","address":"CARRETERA DE POCOMACO KM. 1,5","municipality":"Coruña (A)","province":"CORUÑA (A)","postalCode":"15190","schedule":"L-D: 07:00-23:00","fuels":{"gasoline95":1.785,"gasoline98":1.955,"diesel":1.929,"dieselRenewable":2.049},"extra":{"saleType":"P","margin":"I","reportingType":"OM","ideess":"443","idMunicipio":"2148","idProvincia":"15","idCCAA":"12"}}},{"type":"Feature","geometry":{"type":"Point","coordinates":[-8.155056,43.439417]},"properties":{"id":"es-444","source":"ES","brand":"CARBUGAL LARAXE","address":"CARRETERA N-651 KM. 25,1","municipality":"Cabanas","province":"CORUÑA (A)","postalCode":"15622","schedule":"L-D: 07:00-23:00","fuels":{"gasoline95":1.659,"gasoline98":1.799,"diesel":1.739,"adblue":0.799},"extra":{"saleType":"P","margin":"D","reportingType":"dm","ideess":"444","idMunicipio":"2132","idProvincia":"15","idCCAA":"12"}}},{"type":"Feature","geometry":{"type":"Point","coordinates":[-8.424722,43.357222]},"properties":{"id":"es-446","source":"ES","brand":"REPSOL","address":"AVENIDA FINISTERRE, P.KM. 1,500, S/N","municipality":"Coruña (A)","province":"CORUÑA (A)","postalCode":"15010","schedule":"L-D: 07:00-23:00","fuels":{"gasoline95":1.789,"gasoline98":1.959,"diesel":1.925,"dieselRenewable":2.045},"extra":{"saleType":"P","margin":"D","reportingType":"OM","ideess":"446","idMunicipio":"2148","idProvincia":"15","idCCAA":"12"}}},{"type":"Feature","geometry":{"type":"Point","coordinates":[-8.231972,43.266167]},"properties":{"id":"es-448","source":"ES","brand":"CAMPSA","address":"CARRETERA AC-542 KM. 3,2","municipality":"Betanzos","province":"CORUÑA (A)","postalCode":"15319","schedule":"L-D: 07:00-23:00","fuels":{"gasoline95":1.779,"gasoline98":1.939,"diesel":1.899,"dieselPremium":1.939,"adblue":1.15},"extra":{"saleType":"P","margin":"D","reportingType":"dm","ideess":"448","idMunicipio":"2126","idProvincia":"15","idCCAA":"12"}}},{"type":"Feature","geometry":{"type":"Point","coordinates":[-8.529194,43.275361]},"properties":{"id":"es-450","source":"ES","brand":"REPSOL","address":"CR A-55, 15,3","municipality":"Arteixo","province":"CORUÑA (A)","postalCode":"15144","schedule":"L-D: 24H","fuels":{"gasoline95":1.735,"gasoline98":1.955,"diesel":1.885,"dieselPremium":2.005},"extra":{"saleType":"P","margin":"D","reportingType":"OM","ideess":"450","idMunicipio":"2122","idProvincia":"15","idCCAA":"12"}}},{"type":"Feature","geometry":{"type":"Point","coordinates":[-8.360167,43.294306]},"properties":{"id":"es-451","source":"ES","brand":"REPSOL","address":"CARRETERA AC-220 KM. S/N","municipality":"Cambre","province":"CORUÑA (A)","postalCode":"15181","schedule":"L-D: 07:00-23:00","fuels":{"gasoline95":1.789,"gasoline98":1.949,"diesel":1.899,"dieselPremium":1.959},"extra":{"saleType":"P","margin":"I","reportingType":"dm","ideess":"451","idMunicipio":"2134","idProvincia":"15","idCCAA":"12"}}},{"type":"Feature","geometry":{"type":"Point","coordinates":[-8.732278,43.189611]},"properties":{"id":"es-454","source":"ES","brand":"CARBUGAL CORISTANCO","address":"CARRETERA LA CORUÑA-FINISTERRE KM. 38,50","municipality":"Coristanco","province":"CORUÑA (A)","postalCode":"15147","schedule":"L-D: 07:00-23:00","fuels":{"gasoline95":1.669,"gasoline98":1.799,"diesel":1.739,"dieselPremium":1.789,"adblue":0.799},"extra":{"saleType":"P","margin":"I","reportingType":"dm","ideess":"454","idMunicipio":"2147","idProvincia":"15","idCCAA":"12"}}},{"type":"Feature","geometry":{"type":"Point","coordinates":[-8.01725,43.050611]},"properties":{"id":"es-456","source":"ES","brand":"CEPSA","address":"CALLE AMILLADOIRO-PORTA S/N, S/N","municipality":"Sobrado","province":"CORUÑA (A)","postalCode":"15813","schedule":"L-D: 07:00-23:00","fuels":{"gasoline95":1.759,"gasoline98":1.877,"diesel":1.888,"dieselPremium":1.986,"dieselB":1.655},"extra":{"saleType":"P","margin":"D","reportingType":"dm","ideess":"456","idMunicipio":"2198","idProvincia":"15","idCCAA":"12"}}},{"type":"Feature","geometry":{"type":"Point","coordinates":[-8.456333,43.340389]},"properties":{"id":"es-457","source":"ES","brand":"REPSOL","address":"CARRETERA CORUÑA-FINISTERRE KM. 5","municipality":"Arteixo","province":"CORUÑA (A)","postalCode":"15140","schedule":"L-D: 07:00-23:00","fuels":{"gasoline95":1.769,"gasoline98":1.939,"diesel":1.915,"dieselPremium":1.975,"lpg":1.135},"extra":{"saleType":"P","margin":"I","reportingType":"OM","ideess":"457","idMunicipio":"2122","idProvincia":"15","idCCAA":"12"}}},{"type":"Feature","geometry":{"type":"Point","coordinates":[-8.393111,43.354333]},"properties":{"id":"es-459","source":"ES","brand":"REPSOL","address":"AVENIDA DEL EJERCITO, 15","municipality":"Coruña (A)","province":"CORUÑA (A)","postalCode":"15006","schedule":"L-V: 07:00-22:00; S-D: 08:00-22:00","fuels":{"gasoline95":1.785,"gasoline95Premium":1.855,"gasoline98":1.955,"diesel":1.919,"dieselRenewable":2.039,"lpg":1.115},"extra":{"saleType":"P","margin":"D","reportingType":"OM","ideess":"459","idMunicipio":"2148","idProvincia":"15","idCCAA":"12"}}},{"type":"Feature","geometry":{"type":"Point","coordinates":[-8.380444,43.152639]},"properties":{"id":"es-460","source":"ES","brand":"VALCARCE","address":"CR N-550, 27","municipality":"Ordes","province":"CORUÑA (A)","postalCode":"15689","schedule":"L-S: 07:00-22:00; D: 08:00-22:00","fuels":{"gasoline95":1.799,"diesel":1.889,"dieselPremium":1.954,"dieselB":1.749},"extra":{"saleType":"P","margin":"D","reportingType":"dm","ideess":"460","idMunicipio":"2177","idProvincia":"15","idCCAA":"12"}}},{"type":"Feature","geometry":{"type":"Point","coordinates":[-8.685472,43.204111]},"properties":{"id":"es-464","source":"ES","brand":"MINGACHO OIL","address":"CALLE COMPOSTELA (QUINTANS), 24","municipality":"Carballo","province":"CORUÑA (A)","postalCode":"15100","schedule":"L-V: 06:00-22:00; S-D: 07:00-22:00","fuels":{"gasoline95":1.698,"gasoline98":1.798,"diesel":1.798,"dieselPremium":1.858,"dieselB":1.458,"adblue":0.828},"extra":{"saleType":"P","margin":"D","reportingType":"dm","ideess":"464","idMunicipio":"2136","idProvincia":"15","idCCAA":"12"}}},{"type":"Feature","geometry":{"type":"Point","coordinates":[-8.413417,43.366833]},"properties":{"id":"es-470","source":"ES","brand":"REPSOL","address":"AVENIDA CALVO SOTELO, 5","municipality":"Coruña (A)","province":"CORUÑA (A)","postalCode":"15004","schedule":"L-S: 07:30-23:00; D: 09:00-23:00","fuels":{"gasoline95":1.775,"diesel":1.915,"dieselRenewable":2.035},"extra":{"saleType":"P","margin":"D","reportingType":"OM","ideess":"470","idMunicipio":"2148","idProvincia":"15","idCCAA":"12"}}},{"type":"Feature","geometry":{"type":"Point","coordinates":[-8.398472,43.378917]},"properties":{"id":"es-472","source":"ES","brand":"REPSOL","address":"C/ PLAZA DEL PARQUE, S.N.","municipality":"Coruña (A)","province":"CORUÑA (A)","postalCode":"15002","schedule":"L-S: 07:30-22:00; D: 09:00-15:00","fuels":{"gasoline95":1.785,"diesel":1.915},"extra":{"saleType":"P","margin":"D","reportingType":"OM","ideess":"472","idMunicipio":"2148","idProvincia":"15","idCCAA":"12"}}},{"type":"Feature","geometry":{"type":"Point","coordinates":[-8.414722,43.368194]},"properties":{"id":"es-473","source":"ES","brand":"REPSOL","address":"AVENIDA HABANA, S/N","municipality":"Coruña (A)","province":"CORUÑA (A)","postalCode":"15011","schedule":"L-S: 08:00-22:00","fuels":{"gasoline95":1.775,"gasoline98":1.945,"diesel":1.915},"extra":{"saleType":"P","margin":"D","reportingType":"OM","ideess":"473","idMunicipio":"2148","idProvincia":"15","idCCAA":"12"}}},{"type":"Feature","geometry":{"type":"Point","coordinates":[-8.418889,43.347528]},"properties":{"id":"es-474","source":"ES","brand":"REPSOL","address":"AVENIDA FERROCARRIL, 79","municipality":"Coruña (A)","province":"CORUÑA (A)","postalCode":"15008","schedule":"L-D: 24H","fuels":{"gasoline95":1.789,"gasoline98":1.949,"diesel":1.919,"dieselRenewable":1.999},"extra":{"saleType":"P","margin":"D","reportingType":"dm","ideess":"474","idMunicipio":"2148","idProvincia":"15","idCCAA":"12"}}},{"type":"Feature","geometry":{"type":"Point","coordinates":[-8.40375,43.365389]},"properties":{"id":"es-475","source":"ES","brand":"CEPSA","address":"AVENIDA ALFEREZ PROVISIONAL, 10","municipality":"Coruña (A)","province":"CORUÑA (A)","postalCode":"15006","schedule":"L-V: 07:00-23:00; S: 08:00-22:30; D: 10:00-14:00 y 18:00-21:00","fuels":{"gasoline95":1.794,"gasoline95Premium":1.854,"diesel":1.934,"dieselPremium":2.014},"extra":{"saleType":"P","margin":"D","reportingType":"dm","ideess":"475","idMunicipio":"2148","idProvincia":"15","idCCAA":"12"}}},{"type":"Feature","geometry":{"type":"Point","coordinates":[-8.997389,43.2135]},"properties":{"id":"es-480","source":"ES","brand":"PETRONOR","address":"CARRETERA AC-431 KM. 5,1","municipality":"Laxe","province":"CORUÑA (A)","postalCode":"15117","schedule":"L-D: 08:00-20:00","fuels":{"gasoline95":1.829,"gasoline98":1.999,"diesel":1.945,"dieselPremium":2.055},"extra":{"saleType":"P","margin":"I","reportingType":"OM","ideess":"480","idMunicipio":"2159","idProvincia":"15","idCCAA":"12"}}},{"type":"Feature","geometry":{"type":"Point","coordinates":[-8.221861,43.502861]},"properties":{"id":"es-481","source":"ES","brand":"REPSOL","address":"CARRETERA C-646 KM. 2","municipality":"Ferrol","province":"CORUÑA (A)","postalCode":"15405","schedule":"L-D: 07:00-23:00","fuels":{"gasoline95":1.809,"gasoline95Premium":1.869,"gasoline98":1.979,"diesel":1.945,"dieselPremium":2.005,"lpg":1.109},"extra":{"saleType":"P","margin":"D","reportingType":"OM","ideess":"481","idMunicipio":"2154","idProvincia":"15","idCCAA":"12"}}},{"type":"Feature","geometry":{"type":"Point","coordinates":[-8.656194,43.021667]},"properties":{"id":"es-488","source":"ES","brand":"REPSOL","address":"CARRETERA ARCAI 120 KM. 22,58","municipality":"Val do Dubra","province":"CORUÑA (A)","postalCode":"15873","schedule":"L-V: 06:30-22:30; S-D: 08:00-22:30","fuels":{"gasoline95":1.809,"gasoline98":1.959,"diesel":1.929,"dieselPremium":1.949,"dieselB":1.599},"extra":{"saleType":"P","margin":"D","reportingType":"dm","ideess":"488","idMunicipio":"2205","idProvincia":"15","idCCAA":"12"}}},{"type":"Feature","geometry":{"type":"Point","coordinates":[-8.407194,43.353222]},"properties":{"id":"es-495","source":"ES","brand":"REPSOL","address":"AVENIDA ALFONSO MOLINA, S/N","municipality":"Coruña (A)","province":"CORUÑA (A)","postalCode":"15008","schedule":"L-D: 07:00-23:00","fuels":{"gasoline95":1.789,"gasoline95Premium":1.859,"gasoline98":1.909,"diesel":1.925,"dieselRenewable":2.045},"extra":{"saleType":"P","margin":"D","reportingType":"OM","ideess":"495","idMunicipio":"2148","idProvincia":"15","idCCAA":"12"}}},{"type":"Feature","geometry":{"type":"Point","coordinates":[-8.917667,43.104861]},"properties":{"id":"es-497","source":"ES","brand":"CEPSA","address":"CARRETERA AC-404 KM. 54,560","municipality":"Zas","province":"CORUÑA (A)","postalCode":"15850","schedule":"L-D: 07:00-22:00","fuels":{"gasoline95":1.764,"diesel":1.934,"dieselPremium":2.014,"dieselB":1.734},"extra":{"saleType":"P","margin":"I","reportingType":"dm","ideess":"497","idMunicipio":"2211","idProvincia":"15","idCCAA":"12"}}},{"type":"Feature","geometry":{"type":"Point","coordinates":[-8.430889,43.010639]},"properties":{"id":"es-499","source":"ES","brand":"CEPSA","address":"OS CARBALLOS S/N, DEIXEBRE (N-550 km 47,7)","municipality":"Oroso","province":"CORUÑA (A)","postalCode":"15688","schedule":"L-D: 06:30-22:30","fuels":{"gasoline95":1.824,"gasoline95Premium":1.914,"diesel":1.944,"dieselPremium":2.024,"dieselB":1.804},"extra":{"saleType":"P","margin":"I","reportingType":"OM","ideess":"499","idMunicipio":"2178","idProvincia":"15","idCCAA":"12"}}},{"type":"Feature","geometry":{"type":"Point","coordinates":[-8.191583,43.226444]},"properties":{"id":"es-500","source":"ES","brand":"CEPSA","address":"CARRETERA AC840 KM. 8,9","municipality":"Oza dos Ríos","province":"CORUÑA (A)","postalCode":"15380","schedule":"L-D: 07:00-23:00","fuels":{"gasoline95":1.769,"gasoline98":1.919,"diesel":1.899,"dieselPremium":1.939,"dieselB":1.639,"adblue":0.99},"extra":{"saleType":"P","margin":"I","reportingType":"dm","ideess":"500","idMunicipio":"2181","idProvincia":"15","idCCAA":"12"}}},{"type":"Feature","geometry":{"type":"Point","coordinates":[-8.817556,43.027333]},"properties":{"id":"es-501","source":"ES","brand":"LAG XALLAS","address":"AVENIDA BRASIL, 0","municipality":"Santa Comba","province":"CORUÑA (A)","postalCode":"15840","schedule":"L-V: 07:00-23:00; S-D: 08:00-22:30","fuels":{"gasoline95":1.825,"gasoline98":1.979,"diesel":1.958,"dieselPremium":2.126,"dieselB":1.735,"adblue":1.098},"extra":{"saleType":"P","margin":"I","reportingType":"dm","ideess":"501","idMunicipio":"2195","idProvincia":"15","idCCAA":"12"}}},{"type":"Feature","geometry":{"type":"Point","coordinates":[-8.28575,43.339056]},"properties":{"id":"es-502","source":"ES","brand":"PETROCASH OSEDO","address":"CARRETERA CTRA. SADA OLEIROS, KM. 3,65 KM. 3,650","municipality":"Sada","province":"CORUÑA (A)","postalCode":"15168","schedule":"L-D: 07:00-23:00","fuels":{"gasoline95":1.659,"gasoline98":1.799,"diesel":1.729,"dieselPremium":1.769,"lpg":0.999,"adblue":0.799},"extra":{"saleType":"P","margin":"I","reportingType":"dm","ideess":"502","idMunicipio":"2193","idProvincia":"15","idCCAA":"12"}}},{"type":"Feature","geometry":{"type":"Point","coordinates":[-8.161806,43.490028]},"properties":{"id":"es-504","source":"ES","brand":"REPSOL","address":"CARRETERA AC-115 KM. 1,800","municipality":"Neda","province":"CORUÑA (A)","postalCode":"15510","schedule":"L-V: 07:00-23:00; S-D: 08:00-23:00","fuels":{"gasoline95":1.789,"gasoline98":1.959,"diesel":1.939,"dieselB":1.744,"dieselRenewable":2.059},"extra":{"saleType":"P","margin":"D","reportingType":"OM","ideess":"504","idMunicipio":"2173","idProvincia":"15","idCCAA":"12"}}},{"type":"Feature","geometry":{"type":"Point","coordinates":[-8.268861,43.345972]},"properties":{"id":"es-505","source":"ES","brand":"CARBUGAL SADA","address":"CARRETERA CP-5813 KM. 5,3","municipality":"Sada","province":"CORUÑA (A)","postalCode":"15160","schedule":"L-D: 07:00-23:00","fuels":{"gasoline95":1.659,"diesel":1.729,"dieselPremium":1.769,"adblue":0.799},"extra":{"saleType":"P","margin":"I","reportingType":"dm","ideess":"505","idMunicipio":"2193","idProvincia":"15","idCCAA":"12"}}},{"type":"Feature","geometry":{"type":"Point","coordinates":[-8.418917,43.365639]},"properties":{"id":"es-506","source":"ES","brand":"MOEVE","address":"CALLE GREGORIO HERNANDEZ, 12,14","municipality":"Coruña (A)","province":"CORUÑA (A)","postalCode":"15011","schedule":"L-V: 08:00-22:00; S: 09:00-21:00; D: 10:00-21:00","fuels":{"gasoline95":1.784,"gasoline95Premium":1.874,"diesel":1.924,"dieselPremium":2.004},"extra":{"saleType":"P","margin":"D","reportingType":"OM","ideess":"506","idMunicipio":"2148","idProvincia":"15","idCCAA":"12"}}},{"type":"Feature","geometry":{"type":"Point","coordinates":[-8.17525,43.188806]},"properties":{"id":"es-508","source":"ES","brand":"GALP","address":"CARRETERA C-540 KM. 49,3","municipality":"Oza dos Ríos","province":"CORUÑA (A)","postalCode":"15380","schedule":"L-D: 08:00-22:00","fuels":{"gasoline95":1.709,"diesel":1.839,"dieselPremium":1.889},"extra":{"saleType":"P","margin":"D","reportingType":"OM","ideess":"508","idMunicipio":"2181","idProvincia":"15","idCCAA":"12"}}},{"type":"Feature","geometry":{"type":"Point","coordinates":[-8.210111,43.291833]},"properties":{"id":"es-510","source":"ES","brand":"PETROCASH BETANZOS","address":"CARRETERA CN-651 KM. 2,2","municipality":"Betanzos","province":"CORUÑA (A)","postalCode":"15319","schedule":"L-D: 07:00-23:00","fuels":{"gasoline95":1.659,"gasoline98":1.799,"diesel":1.729,"dieselPremium":1.769,"adblue":0.799},"extra":{"saleType":"P","margin":"D","reportingType":"dm","ideess":"510","idMunicipio":"2126","idProvincia":"15","idCCAA":"12"}}},{"type":"Feature","geometry":{"type":"Point","coordinates":[-8.147917,43.113972]},"properties":{"id":"es-524","source":"ES","brand":"PETRONOR","address":"CARRETERA C-540 KM. 38","municipality":"Vilasantar","province":"CORUÑA (A)","postalCode":"15807","schedule":"L-D: 07:00-23:00","fuels":{"gasoline95":1.769,"diesel":1.925,"dieselPremium":2.005,"dieselB":1.7},"extra":{"saleType":"P","margin":"D","reportingType":"OM","ideess":"524","idMunicipio":"2209","idProvincia":"15","idCCAA":"12"}}},{"type":"Feature","geometry":{"type":"Point","coordinates":[-8.894639,43.243083]},"properties":{"id":"es-528","source":"ES","brand":"REPSOL","address":"AVENIDA BERGANTIÑOS, 35","municipality":"Ponteceso","province":"CORUÑA (A)","postalCode":"15110","schedule":"L-D: 07:00-23:00","fuels":{"gasoline95":1.839,"gasoline98":2.009,"diesel":1.929,"dieselB":1.639,"dieselRenewable":2.029},"extra":{"saleType":"P","margin":"N","reportingType":"dm","ideess":"528","idMunicipio":"2186","idProvincia":"15","idCCAA":"12"}}},{"type":"Feature","geometry":{"type":"Point","coordinates":[-8.065056,43.436167]},"properties":{"id":"es-535","source":"ES","brand":"REPSOL","address":"CR L-141 CABAÑAS-AS PONTES, 11","municipality":"Capela (A)","province":"CORUÑA (A)","postalCode":"15613","schedule":"L-S: 06:00-23:00; D: 07:00-23:00","fuels":{"gasoline95":1.809,"diesel":1.945,"dieselB":1.744,"dieselRenewable":2.065},"extra":{"saleType":"P","margin":"I","reportingType":"OM","ideess":"535","idMunicipio":"2135","idProvincia":"15","idCCAA":"12"}}},{"type":"Feature","geometry":{"type":"Point","coordinates":[-8.288444,43.227806]},"properties":{"id":"es-546","source":"ES","brand":"PETROPRIX","address":"CARRETERA AC-542 KM. 10","municipality":"Abegondo","province":"CORUÑA (A)","postalCode":"15318","schedule":"L-D: 24H","fuels":{"gasoline95":1.619,"diesel":1.699},"extra":{"saleType":"P","margin":"I","reportingType":"dm","ideess":"546","idMunicipio":"2118","idProvincia":"15","idCCAA":"12"}}},{"type":"Feature","geometry":{"type":"Point","coordinates":[-8.402278,43.333556]},"properties":{"id":"es-549","source":"ES","brand":"REPSOL","address":"AVENIDA ALCALDE ALFONSO MOLINA, 106","municipality":"Coruña (A)","province":"CORUÑA (A)","postalCode":"15008","schedule":"L-D: 24H","fuels":{"gasoline95":1.785,"gasoline95Premium":1.855,"gasoline98":1.905,"diesel":1.919,"dieselRenewable":2.039,"lpg":1.119},"extra":{"saleType":"P","margin":"D","reportingType":"OM","ideess":"549","idMunicipio":"2148","idProvincia":"15","idCCAA":"12"}}},{"type":"Feature","geometry":{"type":"Point","coordinates":[-8.209278,43.493778]},"properties":{"id":"es-550","source":"ES","brand":"ENI","address":"CARRETERA CASTILLA, 318 KM. 1","municipality":"Ferrol","province":"CORUÑA (A)","postalCode":"15404","schedule":"L-D: 06:00-22:00","fuels":{"gasoline95":1.759,"gasoline98":1.909,"diesel":1.879,"dieselPremium":1.979},"extra":{"saleType":"P","margin":"D","reportingType":"OM","ideess":"550","idMunicipio":"2154","idProvincia":"15","idCCAA":"12"}}},{"type":"Feature","geometry":{"type":"Point","coordinates":[-8.457889,43.33925]},"properties":{"id":"es-551","source":"ES","brand":"REPSOL","address":"CARRETERA L-410 KM. 4","municipality":"Arteixo","province":"CORUÑA (A)","postalCode":"15140","schedule":"L-D: 07:00-23:00","fuels":{"gasoline95":1.775,"gasoline98":1.945,"diesel":1.929,"dieselRenewable":2.049},"extra":{"saleType":"P","margin":"D","reportingType":"OM","ideess":"551","idMunicipio":"2122","idProvincia":"15","idCCAA":"12"}}},{"type":"Feature","geometry":{"type":"Point","coordinates":[-8.423444,43.335806]},"properties":{"id":"es-555","source":"ES","brand":"REPSOL","address":"POLIGONO POCOMACO - MESOIRO, S/N","municipality":"Coruña (A)","province":"CORUÑA (A)","postalCode":"15191","schedule":"L-D: 07:00-23:00","fuels":{"gasoline95":1.839,"gasoline98":1.989,"diesel":1.959,"dieselRenewable":2.019,"adblue":1.359},"extra":{"saleType":"P","margin":"D","reportingType":"dm","ideess":"555","idMunicipio":"2148","idProvincia":"15","idCCAA":"12"}}},{"type":"Feature","geometry":{"type":"Point","coordinates":[-8.237417,43.028083]},"properties":{"id":"es-556","source":"ES","brand":"REPSOL","address":"CARRETERA N-634 KM. 688","municipality":"Frades","province":"CORUÑA (A)","postalCode":"15686","schedule":"L-V: 07:00-22:00; S-D: 08:00-22:00","fuels":{"gasoline95":1.769,"diesel":1.915,"dieselB":1.7,"dieselRenewable":2.035},"extra":{"saleType":"P","margin":"D","reportingType":"OM","ideess":"556","idMunicipio":"2156","idProvincia":"15","idCCAA":"12"}}},{"type":"Feature","geometry":{"type":"Point","coordinates":[-8.349139,43.099639]},"properties":{"id":"es-557","source":"ES","brand":"MOEVE","address":"AUTOVIA AP-9 KM. 39,5","municipality":"Ordes","province":"CORUÑA (A)","postalCode":"15689","schedule":"L-D: 06:00-23:59","fuels":{"gasoline95":1.804,"gasoline98":1.924,"diesel":1.934,"dieselPremium":2.014,"lpg":1.099},"extra":{"saleType":"P","margin":"I","reportingType":"OM","ideess":"557","idMunicipio":"2177","idProvincia":"15","idCCAA":"12"}}},{"type":"Feature","geometry":{"type":"Point","coordinates":[-8.351611,43.097722]},"properties":{"id":"es-558","source":"ES","brand":"MOEVE","address":"AUTOVIA AP-9 KM. 39,5","municipality":"Ordes","province":"CORUÑA (A)","postalCode":"15689","schedule":"L-D: 06:00-23:59","fuels":{"gasoline95":1.804,"gasoline98":1.924,"diesel":1.934,"dieselPremium":2.014},"extra":{"saleType":"P","margin":"D","reportingType":"OM","ideess":"558","idMunicipio":"2177","idProvincia":"15","idCCAA":"12"}}},{"type":"Feature","geometry":{"type":"Point","coordinates":[-8.365167,43.311944]},"properties":{"id":"es-559","source":"ES","brand":"ENI","address":"AUTOPISTA AP-9 KM. 6","municipality":"Culleredo","province":"CORUÑA (A)","postalCode":"15670","schedule":"L-D: 24H","fuels":{"gasoline95":1.789,"gasoline98":1.939,"diesel":1.869,"dieselPremium":1.969,"dieselB":1.539,"adblue":0.899},"extra":{"saleType":"P","margin":"I","reportingType":"OM","ideess":"559","idMunicipio":"2149","idProvincia":"15","idCCAA":"12"}}},{"type":"Feature","geometry":{"type":"Point","coordinates":[-8.405778,43.349056]},"properties":{"id":"es-561","source":"ES","brand":"CAMPSA","address":"CALLE SALVADOR DE MADARIAGA, SN","municipality":"Coruña (A)","province":"CORUÑA (A)","postalCode":"15008","schedule":"L-D: 07:00-23:00","fuels":{"gasoline95":1.785,"gasoline98":1.955,"diesel":1.919,"dieselRenewable":2.039},"extra":{"saleType":"P","margin":"D","reportingType":"OM","ideess":"561","idMunicipio":"2148","idProvincia":"15","idCCAA":"12"}}},{"type":"Feature","geometry":{"type":"Point","coordinates":[-8.199778,43.489111]},"properties":{"id":"es-565","source":"ES","brand":"CEPSA","address":"AVENIDA DEL MAR, 96","municipality":"Narón","province":"CORUÑA (A)","postalCode":"15570","schedule":"L-D: 24H","fuels":{"gasoline95":1.744,"gasoline98":1.864,"diesel":1.924,"dieselPremium":2.004,"lpg":0.959,"adblue":0.835},"extra":{"saleType":"P","margin":"I","reportingType":"dm","ideess":"565","idMunicipio":"2172","idProvincia":"15","idCCAA":"12"}}},{"type":"Feature","geometry":{"type":"Point","coordinates":[-8.2195,43.512167]},"properties":{"id":"es-566","source":"ES","brand":"REPSOL","address":"CARRETERA CATABOIS KM. 646","municipality":"Ferrol","province":"CORUÑA (A)","postalCode":"15405","schedule":"L-D: 07:00-23:00","fuels":{"gasoline95":1.805,"gasoline98":1.975,"diesel":1.939,"dieselRenewable":2.059},"extra":{"saleType":"P","margin":"D","reportingType":"OM","ideess":"566","idMunicipio":"2154","idProvincia":"15","idCCAA":"12"}}},{"type":"Feature","geometry":{"type":"Point","coordinates":[-8.158361,43.51625]},"properties":{"id":"es-578","source":"ES","brand":"E.S. SANTA RITA","address":"CARRETERA CASTILLA KM. 6,30","municipality":"Narón","province":"CORUÑA (A)","postalCode":"15570","schedule":"L-D: 07:00-23:00","fuels":{"gasoline95":1.789,"gasoline98":1.969,"diesel":1.919,"dieselRenewable":2.029},"extra":{"saleType":"P","margin":"I","reportingType":"dm","ideess":"578","idMunicipio":"2172","idProvincia":"15","idCCAA":"12"}}},{"type":"Feature","geometry":{"type":"Point","coordinates":[-8.208917,43.278278]},"properties":{"id":"es-579","source":"ES","brand":"BALLENOIL","address":"AVENIDA CASTILLA, 12","municipality":"Betanzos","province":"CORUÑA (A)","postalCode":"15300","schedule":"L-D: 24H","fuels":{"gasoline95":1.709,"diesel":1.769,"dieselPremium":1.779},"extra":{"saleType":"P","margin":"I","reportingType":"OM","ideess":"579","idMunicipio":"2126","idProvincia":"15","idCCAA":"12"}}},{"type":"Feature","geometry":{"type":"Point","coordinates":[-8.356222,43.225778]},"properties":{"id":"es-585","source":"ES","brand":"REPSOL","address":"CALLE PARAISO, 23","municipality":"Carral","province":"CORUÑA (A)","postalCode":"15175","schedule":"L-D: 07:00-23:00","fuels":{"gasoline95":1.785,"gasoline98":1.955,"diesel":1.935,"dieselB":1.71,"dieselRenewable":2.055},"extra":{"saleType":"P","margin":"I","reportingType":"OM","ideess":"585","idMunicipio":"2139","idProvincia":"15","idCCAA":"12"}}},{"type":"Feature","geometry":{"type":"Point","coordinates":[-8.122528,43.508861]},"properties":{"id":"es-588","source":"ES","brand":"PETRONOR","address":"LUGAR LA MOURELA, 2","municipality":"Neda","province":"CORUÑA (A)","postalCode":"15577","schedule":"L-D: 06:00-23:00","fuels":{"gasoline95":1.789,"gasoline98":1.969,"diesel":1.919,"dieselRenewable":2.019,"adblue":0.9},"extra":{"saleType":"P","margin":"I","reportingType":"dm","ideess":"588","idMunicipio":"2173","idProvincia":"15","idCCAA":"12"}}},{"type":"Feature","geometry":{"type":"Point","coordinates":[-8.803778,43.033639]},"properties":{"id":"es-595","source":"ES","brand":"CEPSA","address":"CARRETERA LC-402 KM. 74,1","municipality":"Santa Comba","province":"CORUÑA (A)","postalCode":"15840","schedule":"L-D: 07:00-23:00","fuels":{"gasoline95":1.744,"gasoline95E10":1.834,"diesel":1.924,"dieselPremium":2.004,"dieselB":1.794},"extra":{"saleType":"P","margin":"I","reportingType":"dm","ideess":"595","idMunicipio":"2195","idProvincia":"15","idCCAA":"12"}}},{"type":"Feature","geometry":{"type":"Point","coordinates":[-8.161639,43.472361]},"properties":{"id":"es-596","source":"ES","brand":"REPSOL","address":"CR N-651, 30  I","municipality":"Fene","province":"CORUÑA (A)","postalCode":"15500","schedule":"L-D: 06:00-22:00","fuels":{"gasoline95":1.789,"gasoline95Premium":1.859,"gasoline98":1.959,"diesel":1.939,"dieselPremium":1.999},"extra":{"saleType":"P","margin":"I","reportingType":"OM","ideess":"596","idMunicipio":"2153","idProvincia":"15","idCCAA":"12"}}},{"type":"Feature","geometry":{"type":"Point","coordinates":[-8.803028,43.158861]},"properties":{"id":"es-598","source":"ES","brand":"DIGANA","address":"CTRA. C-552 KM 45","municipality":"Coristanco","province":"CORUÑA (A)","postalCode":"15147","schedule":"L-S: 07:00-22:00; D: 08:00-22:00","fuels":{"gasoline95":1.749,"diesel":1.859},"extra":{"saleType":"P","margin":"I","reportingType":"dm","ideess":"598","idMunicipio":"2147","idProvincia":"15","idCCAA":"12"}}},{"type":"Feature","geometry":{"type":"Point","coordinates":[-8.249139,43.347278]},"properties":{"id":"es-603","source":"ES","brand":"PETROCASH SADA","address":"AVENIDA REPUBLICA ARGENTINA, 0","municipality":"Sada","province":"CORUÑA (A)","postalCode":"15160","schedule":"L: 07:00-23:00","fuels":{"gasoline95":1.659,"gasoline98":1.799,"diesel":1.729,"dieselPremium":1.769,"adblue":0.799},"extra":{"saleType":"P","margin":"I","reportingType":"dm","ideess":"603","idMunicipio":"2193","idProvincia":"15","idCCAA":"12"}}},{"type":"Feature","geometry":{"type":"Point","coordinates":[-8.479167,43.3175]},"properties":{"id":"es-604","source":"ES","brand":"REPSOL","address":"CARRETERA CR L-410, 9 KM. 410,9","municipality":"Arteixo","province":"CORUÑA (A)","postalCode":"15141","schedule":"L-D: 07:00-00:00","fuels":{"gasoline95":1.769,"gasoline98":1.939,"diesel":1.929,"dieselPremium":1.989},"extra":{"saleType":"P","margin":"D","reportingType":"OM","ideess":"604","idMunicipio":"2122","idProvincia":"15","idCCAA":"12"}}},{"type":"Feature","geometry":{"type":"Point","coordinates":[-8.557889,43.253417]},"properties":{"id":"es-614","source":"ES","brand":"PETRONOR","address":"CARRETERA CARRETERA CORUÑA-FINISTERRE KM. 17,400","municipality":"Laracha (A)","province":"CORUÑA (A)","postalCode":"15145","schedule":"L-D: 07:00-23:00","fuels":{"gasoline95":1.775,"gasoline98":1.945,"diesel":1.945,"dieselPremium":2.005,"dieselB":1.744},"extra":{"saleType":"P","margin":"D","reportingType":"OM","ideess":"614","idMunicipio":"2158","idProvincia":"15","idCCAA":"12"}}},{"type":"Feature","geometry":{"type":"Point","coordinates":[-8.381111,43.324139]},"properties":{"id":"es-620","source":"ES","brand":"REPSOL","address":"AVENIDA DE FONTECULLER, SN","municipality":"Culleredo","province":"CORUÑA (A)","postalCode":"15174","schedule":"L-J: 07:00-20:00; S: 07:00-20:00","fuels":{"gasoline95":1.789,"gasoline98":1.959,"diesel":1.919,"dieselRenewable":2.039},"extra":{"saleType":"P","margin":"D","reportingType":"OM","ideess":"620","idMunicipio":"2149","idProvincia":"15","idCCAA":"12"}}},{"type":"Feature","geometry":{"type":"Point","coordinates":[-8.389139,43.33925]},"properties":{"id":"es-626","source":"ES","brand":"REPSOL","address":"AVENIDA PASAJE, S/N","municipality":"Coruña (A)","province":"CORUÑA (A)","postalCode":"15006","schedule":"L-D: 07:00-23:00","fuels":{"gasoline95":1.795,"gasoline98":1.965,"diesel":1.929,"dieselRenewable":2.049},"extra":{"saleType":"P","margin":"I","reportingType":"OM","ideess":"626","idMunicipio":"2148","idProvincia":"15","idCCAA":"12"}}},{"type":"Feature","geometry":{"type":"Point","coordinates":[-8.533417,43.130278]},"properties":{"id":"es-633","source":"ES","brand":"REPSOL","address":"LUGAR AC-413, S/N","municipality":"Cerceda","province":"CORUÑA (A)","postalCode":"15186","schedule":"L-D: 07:00-23:00","fuels":{"gasoline95":1.839,"gasoline98":1.979,"diesel":1.949,"dieselB":1.439,"dieselRenewable":2.009,"adblue":1.359},"extra":{"saleType":"P","margin":"I","reportingType":"dm","ideess":"633","idMunicipio":"2142","idProvincia":"15","idCCAA":"12"}}},{"type":"Feature","geometry":{"type":"Point","coordinates":[-8.203694,43.341389]},"properties":{"id":"es-634","source":"ES","brand":"REPSOL","address":"CARRETERA N-651 KM. 9,5","municipality":"Miño","province":"CORUÑA (A)","postalCode":"15630","schedule":"L-D: 07:00-23:00","fuels":{"gasoline95":1.835,"gasoline98":1.955,"diesel":1.919,"dieselRenewable":2.039},"extra":{"saleType":"P","margin":"I","reportingType":"OM","ideess":"634","idMunicipio":"2166","idProvincia":"15","idCCAA":"12"}}},{"type":"Feature","geometry":{"type":"Point","coordinates":[-8.528944,43.274972]},"properties":{"id":"es-641","source":"ES","brand":"REPSOL","address":"CR A-55, 15,3 (A-55 km 15,39)","municipality":"Arteixo","province":"CORUÑA (A)","postalCode":"15144","schedule":"L-D: 24H","fuels":{"gasoline95":1.735,"gasoline98":1.955,"diesel":1.885,"dieselRenewable":2.055},"extra":{"saleType":"P","margin":"I","reportingType":"OM","ideess":"641","idMunicipio":"2122","idProvincia":"15","idCCAA":"12"}}},{"type":"Feature","geometry":{"type":"Point","coordinates":[-8.408833,43.340389]},"properties":{"id":"es-645","source":"ES","brand":"CARBUGAL COLISEUM","address":"CALLE FRANCISCO PEREZ CARBALLO, S/N","municipality":"Coruña (A)","province":"CORUÑA (A)","postalCode":"15008","schedule":"L-D: 08:00-23:00","fuels":{"gasoline95":1.659,"gasoline98":1.799,"diesel":1.729},"extra":{"saleType":"P","margin":"D","reportingType":"dm","ideess":"645","idMunicipio":"2148","idProvincia":"15","idCCAA":"12"}}},{"type":"Feature","geometry":{"type":"Point","coordinates":[-8.427917,43.373167]},"properties":{"id":"es-646","source":"ES","brand":"CARBUGAL LOS ROSALES","address":"AVENIDA GRAN CANARIA(PG. ROSALE), SN","municipality":"Coruña (A)","province":"CORUÑA (A)","postalCode":"15011","schedule":"L-D: 07:00-23:00","fuels":{"gasoline95":1.659,"gasoline98":1.799,"diesel":1.729,"dieselPremium":1.769,"lpg":0.999,"adblue":0.799},"extra":{"saleType":"P","margin":"D","reportingType":"dm","ideess":"646","idMunicipio":"2148","idProvincia":"15","idCCAA":"12"}}},{"type":"Feature","geometry":{"type":"Point","coordinates":[-8.00375,43.157694]},"properties":{"id":"es-648","source":"ES","brand":"REPSOL","address":"CARRETERA N-634 KM. 663","municipality":"Curtis","province":"CORUÑA (A)","postalCode":"15310","schedule":"L-D: 07:00-23:00","fuels":{"gasoline95":1.769,"diesel":1.919,"dieselB":1.72},"extra":{"saleType":"P","margin":"D","reportingType":"OM","ideess":"648","idMunicipio":"2150","idProvincia":"15","idCCAA":"12"}}},{"type":"Feature","geometry":{"type":"Point","coordinates":[-8.187972,43.373222]},"properties":{"id":"es-650","source":"ES","brand":"REPSOL","address":"AUTOPISTA AP-9 KM. 15,5","municipality":"Miño","province":"CORUÑA (A)","postalCode":"15630","schedule":"L-D: 24H","fuels":{"gasoline95":1.795,"gasoline98":1.965,"diesel":1.929,"dieselPremium":1.989},"extra":{"saleType":"P","margin":"I","reportingType":"OM","ideess":"650","idMunicipio":"2166","idProvincia":"15","idCCAA":"12"}}},{"type":"Feature","geometry":{"type":"Point","coordinates":[-8.397806,43.343]},"properties":{"id":"es-651","source":"ES","brand":"REPSOL","address":"AVENIDA MONELOS, S/N","municipality":"Coruña (A)","province":"CORUÑA (A)","postalCode":"15009","schedule":"L-D: 07:00-23:00","fuels":{"gasoline95":1.785,"gasoline98":1.955,"diesel":1.915,"dieselRenewable":2.035},"extra":{"saleType":"P","margin":"D","reportingType":"OM","ideess":"651","idMunicipio":"2148","idProvincia":"15","idCCAA":"12"}}},{"type":"Feature","geometry":{"type":"Point","coordinates":[-8.699444,43.204472]},"properties":{"id":"es-658","source":"ES","brand":"ENI","address":"LUGAR A REVOLTA, 20","municipality":"Carballo","province":"CORUÑA (A)","postalCode":"15100","schedule":"L-D: 06:00-23:00","fuels":{"gasoline95":1.735,"gasoline98":1.879,"diesel":1.849,"dieselPremium":1.976,"dieselB":1.539,"adblue":0.899},"extra":{"saleType":"P","margin":"D","reportingType":"OM","ideess":"658","idMunicipio":"2136","idProvincia":"15","idCCAA":"12"}}},{"type":"Feature","geometry":{"type":"Point","coordinates":[-8.433139,43.350583]},"properties":{"id":"es-660","source":"ES","brand":"SHELL","address":"CALLE NEWTON, 14","municipality":"Coruña (A)","province":"CORUÑA (A)","postalCode":"15008","schedule":"L-S: 07:30-21:30","fuels":{"gasoline95":1.649,"gasoline98":1.849,"diesel":1.729,"dieselPremium":1.829},"extra":{"saleType":"P","margin":"N","reportingType":"OM","ideess":"660","idMunicipio":"2148","idProvincia":"15","idCCAA":"12"}}},{"type":"Feature","geometry":{"type":"Point","coordinates":[-8.220528,43.519333]},"properties":{"id":"es-661","source":"ES","brand":"GALP","address":"CARRETERA CATABOIS KM. 3,900","municipality":"Ferrol","province":"CORUÑA (A)","postalCode":"15405","schedule":"L-D: 07:00-23:00","fuels":{"gasoline95":1.779,"gasoline95Premium":1.829,"diesel":1.909,"dieselPremium":1.959},"extra":{"saleType":"P","margin":"D","reportingType":"OM","ideess":"661","idMunicipio":"2154","idProvincia":"15","idCCAA":"12"}}},{"type":"Feature","geometry":{"type":"Point","coordinates":[-8.085083,43.527139]},"properties":{"id":"es-664","source":"ES","brand":"GALP","address":"CARRETERA AC 862 KM. 15,5","municipality":"San Sadurniño","province":"CORUÑA (A)","postalCode":"15560","schedule":"L-D: 24H","fuels":{"gasoline95":1.769,"gasoline98":1.859,"diesel":1.899,"dieselPremium":1.959,"dieselB":1.45},"extra":{"saleType":"P","margin":"D","reportingType":"dm","ideess":"664","idMunicipio":"2194","idProvincia":"15","idCCAA":"12"}}},{"type":"Feature","geometry":{"type":"Point","coordinates":[-8.323083,43.306417]},"properties":{"id":"es-670","source":"ES","brand":"SHELL","address":"CALZADA RUA SALVADOR ALLDENDE, S/N","municipality":"Oleiros","province":"CORUÑA (A)","postalCode":"15176","schedule":"L-D: 06:00-22:00","fuels":{"gasoline95":1.714,"gasoline98":1.854,"diesel":1.829,"dieselPremium":1.909},"extra":{"saleType":"P","margin":"I","reportingType":"OM","ideess":"670","idMunicipio":"2176","idProvincia":"15","idCCAA":"12"}}},{"type":"Feature","geometry":{"type":"Point","coordinates":[-8.207194,43.490667]},"properties":{"id":"es-671","source":"ES","brand":"ALCAMPO FERROL","address":"POLIGONO LA GANDARA, S/N","municipality":"Ferrol","province":"CORUÑA (A)","postalCode":"15407","schedule":"L-D: 00:00-23:59","fuels":{"gasoline95":1.599,"gasoline98":1.759,"diesel":1.646,"dieselPremium":1.689},"extra":{"saleType":"P","margin":"N","reportingType":"dm","ideess":"671","idMunicipio":"2154","idProvincia":"15","idCCAA":"12"}}},{"type":"Feature","geometry":{"type":"Point","coordinates":[-8.307056,43.292]},"properties":{"id":"es-674","source":"ES","brand":"CETANOIL","address":"LC-221 km 8,900","municipality":"Cambre","province":"CORUÑA (A)","postalCode":"15650","schedule":"L-V: 07:00-23:00; S-D: 08:00-23:00","fuels":{"gasoline95":1.729,"gasoline98":1.859,"diesel":1.829,"dieselPremium":1.899,"adblue":0.799},"extra":{"saleType":"P","margin":"N","reportingType":"dm","ideess":"674","idMunicipio":"2134","idProvincia":"15","idCCAA":"12"}}},{"type":"Feature","geometry":{"type":"Point","coordinates":[-8.425969,43.347388]},"properties":{"id":"es-675","source":"ES","brand":"GALP","address":"Avda. de Arteixo, Parcela 83-B 1-2 (Polig. \"La Grela\")","municipality":"Coruña (A)","province":"CORUÑA (A)","postalCode":"15108","schedule":"L-D: 06:00-23:00","fuels":{"gasoline95":1.679,"gasoline95Premium":1.729,"diesel":1.749,"dieselPremium":1.799,"adblue":0.799},"extra":{"saleType":"P","margin":"N","reportingType":"OM","ideess":"675","idMunicipio":"2148","idProvincia":"15","idCCAA":"12"}}},{"type":"Feature","geometry":{"type":"Point","coordinates":[-8.169194,43.386833]},"properties":{"id":"es-679","source":"ES","brand":"CC OIL","address":"CARRETERA N-651 KM. 16","municipality":"Pontedeume","province":"CORUÑA (A)","postalCode":"15614","schedule":"L-D: 07:00-23:00","fuels":{"gasoline95":1.659,"gasoline98":1.799,"diesel":1.739,"dieselPremium":1.789,"adblue":0.799},"extra":{"saleType":"P","margin":"D","reportingType":"dm","ideess":"679","idMunicipio":"2187","idProvincia":"15","idCCAA":"12"}}},{"type":"Feature","geometry":{"type":"Point","coordinates":[-8.363528,43.326556]},"properties":{"id":"es-683","source":"ES","brand":"CEPSA","address":"RUA ZEUS, S/N","municipality":"Oleiros","province":"CORUÑA (A)","postalCode":"15173","schedule":"L-D: 07:00-23:00","fuels":{"gasoline95":1.789,"gasoline98":1.949,"diesel":1.899,"dieselPremium":1.959},"extra":{"saleType":"P","margin":"N","reportingType":"dm","ideess":"683","idMunicipio":"2176","idProvincia":"15","idCCAA":"12"}}},{"type":"Feature","geometry":{"type":"Point","coordinates":[-8.288917,43.314722]},"properties":{"id":"es-686","source":"ES","brand":"MOEVE","address":"LUGAR ESPIRITU SANTO, 14","municipality":"Sada","province":"CORUÑA (A)","postalCode":"15160","schedule":"L-V: 07:00-23:00; S-D: 09:00-21:00","fuels":{"gasoline95":1.784,"gasoline98":1.904,"diesel":1.894,"dieselPremium":2.004,"dieselB":1.774},"extra":{"saleType":"P","margin":"D","reportingType":"OM","ideess":"686","idMunicipio":"2193","idProvincia":"15","idCCAA":"12"}}},{"type":"Feature","geometry":{"type":"Point","coordinates":[-8.288694,43.314833]},"properties":{"id":"es-687","source":"ES","brand":"MOEVE","address":"CARRETERA N-VI KM. 582","municipality":"Sada","province":"CORUÑA (A)","postalCode":"15160","schedule":"L-D: 24H","fuels":{"gasoline95":1.784,"gasoline98":1.904,"diesel":1.894,"dieselPremium":2.004,"dieselB":1.774},"extra":{"saleType":"P","margin":"N","reportingType":"OM","ideess":"687","idMunicipio":"2193","idProvincia":"15","idCCAA":"12"}}},{"type":"Feature","geometry":{"type":"Point","coordinates":[-8.353944,43.306944]},"properties":{"id":"es-691","source":"ES","brand":"CARBUGAL A BARCALA","address":"CARRETERA CP-1706 KM. 1,2","municipality":"Cambre","province":"CORUÑA (A)","postalCode":"15660","schedule":"L-D: 07:00-23:00","fuels":{"gasoline95":1.659,"gasoline98":1.799,"diesel":1.729,"dieselPremium":1.769},"extra":{"saleType":"P","margin":"D","reportingType":"dm","ideess":"691","idMunicipio":"2134","idProvincia":"15","idCCAA":"12"}}},{"type":"Feature","geometry":{"type":"Point","coordinates":[-8.36625,43.328806]},"properties":{"id":"es-692","source":"ES","brand":"GALP","address":"AVENIDA DAS MARIÑAS, 589,602","municipality":"Oleiros","province":"CORUÑA (A)","postalCode":"15172","schedule":"L-S: 07:00-23:00; D: 08:00-23:00","fuels":{"gasoline95":1.759,"gasoline98":1.955,"diesel":1.899,"dieselPremium":2.088,"lpg":0.988,"adblue":1.098},"extra":{"saleType":"P","margin":"N","reportingType":"dm","ideess":"692","idMunicipio":"2176","idProvincia":"15","idCCAA":"12"}}},{"type":"Feature","geometry":{"type":"Point","coordinates":[-8.1905,43.225889]},"properties":{"id":"es-8225","source":"ES","brand":"REPSOL","address":"AC 840 km 6,89","municipality":"Oza dos Ríos","province":"CORUÑA (A)","postalCode":"15380","schedule":"L-D: 07:00-23:00","fuels":{"gasoline95":1.779,"gasoline98":1.929,"diesel":1.899,"dieselPremium":1.939,"dieselB":1.453},"extra":{"saleType":"P","margin":"I","reportingType":"dm","ideess":"8225","idMunicipio":"2181","idProvincia":"15","idCCAA":"12"}}},{"type":"Feature","geometry":{"type":"Point","coordinates":[-8.579889,43.225528]},"properties":{"id":"es-8226","source":"ES","brand":"E.S VIDUEIROS","address":"CARRETERA LARACHA A LA SILVA KM. 3,317","municipality":"Laracha (A)","province":"CORUÑA (A)","postalCode":"15145","schedule":"L-V: 07:00-23:00; S-D: 08:00-23:00","fuels":{"gasoline95":1.748,"gasoline98":1.938,"diesel":1.889,"dieselB":1.699,"adblue":0.85},"extra":{"saleType":"P","margin":"I","reportingType":"dm","ideess":"8226","idMunicipio":"2158","idProvincia":"15","idCCAA":"12"}}},{"type":"Feature","geometry":{"type":"Point","coordinates":[-8.717222,43.199222]},"properties":{"id":"es-8318","source":"ES","brand":"CARREFOUR","address":"PARQUE COMERCIAL PLAN SECTORIZACIÓN APU M1, 1","municipality":"Coristanco","province":"CORUÑA (A)","postalCode":"15147","schedule":"L-D: 24H","fuels":{"gasoline95":1.739,"diesel":1.849,"dieselPremium":1.889},"extra":{"saleType":"P","margin":"N","reportingType":"dm","ideess":"8318","idMunicipio":"2147","idProvincia":"15","idCCAA":"12"}}},{"type":"Feature","geometry":{"type":"Point","coordinates":[-8.855306,43.056944]},"properties":{"id":"es-8941","source":"ES","brand":"GALP","address":"LUGAR CABREIRA - ARANTON (AC-404 KM. 45.0), 0","municipality":"Santa Comba","province":"CORUÑA (A)","postalCode":"15840","schedule":"L-S: 07:00-22:00; D: 08:00-22:00","fuels":{"gasoline95":1.825,"diesel":1.958,"dieselB":1.735},"extra":{"saleType":"P","margin":"I","reportingType":"dm","ideess":"8941","idMunicipio":"2195","idProvincia":"15","idCCAA":"12"}}},{"type":"Feature","geometry":{"type":"Point","coordinates":[-8.8015,43.287528]},"properties":{"id":"es-9004","source":"ES","brand":"CERQUEDA SL","address":"CARRETERA AC-414 KM. 2","municipality":"Malpica de Bergantiños","province":"CORUÑA (A)","postalCode":"15113","schedule":"L-V: 06:15-23:00; S: 07:00-00:00; D: 07:00-23:00","fuels":{"gasoline95":1.735,"gasoline98":1.887,"diesel":1.867,"dieselB":1.399},"extra":{"saleType":"P","margin":"I","reportingType":"dm","ideess":"9004","idMunicipio":"2161","idProvincia":"15","idCCAA":"12"}}},{"type":"Feature","geometry":{"type":"Point","coordinates":[-8.882778,43.157306]},"properties":{"id":"es-9056","source":"ES","brand":"GASUMA","address":"LUGAR A PEDRA-NANTON, S/N","municipality":"Cabana de Bergantiños","province":"CORUÑA (A)","postalCode":"15115","schedule":"L-V: 07:00-21:30; S-D: 08:00-21:30","fuels":{"gasoline95":1.739,"gasoline98":1.899,"diesel":1.849,"dieselPremium":1.899,"dieselB":1.549},"extra":{"saleType":"P","margin":"D","reportingType":"dm","ideess":"9056","idMunicipio":"2131","idProvincia":"15","idCCAA":"12"}}},{"type":"Feature","geometry":{"type":"Point","coordinates":[-8.148306,43.599]},"properties":{"id":"es-9066","source":"ES","brand":"SHELL","address":"CARRETERA FERROL-CEDEIRA km 12","municipality":"Valdoviño","province":"CORUÑA (A)","postalCode":"15552","schedule":"L-D: 06:00-00:00","fuels":{"gasoline95":1.759,"gasoline98":1.899,"diesel":1.879,"dieselPremium":1.959,"dieselB":1.499},"extra":{"saleType":"P","margin":"D","reportingType":"OM","ideess":"9066","idMunicipio":"2206","idProvincia":"15","idCCAA":"12"}}},{"type":"Feature","geometry":{"type":"Point","coordinates":[-8.170111,43.449944]},"properties":{"id":"es-9102","source":"ES","brand":"GALP","address":"POLIGONO VILAR DO COLO. AVDA ASTANO PARC B-3, S/N","municipality":"Fene","province":"CORUÑA (A)","postalCode":"15500","schedule":"L-D: 07:00-23:00","fuels":{"gasoline95":1.759,"gasoline95Premium":1.809,"diesel":1.909,"dieselPremium":1.959},"extra":{"saleType":"P","margin":"D","reportingType":"OM","ideess":"9102","idMunicipio":"2153","idProvincia":"15","idCCAA":"12"}}},{"type":"Feature","geometry":{"type":"Point","coordinates":[-8.197694,43.498139]},"properties":{"id":"es-9104","source":"ES","brand":"BALLENOIL","address":"CARRETERA CASTILLA KM. 624","municipality":"Narón","province":"CORUÑA (A)","postalCode":"15320","schedule":"L-D: 24H","fuels":{"gasoline95":1.599,"diesel":1.669,"dieselPremium":1.689},"extra":{"saleType":"P","margin":"D","reportingType":"OM","ideess":"9104","idMunicipio":"2172","idProvincia":"15","idCCAA":"12"}}},{"type":"Feature","geometry":{"type":"Point","coordinates":[-8.021861,43.565417]},"properties":{"id":"es-9198","source":"ES","brand":"FUEL Y FURIOSO","address":"AC-862 km 24","municipality":"Moeche","province":"CORUÑA (A)","postalCode":"15563","schedule":"L-D: 07:00-22:00","fuels":{"gasoline95":1.719,"diesel":1.849,"dieselB":1.45},"extra":{"saleType":"P","margin":"I","reportingType":"dm","ideess":"9198","idMunicipio":"2167","idProvincia":"15","idCCAA":"12"}}},{"type":"Feature","geometry":{"type":"Point","coordinates":[-8.105556,43.016806]},"properties":{"id":"es-9201","source":"ES","brand":"CORREDOIRAS","address":"CR C-540 km 25,573","municipality":"Boimorto","province":"CORUÑA (A)","postalCode":"15816","schedule":"L: 07:00-23:00","fuels":{"gasoline95":1.738,"gasoline98":1.928,"diesel":1.848,"dieselPremium":1.938},"extra":{"saleType":"P","margin":"D","reportingType":"dm","ideess":"9201","idMunicipio":"2127","idProvincia":"15","idCCAA":"12"}}},{"type":"Feature","geometry":{"type":"Point","coordinates":[-8.230556,43.278278]},"properties":{"id":"es-9388","source":"ES","brand":"SERVICIOS POLIGONO PIADELA","address":"LUGAR PIADELA, S/N","municipality":"Betanzos","province":"CORUÑA (A)","postalCode":"15300","schedule":"L-D: 24H","fuels":{"gasoline95":1.689,"diesel":1.748,"dieselB":1.643,"adblue":0.77},"extra":{"saleType":"P","margin":"N","reportingType":"dm","ideess":"9388","idMunicipio":"2126","idProvincia":"15","idCCAA":"12"}}},{"type":"Feature","geometry":{"type":"Point","coordinates":[-8.058444,43.284917]},"properties":{"id":"es-9389","source":"ES","brand":"E.S. IRIXOA - IRIGAS GROUP","address":"MUNICIPIO O CRUCE, 5","municipality":"Irixoa","province":"CORUÑA (A)","postalCode":"15313","schedule":"L-V: 08:00-22:00; S-D: 09:00-21:00","fuels":{"gasoline95":1.739,"diesel":1.859,"dieselB":1.459},"extra":{"saleType":"P","margin":"D","reportingType":"dm","ideess":"9389","idMunicipio":"2157","idProvincia":"15","idCCAA":"12"}}},{"type":"Feature","geometry":{"type":"Point","coordinates":[-8.036278,43.134167]},"properties":{"id":"es-9686","source":"ES","brand":"VALCARCE - E.S. TISCO","address":"CARRERA NACIONAL 634 PK 666+580, 8","municipality":"Curtis","province":"CORUÑA (A)","postalCode":"15310","schedule":"L-V: 07:00-23:00; S-D: 08:00-22:00","fuels":{"gasoline95":1.659,"diesel":1.739,"dieselB":1.429,"adblue":0.799},"extra":{"saleType":"P","margin":"D","reportingType":"dm","ideess":"9686","idMunicipio":"2150","idProvincia":"15","idCCAA":"12"}}},{"type":"Feature","geometry":{"type":"Point","coordinates":[-8.206333,43.489139]},"properties":{"id":"es-9929","source":"ES","brand":"PETROCASH NARON (POL. GÁNDARA)","address":"RUA NICASIO PEREZ LOPEZ, 57","municipality":"Narón","province":"CORUÑA (A)","postalCode":"15570","schedule":"L: 07:00-23:00","fuels":{"gasoline95":1.599,"gasoline98":1.759,"diesel":1.699,"dieselPremium":1.729,"lpg":0.999,"adblue":0.799},"extra":{"saleType":"P","margin":"D","reportingType":"dm","ideess":"9929","idMunicipio":"2172","idProvincia":"15","idCCAA":"12"}}},{"type":"Feature","geometry":{"type":"Point","coordinates":[-8.266944,43.313472]},"properties":{"id":"es-9931","source":"ES","brand":"PETROCASH POL. IND. DE BERGONDO","address":"POLIGONO DE BERGONDO, PARC. E22","municipality":"Bergondo","province":"CORUÑA (A)","postalCode":"15165","schedule":"L-V: 06:00-22:00; S-D: 07:00-23:00","fuels":{"gasoline95":1.659,"gasoline98":1.799,"diesel":1.729,"dieselPremium":1.769,"lpg":0.999,"adblue":0.799},"extra":{"saleType":"P","margin":"D","reportingType":"dm","ideess":"9931","idMunicipio":"2125","idProvincia":"15","idCCAA":"12"}}}]}