{"type":"FeatureCollection","features":[{"type":"Feature","geometry":{"type":"Point","coordinates":[-7.01275,37.259167]},"properties":{"id":"es-10047","source":"ES","brand":"MEROIL","address":"AUTOVIA A-497 KM. 7","municipality":"Aljaraque","province":"HUELVA","postalCode":"21110","schedule":"L-D: 24H","fuels":{"gasoline95":1.697,"gasoline98":1.977,"diesel":1.877,"dieselPremium":1.957},"extra":{"saleType":"P","margin":"D","reportingType":"dm","ideess":"10047","idMunicipio":"3216","idProvincia":"21","idCCAA":"01"}}},{"type":"Feature","geometry":{"type":"Point","coordinates":[-7.018417,37.257889]},"properties":{"id":"es-10288","source":"ES","brand":"MOEVE","address":"CALLE CERAMICA, 1","municipality":"Aljaraque","province":"HUELVA","postalCode":"21110","schedule":"L-D: 07:00-23:00","fuels":{"gasoline95":1.799,"diesel":1.959},"extra":{"saleType":"P","margin":"N","reportingType":"dm","ideess":"10288","idMunicipio":"3216","idProvincia":"21","idCCAA":"01"}}},{"type":"Feature","geometry":{"type":"Point","coordinates":[-7.381861,37.239833]},"properties":{"id":"es-11156","source":"ES","brand":"Q8","address":"AUTOVIA 49 KM. 130","municipality":"Ayamonte","province":"HUELVA","postalCode":"21400","schedule":"L-D: 24H","fuels":{"gasoline95":1.809,"gasoline98":1.899,"diesel":1.979,"dieselPremium":2.049,"adblue":0.929},"extra":{"saleType":"P","margin":"D","reportingType":"dm","ideess":"11156","idMunicipio":"3224","idProvincia":"21","idCCAA":"01"}}},{"type":"Feature","geometry":{"type":"Point","coordinates":[-7.180944,37.791667]},"properties":{"id":"es-11346","source":"ES","brand":"MOEVE","address":"CARRETERA A-493 KM. 84,6","municipality":"Santa Bárbara de Casa","province":"HUELVA","postalCode":"21570","schedule":"L-D: 24H","fuels":{"gasoline95":1.739,"diesel":1.919,"dieselB":1.649,"adblue":0.999},"extra":{"saleType":"P","margin":"D","reportingType":"dm","ideess":"11346","idMunicipio":"3282","idProvincia":"21","idCCAA":"01"}}},{"type":"Feature","geometry":{"type":"Point","coordinates":[-7.214,37.249639]},"properties":{"id":"es-11503","source":"ES","brand":"COBELLA","address":"AVENIDA BLAS INFANTE, S/N","municipality":"Lepe","province":"HUELVA","postalCode":"21400","schedule":"L-D: 07:00-23:00","fuels":{"gasoline95":1.555,"diesel":1.735,"dieselB":1.409},"extra":{"saleType":"P","margin":"N","reportingType":"dm","ideess":"11503","idMunicipio":"3258","idProvincia":"21","idCCAA":"01"}}},{"type":"Feature","geometry":{"type":"Point","coordinates":[-7.114167,37.323333]},"properties":{"id":"es-11661","source":"ES","brand":"REPSOL","address":"CARRETERA A-49 KM. 102","municipality":"Cartaya","province":"HUELVA","postalCode":"21450","schedule":"L-D: 24H","fuels":{"gasoline95":1.809,"gasoline98":1.929,"diesel":1.959,"dieselRenewable":2.079},"extra":{"saleType":"P","margin":"D","reportingType":"OM","ideess":"11661","idMunicipio":"3235","idProvincia":"21","idCCAA":"01"}}},{"type":"Feature","geometry":{"type":"Point","coordinates":[-7.114472,37.322694]},"properties":{"id":"es-11662","source":"ES","brand":"REPSOL","address":"CARRETERA A-49 KM. 102","municipality":"Cartaya","province":"HUELVA","postalCode":"21450","schedule":"L-D: 24H","fuels":{"gasoline95":1.809,"gasoline98":1.929,"diesel":1.959,"dieselRenewable":2.079},"extra":{"saleType":"P","margin":"I","reportingType":"OM","ideess":"11662","idMunicipio":"3235","idProvincia":"21","idCCAA":"01"}}},{"type":"Feature","geometry":{"type":"Point","coordinates":[-7.40925,37.520833]},"properties":{"id":"es-11811","source":"ES","brand":"GALP","address":"CARRETERA EL GRANADO VILLNUEVA DE LOS CASTILLEJOS KM. 1","municipality":"Granado (El)","province":"HUELVA","postalCode":"21594","schedule":"L-D: 09:00-13:00 y 17:30-21:30","fuels":{"gasoline95":1.819,"diesel":1.939,"dieselPremium":2.059,"dieselB":1.709},"extra":{"saleType":"P","margin":"N","reportingType":"dm","ideess":"11811","idMunicipio":"3251","idProvincia":"21","idCCAA":"01"}}},{"type":"Feature","geometry":{"type":"Point","coordinates":[-7.401139,37.222972]},"properties":{"id":"es-12509","source":"ES","brand":"BTP","address":"CALLE LAVANDA, 2","municipality":"Ayamonte","province":"HUELVA","postalCode":"21400","schedule":"L: 07:00-23:00","fuels":{"gasoline95":1.739,"gasoline98":1.849,"diesel":1.889},"extra":{"saleType":"P","margin":"D","reportingType":"dm","ideess":"12509","idMunicipio":"3224","idProvincia":"21","idCCAA":"01"}}},{"type":"Feature","geometry":{"type":"Point","coordinates":[-7.385306,37.238222]},"properties":{"id":"es-12712","source":"ES","brand":"Q8","address":"AUTOVIA E-1/A-49 KM. 130","municipality":"Ayamonte","province":"HUELVA","postalCode":"21400","schedule":"L-D: 24H","fuels":{"gasoline95":1.799,"gasoline98":1.899,"diesel":1.969,"dieselPremium":2.039,"adblue":0.929},"extra":{"saleType":"P","margin":"I","reportingType":"dm","ideess":"12712","idMunicipio":"3224","idProvincia":"21","idCCAA":"01"}}},{"type":"Feature","geometry":{"type":"Point","coordinates":[-7.252361,37.610556]},"properties":{"id":"es-12727","source":"ES","brand":"E.S.NTRA.SRA.DE LA PEÑA","address":"AVENIDA CONSTITUCION DE LA, 15","municipality":"Puebla de Guzmán","province":"HUELVA","postalCode":"21550","schedule":"L-D: 24H","fuels":{"gasoline95":1.729,"diesel":1.899},"extra":{"saleType":"P","margin":"D","reportingType":"dm","ideess":"12727","idMunicipio":"3272","idProvincia":"21","idCCAA":"01"}}},{"type":"Feature","geometry":{"type":"Point","coordinates":[-7.194194,37.269]},"properties":{"id":"es-12873","source":"ES","brand":"ENI","address":"CALLE TRANSPORTISTAS, S/N","municipality":"Lepe","province":"HUELVA","postalCode":"21440","schedule":"L-D: 06:00-22:00","fuels":{"gasoline95":1.759,"diesel":1.889},"extra":{"saleType":"P","margin":"N","reportingType":"dm","ideess":"12873","idMunicipio":"3258","idProvincia":"21","idCCAA":"01"}}},{"type":"Feature","geometry":{"type":"Point","coordinates":[-7.1985,37.247389]},"properties":{"id":"es-13402","source":"ES","brand":"LUXOIL","address":"CALLE ESTIBADORES, 38","municipality":"Lepe","province":"HUELVA","postalCode":"21440","schedule":"L-D: 24H","fuels":{"gasoline95":1.645,"diesel":1.799},"extra":{"saleType":"P","margin":"D","reportingType":"dm","ideess":"13402","idMunicipio":"3258","idProvincia":"21","idCCAA":"01"}}},{"type":"Feature","geometry":{"type":"Point","coordinates":[-7.141889,37.2895]},"properties":{"id":"es-13473","source":"ES","brand":"BALLENOIL","address":"POLIGONO INDUSTRIAL LA ESTACION, 87","municipality":"Cartaya","province":"HUELVA","postalCode":"21450","schedule":"L-D: 24H","fuels":{"gasoline95":1.649,"diesel":1.789},"extra":{"saleType":"P","margin":"D","reportingType":"OM","ideess":"13473","idMunicipio":"3235","idProvincia":"21","idCCAA":"01"}}},{"type":"Feature","geometry":{"type":"Point","coordinates":[-7.198861,37.249694]},"properties":{"id":"es-13597","source":"ES","brand":"VIBE CARBURANTES","address":"CALLE ESPARTEROS, 2","municipality":"Lepe","province":"HUELVA","postalCode":"21440","schedule":"L-D: 24H","fuels":{"gasoline95":1.639,"diesel":1.789,"dieselB":1.399,"adblue":0.679},"extra":{"saleType":"P","margin":"N","reportingType":"dm","ideess":"13597","idMunicipio":"3258","idProvincia":"21","idCCAA":"01"}}},{"type":"Feature","geometry":{"type":"Point","coordinates":[-7.105222,37.438111]},"properties":{"id":"es-13797","source":"ES","brand":"FRESAFLOR, S.C.A.","address":"AVENIDA LA LAGUNA, 0","municipality":"San Bartolomé de la Torre","province":"HUELVA","postalCode":"21510","schedule":"L-D: 24H","fuels":{"diesel":1.755},"extra":{"saleType":"P","margin":"N","reportingType":"dm","ideess":"13797","idMunicipio":"3277","idProvincia":"21","idCCAA":"01"}}},{"type":"Feature","geometry":{"type":"Point","coordinates":[-7.1945,37.252944]},"properties":{"id":"es-14408","source":"ES","brand":"SHELL","address":"CALLE JOSÉ ARRAYAS MORA, 10","municipality":"Lepe","province":"HUELVA","postalCode":"21440","schedule":"L-D: 24H","fuels":{"gasoline95":1.639,"diesel":1.789},"extra":{"saleType":"P","margin":"N","reportingType":"OM","ideess":"14408","idMunicipio":"3258","idProvincia":"21","idCCAA":"01"}}},{"type":"Feature","geometry":{"type":"Point","coordinates":[-7.237278,37.254333]},"properties":{"id":"es-15355","source":"ES","brand":"PRIMAFRIO","address":"CARRETERA LEPE-AYAMONTE KM. 121","municipality":"Lepe","province":"HUELVA","postalCode":"21440","schedule":"L-D: 24H","fuels":{"diesel":2.139,"dieselB":1.999},"extra":{"saleType":"P","margin":"D","reportingType":"dm","ideess":"15355","idMunicipio":"3258","idProvincia":"21","idCCAA":"01"}}},{"type":"Feature","geometry":{"type":"Point","coordinates":[-7.320944,37.220833]},"properties":{"id":"es-15398","source":"ES","brand":"GESGASOLEO","address":"LUGAR PP.KK. 42/003 Y 42/189, 0","municipality":"Ayamonte","province":"HUELVA","postalCode":"21400","schedule":"L-D: 24H","fuels":{"gasoline95":1.749,"diesel":1.899},"extra":{"saleType":"P","margin":"D","reportingType":"dm","ideess":"15398","idMunicipio":"3224","idProvincia":"21","idCCAA":"01"}}},{"type":"Feature","geometry":{"type":"Point","coordinates":[-7.173833,37.225139]},"properties":{"id":"es-16301","source":"ES","brand":"E.S. AGUAMARINA","address":"BARRIO PUERTO DEL TERRON, S/N","municipality":"Lepe","province":"HUELVA","postalCode":"21449","schedule":"L-D: 24H","fuels":{"gasoline95":1.849,"diesel":1.889},"extra":{"saleType":"P","margin":"N","reportingType":"dm","ideess":"16301","idMunicipio":"3258","idProvincia":"21","idCCAA":"01"}}},{"type":"Feature","geometry":{"type":"Point","coordinates":[-7.098583,37.444222]},"properties":{"id":"es-5566","source":"ES","brand":"LUXOIL","address":"AVENIDA DE PORTUGAL, 93","municipality":"San Bartolomé de la Torre","province":"HUELVA","postalCode":"21510","schedule":"L-D: 06:00-22:00","fuels":{"gasoline95":1.68,"diesel":1.82},"extra":{"saleType":"P","margin":"N","reportingType":"dm","ideess":"5566","idMunicipio":"3277","idProvincia":"21","idCCAA":"01"}}},{"type":"Feature","geometry":{"type":"Point","coordinates":[-7.392194,37.217]},"properties":{"id":"es-5567","source":"ES","brand":"Q8","address":"CARRETERA A 431 KM. 132","municipality":"Ayamonte","province":"HUELVA","postalCode":"21400","schedule":"L-D: 24H","fuels":{"gasoline95":1.739,"gasoline98":1.849,"diesel":1.889,"dieselPremium":1.959,"adblue":0.899},"extra":{"saleType":"P","margin":"N","reportingType":"dm","ideess":"5567","idMunicipio":"3224","idProvincia":"21","idCCAA":"01"}}},{"type":"Feature","geometry":{"type":"Point","coordinates":[-7.149417,37.302278]},"properties":{"id":"es-5588","source":"ES","brand":"LUKOIL","address":"CARRETERA CTRA. HV 311 KM. 2,2","municipality":"Cartaya","province":"HUELVA","postalCode":"21450","schedule":"L-D: 06:00-22:00","fuels":{"gasoline95":1.65,"diesel":1.82},"extra":{"saleType":"P","margin":"D","reportingType":"dm","ideess":"5588","idMunicipio":"3235","idProvincia":"21","idCCAA":"01"}}},{"type":"Feature","geometry":{"type":"Point","coordinates":[-7.148694,37.289028]},"properties":{"id":"es-5593","source":"ES","brand":"ESTACION DE SERVICIOS \"FIS\"","address":"CARRETERA NACIONAL 431 KM. 111","municipality":"Cartaya","province":"HUELVA","postalCode":"21450","schedule":"L: 06:00-23:00","fuels":{"gasoline95":1.659,"diesel":1.829},"extra":{"saleType":"P","margin":"D","reportingType":"dm","ideess":"5593","idMunicipio":"3235","idProvincia":"21","idCCAA":"01"}}},{"type":"Feature","geometry":{"type":"Point","coordinates":[-7.126306,37.227833]},"properties":{"id":"es-5783","source":"ES","brand":"REPSOL","address":"CARRETERA H-411 KM. 7","municipality":"Cartaya","province":"HUELVA","postalCode":"21450","schedule":"L-D: 06:00-22:00","fuels":{"gasoline95":1.835,"gasoline98":2.005,"diesel":1.979,"dieselRenewable":2.099},"extra":{"saleType":"P","margin":"I","reportingType":"OM","ideess":"5783","idMunicipio":"3235","idProvincia":"21","idCCAA":"01"}}},{"type":"Feature","geometry":{"type":"Point","coordinates":[-7.120194,37.591972]},"properties":{"id":"es-6447","source":"ES","brand":"GALP","address":"CARRETERA A-495 KM. 32,50","municipality":"Alosno","province":"HUELVA","postalCode":"21530","schedule":"L-D: 24H","fuels":{"gasoline95":1.779,"diesel":1.929},"extra":{"saleType":"P","margin":"D","reportingType":"dm","ideess":"6447","idMunicipio":"3220","idProvincia":"21","idCCAA":"01"}}},{"type":"Feature","geometry":{"type":"Point","coordinates":[-7.132083,37.291556]},"properties":{"id":"es-6608","source":"ES","brand":"SHELL","address":"CR N-431, KM. 109,41 km 109.41","municipality":"Cartaya","province":"HUELVA","postalCode":"21450","schedule":"L-D: 05:00-23:00","fuels":{"gasoline95":1.809,"gasoline98":1.949,"diesel":1.944,"dieselPremium":2.024,"adblue":1.25},"extra":{"saleType":"P","margin":"N","reportingType":"OM","ideess":"6608","idMunicipio":"3235","idProvincia":"21","idCCAA":"01"}}},{"type":"Feature","geometry":{"type":"Point","coordinates":[-7.398556,37.220694]},"properties":{"id":"es-6609","source":"ES","brand":"BP","address":"AVENIDA CONSTITUCION, S/N","municipality":"Ayamonte","province":"HUELVA","postalCode":"21400","schedule":"L-D: 06:00-00:00","fuels":{"gasoline95":1.749,"gasoline98":1.859,"diesel":1.899,"dieselPremium":1.959,"adblue":0.95},"extra":{"saleType":"P","margin":"N","reportingType":"dm","ideess":"6609","idMunicipio":"3224","idProvincia":"21","idCCAA":"01"}}},{"type":"Feature","geometry":{"type":"Point","coordinates":[-7.344056,37.309056]},"properties":{"id":"es-6734","source":"ES","brand":"CEPSA","address":"CARRETERA AYAMONTE-ARACENA A-499 KM. 8,2","municipality":"Villablanca","province":"HUELVA","postalCode":"21590","schedule":"L-D: 06:30-22:00","fuels":{"gasoline95":1.829,"gasoline95Premium":1.939,"diesel":1.939,"dieselPremium":2.069,"dieselB":1.709},"extra":{"saleType":"P","margin":"I","reportingType":"dm","ideess":"6734","idMunicipio":"3287","idProvincia":"21","idCCAA":"01"}}},{"type":"Feature","geometry":{"type":"Point","coordinates":[-7.079778,37.318583]},"properties":{"id":"es-6736","source":"ES","brand":"CEPSA","address":"N-431 km 104","municipality":"Cartaya","province":"HUELVA","postalCode":"21450","schedule":"L-V: 07:00-20:00; S: 08:00-21:00; D: 09:00-17:00","fuels":{"gasoline95":1.809,"diesel":1.949,"dieselPremium":2.039},"extra":{"saleType":"P","margin":"D","reportingType":"dm","ideess":"6736","idMunicipio":"3235","idProvincia":"21","idCCAA":"01"}}},{"type":"Feature","geometry":{"type":"Point","coordinates":[-7.14675,37.28825]},"properties":{"id":"es-6737","source":"ES","brand":"REPSOL","address":"CARRETERA N-431 KM. 110,4","municipality":"Cartaya","province":"HUELVA","postalCode":"21450","schedule":"L: 06:00-23:00","fuels":{"gasoline95":1.829,"gasoline98":1.999,"diesel":1.975,"dieselB":1.685,"dieselRenewable":2.095},"extra":{"saleType":"P","margin":"I","reportingType":"OM","ideess":"6737","idMunicipio":"3235","idProvincia":"21","idCCAA":"01"}}},{"type":"Feature","geometry":{"type":"Point","coordinates":[-7.239111,37.963]},"properties":{"id":"es-6740","source":"ES","brand":"GALP","address":"CARRETERA N 433 KM. 0","municipality":"Rosal de la Frontera","province":"HUELVA","postalCode":"21250","schedule":"L-D: 24H","fuels":{"gasoline95":1.789,"gasoline98":1.929,"diesel":1.959,"dieselPremium":2.009,"adblue":0.799},"extra":{"saleType":"P","margin":"N","reportingType":"OM","ideess":"6740","idMunicipio":"3276","idProvincia":"21","idCCAA":"01"}}},{"type":"Feature","geometry":{"type":"Point","coordinates":[-7.409806,37.212722]},"properties":{"id":"es-6749","source":"ES","brand":"CEPSA","address":"AVENIDA MUELLE DE PORTUGAL, SN","municipality":"Ayamonte","province":"HUELVA","postalCode":"21400","schedule":"L-D: 07:00-22:00","fuels":{"gasoline95":1.774,"diesel":1.924},"extra":{"saleType":"P","margin":"D","reportingType":"dm","ideess":"6749","idMunicipio":"3224","idProvincia":"21","idCCAA":"01"}}},{"type":"Feature","geometry":{"type":"Point","coordinates":[-7.216306,37.96875]},"properties":{"id":"es-6823","source":"ES","brand":"REPSOL","address":"AVENIDA SEVILLA, 59","municipality":"Rosal de la Frontera","province":"HUELVA","postalCode":"21250","schedule":"L-D: 07:00-23:00","fuels":{"gasoline95":1.839,"diesel":1.989,"dieselPremium":2.079},"extra":{"saleType":"P","margin":"D","reportingType":"dm","ideess":"6823","idMunicipio":"3276","idProvincia":"21","idCCAA":"01"}}},{"type":"Feature","geometry":{"type":"Point","coordinates":[-7.268444,37.497139]},"properties":{"id":"es-6936","source":"ES","brand":"E.S. LA CRUZ DEL GALLO","address":"CARRETERA HUELVA KM. 31","municipality":"Villanueva de los Castillejos","province":"HUELVA","postalCode":"21540","schedule":"L-D: 07:00-22:00","fuels":{"gasoline95":1.849,"diesel":1.999,"dieselPremium":2.099},"extra":{"saleType":"P","margin":"D","reportingType":"dm","ideess":"6936","idMunicipio":"3290","idProvincia":"21","idCCAA":"01"}}},{"type":"Feature","geometry":{"type":"Point","coordinates":[-7.237667,37.253056]},"properties":{"id":"es-6952","source":"ES","brand":"REPSOL","address":"CR N-431, 686","municipality":"Lepe","province":"HUELVA","postalCode":"21440","schedule":"L-V: 07:30-22:30; S-D: 08:30-22:30","fuels":{"gasoline95":1.798,"diesel":1.948,"dieselRenewable":2.058},"extra":{"saleType":"P","margin":"I","reportingType":"dm","ideess":"6952","idMunicipio":"3258","idProvincia":"21","idCCAA":"01"}}},{"type":"Feature","geometry":{"type":"Point","coordinates":[-7.340583,37.738111]},"properties":{"id":"es-6998","source":"ES","brand":"MOEVE","address":"AVENIDA ANDALUCÍA, ","municipality":"Paymogo","province":"HUELVA","postalCode":"21560","schedule":"L-D: 24H","fuels":{"gasoline95":1.739,"diesel":1.919,"dieselB":1.649},"extra":{"saleType":"P","margin":"N","reportingType":"dm","ideess":"6998","idMunicipio":"3271","idProvincia":"21","idCCAA":"01"}}},{"type":"Feature","geometry":{"type":"Point","coordinates":[-7.204889,37.243]},"properties":{"id":"es-8080","source":"ES","brand":"SP","address":"CTRA. LEPE-LA ANTILLA km 0,9","municipality":"Lepe","province":"HUELVA","postalCode":"21440","schedule":"L-V: 07:30-23:00; S-D: 08:30-23:00","fuels":{"gasoline95":1.638,"gasoline98":1.828,"diesel":1.798,"dieselB":1.358},"extra":{"saleType":"P","margin":"D","reportingType":"dm","ideess":"8080","idMunicipio":"3258","idProvincia":"21","idCCAA":"01"}}},{"type":"Feature","geometry":{"type":"Point","coordinates":[-7.138444,37.290306]},"properties":{"id":"es-8316","source":"ES","brand":"CARREFOUR","address":"CARRETERA N 434 KM. SIN NÚMERO","municipality":"Cartaya","province":"HUELVA","postalCode":"21450","schedule":"L-D: 24H","fuels":{"gasoline95":1.809,"diesel":1.949,"dieselPremium":1.989},"extra":{"saleType":"P","margin":"N","reportingType":"dm","ideess":"8316","idMunicipio":"3235","idProvincia":"21","idCCAA":"01"}}},{"type":"Feature","geometry":{"type":"Point","coordinates":[-7.124028,37.546028]},"properties":{"id":"es-8800","source":"ES","brand":"CEPSA","address":"CARRETERA A-495 KM. 26,700","municipality":"Alosno","province":"HUELVA","postalCode":"21520","schedule":"L-D: 06:00-22:00","fuels":{"gasoline95":1.849,"diesel":1.999,"dieselPremium":2.099},"extra":{"saleType":"P","margin":"I","reportingType":"dm","ideess":"8800","idMunicipio":"3220","idProvincia":"21","idCCAA":"01"}}},{"type":"Feature","geometry":{"type":"Point","coordinates":[-7.266778,37.226389]},"properties":{"id":"es-9040","source":"ES","brand":"BP OIL ESPAÑA, S.A.U.","address":"CARRETERA HU - 3400, P.K. 3,800 KM. ","municipality":"Isla Cristina","province":"HUELVA","postalCode":"21430","schedule":"L-S: 06:00-22:00","fuels":{"gasoline95":1.759,"gasoline98":1.869,"diesel":1.899,"dieselPremium":1.959,"dieselB":1.459,"adblue":0.759},"extra":{"saleType":"P","margin":"I","reportingType":"dm","ideess":"9040","idMunicipio":"3256","idProvincia":"21","idCCAA":"01"}}},{"type":"Feature","geometry":{"type":"Point","coordinates":[-7.208861,37.236361]},"properties":{"id":"es-9309","source":"ES","brand":"AGLA","address":"CARRETERA H4116 KM. 1,7","municipality":"Lepe","province":"HUELVA","postalCode":"21440","schedule":"L-D: 07:00-22:00","fuels":{"gasoline95":1.688,"diesel":1.838},"extra":{"saleType":"P","margin":"I","reportingType":"dm","ideess":"9309","idMunicipio":"3258","idProvincia":"21","idCCAA":"01"}}},{"type":"Feature","geometry":{"type":"Point","coordinates":[-7.19425,37.241139]},"properties":{"id":"es-9565","source":"ES","brand":"VIBE-CARBURANTES","address":"CARRETERA LEPE-EL TERRÓN, KM 1,5 KM. 1,5","municipality":"Lepe","province":"HUELVA","postalCode":"21440","schedule":"L-D: 07:00-23:00","fuels":{"gasoline95":1.639,"gasoline98":1.849,"diesel":1.799,"dieselPremium":1.849,"lpg":1.055,"adblue":0.739},"extra":{"saleType":"P","margin":"D","reportingType":"dm","ideess":"9565","idMunicipio":"3258","idProvincia":"21","idCCAA":"01"}}},{"type":"Feature","geometry":{"type":"Point","coordinates":[-7.400972,37.21425]},"properties":{"id":"es-9829","source":"ES","brand":"GALP","address":"AVENIDA CAYETANO FEU, N","municipality":"Ayamonte","province":"HUELVA","postalCode":"21400","schedule":"L-D: 06:00-23:00","fuels":{"gasoline95":1.774,"diesel":1.904,"dieselPremium":1.954},"extra":{"saleType":"P","margin":"N","reportingType":"dm","ideess":"9829","idMunicipio":"3224","idProvincia":"21","idCCAA":"01"}}},{"type":"Feature","geometry":{"type":"Point","coordinates":[-7.310028,37.199278]},"properties":{"id":"es-9850","source":"ES","brand":"REPSOL","address":"CALLE ESPAÑA, S/N","municipality":"Isla Cristina","province":"HUELVA","postalCode":"21410","schedule":"L-D: 07:00-22:30","fuels":{"gasoline95":1.845,"gasoline98":2.015,"diesel":1.989,"dieselPremium":2.049},"extra":{"saleType":"P","margin":"N","reportingType":"OM","ideess":"9850","idMunicipio":"3256","idProvincia":"21","idCCAA":"01"}}},{"type":"Feature","geometry":{"type":"Point","coordinates":[-7.324222,37.207306]},"properties":{"id":"es-9853","source":"ES","brand":"REPSOL","address":"H 412 km 4.900","municipality":"Isla Cristina","province":"HUELVA","postalCode":"21410","schedule":"L-S: 06:00-23:00; D: 07:00-23:00","fuels":{"gasoline95":1.845,"gasoline98":1.965,"diesel":1.989,"dieselRenewable":2.109},"extra":{"saleType":"P","margin":"I","reportingType":"OM","ideess":"9853","idMunicipio":"3256","idProvincia":"21","idCCAA":"01"}}}]}