{"type":"FeatureCollection","features":[{"type":"Feature","geometry":{"type":"Point","coordinates":[-5.866278,36.97175]},"properties":{"id":"es-10099","source":"ES","brand":"REPSOL","address":"NACIONAL IV km 594,50","municipality":"Cabezas de San Juan (Las)","province":"SEVILLA","postalCode":"41730","schedule":"L-V: 06:00-22:00; S: 07:00-13:00","fuels":{"gasoline95":1.799,"diesel":1.929},"extra":{"saleType":"P","margin":"D","reportingType":"dm","ideess":"10099","idMunicipio":"6074","idProvincia":"41","idCCAA":"01"}}},{"type":"Feature","geometry":{"type":"Point","coordinates":[-5.349111,36.177111]},"properties":{"id":"es-10103","source":"ES","brand":"SHELL","address":"AVENIDA RONDA NORTE, 2","municipality":"Línea de la Concepción (La)","province":"CÁDIZ","postalCode":"11300","schedule":"L-D: 24H","fuels":{"gasoline95":1.679,"diesel":1.729},"extra":{"saleType":"P","margin":"N","reportingType":"OM","ideess":"10103","idMunicipio":"1784","idProvincia":"11","idCCAA":"01"}}},{"type":"Feature","geometry":{"type":"Point","coordinates":[-5.223,36.975361]},"properties":{"id":"es-10355","source":"ES","brand":"SCA AGRARIA SAN ANTON","address":"AVENIDA DE LOS EMIGRANTES, S/N","municipality":"Pruna","province":"SEVILLA","postalCode":"41670","schedule":"L-D: 06:00-00:00","fuels":{"gasoline95":1.54,"diesel":1.575,"dieselB":1.21},"extra":{"saleType":"P","margin":"D","reportingType":"dm","ideess":"10355","idMunicipio":"6133","idProvincia":"41","idCCAA":"01"}}},{"type":"Feature","geometry":{"type":"Point","coordinates":[-5.156611,36.428194]},"properties":{"id":"es-10411","source":"ES","brand":"BP AVENIDA JUAN CARLOS I","address":"AVENIDA JUAN CARLOS I, 139","municipality":"Estepona","province":"MÁLAGA","postalCode":"29680","schedule":"L-D: 24H","fuels":{"gasoline95":1.829,"gasoline98":1.969,"diesel":1.989,"dieselPremium":2.079,"adblue":1.035},"extra":{"saleType":"P","margin":"N","reportingType":"OM","ideess":"10411","idMunicipio":"4505","idProvincia":"29","idCCAA":"01"}}},{"type":"Feature","geometry":{"type":"Point","coordinates":[-5.810028,36.612667]},"properties":{"id":"es-10580","source":"ES","brand":"GALP","address":"CARRETERA JEREZ-CORTES KM. 32,7","municipality":"San José del Valle","province":"CÁDIZ","postalCode":"11580","schedule":"L-S: 07:00-22:00; D: 08:00-22:00","fuels":{"gasoline95":1.699,"diesel":1.819,"dieselB":1.549},"extra":{"saleType":"P","margin":"N","reportingType":"dm","ideess":"10580","idMunicipio":"1794","idProvincia":"11","idCCAA":"01"}}},{"type":"Feature","geometry":{"type":"Point","coordinates":[-5.659556,36.655556]},"properties":{"id":"es-10585","source":"ES","brand":"CLC CALIDAD LOW COST","address":"CARRETERA ARCOS- ALGAR KM. 16,2","municipality":"Algar","province":"CÁDIZ","postalCode":"11639","schedule":"L-V: 06:30-21:30; S-D: 08:00-21:30","fuels":{"gasoline95":1.819,"diesel":1.899,"dieselB":1.589},"extra":{"saleType":"P","margin":"I","reportingType":"dm","ideess":"10585","idMunicipio":"1764","idProvincia":"11","idCCAA":"01"}}},{"type":"Feature","geometry":{"type":"Point","coordinates":[-5.453278,36.118194]},"properties":{"id":"es-10652","source":"ES","brand":"REPSOL","address":"CARRETERA N-340A KM. 103","municipality":"Algeciras","province":"CÁDIZ","postalCode":"11206","schedule":"L-V: 07:00-19:00; S-D: 08:00-14:00","fuels":{"gasoline95":1.83,"gasoline98":2.01,"diesel":1.92,"dieselPremium":1.99},"extra":{"saleType":"P","margin":"I","reportingType":"OM","ideess":"10652","idMunicipio":"1765","idProvincia":"11","idCCAA":"01"}}},{"type":"Feature","geometry":{"type":"Point","coordinates":[-5.514944,36.2]},"properties":{"id":"es-10861","source":"ES","brand":"REPSOL","address":"CARRETERA A-381 KM. 94","municipality":"Barrios (Los)","province":"CÁDIZ","postalCode":"11370","schedule":"L-D: 24H","fuels":{"gasoline95":1.87,"gasoline98":2.0,"diesel":1.956,"dieselPremium":2.026,"dieselB":1.722,"lpg":1.089},"extra":{"saleType":"P","margin":"I","reportingType":"OM","ideess":"10861","idMunicipio":"1769","idProvincia":"11","idCCAA":"01"}}},{"type":"Feature","geometry":{"type":"Point","coordinates":[-5.1235,36.431556]},"properties":{"id":"es-10898","source":"ES","brand":"CEPSA","address":"AVENIDA LITORAL, S,N","municipality":"Estepona","province":"MÁLAGA","postalCode":"29680","schedule":"L-D: 07:00-23:00","fuels":{"gasoline95":1.775,"gasoline95Premium":1.866,"diesel":1.919,"dieselPremium":1.997},"extra":{"saleType":"P","margin":"I","reportingType":"dm","ideess":"10898","idMunicipio":"4505","idProvincia":"29","idCCAA":"01"}}},{"type":"Feature","geometry":{"type":"Point","coordinates":[-5.162361,36.759444]},"properties":{"id":"es-11138","source":"ES","brand":"MOEVE","address":"CARRETERA A-376 KM. 120,7","municipality":"Ronda","province":"MÁLAGA","postalCode":"29400","schedule":"L-D: 06:00-23:00","fuels":{"gasoline95":1.849,"gasoline95Premium":1.939,"diesel":1.949,"dieselPremium":2.039},"extra":{"saleType":"P","margin":"I","reportingType":"OM","ideess":"11138","idMunicipio":"4537","idProvincia":"29","idCCAA":"01"}}},{"type":"Feature","geometry":{"type":"Point","coordinates":[-5.857505,36.628164]},"properties":{"id":"es-11172","source":"ES","brand":"LIBRE","address":"A-2003 km 25,5","municipality":"Jerez de la Frontera","province":"CÁDIZ","postalCode":"11570","schedule":"L-D: 07:00-22:00","fuels":{"gasoline95":1.91,"diesel":1.97,"dieselB":1.65},"extra":{"saleType":"P","margin":"D","reportingType":"dm","ideess":"11172","idMunicipio":"1782","idProvincia":"11","idCCAA":"01"}}},{"type":"Feature","geometry":{"type":"Point","coordinates":[-5.929278,36.725167]},"properties":{"id":"es-11242","source":"ES","brand":"ESTACION DE SERVICIOS JEDULA","address":"CARRETERA CARRETERA JEDULA/ ARCOS DE LA FRA. KM. 1,1","municipality":"Arcos de la Frontera","province":"CÁDIZ","postalCode":"11620","schedule":"L-V: 06:00-21:00; S: 07:00-21:00; D: 09:00-19:00","fuels":{"gasoline95":1.669,"diesel":1.699,"dieselPremium":1.789},"extra":{"saleType":"P","margin":"N","reportingType":"dm","ideess":"11242","idMunicipio":"1767","idProvincia":"11","idCCAA":"01"}}},{"type":"Feature","geometry":{"type":"Point","coordinates":[-5.37275,36.173639]},"properties":{"id":"es-11526","source":"ES","brand":"REPSOL","address":"CALLE REAL (CAMPAMENTO), 79","municipality":"San Roque","province":"CÁDIZ","postalCode":"11314","schedule":"L-D: 07:00-23:00","fuels":{"gasoline95":1.81,"gasoline95Premium":1.89,"gasoline98":1.99,"diesel":1.916,"dieselPremium":1.986},"extra":{"saleType":"P","margin":"I","reportingType":"OM","ideess":"11526","idMunicipio":"1795","idProvincia":"11","idCCAA":"01"}}},{"type":"Feature","geometry":{"type":"Point","coordinates":[-5.981694,36.524694]},"properties":{"id":"es-11542","source":"ES","brand":"GALP","address":"CARRETERA A-381 KM. 17","municipality":"Jerez de la Frontera","province":"CÁDIZ","postalCode":"11400","schedule":"L-D: 24H","fuels":{"gasoline95":1.819,"gasoline95Premium":1.869,"diesel":1.939,"dieselPremium":2.029,"adblue":0.799},"extra":{"saleType":"P","margin":"I","reportingType":"OM","ideess":"11542","idMunicipio":"1782","idProvincia":"11","idCCAA":"01"}}},{"type":"Feature","geometry":{"type":"Point","coordinates":[-5.960667,36.974917]},"properties":{"id":"es-11556","source":"ES","brand":"SHELL","address":"CARRETERA A-471 KM. 16,600","municipality":"Cabezas de San Juan (Las)","province":"SEVILLA","postalCode":"41730","schedule":"L-D: 05:30-23:30","fuels":{"gasoline95":1.719,"gasoline98":1.859,"diesel":1.809,"dieselPremium":1.889,"adblue":1.25},"extra":{"saleType":"P","margin":"I","reportingType":"OM","ideess":"11556","idMunicipio":"6074","idProvincia":"41","idCCAA":"01"}}},{"type":"Feature","geometry":{"type":"Point","coordinates":[-5.4075,36.336944]},"properties":{"id":"es-11637","source":"ES","brand":"E.S. LA ALMORAIMA","address":"CARRETERA A-369 KM. 11","municipality":"Castellar de la Frontera","province":"CÁDIZ","postalCode":"11350","schedule":"L-D: 06:30-10:30","fuels":{"gasoline95":1.659,"gasoline98":1.869,"diesel":1.669,"dieselB":1.469},"extra":{"saleType":"P","margin":"D","reportingType":"dm","ideess":"11637","idMunicipio":"1775","idProvincia":"11","idCCAA":"01"}}},{"type":"Feature","geometry":{"type":"Point","coordinates":[-5.820167,36.349833]},"properties":{"id":"es-11639","source":"ES","brand":"E.S.BENALUP","address":"POLIGONO P.I ZAHORÍ, 64","municipality":"Benalup-Casas Viejas","province":"CÁDIZ","postalCode":"11190","schedule":"L-V: 06:00-22:30; S-D: 07:00-22:30","fuels":{"gasoline95":1.749,"diesel":1.829},"extra":{"saleType":"P","margin":"D","reportingType":"dm","ideess":"11639","idMunicipio":"1770","idProvincia":"11","idCCAA":"01"}}},{"type":"Feature","geometry":{"type":"Point","coordinates":[-5.450306,36.664417]},"properties":{"id":"es-11689","source":"ES","brand":"BP","address":"CARRETERA A373 KM. 24,5","municipality":"Ubrique","province":"CÁDIZ","postalCode":"11600","schedule":"L-D: 06:30-22:30","fuels":{"gasoline95":1.809,"gasoline98":1.959,"diesel":1.989,"dieselPremium":2.069},"extra":{"saleType":"P","margin":"D","reportingType":"dm","ideess":"11689","idMunicipio":"1801","idProvincia":"11","idCCAA":"01"}}},{"type":"Feature","geometry":{"type":"Point","coordinates":[-5.808833,36.769667]},"properties":{"id":"es-11752","source":"ES","brand":"ES EL PERAL","address":"POLIGONO PERAL, S/N","municipality":"Arcos de la Frontera","province":"CÁDIZ","postalCode":"11630","schedule":"L-D: 07:00-22:00","fuels":{"gasoline95":1.709,"diesel":1.819,"adblue":1.1},"extra":{"saleType":"P","margin":"N","reportingType":"dm","ideess":"11752","idMunicipio":"1767","idProvincia":"11","idCCAA":"01"}}},{"type":"Feature","geometry":{"type":"Point","coordinates":[-5.153194,36.754361]},"properties":{"id":"es-11867","source":"ES","brand":"AORVA GROUP","address":"CALLE DON FRANCISCO CARRILLO DE MENDOZA Y MORALES, 1","municipality":"Ronda","province":"MÁLAGA","postalCode":"29400","schedule":"L-D: 06:30-22:30","fuels":{"gasoline95":1.709,"diesel":1.809},"extra":{"saleType":"P","margin":"D","reportingType":"dm","ideess":"11867","idMunicipio":"4537","idProvincia":"29","idCCAA":"01"}}},{"type":"Feature","geometry":{"type":"Point","coordinates":[-5.84425,36.136444]},"properties":{"id":"es-12059","source":"ES","brand":"BP","address":"CALLE MARIA LUISA (ZAH AT), S/N","municipality":"Barbate","province":"CÁDIZ","postalCode":"11160","schedule":"L-D: 08:00-20:00","fuels":{"gasoline95":1.789,"gasoline98":1.869,"diesel":1.859,"dieselPremium":1.899},"extra":{"saleType":"P","margin":"D","reportingType":"dm","ideess":"12059","idMunicipio":"1768","idProvincia":"11","idCCAA":"01"}}},{"type":"Feature","geometry":{"type":"Point","coordinates":[-5.454528,36.11225]},"properties":{"id":"es-12089","source":"ES","brand":"BP","address":"AVENIDA 28 DE FEBRERO, S/N","municipality":"Algeciras","province":"CÁDIZ","postalCode":"11207","schedule":"L-D: 06:10-22:50","fuels":{"gasoline95":1.828,"gasoline98":2.007,"diesel":1.92,"dieselPremium":1.99,"adblue":0.844},"extra":{"saleType":"P","margin":"N","reportingType":"dm","ideess":"12089","idMunicipio":"1765","idProvincia":"11","idCCAA":"01"}}},{"type":"Feature","geometry":{"type":"Point","coordinates":[-5.4615,36.171694]},"properties":{"id":"es-12258","source":"ES","brand":"E.S. EL FRESNO","address":"POLIGONO ZAL BAHIA DE ALGECIRAS AREA EL FRESNO, ","municipality":"Barrios (Los)","province":"CÁDIZ","postalCode":"11370","schedule":"L-D: 24H","fuels":{"gasoline95":1.91,"diesel":1.91,"dieselPremium":2.032,"dieselB":1.782,"adblue":0.946},"extra":{"saleType":"P","margin":"N","reportingType":"dm","ideess":"12258","idMunicipio":"1769","idProvincia":"11","idCCAA":"01"}}},{"type":"Feature","geometry":{"type":"Point","coordinates":[-5.202778,36.39325]},"properties":{"id":"es-12270","source":"ES","brand":"BALLENOIL","address":"SECTOR ARROYO ENMEDIO E4, 4","municipality":"Estepona","province":"MÁLAGA","postalCode":"29680","schedule":"L-D: 24H","fuels":{"gasoline95":1.669,"diesel":1.739},"extra":{"saleType":"P","margin":"D","reportingType":"OM","ideess":"12270","idMunicipio":"4505","idProvincia":"29","idCCAA":"01"}}},{"type":"Feature","geometry":{"type":"Point","coordinates":[-5.105,36.438889]},"properties":{"id":"es-12346","source":"ES","brand":"BP RIO PADRON","address":"CARRETERA N-340 KM. 159,600","municipality":"Estepona","province":"MÁLAGA","postalCode":"29680","schedule":"L-D: 06:00-22:00","fuels":{"gasoline95":1.829,"gasoline98":1.969,"diesel":1.989,"dieselPremium":2.079,"adblue":1.035},"extra":{"saleType":"P","margin":"D","reportingType":"OM","ideess":"12346","idMunicipio":"4505","idProvincia":"29","idCCAA":"01"}}},{"type":"Feature","geometry":{"type":"Point","coordinates":[-5.174028,36.432139]},"properties":{"id":"es-12357","source":"ES","brand":"CEPSA","address":"GLORIETA ACCESO POLIGONO INDUSTRIAL, SN","municipality":"Estepona","province":"MÁLAGA","postalCode":"29680","schedule":"L-D: 07:00-23:00","fuels":{"gasoline95":1.829,"gasoline95Premium":1.919,"diesel":1.949,"dieselPremium":2.029,"adblue":1.09},"extra":{"saleType":"P","margin":"I","reportingType":"dm","ideess":"12357","idMunicipio":"4505","idProvincia":"29","idCCAA":"01"}}},{"type":"Feature","geometry":{"type":"Point","coordinates":[-5.336333,36.618806]},"properties":{"id":"es-12378","source":"ES","brand":"HEMEGAS","address":"CARRETERA A-373 KM. 052,000","municipality":"Cortes de la Frontera","province":"MÁLAGA","postalCode":"29380","schedule":"L-D: 06:00-22:00","fuels":{"gasoline95":1.619,"diesel":1.659},"extra":{"saleType":"P","margin":"D","reportingType":"dm","ideess":"12378","idMunicipio":"4500","idProvincia":"29","idCCAA":"01"}}},{"type":"Feature","geometry":{"type":"Point","coordinates":[-5.926306,36.647972]},"properties":{"id":"es-12595","source":"ES","brand":"COOPERATIVA LA FLORIDA","address":"CARRETERA CORTES (DE) KM. 26","municipality":"Jerez de la Frontera","province":"CÁDIZ","postalCode":"11570","schedule":"L-D: 24H","fuels":{"diesel":1.789,"dieselB":1.489},"extra":{"saleType":"P","margin":"D","reportingType":"dm","ideess":"12595","idMunicipio":"1782","idProvincia":"11","idCCAA":"01"}}},{"type":"Feature","geometry":{"type":"Point","coordinates":[-5.94025,36.99225]},"properties":{"id":"es-12632","source":"ES","brand":"LAVABU","address":"AVENIDA JESUS NAZARENO, 99","municipality":"Cabezas de San Juan (Las)","province":"SEVILLA","postalCode":"41730","schedule":"L-D: 24H","fuels":{"gasoline95":1.698,"diesel":1.799,"dieselB":1.659},"extra":{"saleType":"P","margin":"D","reportingType":"dm","ideess":"12632","idMunicipio":"6074","idProvincia":"41","idCCAA":"01"}}},{"type":"Feature","geometry":{"type":"Point","coordinates":[-5.34575,36.199194]},"properties":{"id":"es-12650","source":"ES","brand":"REPSOL","address":"CARRETERA A-383 KM. 4,7","municipality":"Línea de la Concepción (La)","province":"CÁDIZ","postalCode":"11300","schedule":"L-V: 07:00-19:00; S-D: 08:00-14:00","fuels":{"gasoline95":1.806,"gasoline98":1.986,"diesel":1.916,"dieselPremium":2.026},"extra":{"saleType":"P","margin":"I","reportingType":"OM","ideess":"12650","idMunicipio":"1784","idProvincia":"11","idCCAA":"01"}}},{"type":"Feature","geometry":{"type":"Point","coordinates":[-5.945861,36.470667]},"properties":{"id":"es-12653","source":"ES","brand":"GALP","address":"AVENIDA PRADO DE LA FERIA, 6","municipality":"Medina-Sidonia","province":"CÁDIZ","postalCode":"11170","schedule":"L-D: 06:00-22:00","fuels":{"gasoline95":1.819,"diesel":1.959,"dieselPremium":2.029,"adblue":0.929},"extra":{"saleType":"P","margin":"N","reportingType":"dm","ideess":"12653","idMunicipio":"1785","idProvincia":"11","idCCAA":"01"}}},{"type":"Feature","geometry":{"type":"Point","coordinates":[-5.948944,36.976306]},"properties":{"id":"es-12655","source":"ES","brand":"ESTACIONES DE SERVICIO GASOLIVIA","address":"AVENIDA PABLO IGLESIAS, 80","municipality":"Cabezas de San Juan (Las)","province":"SEVILLA","postalCode":"41730","schedule":"L-D: 24H","fuels":{"gasoline95":1.609,"diesel":1.799},"extra":{"saleType":"P","margin":"D","reportingType":"dm","ideess":"12655","idMunicipio":"6074","idProvincia":"41","idCCAA":"01"}}},{"type":"Feature","geometry":{"type":"Point","coordinates":[-5.926944,36.206667]},"properties":{"id":"es-12832","source":"ES","brand":"GACOSUR BARBATE","address":"POLIGONO EL OLIVAR, PARCELA 5.1, 5.1","municipality":"Barbate","province":"CÁDIZ","postalCode":"11160","schedule":"L-D: 24H","fuels":{"gasoline95":1.599,"diesel":1.639},"extra":{"saleType":"P","margin":"N","reportingType":"dm","ideess":"12832","idMunicipio":"1768","idProvincia":"11","idCCAA":"01"}}},{"type":"Feature","geometry":{"type":"Point","coordinates":[-5.15575,36.423083]},"properties":{"id":"es-12886","source":"ES","brand":"GALP","address":"CALLE DOCTOR CRISTOBAL RUIZ MENDEZ, 75","municipality":"Estepona","province":"MÁLAGA","postalCode":"29680","schedule":"L-D: 24H","fuels":{"gasoline95":1.759,"gasoline98":1.899,"diesel":1.859,"dieselPremium":1.949,"adblue":0.95},"extra":{"saleType":"P","margin":"D","reportingType":"dm","ideess":"12886","idMunicipio":"4505","idProvincia":"29","idCCAA":"01"}}},{"type":"Feature","geometry":{"type":"Point","coordinates":[-5.275111,36.296306]},"properties":{"id":"es-12915","source":"ES","brand":"U.S. TORREGUADIARO","address":"AVENIDA MAR DEL SUR, 18","municipality":"San Roque","province":"CÁDIZ","postalCode":"11312","schedule":"L-D: 07:30-22:30","fuels":{"gasoline95":1.759,"diesel":1.899},"extra":{"saleType":"P","margin":"D","reportingType":"dm","ideess":"12915","idMunicipio":"1795","idProvincia":"11","idCCAA":"01"}}},{"type":"Feature","geometry":{"type":"Point","coordinates":[-5.609694,36.026528]},"properties":{"id":"es-12956","source":"ES","brand":"WINDFUEL TARIFA LOW COST","address":"POLIGONO LA VEGA, 511","municipality":"Tarifa","province":"CÁDIZ","postalCode":"11380","schedule":"L-D: 24H","fuels":{"gasoline95":1.749,"diesel":1.769},"extra":{"saleType":"P","margin":"N","reportingType":"dm","ideess":"12956","idMunicipio":"1798","idProvincia":"11","idCCAA":"01"}}},{"type":"Feature","geometry":{"type":"Point","coordinates":[-5.607861,36.026333]},"properties":{"id":"es-13009","source":"ES","brand":"TARIFUEL","address":"URBANIZACIÓN LA MARINA, 614","municipality":"Tarifa","province":"CÁDIZ","postalCode":"11380","schedule":"L-D: 24H","fuels":{"gasoline95":1.729,"diesel":1.749,"lpg":0.999,"adblue":0.849},"extra":{"saleType":"P","margin":"N","reportingType":"dm","ideess":"13009","idMunicipio":"1798","idProvincia":"11","idCCAA":"01"}}},{"type":"Feature","geometry":{"type":"Point","coordinates":[-5.465306,36.159889]},"properties":{"id":"es-13076","source":"ES","brand":"BFUEL ALGECIRAS","address":"AVENIDA DEL ESTRECHO, 7","municipality":"Algeciras","province":"CÁDIZ","postalCode":"11201","schedule":"L-D: 24H","fuels":{"gasoline95":1.717,"diesel":1.737},"extra":{"saleType":"P","margin":"D","reportingType":"dm","ideess":"13076","idMunicipio":"1765","idProvincia":"11","idCCAA":"01"}}},{"type":"Feature","geometry":{"type":"Point","coordinates":[-5.163306,36.751167]},"properties":{"id":"es-13095","source":"ES","brand":"BP RONDA","address":"CALLE GENAL, 3","municipality":"Ronda","province":"MÁLAGA","postalCode":"29400","schedule":"L-D: 06:00-23:00","fuels":{"gasoline95":1.784,"diesel":1.94},"extra":{"saleType":"P","margin":"D","reportingType":"dm","ideess":"13095","idMunicipio":"4537","idProvincia":"29","idCCAA":"01"}}},{"type":"Feature","geometry":{"type":"Point","coordinates":[-5.437194,36.124028]},"properties":{"id":"es-13131","source":"ES","brand":"MOEVE","address":"AVENIDA GAITAN AYALA (PUERTO ALGECIRAS-ISLA VERDE), S/N","municipality":"Algeciras","province":"CÁDIZ","postalCode":"11207","schedule":"L-D: 24H","fuels":{"gasoline95":1.829,"diesel":1.959,"dieselB":1.779},"extra":{"saleType":"P","margin":"D","reportingType":"OM","ideess":"13131","idMunicipio":"1765","idProvincia":"11","idCCAA":"01"}}},{"type":"Feature","geometry":{"type":"Point","coordinates":[-5.338889,36.176833]},"properties":{"id":"es-13170","source":"ES","brand":"BP","address":"AVENIDA DE CARTAGENA ESQ. CAMINO TORRENUEVA, S/N","municipality":"Línea de la Concepción (La)","province":"CÁDIZ","postalCode":"11300","schedule":"L-D: 06:30-22:30","fuels":{"gasoline95":1.806,"gasoline98":1.986,"diesel":1.916,"dieselPremium":2.026},"extra":{"saleType":"P","margin":"N","reportingType":"dm","ideess":"13170","idMunicipio":"1784","idProvincia":"11","idCCAA":"01"}}},{"type":"Feature","geometry":{"type":"Point","coordinates":[-5.655056,36.855639]},"properties":{"id":"es-13180","source":"ES","brand":"HEMEGAS","address":"AVENIDA ARCOS, 55","municipality":"Villamartín","province":"CÁDIZ","postalCode":"11650","schedule":"L-D: 24H","fuels":{"gasoline95":1.539,"diesel":1.559,"lpg":1.055,"adblue":0.999},"extra":{"saleType":"P","margin":"D","reportingType":"dm","ideess":"13180","idMunicipio":"1804","idProvincia":"11","idCCAA":"01"}}},{"type":"Feature","geometry":{"type":"Point","coordinates":[-5.159083,36.750861]},"properties":{"id":"es-13195","source":"ES","brand":"GEDS","address":"CALLE GUADALHORCE, 4","municipality":"Ronda","province":"MÁLAGA","postalCode":"29400","schedule":"L-D: 24H","fuels":{"gasoline95":1.709,"diesel":1.809},"extra":{"saleType":"P","margin":"I","reportingType":"OM","ideess":"13195","idMunicipio":"4537","idProvincia":"29","idCCAA":"01"}}},{"type":"Feature","geometry":{"type":"Point","coordinates":[-5.452306,36.659667]},"properties":{"id":"es-13354","source":"ES","brand":"GO UBRIQUE","address":"CALLE REPUJADORES, 2","municipality":"Ubrique","province":"CÁDIZ","postalCode":"11600","schedule":"L-D: 24H","fuels":{"gasoline95":1.709,"diesel":1.799},"extra":{"saleType":"P","margin":"D","reportingType":"dm","ideess":"13354","idMunicipio":"1801","idProvincia":"11","idCCAA":"01"}}},{"type":"Feature","geometry":{"type":"Point","coordinates":[-5.155306,36.752722]},"properties":{"id":"es-13383","source":"ES","brand":"SHELL","address":"CALLE GENAL, 31","municipality":"Ronda","province":"MÁLAGA","postalCode":"29400","schedule":"L-D: 24H","fuels":{"gasoline95":1.709,"diesel":1.809},"extra":{"saleType":"P","margin":"N","reportingType":"OM","ideess":"13383","idMunicipio":"4537","idProvincia":"29","idCCAA":"01"}}},{"type":"Feature","geometry":{"type":"Point","coordinates":[-5.444889,36.117361]},"properties":{"id":"es-13442","source":"ES","brand":"FRII","address":"CALLE PACO DE LUCIA, 2","municipality":"Algeciras","province":"CÁDIZ","postalCode":"11207","schedule":"L-D: 07:00-23:00","fuels":{"gasoline95":1.699,"diesel":1.739,"lpg":1.015},"extra":{"saleType":"P","margin":"N","reportingType":"dm","ideess":"13442","idMunicipio":"1765","idProvincia":"11","idCCAA":"01"}}},{"type":"Feature","geometry":{"type":"Point","coordinates":[-5.821278,36.754889]},"properties":{"id":"es-13458","source":"ES","brand":"BALLENOIL","address":"CALLE CRUZ DE LAS CARRERAS P9-10-11, 9","municipality":"Arcos de la Frontera","province":"CÁDIZ","postalCode":"11630","schedule":"L-D: 24H","fuels":{"gasoline95":1.726,"diesel":1.83},"extra":{"saleType":"P","margin":"N","reportingType":"OM","ideess":"13458","idMunicipio":"1767","idProvincia":"11","idCCAA":"01"}}},{"type":"Feature","geometry":{"type":"Point","coordinates":[-5.189556,36.40775]},"properties":{"id":"es-13583","source":"ES","brand":"PETROL & GO","address":"AUTOVIA A-7 KM. 151","municipality":"Estepona","province":"MÁLAGA","postalCode":"29680","schedule":"L-D: 24H","fuels":{"gasoline95":1.739,"diesel":1.829,"adblue":0.968},"extra":{"saleType":"P","margin":"I","reportingType":"dm","ideess":"13583","idMunicipio":"4505","idProvincia":"29","idCCAA":"01"}}},{"type":"Feature","geometry":{"type":"Point","coordinates":[-5.430028,36.184806]},"properties":{"id":"es-13661","source":"ES","brand":"GAFISUR PALMONES","address":"POLIGONO P.I.MARISMAS DE PALMONES C/ MAR CANTABRICO PARCELA IT 2.12, 2,12","municipality":"Barrios (Los)","province":"CÁDIZ","postalCode":"11379","schedule":"L-D: 24H","fuels":{"gasoline95":1.699,"diesel":1.779,"adblue":0.89},"extra":{"saleType":"P","margin":"D","reportingType":"dm","ideess":"13661","idMunicipio":"1769","idProvincia":"11","idCCAA":"01"}}},{"type":"Feature","geometry":{"type":"Point","coordinates":[-5.759111,36.187139]},"properties":{"id":"es-13722","source":"ES","brand":"PETROLIFEROS DE TAHIVILLA","address":"CALLE PI TAHIVILLA, 1,2","municipality":"Tarifa","province":"CÁDIZ","postalCode":"11391","schedule":"L-D: 24H","fuels":{"gasoline95":1.679,"diesel":1.699,"dieselPremium":1.769},"extra":{"saleType":"P","margin":"D","reportingType":"dm","ideess":"13722","idMunicipio":"1798","idProvincia":"11","idCCAA":"01"}}},{"type":"Feature","geometry":{"type":"Point","coordinates":[-5.463694,36.162444]},"properties":{"id":"es-13725","source":"ES","brand":"BALLENOIL","address":"TERRENOS PP MENACHA (S.EJ.), 9","municipality":"Algeciras","province":"CÁDIZ","postalCode":"11205","schedule":"L-D: 24H","fuels":{"gasoline95":1.699,"diesel":1.689},"extra":{"saleType":"P","margin":"D","reportingType":"OM","ideess":"13725","idMunicipio":"1765","idProvincia":"11","idCCAA":"01"}}},{"type":"Feature","geometry":{"type":"Point","coordinates":[-5.736194,36.825417]},"properties":{"id":"es-13809","source":"ES","brand":"E.S NTRA SRA DEL ROSARIO","address":"POLIGONO CANTARRANAS IND, 1","municipality":"Bornos","province":"CÁDIZ","postalCode":"11640","schedule":"L-D: 24H","fuels":{"gasoline95":1.559,"diesel":1.579},"extra":{"saleType":"P","margin":"D","reportingType":"dm","ideess":"13809","idMunicipio":"1772","idProvincia":"11","idCCAA":"01"}}},{"type":"Feature","geometry":{"type":"Point","coordinates":[-5.431222,36.189944]},"properties":{"id":"es-13841","source":"ES","brand":"NIEVES","address":"POLIGONO C.C. BAHIA PLAZA, S/N","municipality":"Barrios (Los)","province":"CÁDIZ","postalCode":"11370","schedule":"L-D: 24H","fuels":{"gasoline95":1.699,"diesel":1.779,"adblue":0.899},"extra":{"saleType":"P","margin":"D","reportingType":"dm","ideess":"13841","idMunicipio":"1769","idProvincia":"11","idCCAA":"01"}}},{"type":"Feature","geometry":{"type":"Point","coordinates":[-5.598111,36.02025]},"properties":{"id":"es-13932","source":"ES","brand":"TARIFA OIL","address":"CALLE ALGECIRAS, 58","municipality":"Tarifa","province":"CÁDIZ","postalCode":"11380","schedule":"L-D: 24H","fuels":{"gasoline95":1.729,"gasoline98":2.019,"diesel":1.749,"dieselPremium":1.809,"lpg":0.999},"extra":{"saleType":"P","margin":"N","reportingType":"dm","ideess":"13932","idMunicipio":"1798","idProvincia":"11","idCCAA":"01"}}},{"type":"Feature","geometry":{"type":"Point","coordinates":[-5.964556,36.272111]},"properties":{"id":"es-14057","source":"ES","brand":"PISTOIL VEJER","address":"POLIGONO CAÑADA ANCHA, 25","municipality":"Vejer de la Frontera","province":"CÁDIZ","postalCode":"11158","schedule":"L-D: 24H","fuels":{"gasoline95":1.689,"diesel":1.809},"extra":{"saleType":"P","margin":"D","reportingType":"dm","ideess":"14057","idMunicipio":"1802","idProvincia":"11","idCCAA":"01"}}},{"type":"Feature","geometry":{"type":"Point","coordinates":[-5.246111,36.933639]},"properties":{"id":"es-14248","source":"ES","brand":"HEMEGAS","address":"CALLE LAVANDERA, 2","municipality":"Olvera","province":"CÁDIZ","postalCode":"11690","schedule":"L-D: 24H","fuels":{"gasoline95":1.619,"diesel":1.709,"lpg":1.055,"adblue":0.999},"extra":{"saleType":"P","margin":"D","reportingType":"dm","ideess":"14248","idMunicipio":"1786","idProvincia":"11","idCCAA":"01"}}},{"type":"Feature","geometry":{"type":"Point","coordinates":[-5.442361,36.430194]},"properties":{"id":"es-14264","source":"ES","brand":"JIMENOIL","address":"AVENIDA LOS DEPORTES, 67","municipality":"Jimena de la Frontera","province":"CÁDIZ","postalCode":"11330","schedule":"L-D: 06:00-22:30","fuels":{"gasoline95":1.679,"diesel":1.759,"adblue":1.0},"extra":{"saleType":"P","margin":"N","reportingType":"dm","ideess":"14264","idMunicipio":"1783","idProvincia":"11","idCCAA":"01"}}},{"type":"Feature","geometry":{"type":"Point","coordinates":[-5.367194,36.177806]},"properties":{"id":"es-14677","source":"ES","brand":"BFUEL CAMPAMENTO","address":"AVENIDA HUELVA (PI), 9","municipality":"San Roque","province":"CÁDIZ","postalCode":"11314","schedule":"L-D: 24H","fuels":{"gasoline95":1.697,"diesel":1.737,"lpg":1.097},"extra":{"saleType":"P","margin":"D","reportingType":"dm","ideess":"14677","idMunicipio":"1795","idProvincia":"11","idCCAA":"01"}}},{"type":"Feature","geometry":{"type":"Point","coordinates":[-5.171306,36.429667]},"properties":{"id":"es-14843","source":"ES","brand":"BALLENOIL","address":"CALLE GRAHAM BELL, 13","municipality":"Estepona","province":"MÁLAGA","postalCode":"29680","schedule":"L-D: 24H","fuels":{"gasoline95":1.669,"diesel":1.719,"dieselPremium":1.729},"extra":{"saleType":"P","margin":"D","reportingType":"OM","ideess":"14843","idMunicipio":"4505","idProvincia":"29","idCCAA":"01"}}},{"type":"Feature","geometry":{"type":"Point","coordinates":[-5.470667,36.113944]},"properties":{"id":"es-14867","source":"ES","brand":"LA CALLE DEL MOTOR","address":"AVENIDA DE LA UNION, 21","municipality":"Algeciras","province":"CÁDIZ","postalCode":"11206","schedule":"L-D: 24H","fuels":{"gasoline95":1.599,"diesel":1.679,"dieselB":1.365,"lpg":0.979,"adblue":0.659},"extra":{"saleType":"P","margin":"I","reportingType":"dm","ideess":"14867","idMunicipio":"1765","idProvincia":"11","idCCAA":"01"}}},{"type":"Feature","geometry":{"type":"Point","coordinates":[-5.375944,36.175861]},"properties":{"id":"es-14938","source":"ES","brand":"PETROPRIX","address":"CALLE REAL, 56","municipality":"San Roque","province":"CÁDIZ","postalCode":"11314","schedule":"L-D: 24H","fuels":{"gasoline95":1.649,"diesel":1.699},"extra":{"saleType":"P","margin":"N","reportingType":"dm","ideess":"14938","idMunicipio":"1795","idProvincia":"11","idCCAA":"01"}}},{"type":"Feature","geometry":{"type":"Point","coordinates":[-5.790389,36.73675]},"properties":{"id":"es-14952","source":"ES","brand":"ARGOMAR","address":"CARRETERA CA-6104 KM. 0","municipality":"Arcos de la Frontera","province":"CÁDIZ","postalCode":"11630","schedule":"L-D: 07:00-23:00","fuels":{"gasoline95":1.769,"gasoline98":1.889,"diesel":1.899,"dieselPremium":1.969},"extra":{"saleType":"P","margin":"D","reportingType":"dm","ideess":"14952","idMunicipio":"1767","idProvincia":"11","idCCAA":"01"}}},{"type":"Feature","geometry":{"type":"Point","coordinates":[-5.453528,36.115889]},"properties":{"id":"es-14968","source":"ES","brand":"PLENERGY","address":"AVENIDA GESTO POR LA PAZ, 106","municipality":"Algeciras","province":"CÁDIZ","postalCode":"11207","schedule":"L-D: 24H","fuels":{"gasoline95":1.729,"diesel":1.719},"extra":{"saleType":"P","margin":"D","reportingType":"dm","ideess":"14968","idMunicipio":"1765","idProvincia":"11","idCCAA":"01"}}},{"type":"Feature","geometry":{"type":"Point","coordinates":[-5.348944,36.189639]},"properties":{"id":"es-14970","source":"ES","brand":"PLENERGY","address":"CALLE PERDIZ, 1","municipality":"Línea de la Concepción (La)","province":"CÁDIZ","postalCode":"11300","schedule":"L-D: 24H","fuels":{"gasoline95":1.649,"diesel":1.699},"extra":{"saleType":"P","margin":"D","reportingType":"dm","ideess":"14970","idMunicipio":"1784","idProvincia":"11","idCCAA":"01"}}},{"type":"Feature","geometry":{"type":"Point","coordinates":[-5.455194,36.149639]},"properties":{"id":"es-14988","source":"ES","brand":"Q8","address":"CARRETERA CÁDIZ - MÁLAGA KM. 108,5","municipality":"Algeciras","province":"CÁDIZ","postalCode":"11205","schedule":"L-D: 24H","fuels":{"gasoline95":1.759,"diesel":1.819},"extra":{"saleType":"P","margin":"N","reportingType":"dm","ideess":"14988","idMunicipio":"1765","idProvincia":"11","idCCAA":"01"}}},{"type":"Feature","geometry":{"type":"Point","coordinates":[-5.439083,36.180694]},"properties":{"id":"es-14994","source":"ES","brand":"PLENERGY","address":"CARRETERA CENTRAL TÉRMICA KM. 2","municipality":"Barrios (Los)","province":"CÁDIZ","postalCode":"11379","schedule":"L-D: 24H","fuels":{"gasoline95":1.699,"diesel":1.689},"extra":{"saleType":"P","margin":"D","reportingType":"dm","ideess":"14994","idMunicipio":"1769","idProvincia":"11","idCCAA":"01"}}},{"type":"Feature","geometry":{"type":"Point","coordinates":[-5.244778,36.862889]},"properties":{"id":"es-15205","source":"ES","brand":"LOS REMEDIOS-PICASAT SCA","address":"CARRETERA CA-9113 SETENIL-EL GASTOR KM. 11","municipality":"Ronda","province":"MÁLAGA","postalCode":"29400","schedule":"L-D: 24H","fuels":{"gasoline95":1.644,"diesel":1.869,"dieselB":1.628,"adblue":0.849},"extra":{"saleType":"P","margin":"N","reportingType":"dm","ideess":"15205","idMunicipio":"4537","idProvincia":"29","idCCAA":"01"}}},{"type":"Feature","geometry":{"type":"Point","coordinates":[-5.915861,36.195028]},"properties":{"id":"es-15387","source":"ES","brand":"BALLENOIL","address":"CALLE JUAN XXIII, 2","municipality":"Barbate","province":"CÁDIZ","postalCode":"11160","schedule":"L-D: 24H","fuels":{"gasoline95":1.604,"diesel":1.639,"dieselPremium":1.659},"extra":{"saleType":"P","margin":"D","reportingType":"dm","ideess":"15387","idMunicipio":"1768","idProvincia":"11","idCCAA":"01"}}},{"type":"Feature","geometry":{"type":"Point","coordinates":[-5.531389,36.067417]},"properties":{"id":"es-15654","source":"ES","brand":"ASC CARBURANTES","address":"CARRETERA NACIONAL 340 KM. 94,2","municipality":"Tarifa","province":"CÁDIZ","postalCode":"11390","schedule":"L-D: 00:00-23:59","fuels":{"gasoline95":1.729,"diesel":1.749},"extra":{"saleType":"P","margin":"D","reportingType":"dm","ideess":"15654","idMunicipio":"1798","idProvincia":"11","idCCAA":"01"}}},{"type":"Feature","geometry":{"type":"Point","coordinates":[-5.948167,36.47125]},"properties":{"id":"es-15868","source":"ES","brand":"GALP","address":"CALLE EUROPA, S/N","municipality":"Medina-Sidonia","province":"CÁDIZ","postalCode":"11170","schedule":"L-D: 24H","fuels":{"gasoline95":1.659,"diesel":1.829,"adblue":0.879},"extra":{"saleType":"P","margin":"N","reportingType":"dm","ideess":"15868","idMunicipio":"1785","idProvincia":"11","idCCAA":"01"}}},{"type":"Feature","geometry":{"type":"Point","coordinates":[-5.453667,36.11525]},"properties":{"id":"es-15948","source":"ES","brand":"BALLENOIL","address":"AVENIDA GESTO POR LA PAZ, 103","municipality":"Algeciras","province":"CÁDIZ","postalCode":"11206","schedule":"L-D: 24H","fuels":{"gasoline95":1.729,"diesel":1.719,"dieselPremium":1.739},"extra":{"saleType":"P","margin":"D","reportingType":"OM","ideess":"15948","idMunicipio":"1765","idProvincia":"11","idCCAA":"01"}}},{"type":"Feature","geometry":{"type":"Point","coordinates":[-5.749056,36.446417]},"properties":{"id":"es-16031","source":"ES","brand":"BP ALCALA DE LOS GAZULES","address":"AUTOVIA A-381 KM. 42","municipality":"Alcalá de los Gazules","province":"CÁDIZ","postalCode":"11180","schedule":"L-D: 06:00-22:00","fuels":{"gasoline95":1.859,"gasoline98":1.999,"diesel":1.985,"dieselPremium":2.075,"adblue":1.125},"extra":{"saleType":"P","margin":"D","reportingType":"OM","ideess":"16031","idMunicipio":"1762","idProvincia":"11","idCCAA":"01"}}},{"type":"Feature","geometry":{"type":"Point","coordinates":[-5.927083,36.203306]},"properties":{"id":"es-16097","source":"ES","brand":"GALP","address":"POLIGONO AVENIDA DE LOS MARINEROS, 14","municipality":"Barbate","province":"CÁDIZ","postalCode":"11160","schedule":"L-D: 24H","fuels":{"gasoline95":1.694,"diesel":1.739,"adblue":0.799},"extra":{"saleType":"P","margin":"D","reportingType":"OM","ideess":"16097","idMunicipio":"1768","idProvincia":"11","idCCAA":"01"}}},{"type":"Feature","geometry":{"type":"Point","coordinates":[-5.397972,36.210472]},"properties":{"id":"es-16141","source":"ES","brand":"PLENERGY","address":"CARRETERA CA-2324 KM. S/N","municipality":"San Roque","province":"CÁDIZ","postalCode":"11360","schedule":"L-D: 24H","fuels":{"gasoline95":1.685,"diesel":1.719},"extra":{"saleType":"P","margin":"D","reportingType":"dm","ideess":"16141","idMunicipio":"1795","idProvincia":"11","idCCAA":"01"}}},{"type":"Feature","geometry":{"type":"Point","coordinates":[-5.6495,36.857]},"properties":{"id":"es-16214","source":"ES","brand":"PLENERGY","address":"AVENIDA DE ARCOS, 60","municipality":"Villamartín","province":"CÁDIZ","postalCode":"11650","schedule":"L-D: 24H","fuels":{"gasoline95":1.589,"diesel":1.609},"extra":{"saleType":"P","margin":"D","reportingType":"dm","ideess":"16214","idMunicipio":"1804","idProvincia":"11","idCCAA":"01"}}},{"type":"Feature","geometry":{"type":"Point","coordinates":[-5.449167,36.124306]},"properties":{"id":"es-16327","source":"ES","brand":"PLENERGY","address":"AVENIDA GESTO POR LA PAZ, 7","municipality":"Algeciras","province":"CÁDIZ","postalCode":"11207","schedule":"L-D: 24H","fuels":{"gasoline95":1.729,"diesel":1.719},"extra":{"saleType":"P","margin":"D","reportingType":"dm","ideess":"16327","idMunicipio":"1765","idProvincia":"11","idCCAA":"01"}}},{"type":"Feature","geometry":{"type":"Point","coordinates":[-5.369778,36.177528]},"properties":{"id":"es-16491","source":"ES","brand":"PLENERGY","address":"AVENIDA HUELVA, S/N (POLÍGONO INDUSTRIAL CAMPAMENTO), S/N","municipality":"San Roque","province":"CÁDIZ","postalCode":"11314","schedule":"L-D: 24H","fuels":{"gasoline95":1.649,"diesel":1.699},"extra":{"saleType":"P","margin":"D","reportingType":"dm","ideess":"16491","idMunicipio":"1795","idProvincia":"11","idCCAA":"01"}}},{"type":"Feature","geometry":{"type":"Point","coordinates":[-5.920917,36.199556]},"properties":{"id":"es-5556","source":"ES","brand":"GALP","address":"CARRETERA CA-393 VEJER-BARBATE KM. 95,7","municipality":"Barbate","province":"CÁDIZ","postalCode":"11160","schedule":"L-D: 24H","fuels":{"gasoline95":1.809,"diesel":1.939,"dieselPremium":1.989,"adblue":0.799},"extra":{"saleType":"P","margin":"N","reportingType":"OM","ideess":"5556","idMunicipio":"1768","idProvincia":"11","idCCAA":"01"}}},{"type":"Feature","geometry":{"type":"Point","coordinates":[-5.462389,36.143056]},"properties":{"id":"es-5571","source":"ES","brand":"CARREFOUR","address":"CARRETERA CADIZ MALAGA (C.C. EROSKI) KM. 106,25","municipality":"Algeciras","province":"CÁDIZ","postalCode":"11204","schedule":"L-D: 24H","fuels":{"gasoline95":1.799,"gasoline98":1.979,"diesel":1.899,"dieselPremium":1.939},"extra":{"saleType":"P","margin":"N","reportingType":"dm","ideess":"5571","idMunicipio":"1765","idProvincia":"11","idCCAA":"01"}}},{"type":"Feature","geometry":{"type":"Point","coordinates":[-5.362028,36.17425]},"properties":{"id":"es-5576","source":"ES","brand":"CARREFOUR","address":"AVENIDA AVDA. DE LA COLONIA, 9","municipality":"Línea de la Concepción (La)","province":"CÁDIZ","postalCode":"11300","schedule":"L-D: 24H","fuels":{"gasoline95":1.789,"gasoline98":1.939,"diesel":1.869,"dieselPremium":1.909},"extra":{"saleType":"P","margin":"N","reportingType":"dm","ideess":"5576","idMunicipio":"1784","idProvincia":"11","idCCAA":"01"}}},{"type":"Feature","geometry":{"type":"Point","coordinates":[-5.440889,36.18175]},"properties":{"id":"es-5579","source":"ES","brand":"CARREFOUR","address":"CARRETERA CADIZ-MALAGA KM. 112,9","municipality":"Barrios (Los)","province":"CÁDIZ","postalCode":"11370","schedule":"L-D: 24H","fuels":{"gasoline95":1.799,"gasoline98":1.929,"diesel":1.869,"dieselPremium":1.909},"extra":{"saleType":"P","margin":"N","reportingType":"dm","ideess":"5579","idMunicipio":"1769","idProvincia":"11","idCCAA":"01"}}},{"type":"Feature","geometry":{"type":"Point","coordinates":[-5.82475,36.747389]},"properties":{"id":"es-5603","source":"ES","brand":"CARREFOUR","address":"CARRETERA CRTA. NACIONAL N-342 KM. 26,8","municipality":"Arcos de la Frontera","province":"CÁDIZ","postalCode":"11630","schedule":"L-D: 24H","fuels":{"gasoline95":1.779,"gasoline98":1.909,"diesel":1.849,"dieselPremium":1.889},"extra":{"saleType":"P","margin":"N","reportingType":"dm","ideess":"5603","idMunicipio":"1767","idProvincia":"11","idCCAA":"01"}}},{"type":"Feature","geometry":{"type":"Point","coordinates":[-5.361167,36.174667]},"properties":{"id":"es-5608","source":"ES","brand":"E.S.CAMPO DE GIBRALTAR","address":"AVDA.DE LAS INDUSTRIAS, 40","municipality":"Línea de la Concepción (La)","province":"CÁDIZ","postalCode":"11300","schedule":"L: 24H","fuels":{"gasoline95":1.629,"diesel":1.709},"extra":{"saleType":"P","margin":"D","reportingType":"dm","ideess":"5608","idMunicipio":"1784","idProvincia":"11","idCCAA":"01"}}},{"type":"Feature","geometry":{"type":"Point","coordinates":[-5.820667,36.755]},"properties":{"id":"es-5669","source":"ES","brand":"BP OIL ESPAÑA S.A.","address":"AVENIDA PONCE DE LEÓN, 12","municipality":"Arcos de la Frontera","province":"CÁDIZ","postalCode":"11630","schedule":"L: 06:00-20:00","fuels":{"gasoline95":1.769,"gasoline98":1.899,"diesel":1.889,"dieselPremium":1.979},"extra":{"saleType":"P","margin":"N","reportingType":"dm","ideess":"5669","idMunicipio":"1767","idProvincia":"11","idCCAA":"01"}}},{"type":"Feature","geometry":{"type":"Point","coordinates":[-5.610472,36.863806]},"properties":{"id":"es-5682","source":"ES","brand":"REPSOL","address":"CARRETERA A-384 KM 23,600 KM. 23,600","municipality":"Villamartín","province":"CÁDIZ","postalCode":"11650","schedule":"L: 06:00-22:00","fuels":{"gasoline95":1.806,"gasoline98":1.986,"diesel":1.966,"dieselPremium":2.036},"extra":{"saleType":"P","margin":"D","reportingType":"dm","ideess":"5682","idMunicipio":"1804","idProvincia":"11","idCCAA":"01"}}},{"type":"Feature","geometry":{"type":"Point","coordinates":[-5.716139,36.43775]},"properties":{"id":"es-5693","source":"ES","brand":"SHELL","address":"AUTOVIA AUTOVIA JEREZ-LOS BARRIOS KM. 45","municipality":"Alcalá de los Gazules","province":"CÁDIZ","postalCode":"11180","schedule":"L-D: 06:00-22:00","fuels":{"gasoline95":1.805,"gasoline98":1.936,"diesel":1.925,"dieselPremium":1.996,"adblue":1.0},"extra":{"saleType":"P","margin":"I","reportingType":"dm","ideess":"5693","idMunicipio":"1762","idProvincia":"11","idCCAA":"01"}}},{"type":"Feature","geometry":{"type":"Point","coordinates":[-5.435833,36.421278]},"properties":{"id":"es-5694","source":"ES","brand":"CEPSA","address":"CALLE LOS ANGELES, 13","municipality":"Jimena de la Frontera","province":"CÁDIZ","postalCode":"11330","schedule":"L-S: 06:00-23:00; D: 06:30-23:00","fuels":{"gasoline95":1.819,"gasoline98":1.959,"diesel":1.939,"dieselPremium":2.019,"dieselB":1.769,"adblue":0.999},"extra":{"saleType":"P","margin":"I","reportingType":"dm","ideess":"5694","idMunicipio":"1783","idProvincia":"11","idCCAA":"01"}}},{"type":"Feature","geometry":{"type":"Point","coordinates":[-5.620167,36.037389]},"properties":{"id":"es-5695","source":"ES","brand":"CEPSA","address":"N-340 km 82,1","municipality":"Tarifa","province":"CÁDIZ","postalCode":"11380","schedule":"L: 06:00-23:00","fuels":{"gasoline95":1.809,"gasoline98":1.934,"diesel":1.926,"dieselPremium":2.006},"extra":{"saleType":"P","margin":"I","reportingType":"dm","ideess":"5695","idMunicipio":"1798","idProvincia":"11","idCCAA":"01"}}},{"type":"Feature","geometry":{"type":"Point","coordinates":[-5.430306,36.210667]},"properties":{"id":"es-5696","source":"ES","brand":"CEPSA","address":"C-3331 km 88","municipality":"San Roque","province":"CÁDIZ","postalCode":"11360","schedule":"L-D: 06:30-22:30","fuels":{"gasoline95":1.819,"gasoline95Premium":1.879,"diesel":1.949,"dieselPremium":2.029},"extra":{"saleType":"P","margin":"I","reportingType":"OM","ideess":"5696","idMunicipio":"1795","idProvincia":"11","idCCAA":"01"}}},{"type":"Feature","geometry":{"type":"Point","coordinates":[-5.385722,36.191333]},"properties":{"id":"es-5697","source":"ES","brand":"MOEVE","address":"N-351 km 2","municipality":"San Roque","province":"CÁDIZ","postalCode":"11360","schedule":"L-D: 06:30-22:30","fuels":{"gasoline95":1.789,"gasoline95Premium":1.879,"diesel":1.929,"dieselPremium":2.009},"extra":{"saleType":"P","margin":"D","reportingType":"OM","ideess":"5697","idMunicipio":"1795","idProvincia":"11","idCCAA":"01"}}},{"type":"Feature","geometry":{"type":"Point","coordinates":[-5.281778,36.296667]},"properties":{"id":"es-5698","source":"ES","brand":"CEPSA","address":"N-340 km 134","municipality":"San Roque","province":"CÁDIZ","postalCode":"11312","schedule":"L-D: 24H","fuels":{"gasoline95":1.839,"gasoline98":1.959,"diesel":1.969,"dieselPremium":2.049},"extra":{"saleType":"P","margin":"I","reportingType":"OM","ideess":"5698","idMunicipio":"1795","idProvincia":"11","idCCAA":"01"}}},{"type":"Feature","geometry":{"type":"Point","coordinates":[-5.349861,36.186639]},"properties":{"id":"es-5699","source":"ES","brand":"CEPSA","address":"POLIGONO ZABAL BAJO, 6,3","municipality":"Línea de la Concepción (La)","province":"CÁDIZ","postalCode":"11300","schedule":"L-D: 24H","fuels":{"gasoline95":1.749,"gasoline95Premium":1.809,"diesel":1.799,"dieselPremium":1.879},"extra":{"saleType":"P","margin":"D","reportingType":"dm","ideess":"5699","idMunicipio":"1784","idProvincia":"11","idCCAA":"01"}}},{"type":"Feature","geometry":{"type":"Point","coordinates":[-5.917806,36.195028]},"properties":{"id":"es-5700","source":"ES","brand":"MOEVE","address":"PLAZA REYES CATOLICOS, 3","municipality":"Barbate","province":"CÁDIZ","postalCode":"11160","schedule":"L-D: 07:00-23:00","fuels":{"gasoline95":1.839,"gasoline95Premium":1.899,"diesel":1.969,"dieselPremium":2.049},"extra":{"saleType":"P","margin":"I","reportingType":"OM","ideess":"5700","idMunicipio":"1768","idProvincia":"11","idCCAA":"01"}}},{"type":"Feature","geometry":{"type":"Point","coordinates":[-5.961222,36.259833]},"properties":{"id":"es-5701","source":"ES","brand":"CEPSA","address":"CARRETERA N-340 KM. 36,600","municipality":"Vejer de la Frontera","province":"CÁDIZ","postalCode":"11150","schedule":"L-D: 07:00-22:00","fuels":{"gasoline95":1.755,"diesel":1.889,"dieselPremium":1.949},"extra":{"saleType":"P","margin":"I","reportingType":"dm","ideess":"5701","idMunicipio":"1802","idProvincia":"11","idCCAA":"01"}}},{"type":"Feature","geometry":{"type":"Point","coordinates":[-5.451417,36.176611]},"properties":{"id":"es-5705","source":"ES","brand":"MOEVE","address":"CARRETERA N-340 KM. 110,8","municipality":"Barrios (Los)","province":"CÁDIZ","postalCode":"11370","schedule":"L-D: 06:00-22:00","fuels":{"gasoline95":1.819,"gasoline95Premium":1.909,"diesel":1.929,"dieselPremium":2.009,"dieselRenewable":2.079},"extra":{"saleType":"P","margin":"D","reportingType":"OM","ideess":"5705","idMunicipio":"1769","idProvincia":"11","idCCAA":"01"}}},{"type":"Feature","geometry":{"type":"Point","coordinates":[-5.451917,36.177278]},"properties":{"id":"es-5706","source":"ES","brand":"MOEVE","address":"CARRETERA N-340 KM. 110,8","municipality":"Barrios (Los)","province":"CÁDIZ","postalCode":"11370","schedule":"L-D: 24H","fuels":{"gasoline95":1.819,"gasoline95Premium":1.909,"diesel":1.949,"dieselPremium":2.029},"extra":{"saleType":"P","margin":"I","reportingType":"OM","ideess":"5706","idMunicipio":"1769","idProvincia":"11","idCCAA":"01"}}},{"type":"Feature","geometry":{"type":"Point","coordinates":[-5.929278,36.460806]},"properties":{"id":"es-5710","source":"ES","brand":"CEPSA","address":"PLAZA DEL PUNTO, 000","municipality":"Medina-Sidonia","province":"CÁDIZ","postalCode":"11170","schedule":"L-D: 06:00-22:00","fuels":{"gasoline95":1.836,"gasoline95Premium":1.896,"diesel":1.97,"dieselPremium":2.048},"extra":{"saleType":"P","margin":"I","reportingType":"dm","ideess":"5710","idMunicipio":"1785","idProvincia":"11","idCCAA":"01"}}},{"type":"Feature","geometry":{"type":"Point","coordinates":[-5.784444,36.75175]},"properties":{"id":"es-5715","source":"ES","brand":"REPSOL","address":"CARRETERA ARCOS - EL BOSQUE KM. 3","municipality":"Arcos de la Frontera","province":"CÁDIZ","postalCode":"11630","schedule":"L: 06:00-00:00","fuels":{"gasoline95":1.846,"gasoline98":1.976,"diesel":1.98,"dieselPremium":2.05},"extra":{"saleType":"P","margin":"I","reportingType":"OM","ideess":"5715","idMunicipio":"1767","idProvincia":"11","idCCAA":"01"}}},{"type":"Feature","geometry":{"type":"Point","coordinates":[-5.367972,36.760472]},"properties":{"id":"es-5719","source":"ES","brand":"MOEVE","address":"CARRETERA C-344 KM. 53","municipality":"Grazalema","province":"CÁDIZ","postalCode":"11610","schedule":"L-D: 08:00-20:00","fuels":{"gasoline95":1.819,"diesel":1.999},"extra":{"saleType":"P","margin":"I","reportingType":"dm","ideess":"5719","idMunicipio":"1781","idProvincia":"11","idCCAA":"01"}}},{"type":"Feature","geometry":{"type":"Point","coordinates":[-5.444611,36.117056]},"properties":{"id":"es-5733","source":"ES","brand":"REPSOL","address":"PASEO VICTORIA EUGENIA, S/N","municipality":"Algeciras","province":"CÁDIZ","postalCode":"11207","schedule":"L-D: 24H","fuels":{"gasoline95":1.836,"gasoline98":1.966,"diesel":1.926,"dieselRenewable":2.046,"lpg":1.065},"extra":{"saleType":"P","margin":"I","reportingType":"OM","ideess":"5733","idMunicipio":"1765","idProvincia":"11","idCCAA":"01"}}},{"type":"Feature","geometry":{"type":"Point","coordinates":[-5.41825,36.464167]},"properties":{"id":"es-5761","source":"ES","brand":"REPSOL","address":"CARRETERA C-341 KM. 112,7","municipality":"Jimena de la Frontera","province":"CÁDIZ","postalCode":"11320","schedule":"L-D: 06:00-22:00","fuels":{"gasoline95":1.769,"diesel":1.899,"dieselB":1.729,"adblue":0.995},"extra":{"saleType":"P","margin":"D","reportingType":"dm","ideess":"5761","idMunicipio":"1783","idProvincia":"11","idCCAA":"01"}}},{"type":"Feature","geometry":{"type":"Point","coordinates":[-5.861222,36.520167]},"properties":{"id":"es-5772","source":"ES","brand":"REPSOL","address":"AVENIDA ANDALUCIA, 97","municipality":"Paterna de Rivera","province":"CÁDIZ","postalCode":"11178","schedule":"L-D: 06:30-22:00","fuels":{"gasoline95":1.799,"gasoline95Premium":1.889,"diesel":1.949,"dieselPremium":2.039},"extra":{"saleType":"P","margin":"I","reportingType":"dm","ideess":"5772","idMunicipio":"1787","idProvincia":"11","idCCAA":"01"}}},{"type":"Feature","geometry":{"type":"Point","coordinates":[-5.163833,36.894722]},"properties":{"id":"es-5777","source":"ES","brand":"CAMPSA","address":"CR CA-455, 0,8","municipality":"Alcalá del Valle","province":"CÁDIZ","postalCode":"11693","schedule":"L: 06:00-23:00","fuels":{"gasoline95":1.759,"diesel":1.839},"extra":{"saleType":"P","margin":"D","reportingType":"dm","ideess":"5777","idMunicipio":"1763","idProvincia":"11","idCCAA":"01"}}},{"type":"Feature","geometry":{"type":"Point","coordinates":[-5.576778,36.99475]},"properties":{"id":"es-6478","source":"ES","brand":"GALP","address":"VILLAMARTIN, S/N","municipality":"Montellano","province":"SEVILLA","postalCode":"41770","schedule":"L-D: 06:00-22:00","fuels":{"gasoline95":1.519,"diesel":1.759,"dieselPremium":1.809,"adblue":0.799},"extra":{"saleType":"P","margin":"D","reportingType":"OM","ideess":"6478","idMunicipio":"6121","idProvincia":"41","idCCAA":"01"}}},{"type":"Feature","geometry":{"type":"Point","coordinates":[-5.691667,36.844056]},"properties":{"id":"es-6487","source":"ES","brand":"GALP","address":"CARRETERA JEREZ CARTAGENA A-384 KM. 15,100","municipality":"Bornos","province":"CÁDIZ","postalCode":"11640","schedule":"L-V: 06:00-22:00; S-D: 08:00-22:00","fuels":{"gasoline95":1.649,"diesel":1.799,"dieselPremium":1.849,"dieselB":1.549},"extra":{"saleType":"P","margin":"I","reportingType":"dm","ideess":"6487","idMunicipio":"1772","idProvincia":"11","idCCAA":"01"}}},{"type":"Feature","geometry":{"type":"Point","coordinates":[-5.301167,36.812278]},"properties":{"id":"es-6507","source":"ES","brand":"AGLA","address":"CARRETERA A-374 KM. 12,5","municipality":"Ronda","province":"MÁLAGA","postalCode":"29430","schedule":"L: 07:00-22:30","fuels":{"gasoline95":1.799,"diesel":1.829},"extra":{"saleType":"P","margin":"I","reportingType":"dm","ideess":"6507","idMunicipio":"4537","idProvincia":"29","idCCAA":"01"}}},{"type":"Feature","geometry":{"type":"Point","coordinates":[-5.454833,36.147611]},"properties":{"id":"es-6522","source":"ES","brand":"MOEVE","address":"CARRETERA N-340 KM. 106","municipality":"Algeciras","province":"CÁDIZ","postalCode":"11205","schedule":"L-D: 07:00-23:00","fuels":{"gasoline95":1.849,"gasoline95Premium":1.939,"diesel":1.929,"dieselPremium":2.009},"extra":{"saleType":"P","margin":"I","reportingType":"OM","ideess":"6522","idMunicipio":"1765","idProvincia":"11","idCCAA":"01"}}},{"type":"Feature","geometry":{"type":"Point","coordinates":[-5.454278,36.149833]},"properties":{"id":"es-6553","source":"ES","brand":"Q8","address":"CARRETERA CTRA. N. 340 KM. KM 107,32","municipality":"Algeciras","province":"CÁDIZ","postalCode":"11201","schedule":"L-D: 24H","fuels":{"gasoline95":1.819,"gasoline98":1.819,"diesel":1.899,"dieselPremium":1.969,"adblue":0.839},"extra":{"saleType":"P","margin":"N","reportingType":"dm","ideess":"6553","idMunicipio":"1765","idProvincia":"11","idCCAA":"01"}}},{"type":"Feature","geometry":{"type":"Point","coordinates":[-5.628583,36.850583]},"properties":{"id":"es-6563","source":"ES","brand":"GACOSUR VILLAMARTIN","address":"CARRETERA A-373 KM. 0,500","municipality":"Villamartín","province":"CÁDIZ","postalCode":"11650","schedule":"L-D: 24H","fuels":{"gasoline95":1.569,"diesel":1.719,"dieselPremium":1.779,"adblue":0.95},"extra":{"saleType":"P","margin":"N","reportingType":"dm","ideess":"6563","idMunicipio":"1804","idProvincia":"11","idCCAA":"01"}}},{"type":"Feature","geometry":{"type":"Point","coordinates":[-5.806,36.868833]},"properties":{"id":"es-6662","source":"ES","brand":"GARRUCHO ESPERA","address":"CR CA-343, 21","municipality":"Espera","province":"CÁDIZ","postalCode":"11648","schedule":"L-S: 06:00-10:00","fuels":{"gasoline95":1.729,"diesel":1.799,"dieselB":1.29},"extra":{"saleType":"P","margin":"D","reportingType":"dm","ideess":"6662","idMunicipio":"1779","idProvincia":"11","idCCAA":"01"}}},{"type":"Feature","geometry":{"type":"Point","coordinates":[-5.410139,36.207222]},"properties":{"id":"es-6674","source":"ES","brand":"REPSOL","address":"AUTOVIA A-7 KM. 116,000","municipality":"San Roque","province":"CÁDIZ","postalCode":"11360","schedule":"L-D: 24H","fuels":{"gasoline95":1.829,"gasoline98":1.969,"diesel":1.929,"dieselB":1.659,"dieselRenewable":1.999},"extra":{"saleType":"P","margin":"I","reportingType":"dm","ideess":"6674","idMunicipio":"1795","idProvincia":"11","idCCAA":"01"}}},{"type":"Feature","geometry":{"type":"Point","coordinates":[-5.730944,36.46]},"properties":{"id":"es-6707","source":"ES","brand":"BP","address":"AVENIDA PUERTO DE LEVANTE, S/N","municipality":"Alcalá de los Gazules","province":"CÁDIZ","postalCode":"11180","schedule":"L-D: 06:30-22:30","fuels":{"gasoline95":1.839,"diesel":1.955,"dieselPremium":2.045},"extra":{"saleType":"P","margin":"N","reportingType":"dm","ideess":"6707","idMunicipio":"1762","idProvincia":"11","idCCAA":"01"}}},{"type":"Feature","geometry":{"type":"Point","coordinates":[-5.452056,36.68325]},"properties":{"id":"es-6716","source":"ES","brand":"REPSOL","address":"CR C-3331, 20","municipality":"Ubrique","province":"CÁDIZ","postalCode":"11600","schedule":"L-D: 06:30-22:30","fuels":{"gasoline95":1.806,"gasoline98":1.936,"diesel":1.98,"dieselPremium":2.05},"extra":{"saleType":"P","margin":"D","reportingType":"OM","ideess":"6716","idMunicipio":"1801","idProvincia":"11","idCCAA":"01"}}},{"type":"Feature","geometry":{"type":"Point","coordinates":[-5.452083,36.133306]},"properties":{"id":"es-6831","source":"ES","brand":"REPSOL","address":"AVENIDA VIRGEN DE EUROPA, S/N","municipality":"Algeciras","province":"CÁDIZ","postalCode":"11201","schedule":"L-D: 07:00-22:00","fuels":{"gasoline95":1.87,"gasoline98":2.03,"diesel":1.94,"dieselPremium":2.01},"extra":{"saleType":"P","margin":"D","reportingType":"OM","ideess":"6831","idMunicipio":"1765","idProvincia":"11","idCCAA":"01"}}},{"type":"Feature","geometry":{"type":"Point","coordinates":[-5.351611,36.23075]},"properties":{"id":"es-6836","source":"ES","brand":"SHELL","address":"CR N-340 CADIZ-MALAGA KM (AUTOVIA km 124)","municipality":"San Roque","province":"CÁDIZ","postalCode":"11360","schedule":"L-D: 05:00-23:00","fuels":{"gasoline95":1.799,"gasoline98":1.939,"diesel":1.899,"dieselPremium":1.979,"adblue":1.25},"extra":{"saleType":"P","margin":"D","reportingType":"OM","ideess":"6836","idMunicipio":"1795","idProvincia":"11","idCCAA":"01"}}},{"type":"Feature","geometry":{"type":"Point","coordinates":[-5.65225,36.855833]},"properties":{"id":"es-6882","source":"ES","brand":"REPSOL","address":"AVENIDA ARCOS SIN NUMERO, SN","municipality":"Villamartín","province":"CÁDIZ","postalCode":"11650","schedule":"L-V: 06:00-21:00; S: 06:00-20:00; D: 08:00-20:00","fuels":{"gasoline95":1.806,"gasoline98":1.986,"diesel":1.966,"dieselPremium":2.036},"extra":{"saleType":"P","margin":"I","reportingType":"OM","ideess":"6882","idMunicipio":"1804","idProvincia":"11","idCCAA":"01"}}},{"type":"Feature","geometry":{"type":"Point","coordinates":[-5.558778,36.7845]},"properties":{"id":"es-6890","source":"ES","brand":"BP","address":"AVENIDA FELIX RODRIGUEZ DE LA FUENTE, S/N","municipality":"Prado del Rey","province":"CÁDIZ","postalCode":"11660","schedule":"L-D: 07:00-21:00","fuels":{"gasoline95":1.829,"diesel":1.949,"dieselPremium":2.039},"extra":{"saleType":"P","margin":"N","reportingType":"dm","ideess":"6890","idMunicipio":"1788","idProvincia":"11","idCCAA":"01"}}},{"type":"Feature","geometry":{"type":"Point","coordinates":[-5.915833,36.479472]},"properties":{"id":"es-6896","source":"ES","brand":"REPSOL","address":"CARRETERA CR-440,32C-440 KM. 32","municipality":"Medina-Sidonia","province":"CÁDIZ","postalCode":"11170","schedule":"L-V: 06:30-22:00; S-D: 07:00-22:00","fuels":{"gasoline95":1.86,"gasoline98":2.03,"diesel":1.956,"dieselRenewable":2.076},"extra":{"saleType":"P","margin":"I","reportingType":"OM","ideess":"6896","idMunicipio":"1785","idProvincia":"11","idCCAA":"01"}}},{"type":"Feature","geometry":{"type":"Point","coordinates":[-5.425833,36.877639]},"properties":{"id":"es-6900","source":"ES","brand":"REPSOL","address":"CARRETERA A-384 KM. 43,500","municipality":"Algodonales","province":"CÁDIZ","postalCode":"11680","schedule":"L-D: 06:30-22:30","fuels":{"gasoline95":1.83,"diesel":1.976,"dieselPremium":2.046},"extra":{"saleType":"P","margin":"I","reportingType":"OM","ideess":"6900","idMunicipio":"1766","idProvincia":"11","idCCAA":"01"}}},{"type":"Feature","geometry":{"type":"Point","coordinates":[-5.254694,36.934167]},"properties":{"id":"es-6912","source":"ES","brand":"REPSOL","address":"AVENIDA JULIAN BESTEIRO, 41","municipality":"Olvera","province":"CÁDIZ","postalCode":"11690","schedule":"L-D: 09:00-19:00","fuels":{"gasoline95":1.789,"gasoline98":1.898,"diesel":1.863,"dieselPremium":1.879},"extra":{"saleType":"P","margin":"N","reportingType":"dm","ideess":"6912","idMunicipio":"1786","idProvincia":"11","idCCAA":"01"}}},{"type":"Feature","geometry":{"type":"Point","coordinates":[-5.934444,36.649556]},"properties":{"id":"es-6914","source":"ES","brand":"REPSOL","address":"CARRETERA DE CORTES KM. 18","municipality":"Jerez de la Frontera","province":"CÁDIZ","postalCode":"11570","schedule":"L-V: 07:00-22:00; S-D: 08:00-22:00","fuels":{"gasoline95":1.846,"diesel":1.92,"dieselPremium":2.04},"extra":{"saleType":"P","margin":"D","reportingType":"OM","ideess":"6914","idMunicipio":"1782","idProvincia":"11","idCCAA":"01"}}},{"type":"Feature","geometry":{"type":"Point","coordinates":[-5.608944,36.01875]},"properties":{"id":"es-6917","source":"ES","brand":"REPSOL","address":"CALLE BATALLA DEL SALADO, S/N","municipality":"Tarifa","province":"CÁDIZ","postalCode":"11380","schedule":"L-S: 07:00-15:00","fuels":{"gasoline95":1.87,"gasoline98":2.0,"diesel":1.956,"dieselPremium":2.066},"extra":{"saleType":"P","margin":"N","reportingType":"OM","ideess":"6917","idMunicipio":"1798","idProvincia":"11","idCCAA":"01"}}},{"type":"Feature","geometry":{"type":"Point","coordinates":[-5.169694,36.865056]},"properties":{"id":"es-6918","source":"ES","brand":"CAMPSA","address":"CARRETERA CR. CA-422 KM. 0,500","municipality":"Setenil de las Bodegas","province":"CÁDIZ","postalCode":"11692","schedule":"L: 06:00-23:00","fuels":{"gasoline95":1.759,"diesel":1.839},"extra":{"saleType":"P","margin":"D","reportingType":"dm","ideess":"6918","idMunicipio":"1797","idProvincia":"11","idCCAA":"01"}}},{"type":"Feature","geometry":{"type":"Point","coordinates":[-5.489722,36.177833]},"properties":{"id":"es-6993","source":"ES","brand":"BP LA MONTERA","address":"CALLE GLORIETA LA MONTERA, S/N","municipality":"Barrios (Los)","province":"CÁDIZ","postalCode":"11370","schedule":"L-D: 06:00-00:00","fuels":{"gasoline95":1.869,"gasoline98":2.009,"diesel":1.969,"dieselPremium":2.059},"extra":{"saleType":"P","margin":"D","reportingType":"OM","ideess":"6993","idMunicipio":"1769","idProvincia":"11","idCCAA":"01"}}},{"type":"Feature","geometry":{"type":"Point","coordinates":[-5.238694,36.341722]},"properties":{"id":"es-7068","source":"ES","brand":"GALP","address":"CARRETERA N-340 KM. 171","municipality":"Manilva","province":"MÁLAGA","postalCode":"29691","schedule":"L-D: 07:00-23:00","fuels":{"gasoline95":1.849,"gasoline95Premium":1.899,"diesel":1.969,"dieselPremium":2.059},"extra":{"saleType":"P","margin":"N","reportingType":"OM","ideess":"7068","idMunicipio":"4522","idProvincia":"29","idCCAA":"01"}}},{"type":"Feature","geometry":{"type":"Point","coordinates":[-5.314944,36.334222]},"properties":{"id":"es-7072","source":"ES","brand":"E.S. SECADERO","address":"CARRETERA A-2102 KM. 10,100","municipality":"Casares","province":"MÁLAGA","postalCode":"29690","schedule":"L-D: 06:30-22:00","fuels":{"gasoline95":1.699,"diesel":1.829,"lpg":0.949,"adblue":0.8},"extra":{"saleType":"P","margin":"I","reportingType":"dm","ideess":"7072","idMunicipio":"4495","idProvincia":"29","idCCAA":"01"}}},{"type":"Feature","geometry":{"type":"Point","coordinates":[-5.142722,36.786806]},"properties":{"id":"es-7092","source":"ES","brand":"REPSOL ARRIATE","address":"CARRETERA RONDA ARRIATE KM. 3,7","municipality":"Arriate","province":"MÁLAGA","postalCode":"29350","schedule":"L-D: 06:00-22:00","fuels":{"gasoline95":1.845,"diesel":1.959},"extra":{"saleType":"P","margin":"D","reportingType":"dm","ideess":"7092","idMunicipio":"4474","idProvincia":"29","idCCAA":"01"}}},{"type":"Feature","geometry":{"type":"Point","coordinates":[-5.1295,36.429306]},"properties":{"id":"es-7102","source":"ES","brand":"BP ESTEPONA","address":"CR N-340, P.K.  157.1","municipality":"Estepona","province":"MÁLAGA","postalCode":"29680","schedule":"L-D: 24H","fuels":{"gasoline95":1.829,"gasoline98":1.969,"diesel":1.989,"dieselPremium":2.079},"extra":{"saleType":"P","margin":"N","reportingType":"OM","ideess":"7102","idMunicipio":"4505","idProvincia":"29","idCCAA":"01"}}},{"type":"Feature","geometry":{"type":"Point","coordinates":[-5.205972,36.388667]},"properties":{"id":"es-7143","source":"ES","brand":"REPSOL","address":"AUTOVIA A-7 KM. 1077","municipality":"Estepona","province":"MÁLAGA","postalCode":"29693","schedule":"L-D: 24H","fuels":{"gasoline95":1.828,"gasoline98":1.978,"diesel":1.958,"dieselPremium":1.998,"adblue":0.838},"extra":{"saleType":"P","margin":"I","reportingType":"dm","ideess":"7143","idMunicipio":"4505","idProvincia":"29","idCCAA":"01"}}},{"type":"Feature","geometry":{"type":"Point","coordinates":[-5.115167,36.783639]},"properties":{"id":"es-7191","source":"ES","brand":"GALP","address":"CARRETERA A-367 KM. 5","municipality":"Ronda","province":"MÁLAGA","postalCode":"29400","schedule":"L-D: 24H","fuels":{"gasoline95":1.819,"gasoline95Premium":1.869,"diesel":1.939,"dieselPremium":1.989,"adblue":0.799},"extra":{"saleType":"P","margin":"D","reportingType":"OM","ideess":"7191","idMunicipio":"4537","idProvincia":"29","idCCAA":"01"}}},{"type":"Feature","geometry":{"type":"Point","coordinates":[-5.170194,36.752556]},"properties":{"id":"es-7211","source":"ES","brand":"MOEVE","address":"SEVILLA, 133","municipality":"Ronda","province":"MÁLAGA","postalCode":"29400","schedule":"L-D: 07:00-22:00","fuels":{"gasoline95":1.849,"diesel":1.949,"dieselPremium":2.039},"extra":{"saleType":"P","margin":"I","reportingType":"OM","ideess":"7211","idMunicipio":"4537","idProvincia":"29","idCCAA":"01"}}},{"type":"Feature","geometry":{"type":"Point","coordinates":[-5.162583,36.733833]},"properties":{"id":"es-7212","source":"ES","brand":"MOEVE","address":"CALLE MARBELLA, 31","municipality":"Ronda","province":"MÁLAGA","postalCode":"29400","schedule":"L-D: 07:00-22:00","fuels":{"gasoline95":1.819,"gasoline95Premium":1.909,"diesel":1.949,"dieselPremium":2.039},"extra":{"saleType":"P","margin":"I","reportingType":"OM","ideess":"7212","idMunicipio":"4537","idProvincia":"29","idCCAA":"01"}}},{"type":"Feature","geometry":{"type":"Point","coordinates":[-5.156528,36.747694]},"properties":{"id":"es-7213","source":"ES","brand":"MOEVE","address":"AVDA. DE MALAGA, 22 (C-341 km 57,4)","municipality":"Ronda","province":"MÁLAGA","postalCode":"29400","schedule":"L-D: 06:00-22:00","fuels":{"gasoline95":1.829,"gasoline95Premium":1.919,"gasoline98":1.959,"diesel":1.949,"dieselPremium":2.039},"extra":{"saleType":"P","margin":"I","reportingType":"OM","ideess":"7213","idMunicipio":"4537","idProvincia":"29","idCCAA":"01"}}},{"type":"Feature","geometry":{"type":"Point","coordinates":[-5.050611,36.870556]},"properties":{"id":"es-7214","source":"ES","brand":"CEPSA","address":"CARRETERA RONDA CAMPILLOS KM. 37,2","municipality":"Cuevas del Becerro","province":"MÁLAGA","postalCode":"29470","schedule":"L-D: 06:00-22:00","fuels":{"gasoline95":1.869,"diesel":2.009,"dieselPremium":2.099,"dieselB":1.859},"extra":{"saleType":"P","margin":"D","reportingType":"dm","ideess":"7214","idMunicipio":"4503","idProvincia":"29","idCCAA":"01"}}},{"type":"Feature","geometry":{"type":"Point","coordinates":[-5.325472,36.520083]},"properties":{"id":"es-7233","source":"ES","brand":"AGLA","address":"CARRETERA A-405 KM. 0","municipality":"Gaucín","province":"MÁLAGA","postalCode":"29480","schedule":"L-D: 07:00-22:00","fuels":{"gasoline95":1.8,"diesel":1.85},"extra":{"saleType":"P","margin":"D","reportingType":"dm","ideess":"7233","idMunicipio":"4510","idProvincia":"29","idCCAA":"01"}}},{"type":"Feature","geometry":{"type":"Point","coordinates":[-5.038861,36.463611]},"properties":{"id":"es-7248","source":"ES","brand":"REPSOL","address":"CR N-340, 166,5","municipality":"Estepona","province":"MÁLAGA","postalCode":"29680","schedule":"L-D: 07:00-23:00","fuels":{"gasoline95":1.836,"gasoline95Premium":1.916,"gasoline98":1.976,"diesel":1.98,"dieselRenewable":2.1,"lpg":1.089},"extra":{"saleType":"P","margin":"I","reportingType":"OM","ideess":"7248","idMunicipio":"4505","idProvincia":"29","idCCAA":"01"}}},{"type":"Feature","geometry":{"type":"Point","coordinates":[-5.935167,36.984917]},"properties":{"id":"es-7318","source":"ES","brand":"CEPSA","address":"CALLE BLAS INFANTE, 43","municipality":"Cabezas de San Juan (Las)","province":"SEVILLA","postalCode":"41730","schedule":"L-D: 24H","fuels":{"gasoline95":1.729,"gasoline98":1.819,"diesel":1.859,"dieselPremium":1.939,"dieselB":1.669},"extra":{"saleType":"P","margin":"I","reportingType":"dm","ideess":"7318","idMunicipio":"6074","idProvincia":"41","idCCAA":"01"}}},{"type":"Feature","geometry":{"type":"Point","coordinates":[-5.935417,36.988833]},"properties":{"id":"es-7319","source":"ES","brand":"RED AHORRO","address":"AVENIDA FEDERICO GARCIA LORCA, 51","municipality":"Cabezas de San Juan (Las)","province":"SEVILLA","postalCode":"41730","schedule":"L-D: 06:00-22:00","fuels":{"gasoline95":1.689,"diesel":1.799,"dieselB":1.669},"extra":{"saleType":"P","margin":"D","reportingType":"dm","ideess":"7319","idMunicipio":"6074","idProvincia":"41","idCCAA":"01"}}},{"type":"Feature","geometry":{"type":"Point","coordinates":[-5.010972,36.473333]},"properties":{"id":"es-7418","source":"ES","brand":"REPSOL","address":"CR N-340, 169,1","municipality":"Estepona","province":"MÁLAGA","postalCode":"29680","schedule":"L-D: 24H","fuels":{"gasoline95":1.836,"gasoline95Premium":1.916,"gasoline98":1.986,"diesel":1.98,"dieselRenewable":2.1},"extra":{"saleType":"P","margin":"I","reportingType":"OM","ideess":"7418","idMunicipio":"4505","idProvincia":"29","idCCAA":"01"}}},{"type":"Feature","geometry":{"type":"Point","coordinates":[-5.114944,36.465167]},"properties":{"id":"es-7422","source":"ES","brand":"REPSOL","address":"AU AP-7  161,00 D","municipality":"Estepona","province":"MÁLAGA","postalCode":"29680","schedule":"L-D: 24H","fuels":{"gasoline95":1.826,"gasoline98":1.956,"diesel":1.956,"dieselPremium":2.026},"extra":{"saleType":"P","margin":"D","reportingType":"OM","ideess":"7422","idMunicipio":"4505","idProvincia":"29","idCCAA":"01"}}},{"type":"Feature","geometry":{"type":"Point","coordinates":[-5.116556,36.463556]},"properties":{"id":"es-7423","source":"ES","brand":"REPSOL","address":"AU AP-7, 161,00 I","municipality":"Estepona","province":"MÁLAGA","postalCode":"29680","schedule":"L-D: 24H","fuels":{"gasoline95":1.826,"gasoline98":1.956,"diesel":1.956,"dieselPremium":2.026},"extra":{"saleType":"P","margin":"I","reportingType":"OM","ideess":"7423","idMunicipio":"4505","idProvincia":"29","idCCAA":"01"}}},{"type":"Feature","geometry":{"type":"Point","coordinates":[-5.075194,36.453111]},"properties":{"id":"es-7435","source":"ES","brand":"REPSOL","address":"CARRETERA N-340 KM. 163","municipality":"Estepona","province":"MÁLAGA","postalCode":"29680","schedule":"L-D: 07:00-23:00","fuels":{"gasoline95":1.836,"gasoline98":1.986,"diesel":1.98,"dieselPremium":2.05,"lpg":1.089},"extra":{"saleType":"P","margin":"D","reportingType":"OM","ideess":"7435","idMunicipio":"4505","idProvincia":"29","idCCAA":"01"}}},{"type":"Feature","geometry":{"type":"Point","coordinates":[-5.160472,36.434361]},"properties":{"id":"es-7458","source":"ES","brand":"GALP","address":"N-340 km 154,800","municipality":"Estepona","province":"MÁLAGA","postalCode":"29680","schedule":"L-D: 06:00-22:00","fuels":{"gasoline95Premium":1.849,"gasoline98":1.969,"diesel":1.914,"dieselPremium":2.004},"extra":{"saleType":"P","margin":"N","reportingType":"OM","ideess":"7458","idMunicipio":"4505","idProvincia":"29","idCCAA":"01"}}},{"type":"Feature","geometry":{"type":"Point","coordinates":[-5.265833,36.333]},"properties":{"id":"es-7460","source":"ES","brand":"MOEVE","address":"AUTOPISTA AP-7B (MRG.DCHO.) KM. 138,5","municipality":"Manilva","province":"MÁLAGA","postalCode":"29691","schedule":"L-D: 24H","fuels":{"gasoline95":1.849,"gasoline95Premium":1.939,"diesel":1.959,"dieselPremium":2.049},"extra":{"saleType":"P","margin":"D","reportingType":"OM","ideess":"7460","idMunicipio":"4522","idProvincia":"29","idCCAA":"01"}}},{"type":"Feature","geometry":{"type":"Point","coordinates":[-5.267472,36.332611]},"properties":{"id":"es-7461","source":"ES","brand":"MOEVE","address":"AUTOPISTA AP-7B (MRG.IZDO.) KM. 138,5","municipality":"Manilva","province":"MÁLAGA","postalCode":"29691","schedule":"L-D: 24H","fuels":{"gasoline95":1.849,"gasoline98":1.969,"diesel":1.959,"dieselPremium":2.049},"extra":{"saleType":"P","margin":"I","reportingType":"OM","ideess":"7461","idMunicipio":"4522","idProvincia":"29","idCCAA":"01"}}},{"type":"Feature","geometry":{"type":"Point","coordinates":[-5.816028,36.348444]},"properties":{"id":"es-8066","source":"ES","brand":"E.S. SANTA ANA DE LA JANDA","address":"CARRETERA CTRA.A-2225 KM 11 KM. ","municipality":"Benalup-Casas Viejas","province":"CÁDIZ","postalCode":"11190","schedule":"L-D: 06:30-22:30","fuels":{"gasoline95":1.749,"diesel":1.829,"dieselB":1.499,"adblue":0.95},"extra":{"saleType":"P","margin":"I","reportingType":"dm","ideess":"8066","idMunicipio":"1770","idProvincia":"11","idCCAA":"01"}}},{"type":"Feature","geometry":{"type":"Point","coordinates":[-5.249583,36.722944]},"properties":{"id":"es-8108","source":"ES","brand":"AVIA","address":"CALLE ZONA DE LA VEGA, S/N","municipality":"Benaoján","province":"MÁLAGA","postalCode":"29370","schedule":"L-D: 07:00-22:00","fuels":{"gasoline95":1.709,"diesel":1.809},"extra":{"saleType":"P","margin":"I","reportingType":"dm","ideess":"8108","idMunicipio":"4482","idProvincia":"29","idCCAA":"01"}}},{"type":"Feature","geometry":{"type":"Point","coordinates":[-5.454667,36.14125]},"properties":{"id":"es-8410","source":"ES","brand":"SHELL","address":"AVENIDA VIRGEN DEL CARMEN-PARCELA, 3","municipality":"Algeciras","province":"CÁDIZ","postalCode":"11204","schedule":"L-D: 07:00-23:00","fuels":{"gasoline95":1.759,"gasoline98":1.899,"diesel":1.789,"dieselPremium":1.869},"extra":{"saleType":"P","margin":"N","reportingType":"OM","ideess":"8410","idMunicipio":"1765","idProvincia":"11","idCCAA":"01"}}},{"type":"Feature","geometry":{"type":"Point","coordinates":[-5.171389,36.431833]},"properties":{"id":"es-8468","source":"ES","brand":"SHELL","address":"AVENIDA JOSE MARTIN MENDEZ, S/N","municipality":"Estepona","province":"MÁLAGA","postalCode":"29680","schedule":"L-D: 06:00-00:00","fuels":{"gasoline95":1.819,"gasoline98":1.959,"diesel":1.914,"dieselPremium":1.994},"extra":{"saleType":"P","margin":"N","reportingType":"OM","ideess":"8468","idMunicipio":"4505","idProvincia":"29","idCCAA":"01"}}},{"type":"Feature","geometry":{"type":"Point","coordinates":[-5.175889,36.417194]},"properties":{"id":"es-8469","source":"ES","brand":"SHELL","address":"AVENIDA DEL CARMEN, S/N","municipality":"Estepona","province":"MÁLAGA","postalCode":"29680","schedule":"L-D: 06:00-00:00","fuels":{"gasoline95":1.824,"gasoline98":1.964,"diesel":1.914,"dieselPremium":1.994,"lpg":1.029,"adblue":1.25},"extra":{"saleType":"P","margin":"D","reportingType":"OM","ideess":"8469","idMunicipio":"4505","idProvincia":"29","idCCAA":"01"}}},{"type":"Feature","geometry":{"type":"Point","coordinates":[-5.512694,36.75825]},"properties":{"id":"es-8929","source":"ES","brand":"GALP","address":"CARRETERA EL BOSQUE-ARCOS KM. 0,5","municipality":"Bosque (El)","province":"CÁDIZ","postalCode":"11670","schedule":"L-V: 07:00-21:00; S-D: 08:00-21:00","fuels":{"gasoline95":1.759,"diesel":1.859,"dieselPremium":1.959},"extra":{"saleType":"P","margin":"N","reportingType":"dm","ideess":"8929","idMunicipio":"1773","idProvincia":"11","idCCAA":"01"}}},{"type":"Feature","geometry":{"type":"Point","coordinates":[-5.886306,36.313667]},"properties":{"id":"es-8970","source":"ES","brand":"DP","address":"SANTO TOMAS DE VILLANUEVA Nº4","municipality":"Vejer de la Frontera","province":"CÁDIZ","postalCode":"11150","schedule":"L-D: 06:30-22:30","fuels":{"gasoline95":1.699,"diesel":1.739,"dieselB":1.299},"extra":{"saleType":"P","margin":"D","reportingType":"dm","ideess":"8970","idMunicipio":"1802","idProvincia":"11","idCCAA":"01"}}},{"type":"Feature","geometry":{"type":"Point","coordinates":[-5.217611,36.381083]},"properties":{"id":"es-9335","source":"ES","brand":"E.S BAHIA DE CASARES","address":"CTRA N 340 KM 146.7 ESQUINA MA 546","municipality":"Casares","province":"MÁLAGA","postalCode":"29690","schedule":"L-D: 07:00-23:00","fuels":{"gasoline95":1.809,"gasoline98":1.979,"diesel":1.909,"dieselPremium":2.009},"extra":{"saleType":"P","margin":"D","reportingType":"dm","ideess":"9335","idMunicipio":"4495","idProvincia":"29","idCCAA":"01"}}},{"type":"Feature","geometry":{"type":"Point","coordinates":[-5.411972,36.204389]},"properties":{"id":"es-9407","source":"ES","brand":"CODES","address":"AUTOVIA POL.IND.GUADARRANQUE PARC.9A-D (N-340 AUTOVIA A-7 KM. 0","municipality":"San Roque","province":"CÁDIZ","postalCode":"11360","schedule":"L-D: 24H","fuels":{"gasoline95":1.759,"gasoline98":1.885,"diesel":1.839,"dieselPremium":1.899,"dieselB":1.467,"lpg":0.949,"adblue":0.799},"extra":{"saleType":"P","margin":"D","reportingType":"dm","ideess":"9407","idMunicipio":"1795","idProvincia":"11","idCCAA":"01"}}},{"type":"Feature","geometry":{"type":"Point","coordinates":[-5.854528,36.741389]},"properties":{"id":"es-9486","source":"ES","brand":"GARRUCHO","address":"N 342 km 26.8","municipality":"Arcos de la Frontera","province":"CÁDIZ","postalCode":"11630","schedule":"L-D: 06:00-22:00","fuels":{"gasoline95":1.729,"diesel":1.799,"adblue":0.859},"extra":{"saleType":"P","margin":"D","reportingType":"dm","ideess":"9486","idMunicipio":"1767","idProvincia":"11","idCCAA":"01"}}},{"type":"Feature","geometry":{"type":"Point","coordinates":[-5.455194,36.151222]},"properties":{"id":"es-9495","source":"ES","brand":"BP","address":"CARRETERA N-IV KM. 107,5","municipality":"Algeciras","province":"CÁDIZ","postalCode":"11205","schedule":"L-D: 06:30-22:30","fuels":{"gasoline95":1.769,"gasoline98":1.909,"diesel":1.885,"dieselPremium":1.975},"extra":{"saleType":"P","margin":"D","reportingType":"dm","ideess":"9495","idMunicipio":"1765","idProvincia":"11","idCCAA":"01"}}},{"type":"Feature","geometry":{"type":"Point","coordinates":[-5.449361,36.145306]},"properties":{"id":"es-9531","source":"ES","brand":"ENI","address":"POLIGONO EL ROSARIO PARCELA IV, S/N","municipality":"Algeciras","province":"CÁDIZ","postalCode":"11205","schedule":"L-D: 07:00-23:00","fuels":{"gasoline95":1.769,"gasoline98":1.889,"diesel":1.819,"dieselPremium":1.939},"extra":{"saleType":"P","margin":"D","reportingType":"OM","ideess":"9531","idMunicipio":"1765","idProvincia":"11","idCCAA":"01"}}},{"type":"Feature","geometry":{"type":"Point","coordinates":[-5.852389,36.679056]},"properties":{"id":"es-9690","source":"ES","brand":"E.S. SHELL LA FRONTERA","address":"CARRETERA ARCOS-MEDINA KM. 9,200","municipality":"Arcos de la Frontera","province":"CÁDIZ","postalCode":"11630","schedule":"L-D: 06:30-22:30","fuels":{"gasoline95":1.719,"gasoline98E10":1.809,"diesel":1.799,"dieselB":1.439,"adblue":0.999},"extra":{"saleType":"P","margin":"I","reportingType":"dm","ideess":"9690","idMunicipio":"1767","idProvincia":"11","idCCAA":"01"}}},{"type":"Feature","geometry":{"type":"Point","coordinates":[-5.348278,36.191222]},"properties":{"id":"es-9884","source":"ES","brand":"ES COLOSO","address":"CARRETERA CARRETERA COMARCAL 233 KM. 5,8","municipality":"Línea de la Concepción (La)","province":"CÁDIZ","postalCode":"11300","schedule":"L-D: 07:00-23:00","fuels":{"gasoline95":1.689,"gasoline98":1.719,"diesel":1.749,"dieselPremium":1.769},"extra":{"saleType":"P","margin":"D","reportingType":"dm","ideess":"9884","idMunicipio":"1784","idProvincia":"11","idCCAA":"01"}}},{"type":"Feature","geometry":{"type":"Point","coordinates":[-5.042028,36.462056]},"properties":{"id":"es-9892","source":"ES","brand":"E.S. SALADILLO","address":"URBANIZACIÓN EL SALADILLO, ","municipality":"Estepona","province":"MÁLAGA","postalCode":"29680","schedule":"L-D: 24H","fuels":{"gasoline95":1.747,"gasoline98":1.905,"diesel":1.849,"dieselPremium":1.939},"extra":{"saleType":"P","margin":"D","reportingType":"dm","ideess":"9892","idMunicipio":"4505","idProvincia":"29","idCCAA":"01"}}},{"type":"Feature","geometry":{"type":"Point","coordinates":[-5.531417,36.067222]},"properties":{"id":"es-9894","source":"ES","brand":"ASC CARBURANTES","address":"CARRETERA C.N.340, KM 94,2 MESON PANCHO KM. 94,2","municipality":"Tarifa","province":"CÁDIZ","postalCode":"11380","schedule":"L-D: 00:00-23:59","fuels":{"gasoline95":1.729,"gasoline98":1.839,"diesel":1.749,"dieselPremium":1.839,"adblue":0.89},"extra":{"saleType":"P","margin":"I","reportingType":"dm","ideess":"9894","idMunicipio":"1798","idProvincia":"11","idCCAA":"01"}}}]}