{"type":"FeatureCollection","features":[{"type":"Feature","geometry":{"type":"Point","coordinates":[-3.828917,43.458028]},"properties":{"id":"es-1000","source":"ES","brand":"MOEVE","address":"AVENIDA VALDECILLA, 10","municipality":"Santander","province":"CANTABRIA","postalCode":"39010","schedule":"L-D: 24H","fuels":{"gasoline95":1.779,"gasoline98":1.929,"diesel":1.904,"dieselPremium":1.994,"dieselB":1.684},"extra":{"saleType":"P","margin":"D","reportingType":"OM","ideess":"1000","idMunicipio":"5819","idProvincia":"39","idCCAA":"06"}}},{"type":"Feature","geometry":{"type":"Point","coordinates":[-3.867861,43.320694]},"properties":{"id":"es-1001","source":"ES","brand":"REPSOL","address":"CARRETERA IRUN-LA CORUÑA KM. 217","municipality":"Santa María de Cayón","province":"CANTABRIA","postalCode":"39627","schedule":"L-D: 06:00-22:00","fuels":{"gasoline95":1.799,"diesel":1.919,"dieselB":1.689,"dieselRenewable":1.999,"adblue":1.289},"extra":{"saleType":"P","margin":"D","reportingType":"dm","ideess":"1001","idMunicipio":"5818","idProvincia":"39","idCCAA":"06"}}},{"type":"Feature","geometry":{"type":"Point","coordinates":[-3.896667,43.438083]},"properties":{"id":"es-1002","source":"ES","brand":"SHELL","address":"N-611 km 202,3","municipality":"Camargo","province":"CANTABRIA","postalCode":"39608","schedule":"L-D: 06:00-00:00","fuels":{"gasoline95":1.774,"gasoline98":1.914,"diesel":1.889,"dieselPremium":1.969},"extra":{"saleType":"P","margin":"D","reportingType":"OM","ideess":"1002","idMunicipio":"5759","idProvincia":"39","idCCAA":"06"}}},{"type":"Feature","geometry":{"type":"Point","coordinates":[-3.859861,43.361722]},"properties":{"id":"es-10035","source":"ES","brand":"CAMPSA","address":"CARRETERA GENERAL (CARRETERA km 4.2)","municipality":"Villaescusa","province":"CANTABRIA","postalCode":"39690","schedule":"L-D: 07:00-22:00","fuels":{"gasoline95":1.795,"diesel":1.899,"dieselRenewable":2.019},"extra":{"saleType":"P","margin":"D","reportingType":"OM","ideess":"10035","idMunicipio":"5843","idProvincia":"39","idCCAA":"06"}}},{"type":"Feature","geometry":{"type":"Point","coordinates":[-3.578556,43.414194]},"properties":{"id":"es-1010","source":"ES","brand":"REPSOL","address":"CARRETERA IRUN-LA CORUÑA KM. 188","municipality":"Hazas de Cesto","province":"CANTABRIA","postalCode":"39730","schedule":"L-D: 06:00-22:00","fuels":{"gasoline95":1.799,"diesel":1.929,"dieselB":1.689,"dieselRenewable":2.039,"adblue":1.289},"extra":{"saleType":"P","margin":"I","reportingType":"dm","ideess":"1010","idMunicipio":"5774","idProvincia":"39","idCCAA":"06"}}},{"type":"Feature","geometry":{"type":"Point","coordinates":[-3.472361,43.209722]},"properties":{"id":"es-1011","source":"ES","brand":"(SIN RÓTULO)","address":"BARRIO SAN JUAN DE SOBA (CTRA- COMARCAL RAMALES-VALLE D km 6,4)","municipality":"Soba","province":"CANTABRIA","postalCode":"39806","schedule":"L-V: 07:00-13:00 y 15:00-19:00; S: 07:00-13:00","fuels":{"gasoline95":1.61,"diesel":1.66,"dieselB":1.36},"extra":{"saleType":"P","margin":"I","reportingType":"dm","ideess":"1011","idMunicipio":"5826","idProvincia":"39","idCCAA":"06"}}},{"type":"Feature","geometry":{"type":"Point","coordinates":[-3.841194,43.459083]},"properties":{"id":"es-1014","source":"ES","brand":"REPSOL","address":"AVENIDA CARDENAL HERRERA ORIA, 38","municipality":"Santander","province":"CANTABRIA","postalCode":"39011","schedule":"L-D: 06:00-22:00","fuels":{"gasoline95":1.799,"gasoline98":1.929,"diesel":1.899,"dieselPremium":1.999,"lpg":1.149,"adblue":1.289},"extra":{"saleType":"P","margin":"N","reportingType":"dm","ideess":"1014","idMunicipio":"5819","idProvincia":"39","idCCAA":"06"}}},{"type":"Feature","geometry":{"type":"Point","coordinates":[-3.880861,43.466444]},"properties":{"id":"es-1017","source":"ES","brand":"PLENERGY","address":"AVENIDA AVENIDA MARQUES DE VALDECILLA, 149","municipality":"Santa Cruz de Bezana","province":"CANTABRIA","postalCode":"39100","schedule":"L-D: 24H","fuels":{"gasoline95":1.559,"diesel":1.629},"extra":{"saleType":"P","margin":"D","reportingType":"dm","ideess":"1017","idMunicipio":"5817","idProvincia":"39","idCCAA":"06"}}},{"type":"Feature","geometry":{"type":"Point","coordinates":[-3.83325,43.464556]},"properties":{"id":"es-1020","source":"ES","brand":"PETROPRIX","address":"CALLE REPUENTE, 35","municipality":"Santander","province":"CANTABRIA","postalCode":"39012","schedule":"L-D: 24H","fuels":{"gasoline95":1.559,"diesel":1.629},"extra":{"saleType":"P","margin":"N","reportingType":"dm","ideess":"1020","idMunicipio":"5819","idProvincia":"39","idCCAA":"06"}}},{"type":"Feature","geometry":{"type":"Point","coordinates":[-3.85375,43.446444]},"properties":{"id":"es-1025","source":"ES","brand":"CARREFOUR","address":"CALLE EL EMPALME, ","municipality":"Santander","province":"CANTABRIA","postalCode":"39011","schedule":"L-S: 07:00-23:00; D: 09:00-21:00","fuels":{"gasoline95":1.739,"gasoline98":1.919,"diesel":1.779,"dieselPremium":1.819},"extra":{"saleType":"P","margin":"N","reportingType":"dm","ideess":"1025","idMunicipio":"5819","idProvincia":"39","idCCAA":"06"}}},{"type":"Feature","geometry":{"type":"Point","coordinates":[-3.863361,43.456306]},"properties":{"id":"es-1026","source":"ES","brand":"CARREFOUR","address":"CALLE JOAQUÍN RODRIGUO, 2","municipality":"Santander","province":"CANTABRIA","postalCode":"39011","schedule":"L-S: 07:00-23:00; D: 09:00-21:00","fuels":{"gasoline95":1.739,"gasoline98":1.919,"diesel":1.779,"dieselPremium":1.819},"extra":{"saleType":"P","margin":"N","reportingType":"dm","ideess":"1026","idMunicipio":"5819","idProvincia":"39","idCCAA":"06"}}},{"type":"Feature","geometry":{"type":"Point","coordinates":[-3.856917,43.457083]},"properties":{"id":"es-1029","source":"ES","brand":"GASOLINERA ALISAL","address":"AVENIDA VICENTE TRUEBA, SN","municipality":"Santander","province":"CANTABRIA","postalCode":"39011","schedule":"L-D: 07:00-23:00","fuels":{"gasoline95":1.499,"diesel":1.599,"adblue":0.799},"extra":{"saleType":"P","margin":"N","reportingType":"OM","ideess":"1029","idMunicipio":"5819","idProvincia":"39","idCCAA":"06"}}},{"type":"Feature","geometry":{"type":"Point","coordinates":[-3.522444,43.426083]},"properties":{"id":"es-1032","source":"ES","brand":"REPSOL","address":"CARRETERA CA-148 KM. 0,3","municipality":"Escalante","province":"CANTABRIA","postalCode":"39795","schedule":"L-D: 06:00-22:00","fuels":{"gasoline95":1.765,"gasoline98":1.935,"diesel":1.905,"dieselRenewable":2.025},"extra":{"saleType":"P","margin":"I","reportingType":"OM","ideess":"1032","idMunicipio":"5772","idProvincia":"39","idCCAA":"06"}}},{"type":"Feature","geometry":{"type":"Point","coordinates":[-3.836333,43.412444]},"properties":{"id":"es-1035","source":"ES","brand":"REPSOL","address":"AU A-10, 5","municipality":"Camargo","province":"CANTABRIA","postalCode":"39600","schedule":"L-D: 07:00-23:00","fuels":{"gasoline95":1.795,"gasoline98":1.915,"diesel":1.909,"dieselRenewable":2.029},"extra":{"saleType":"P","margin":"D","reportingType":"OM","ideess":"1035","idMunicipio":"5759","idProvincia":"39","idCCAA":"06"}}},{"type":"Feature","geometry":{"type":"Point","coordinates":[-3.457083,43.449583]},"properties":{"id":"es-1037","source":"ES","brand":"REPSOL","address":"CR CA-141, 38,0","municipality":"Santoña","province":"CANTABRIA","postalCode":"39740","schedule":"L-D: 06:00-22:00","fuels":{"gasoline95":1.759,"gasoline98":1.929,"diesel":1.909,"dieselRenewable":2.029},"extra":{"saleType":"P","margin":"D","reportingType":"OM","ideess":"1037","idMunicipio":"5823","idProvincia":"39","idCCAA":"06"}}},{"type":"Feature","geometry":{"type":"Point","coordinates":[-3.562611,43.447306]},"properties":{"id":"es-1038","source":"ES","brand":"REPSOL","address":"CR CA-147, 4,7","municipality":"Meruelo","province":"CANTABRIA","postalCode":"39192","schedule":"L-D: 06:30-22:30","fuels":{"gasoline95":1.785,"gasoline98":1.905,"diesel":1.915,"dieselRenewable":2.035},"extra":{"saleType":"P","margin":"I","reportingType":"OM","ideess":"1038","idMunicipio":"5786","idProvincia":"39","idCCAA":"06"}}},{"type":"Feature","geometry":{"type":"Point","coordinates":[-3.838528,43.463083]},"properties":{"id":"es-1042","source":"ES","brand":"REPSOL","address":"CR CA-230 (ALBERICIA-SARDINERO, 0,1","municipality":"Santander","province":"CANTABRIA","postalCode":"39012","schedule":"L-D: 07:00-23:00","fuels":{"gasoline95":1.799,"gasoline98":1.919,"diesel":1.929,"dieselRenewable":2.049},"extra":{"saleType":"P","margin":"I","reportingType":"OM","ideess":"1042","idMunicipio":"5819","idProvincia":"39","idCCAA":"06"}}},{"type":"Feature","geometry":{"type":"Point","coordinates":[-3.836528,43.434889]},"properties":{"id":"es-1043","source":"ES","brand":"REPSOL","address":"CALLE NAOS, 1","municipality":"Santander","province":"CANTABRIA","postalCode":"39011","schedule":"L-D: 06:00-23:00","fuels":{"gasoline95":1.799,"gasoline98":1.949,"diesel":1.909,"dieselPremium":1.998},"extra":{"saleType":"P","margin":"N","reportingType":"dm","ideess":"1043","idMunicipio":"5819","idProvincia":"39","idCCAA":"06"}}},{"type":"Feature","geometry":{"type":"Point","coordinates":[-3.769333,43.425833]},"properties":{"id":"es-1044","source":"ES","brand":"REPSOL","address":"CARRETERA CR CA-141 KM. 7,8","municipality":"Marina de Cudeyo","province":"CANTABRIA","postalCode":"39130","schedule":"L-D: 07:30-22:00","fuels":{"gasoline95":1.789,"gasoline98":1.909,"diesel":1.915,"dieselRenewable":2.035},"extra":{"saleType":"P","margin":"D","reportingType":"OM","ideess":"1044","idMunicipio":"5783","idProvincia":"39","idCCAA":"06"}}},{"type":"Feature","geometry":{"type":"Point","coordinates":[-3.687083,43.388583]},"properties":{"id":"es-1046","source":"ES","brand":"REPSOL","address":"CTRA. N-634 km 196","municipality":"Entrambasaguas","province":"CANTABRIA","postalCode":"39716","schedule":"L-D: 07:00-23:00","fuels":{"gasoline95":1.839,"gasoline98":1.959,"diesel":1.979,"dieselPremium":2.099,"lpg":1.119},"extra":{"saleType":"P","margin":"I","reportingType":"dm","ideess":"1046","idMunicipio":"5771","idProvincia":"39","idCCAA":"06"}}},{"type":"Feature","geometry":{"type":"Point","coordinates":[-3.418167,43.341889]},"properties":{"id":"es-1048","source":"ES","brand":"REPSOL","address":"CR N-629 79,7","municipality":"Ampuero","province":"CANTABRIA","postalCode":"39840","schedule":"L-S: 07:30-21:30; D: 08:30-21:30","fuels":{"gasoline95":1.805,"diesel":1.919,"dieselRenewable":2.039},"extra":{"saleType":"P","margin":"D","reportingType":"OM","ideess":"1048","idMunicipio":"5745","idProvincia":"39","idCCAA":"06"}}},{"type":"Feature","geometry":{"type":"Point","coordinates":[-3.220833,43.383583]},"properties":{"id":"es-1050","source":"ES","brand":"REPSOL","address":"CALLE SANTANDER, 27","municipality":"Castro-Urdiales","province":"CANTABRIA","postalCode":"39700","schedule":"L-S: 08:00-21:00","fuels":{"gasoline95":1.779,"diesel":1.895,"dieselRenewable":2.015},"extra":{"saleType":"P","margin":"D","reportingType":"OM","ideess":"1050","idMunicipio":"5764","idProvincia":"39","idCCAA":"06"}}},{"type":"Feature","geometry":{"type":"Point","coordinates":[-3.796361,43.462667]},"properties":{"id":"es-1053","source":"ES","brand":"REPSOL","address":"PLAZA MATIAS MONTERO, S/N","municipality":"Santander","province":"CANTABRIA","postalCode":"39004","schedule":"L-D: 08:00-16:00","fuels":{"gasoline95":1.799,"diesel":1.909},"extra":{"saleType":"P","margin":"N","reportingType":"OM","ideess":"1053","idMunicipio":"5819","idProvincia":"39","idCCAA":"06"}}},{"type":"Feature","geometry":{"type":"Point","coordinates":[-3.781806,43.4715]},"properties":{"id":"es-1056","source":"ES","brand":"REPSOL","address":"CALLE JOAQUIN COSTA, SN","municipality":"Santander","province":"CANTABRIA","postalCode":"39005","schedule":"L-D: 08:00-22:00","fuels":{"gasoline95":1.799,"diesel":1.909},"extra":{"saleType":"P","margin":"D","reportingType":"OM","ideess":"1056","idMunicipio":"5819","idProvincia":"39","idCCAA":"06"}}},{"type":"Feature","geometry":{"type":"Point","coordinates":[-3.439222,43.399833]},"properties":{"id":"es-1058","source":"ES","brand":"REPSOL","address":"CARRETERA N-634 KM. 171","municipality":"Laredo","province":"CANTABRIA","postalCode":"39770","schedule":"L-D: 07:00-23:00","fuels":{"gasoline95":1.809,"gasoline95Premium":1.889,"gasoline98":1.929,"diesel":1.919,"dieselRenewable":2.039,"lpg":1.125},"extra":{"saleType":"P","margin":"D","reportingType":"OM","ideess":"1058","idMunicipio":"5778","idProvincia":"39","idCCAA":"06"}}},{"type":"Feature","geometry":{"type":"Point","coordinates":[-3.73775,43.383472]},"properties":{"id":"es-1059","source":"ES","brand":"BALLENOIL","address":"CARRETERA N-634A KM. 199,5","municipality":"Medio Cudeyo","province":"CANTABRIA","postalCode":"39710","schedule":"L-D: 24H","fuels":{"gasoline95":1.639,"diesel":1.699,"dieselPremium":1.719},"extra":{"saleType":"P","margin":"I","reportingType":"OM","ideess":"1059","idMunicipio":"5785","idProvincia":"39","idCCAA":"06"}}},{"type":"Feature","geometry":{"type":"Point","coordinates":[-3.924083,43.358278]},"properties":{"id":"es-1062","source":"ES","brand":"GALP","address":"CARRETERA N-623 KM. 136","municipality":"Piélagos","province":"CANTABRIA","postalCode":"39612","schedule":"L: 06:00-22:00","fuels":{"gasoline95":1.799,"gasoline95Premium":1.869,"diesel":1.889,"dieselPremium":1.989,"dieselB":1.699,"adblue":0.885},"extra":{"saleType":"P","margin":"D","reportingType":"dm","ideess":"1062","idMunicipio":"5795","idProvincia":"39","idCCAA":"06"}}},{"type":"Feature","geometry":{"type":"Point","coordinates":[-3.854528,43.447639]},"properties":{"id":"es-1063","source":"ES","brand":"GALP","address":"CARRETERA N-623 KM. 390","municipality":"Santander","province":"CANTABRIA","postalCode":"39011","schedule":"L: 07:00-23:00","fuels":{"gasoline95":1.789,"gasoline95Premium":1.859,"diesel":1.839,"dieselPremium":1.939},"extra":{"saleType":"P","margin":"D","reportingType":"dm","ideess":"1063","idMunicipio":"5819","idProvincia":"39","idCCAA":"06"}}},{"type":"Feature","geometry":{"type":"Point","coordinates":[-3.835722,43.404583]},"properties":{"id":"es-1064","source":"ES","brand":"GALP","address":"CALLE PROSPERIDAD, 61","municipality":"Astillero (El)","province":"CANTABRIA","postalCode":"39611","schedule":"L-S: 06:00-22:00; D: 07:00-22:00","fuels":{"gasoline95":1.809,"gasoline95Premium":1.879,"diesel":1.919,"dieselPremium":2.019,"dieselB":1.689,"adblue":0.885},"extra":{"saleType":"P","margin":"D","reportingType":"dm","ideess":"1064","idMunicipio":"5751","idProvincia":"39","idCCAA":"06"}}},{"type":"Feature","geometry":{"type":"Point","coordinates":[-3.841861,43.42575]},"properties":{"id":"es-1065","source":"ES","brand":"SHELL","address":"P.I. CROS km CENTRO COMERCIAL M","municipality":"Camargo","province":"CANTABRIA","postalCode":"39600","schedule":"L-S: 08:00-21:30","fuels":{"gasoline95":1.659,"gasoline98":1.859,"diesel":1.729,"dieselPremium":1.829},"extra":{"saleType":"P","margin":"N","reportingType":"OM","ideess":"1065","idMunicipio":"5759","idProvincia":"39","idCCAA":"06"}}},{"type":"Feature","geometry":{"type":"Point","coordinates":[-3.835611,43.425278]},"properties":{"id":"es-1066","source":"ES","brand":"REPSOL","address":"AU A-10, 3","municipality":"Camargo","province":"CANTABRIA","postalCode":"39600","schedule":"L-D: 06:00-22:00","fuels":{"gasoline95":1.789,"gasoline98":1.959,"diesel":1.909,"dieselRenewable":2.029},"extra":{"saleType":"P","margin":"D","reportingType":"OM","ideess":"1066","idMunicipio":"5759","idProvincia":"39","idCCAA":"06"}}},{"type":"Feature","geometry":{"type":"Point","coordinates":[-3.945806,43.408472]},"properties":{"id":"es-1068","source":"ES","brand":"BALLENOIL","address":"CARRETERA N-611 KM. 197","municipality":"Piélagos","province":"CANTABRIA","postalCode":"39478","schedule":"L-D: 24H","fuels":{"gasoline95":1.559,"gasoline95Premium":1.579,"diesel":1.629,"dieselPremium":1.649},"extra":{"saleType":"P","margin":"D","reportingType":"OM","ideess":"1068","idMunicipio":"5795","idProvincia":"39","idCCAA":"06"}}},{"type":"Feature","geometry":{"type":"Point","coordinates":[-3.458722,43.394806]},"properties":{"id":"es-1069","source":"ES","brand":"PETRONOR","address":"CARRETERA N-634 KM. 173,3","municipality":"Colindres","province":"CANTABRIA","postalCode":"39750","schedule":"L-D: 06:00-22:00","fuels":{"gasoline95":1.805,"gasoline98":1.925,"diesel":1.915,"dieselRenewable":2.035},"extra":{"saleType":"P","margin":"I","reportingType":"OM","ideess":"1069","idMunicipio":"5767","idProvincia":"39","idCCAA":"06"}}},{"type":"Feature","geometry":{"type":"Point","coordinates":[-3.685028,43.388417]},"properties":{"id":"es-1071","source":"ES","brand":"REPSOL","address":"CARRETERA N-634 KM. 195","municipality":"Entrambasaguas","province":"CANTABRIA","postalCode":"39716","schedule":"L-D: 24H","fuels":{"gasoline95":1.779,"gasoline98":1.959,"diesel":1.899,"dieselB":1.639,"dieselRenewable":1.979,"lpg":1.149,"adblue":1.099},"extra":{"saleType":"P","margin":"I","reportingType":"dm","ideess":"1071","idMunicipio":"5771","idProvincia":"39","idCCAA":"06"}}},{"type":"Feature","geometry":{"type":"Point","coordinates":[-3.824139,43.453556]},"properties":{"id":"es-1074","source":"ES","brand":"REPSOL","address":"CL CASTILLA, 91","municipality":"Santander","province":"CANTABRIA","postalCode":"39009","schedule":"L-D: 06:00-22:00","fuels":{"gasoline95":1.799,"gasoline98":1.919,"diesel":1.919,"dieselRenewable":2.039},"extra":{"saleType":"P","margin":"D","reportingType":"OM","ideess":"1074","idMunicipio":"5819","idProvincia":"39","idCCAA":"06"}}},{"type":"Feature","geometry":{"type":"Point","coordinates":[-3.943222,43.218333]},"properties":{"id":"es-1077","source":"ES","brand":"REPSOL","address":"CR N-623, 116","municipality":"Corvera de Toranzo","province":"CANTABRIA","postalCode":"39699","schedule":"L-D: 06:00-22:00","fuels":{"gasoline95":1.755,"gasoline98":1.875,"diesel":1.945,"dieselRenewable":2.065},"extra":{"saleType":"P","margin":"I","reportingType":"OM","ideess":"1077","idMunicipio":"5770","idProvincia":"39","idCCAA":"06"}}},{"type":"Feature","geometry":{"type":"Point","coordinates":[-3.814194,43.229528]},"properties":{"id":"es-1078","source":"ES","brand":"REPSOL","address":"AVENIDA DE SANTANDER, 43","municipality":"Villacarriedo","province":"CANTABRIA","postalCode":"39640","schedule":"L-S: 07:30-22:30; D: 08:30-22:30","fuels":{"gasoline95":1.799,"gasoline98":1.959,"diesel":1.899,"dieselRenewable":1.999,"adblue":0.9},"extra":{"saleType":"P","margin":"D","reportingType":"dm","ideess":"1078","idMunicipio":"5842","idProvincia":"39","idCCAA":"06"}}},{"type":"Feature","geometry":{"type":"Point","coordinates":[-3.56225,43.469778]},"properties":{"id":"es-1080","source":"ES","brand":"CAMPSA","address":"CARRETERA ARGOÑOS SOMO KM. 28,7","municipality":"Arnuero","province":"CANTABRIA","postalCode":"39195","schedule":"L-D: 07:00-22:00","fuels":{"gasoline95":1.785,"diesel":1.909,"dieselRenewable":2.029},"extra":{"saleType":"P","margin":"D","reportingType":"OM","ideess":"1080","idMunicipio":"5749","idProvincia":"39","idCCAA":"06"}}},{"type":"Feature","geometry":{"type":"Point","coordinates":[-3.665,43.391056]},"properties":{"id":"es-1082","source":"ES","brand":"CEPSA","address":"CARRETERA N 634 KM. 244,7","municipality":"Cabezón de la Sal","province":"CANTABRIA","postalCode":"39500","schedule":"L-V: 07:00-22:00","fuels":{"gasoline95":1.809,"gasoline95Premium":1.919,"diesel":1.919,"dieselPremium":2.019},"extra":{"saleType":"P","margin":"I","reportingType":"dm","ideess":"1082","idMunicipio":"5755","idProvincia":"39","idCCAA":"06"}}},{"type":"Feature","geometry":{"type":"Point","coordinates":[-3.858806,43.419778]},"properties":{"id":"es-10839","source":"ES","brand":"REPSOL","address":"AVENIDA BURGOS, 65","municipality":"Camargo","province":"CANTABRIA","postalCode":"39600","schedule":"L-D: 06:00-22:00","fuels":{"gasoline95":1.799,"gasoline98":1.929,"diesel":1.919,"dieselPremium":2.029,"lpg":1.149,"adblue":1.289},"extra":{"saleType":"P","margin":"D","reportingType":"dm","ideess":"10839","idMunicipio":"5759","idProvincia":"39","idCCAA":"06"}}},{"type":"Feature","geometry":{"type":"Point","coordinates":[-3.542028,43.411417]},"properties":{"id":"es-1085","source":"ES","brand":"REPSOL","address":"AU A-8, 182","municipality":"Bárcena de Cicero","province":"CANTABRIA","postalCode":"39791","schedule":"L-D: 06:00-22:00","fuels":{"gasoline95":1.779,"gasoline98":1.799,"diesel":1.895,"dieselRenewable":2.015},"extra":{"saleType":"P","margin":"I","reportingType":"OM","ideess":"1085","idMunicipio":"5752","idProvincia":"39","idCCAA":"06"}}},{"type":"Feature","geometry":{"type":"Point","coordinates":[-3.875944,43.464056]},"properties":{"id":"es-10858","source":"ES","brand":"BALLENOIL","address":"CALLE JOSE MARIA PEREDA, 6","municipality":"Santa Cruz de Bezana","province":"CANTABRIA","postalCode":"39110","schedule":"L-D: 24H","fuels":{"gasoline95":1.559,"diesel":1.629,"dieselPremium":1.649},"extra":{"saleType":"P","margin":"I","reportingType":"OM","ideess":"10858","idMunicipio":"5817","idProvincia":"39","idCCAA":"06"}}},{"type":"Feature","geometry":{"type":"Point","coordinates":[-3.6835,43.389806]},"properties":{"id":"es-1086","source":"ES","brand":"REPSOL","address":"AU A-8, 195","municipality":"Entrambasaguas","province":"CANTABRIA","postalCode":"39716","schedule":"L-D: 06:00-22:00","fuels":{"gasoline95":1.779,"diesel":1.895,"dieselRenewable":2.015},"extra":{"saleType":"P","margin":"D","reportingType":"OM","ideess":"1086","idMunicipio":"5771","idProvincia":"39","idCCAA":"06"}}},{"type":"Feature","geometry":{"type":"Point","coordinates":[-3.212694,43.368778]},"properties":{"id":"es-1087","source":"ES","brand":"BP CASTRO URDIALES","address":"BARRIO BRAZOMAR S/N, S/N","municipality":"Castro-Urdiales","province":"CANTABRIA","postalCode":"39700","schedule":"L-D: 24H","fuels":{"gasoline95":1.769,"gasoline98":1.909,"diesel":1.899,"dieselPremium":1.989,"adblue":1.125},"extra":{"saleType":"P","margin":"D","reportingType":"OM","ideess":"1087","idMunicipio":"5764","idProvincia":"39","idCCAA":"06"}}},{"type":"Feature","geometry":{"type":"Point","coordinates":[-3.045972,43.319639]},"properties":{"id":"es-10892","source":"ES","brand":"REPSOL","address":"CL POLIG.IND. BALPARDA EL ARBOL , 2","municipality":"Santurtzi","province":"BIZKAIA","postalCode":"48980","schedule":"L-D: 06:00-22:00","fuels":{"gasoline95":1.775,"gasoline98":1.905,"diesel":1.889,"dieselRenewable":2.009},"extra":{"saleType":"P","margin":"D","reportingType":"OM","ideess":"10892","idMunicipio":"7549","idProvincia":"48","idCCAA":"16"}}},{"type":"Feature","geometry":{"type":"Point","coordinates":[-3.76775,43.358972]},"properties":{"id":"es-10895","source":"ES","brand":"AREA DE SERVICIO PAMANES","address":"CARRETERA NACIONAL 634 km 204,850","municipality":"Liérganes","province":"CANTABRIA","postalCode":"39718","schedule":"L-D: 06:00-22:00","fuels":{"gasoline95":1.799,"gasoline98":1.899,"diesel":1.909,"dieselPremium":2.009,"lpg":1.109,"adblue":0.889},"extra":{"saleType":"P","margin":"I","reportingType":"dm","ideess":"10895","idMunicipio":"5780","idProvincia":"39","idCCAA":"06"}}},{"type":"Feature","geometry":{"type":"Point","coordinates":[-3.836111,43.404417]},"properties":{"id":"es-10896","source":"ES","brand":"AREA DE SERVICIO LA PALMERA","address":"CALLE PROSPERIDAD, 61","municipality":"Astillero (El)","province":"CANTABRIA","postalCode":"39611","schedule":"L-S: 07:00-13:00","fuels":{"gasoline95":1.809,"diesel":1.919,"biodiesel":1.909,"lpg":1.17},"extra":{"saleType":"P","margin":"D","reportingType":"dm","ideess":"10896","idMunicipio":"5751","idProvincia":"39","idCCAA":"06"}}},{"type":"Feature","geometry":{"type":"Point","coordinates":[-3.665,43.391056]},"properties":{"id":"es-1094","source":"ES","brand":"MOEVE","address":"AUTOVIA A-8 KM. 194","municipality":"Ribamontán al Monte","province":"CANTABRIA","postalCode":"39794","schedule":"L-D: 24H","fuels":{"gasoline95":1.779,"diesel":1.904,"dieselPremium":1.994},"extra":{"saleType":"P","margin":"D","reportingType":"OM","ideess":"1094","idMunicipio":"5805","idProvincia":"39","idCCAA":"06"}}},{"type":"Feature","geometry":{"type":"Point","coordinates":[-3.549028,43.459083]},"properties":{"id":"es-1095","source":"ES","brand":"E.S. CARBURANTES DE ARNUERO S.L.","address":"CARRETERA CASTILLO SIETEVILLAS KM. S/N","municipality":"Arnuero","province":"CANTABRIA","postalCode":"39195","schedule":"L-D: 07:00-22:30","fuels":{"gasoline95":1.785,"gasoline98":1.915,"diesel":1.925,"dieselPremium":2.045,"dieselB":1.58,"adblue":0.99},"extra":{"saleType":"P","margin":"N","reportingType":"dm","ideess":"1095","idMunicipio":"5749","idProvincia":"39","idCCAA":"06"}}},{"type":"Feature","geometry":{"type":"Point","coordinates":[-3.57775,43.454806]},"properties":{"id":"es-10964","source":"ES","brand":"AGROCANTABRIA","address":"Bº BOCILLO 16","municipality":"Meruelo","province":"CANTABRIA","postalCode":"39192","schedule":"L-V: 08:00-19:00; S: 09:00-13:00","fuels":{"gasoline95":1.63,"diesel":1.75,"dieselB":1.35},"extra":{"saleType":"P","margin":"N","reportingType":"dm","ideess":"10964","idMunicipio":"5786","idProvincia":"39","idCCAA":"06"}}},{"type":"Feature","geometry":{"type":"Point","coordinates":[-3.15475,43.341194]},"properties":{"id":"es-1097","source":"ES","brand":"REPSOL","address":"CARRETERA N-634 KM. 136,400","municipality":"Castro-Urdiales","province":"CANTABRIA","postalCode":"39706","schedule":"L-D: 06:00-22:00","fuels":{"gasoline95":1.769,"gasoline98":1.899,"diesel":1.899,"dieselRenewable":1.999,"adblue":1.0},"extra":{"saleType":"P","margin":"D","reportingType":"dm","ideess":"1097","idMunicipio":"5764","idProvincia":"39","idCCAA":"06"}}},{"type":"Feature","geometry":{"type":"Point","coordinates":[-3.30275,43.403361]},"properties":{"id":"es-1099","source":"ES","brand":"E.S. ISLARES S.L.","address":"CARRETERA IRUN-LA CORUÑA KM. 156","municipality":"Castro-Urdiales","province":"CANTABRIA","postalCode":"39798","schedule":"L-V: 06:00-22:00; S-D: 07:00-15:00","fuels":{"gasoline95":1.729,"gasoline98":1.839,"diesel":1.839},"extra":{"saleType":"P","margin":"D","reportingType":"dm","ideess":"1099","idMunicipio":"5764","idProvincia":"39","idCCAA":"06"}}},{"type":"Feature","geometry":{"type":"Point","coordinates":[-3.890611,43.467806]},"properties":{"id":"es-11069","source":"ES","brand":"EXPOMARINA","address":"AVENIDA MARQUES DE VALDECILLA, 121","municipality":"Santa Cruz de Bezana","province":"CANTABRIA","postalCode":"39100","schedule":"L-D: 07:30-23:00","fuels":{"gasoline95":1.785,"diesel":1.905},"extra":{"saleType":"P","margin":"N","reportingType":"dm","ideess":"11069","idMunicipio":"5817","idProvincia":"39","idCCAA":"06"}}},{"type":"Feature","geometry":{"type":"Point","coordinates":[-3.709833,43.35775]},"properties":{"id":"es-11073","source":"ES","brand":"EESS LA CAVADA","address":"BALDELAZON S/N (S-533 km 4,2)","municipality":"Riotuerto","province":"CANTABRIA","postalCode":"39720","schedule":"L: 08:00-22:00","fuels":{"gasoline95":1.839,"gasoline98":1.979,"diesel":1.959,"dieselB":1.559},"extra":{"saleType":"P","margin":"N","reportingType":"dm","ideess":"11073","idMunicipio":"5807","idProvincia":"39","idCCAA":"06"}}},{"type":"Feature","geometry":{"type":"Point","coordinates":[-3.588417,43.3905]},"properties":{"id":"es-11116","source":"ES","brand":"CAMPIEZO -AVIA","address":"BARRIO MIES DE PELAYO  CA-266, KM 4,3, S/N","municipality":"Solórzano","province":"CANTABRIA","postalCode":"39738","schedule":"L-V: 07:30-21:30; S-D: 08:30-21:30","fuels":{"gasoline95":1.759,"gasoline98":1.869,"diesel":1.859,"dieselPremium":1.899,"dieselB":1.459,"adblue":1.05},"extra":{"saleType":"P","margin":"N","reportingType":"dm","ideess":"11116","idMunicipio":"5827","idProvincia":"39","idCCAA":"06"}}},{"type":"Feature","geometry":{"type":"Point","coordinates":[-3.874222,43.444361]},"properties":{"id":"es-11239","source":"ES","brand":"REPSOL","address":"BARRIO CAMARREAL, 150","municipality":"Santander","province":"CANTABRIA","postalCode":"39011","schedule":"L-D: 06:00-22:00","fuels":{"gasoline95":1.779,"gasoline98":1.899,"diesel":1.919,"dieselRenewable":2.039,"cng":1.609},"extra":{"saleType":"P","margin":"D","reportingType":"OM","ideess":"11239","idMunicipio":"5819","idProvincia":"39","idCCAA":"06"}}},{"type":"Feature","geometry":{"type":"Point","coordinates":[-3.024278,43.311639]},"properties":{"id":"es-11386","source":"ES","brand":"EROSKI","address":"AVENIDA VEGA DE IBARRA, S/N","municipality":"Portugalete","province":"BIZKAIA","postalCode":"48920","schedule":"L-S: 07:00-21:00; D: 09:00-21:00","fuels":{"gasoline95":1.639,"diesel":1.749,"dieselPremium":1.799},"extra":{"saleType":"P","margin":"N","reportingType":"dm","ideess":"11386","idMunicipio":"7548","idProvincia":"48","idCCAA":"16"}}},{"type":"Feature","geometry":{"type":"Point","coordinates":[-3.834,43.466917]},"properties":{"id":"es-11412","source":"ES","brand":"MOEVE","address":"CALLE JOSEFA DE LA MAZA, 2","municipality":"Santander","province":"CANTABRIA","postalCode":"39012","schedule":"L-D: 06:00-23:59","fuels":{"gasoline95":1.779,"gasoline95Premium":1.879,"diesel":1.874,"dieselPremium":1.994},"extra":{"saleType":"P","margin":"D","reportingType":"OM","ideess":"11412","idMunicipio":"5819","idProvincia":"39","idCCAA":"06"}}},{"type":"Feature","geometry":{"type":"Point","coordinates":[-3.935306,43.272972]},"properties":{"id":"es-11459","source":"ES","brand":"REPSOL","address":"CARRETERA CA-270 KM. 1,1","municipality":"Santiurde de Toranzo","province":"CANTABRIA","postalCode":"39691","schedule":"L-S: 08:00-22:00; D: 09:00-22:00","fuels":{"gasoline95":1.839,"gasoline98":1.999,"diesel":1.959,"dieselB":1.599,"dieselRenewable":2.099,"adblue":0.99},"extra":{"saleType":"P","margin":"D","reportingType":"dm","ideess":"11459","idMunicipio":"5822","idProvincia":"39","idCCAA":"06"}}},{"type":"Feature","geometry":{"type":"Point","coordinates":[-3.8435,43.412222]},"properties":{"id":"es-11565","source":"ES","brand":"REPSOL","address":"CALLE BOO, 52","municipality":"Astillero (El)","province":"CANTABRIA","postalCode":"39613","schedule":"L-D: 24H","fuels":{"gasoline95":1.799,"gasoline98":1.949,"diesel":1.909,"biodiesel":1.999},"extra":{"saleType":"P","margin":"D","reportingType":"dm","ideess":"11565","idMunicipio":"5751","idProvincia":"39","idCCAA":"06"}}},{"type":"Feature","geometry":{"type":"Point","coordinates":[-3.849222,43.263861]},"properties":{"id":"es-11698","source":"ES","brand":"MOEVE","address":"CARRETERA CA-142 KM. 19,5","municipality":"Villafufre","province":"CANTABRIA","postalCode":"39638","schedule":"L-S: 06:00-22:00; D: 08:00-22:00","fuels":{"gasoline95":1.788,"gasoline98":1.958,"diesel":1.898,"dieselPremium":2.028,"adblue":0.965},"extra":{"saleType":"P","margin":"I","reportingType":"dm","ideess":"11698","idMunicipio":"5844","idProvincia":"39","idCCAA":"06"}}},{"type":"Feature","geometry":{"type":"Point","coordinates":[-3.804917,43.434694]},"properties":{"id":"es-11849","source":"ES","brand":"12241","address":"AVENIDA TORNADA, S/N","municipality":"Camargo","province":"CANTABRIA","postalCode":"39600","schedule":"L-S: 09:00-14:00 y 16:30-18:30; D: 09:00-14:00","fuels":{"gasoline95":1.76,"diesel":1.86},"extra":{"saleType":"P","margin":"N","reportingType":"dm","ideess":"11849","idMunicipio":"5759","idProvincia":"39","idCCAA":"06"}}},{"type":"Feature","geometry":{"type":"Point","coordinates":[-3.839111,43.4405]},"properties":{"id":"es-11930","source":"ES","brand":"E.S.NUEVA MONTAÑA","address":"CALLE LA PESETA, 1","municipality":"Santander","province":"CANTABRIA","postalCode":"39011","schedule":"L-D: 06:30-22:30","fuels":{"gasoline95":1.559,"gasoline98":1.759,"diesel":1.629,"dieselPremium":1.679,"adblue":1.299},"extra":{"saleType":"P","margin":"D","reportingType":"dm","ideess":"11930","idMunicipio":"5819","idProvincia":"39","idCCAA":"06"}}},{"type":"Feature","geometry":{"type":"Point","coordinates":[-3.542806,43.075361]},"properties":{"id":"es-11947","source":"ES","brand":"A.S. LA ESTACION DE ESPINOSA","address":"CALLE ESTACION, S/N","municipality":"Espinosa de los Monteros","province":"BURGOS","postalCode":"09560","schedule":"L-D: 07:00-22:00","fuels":{"gasoline95":1.785,"gasoline98":1.985,"diesel":1.869,"dieselPremium":1.999,"dieselB":1.475,"adblue":1.29},"extra":{"saleType":"P","margin":"I","reportingType":"dm","ideess":"11947","idMunicipio":"1269","idProvincia":"09","idCCAA":"08"}}},{"type":"Feature","geometry":{"type":"Point","coordinates":[-3.81625,43.468056]},"properties":{"id":"es-12011","source":"ES","brand":"PLENERGY","address":"AVENIDA CASTROS (LOS), 113","municipality":"Santander","province":"CANTABRIA","postalCode":"39005","schedule":"L-D: 24H","fuels":{"gasoline95":1.559,"diesel":1.629},"extra":{"saleType":"P","margin":"D","reportingType":"dm","ideess":"12011","idMunicipio":"5819","idProvincia":"39","idCCAA":"06"}}},{"type":"Feature","geometry":{"type":"Point","coordinates":[-3.797139,43.157306]},"properties":{"id":"es-12453","source":"ES","brand":"CEPSA","address":"CARRETERA S-564 KM. 39,25","municipality":"Vega de Pas","province":"CANTABRIA","postalCode":"39685","schedule":"L-X: 10:00-13:00; V: 10:00-13:00; D: 10:00-13:00","fuels":{"gasoline95":1.779,"diesel":1.894},"extra":{"saleType":"P","margin":"D","reportingType":"OM","ideess":"12453","idMunicipio":"5841","idProvincia":"39","idCCAA":"06"}}},{"type":"Feature","geometry":{"type":"Point","coordinates":[-3.839722,43.383222]},"properties":{"id":"es-12610","source":"ES","brand":"ES FERMAN LIAÑO","address":"BARRIO LA HOYA, 0","municipality":"Villaescusa","province":"CANTABRIA","postalCode":"39692","schedule":"L-D: 06:00-23:00","fuels":{"gasoline95":1.699,"diesel":1.789,"dieselPremium":1.829,"lpg":1.069,"adblue":0.919},"extra":{"saleType":"P","margin":"I","reportingType":"dm","ideess":"12610","idMunicipio":"5843","idProvincia":"39","idCCAA":"06"}}},{"type":"Feature","geometry":{"type":"Point","coordinates":[-3.913611,43.432944]},"properties":{"id":"es-12894","source":"ES","brand":"PETROPRIX BEZANA","address":"AVENIDA SANTA CRUZ (LA), 34","municipality":"Santa Cruz de Bezana","province":"CANTABRIA","postalCode":"39100","schedule":"L-D: 24H","fuels":{"gasoline95":1.559,"diesel":1.629},"extra":{"saleType":"P","margin":"D","reportingType":"dm","ideess":"12894","idMunicipio":"5817","idProvincia":"39","idCCAA":"06"}}},{"type":"Feature","geometry":{"type":"Point","coordinates":[-3.496417,43.347944]},"properties":{"id":"es-12932","source":"ES","brand":"AVIA","address":"BARRIO SAN PANTALEÓN, S/N","municipality":"Voto","province":"CANTABRIA","postalCode":"39766","schedule":"L-D: 09:00-20:30","fuels":{"gasoline95":1.769,"diesel":1.799,"dieselPremium":1.859},"extra":{"saleType":"P","margin":"I","reportingType":"dm","ideess":"12932","idMunicipio":"5845","idProvincia":"39","idCCAA":"06"}}},{"type":"Feature","geometry":{"type":"Point","coordinates":[-3.460278,43.445556]},"properties":{"id":"es-13107","source":"ES","brand":"AVIA","address":"POLIGONO LAS MARISMAS, 5","municipality":"Santoña","province":"CANTABRIA","postalCode":"39740","schedule":"L-D: 24H","fuels":{"gasoline95":1.771,"gasoline98":1.971,"diesel":1.889,"dieselPremium":1.989},"extra":{"saleType":"P","margin":"D","reportingType":"dm","ideess":"13107","idMunicipio":"5823","idProvincia":"39","idCCAA":"06"}}},{"type":"Feature","geometry":{"type":"Point","coordinates":[-3.100528,43.362194]},"properties":{"id":"es-13139","source":"ES","brand":"AVIA","address":"EXPLANADA PUNTA CEBALLOS, S/N","municipality":"Zierbena","province":"BIZKAIA","postalCode":"48508","schedule":"L-D: 24H","fuels":{"gasoline95":1.599,"diesel":1.619},"extra":{"saleType":"P","margin":"N","reportingType":"dm","ideess":"13139","idMunicipio":"7567","idProvincia":"48","idCCAA":"16"}}},{"type":"Feature","geometry":{"type":"Point","coordinates":[-3.061972,43.183694]},"properties":{"id":"es-13279","source":"ES","brand":"EUSKADILOWCOST","address":"BARRIO POL.IND. ISASI, 42","municipality":"Gordexola","province":"BIZKAIA","postalCode":"48192","schedule":"L-D: 24H","fuels":{"gasoline95":1.666,"diesel":1.746,"adblue":0.888},"extra":{"saleType":"P","margin":"D","reportingType":"dm","ideess":"13279","idMunicipio":"7509","idProvincia":"48","idCCAA":"16"}}},{"type":"Feature","geometry":{"type":"Point","coordinates":[-3.07225,43.349972]},"properties":{"id":"es-13332","source":"ES","brand":"HAM BILBAO","address":"CALLE REFRADIGAS, 1","municipality":"Bilbao","province":"BIZKAIA","postalCode":"48001","schedule":"L-D: 24H","fuels":{"cng":1.574,"lng":1.528,"bioCng":1.554,"bioLng":1.499},"extra":{"saleType":"P","margin":"I","reportingType":"dm","ideess":"13332","idMunicipio":"7484","idProvincia":"48","idCCAA":"16"}}},{"type":"Feature","geometry":{"type":"Point","coordinates":[-3.004833,43.299861]},"properties":{"id":"es-13596","source":"ES","brand":"CARREFOUR","address":"CARRETERA BARACALDO, VALLE DE TRÁPAGA, POL IND. IBARZAGARRA KM. S/N","municipality":"Sestao","province":"BIZKAIA","postalCode":"48910","schedule":"L-S: 07:00-21:30; D: 09:00-15:00","fuels":{"gasoline95":1.749,"gasoline98":1.889,"diesel":1.859,"dieselPremium":1.899},"extra":{"saleType":"P","margin":"N","reportingType":"dm","ideess":"13596","idMunicipio":"7550","idProvincia":"48","idCCAA":"16"}}},{"type":"Feature","geometry":{"type":"Point","coordinates":[-3.218778,43.366833]},"properties":{"id":"es-13606","source":"ES","brand":"EROSKI","address":"BARRIO BRAZOMAR, S/N","municipality":"Castro-Urdiales","province":"CANTABRIA","postalCode":"39700","schedule":"L-D: 24H","fuels":{"gasoline95":1.579,"diesel":1.679,"dieselPremium":1.779},"extra":{"saleType":"P","margin":"N","reportingType":"dm","ideess":"13606","idMunicipio":"5764","idProvincia":"39","idCCAA":"06"}}},{"type":"Feature","geometry":{"type":"Point","coordinates":[-3.235833,43.158583]},"properties":{"id":"es-13638","source":"ES","brand":"BEROIL","address":"POLIGONO POLIGONO INDUSTRIAL PARCELA 9A, 9","municipality":"Valle de Mena","province":"BURGOS","postalCode":"09585","schedule":"L-D: 24H","fuels":{"gasoline95":1.689,"diesel":1.729,"adblue":0.6},"extra":{"saleType":"P","margin":"N","reportingType":"dm","ideess":"13638","idMunicipio":"1483","idProvincia":"09","idCCAA":"08"}}},{"type":"Feature","geometry":{"type":"Point","coordinates":[-3.744917,43.391028]},"properties":{"id":"es-13947","source":"ES","brand":"PETROLEOS DE CUDEYO","address":"CAMINO RUFRIEGO, 0","municipality":"Medio Cudeyo","province":"CANTABRIA","postalCode":"39710","schedule":"L-D: 07:00-23:00","fuels":{"gasoline95":1.629,"diesel":1.689,"adblue":0.989},"extra":{"saleType":"P","margin":"D","reportingType":"dm","ideess":"13947","idMunicipio":"5785","idProvincia":"39","idCCAA":"06"}}},{"type":"Feature","geometry":{"type":"Point","coordinates":[-3.879472,43.313306]},"properties":{"id":"es-14048","source":"ES","brand":"E.S. ARGOMILLA","address":"BARRIO LAS HUERTAS, 174","municipality":"Santa María de Cayón","province":"CANTABRIA","postalCode":"39626","schedule":"L-D: 06:30-22:30","fuels":{"gasoline95":1.779,"gasoline98":1.929,"diesel":1.899,"dieselPremium":1.979},"extra":{"saleType":"P","margin":"N","reportingType":"dm","ideess":"14048","idMunicipio":"5818","idProvincia":"39","idCCAA":"06"}}},{"type":"Feature","geometry":{"type":"Point","coordinates":[-3.868667,43.404694]},"properties":{"id":"es-14157","source":"ES","brand":"CEPSA","address":"BARRIO LA CALVA, 16","municipality":"Camargo","province":"CANTABRIA","postalCode":"39600","schedule":"L-D: 06:00-22:00","fuels":{"gasoline95":1.799,"diesel":1.899,"dieselPremium":1.959,"lpg":1.069},"extra":{"saleType":"P","margin":"D","reportingType":"dm","ideess":"14157","idMunicipio":"5759","idProvincia":"39","idCCAA":"06"}}},{"type":"Feature","geometry":{"type":"Point","coordinates":[-3.029444,43.31325]},"properties":{"id":"es-14167","source":"ES","brand":"EUSKADILOWCOST","address":"POLIGONO POLIGONO INDUSTRIAL S1-2 BALLONTI, 2","municipality":"Ortuella","province":"BIZKAIA","postalCode":"48530","schedule":"L-D: 24H","fuels":{"gasoline95":1.694,"gasoline98":1.844,"diesel":1.794,"dieselPremium":1.799,"adblue":0.888},"extra":{"saleType":"P","margin":"N","reportingType":"dm","ideess":"14167","idMunicipio":"7545","idProvincia":"48","idCCAA":"16"}}},{"type":"Feature","geometry":{"type":"Point","coordinates":[-3.843833,43.400472]},"properties":{"id":"es-14182","source":"ES","brand":"CEPSA","address":"POLIGONO INDUSTRIAL GUARNIZO PARCELA, 22","municipality":"Astillero (El)","province":"CANTABRIA","postalCode":"39611","schedule":"L-V: 06:00-22:00; S-D: 09:00-17:00","fuels":{"gasoline95":1.789,"diesel":1.909},"extra":{"saleType":"P","margin":"N","reportingType":"dm","ideess":"14182","idMunicipio":"5751","idProvincia":"39","idCCAA":"06"}}},{"type":"Feature","geometry":{"type":"Point","coordinates":[-3.839417,43.332389]},"properties":{"id":"es-14771","source":"ES","brand":"CEPSA","address":"CALLE PUMARIJO, 2","municipality":"Penagos","province":"CANTABRIA","postalCode":"39627","schedule":"L: 06:00-22:00","fuels":{"gasoline95":1.809,"gasoline98":1.949,"diesel":1.909,"dieselPremium":1.969},"extra":{"saleType":"P","margin":"D","reportingType":"dm","ideess":"14771","idMunicipio":"5791","idProvincia":"39","idCCAA":"06"}}},{"type":"Feature","geometry":{"type":"Point","coordinates":[-3.044889,43.318667]},"properties":{"id":"es-14863","source":"ES","brand":"BALLENOIL","address":"BARRIO BALPARDA, 8","municipality":"Santurtzi","province":"BIZKAIA","postalCode":"48980","schedule":"L-D: 24H","fuels":{"gasoline95":1.675,"diesel":1.799},"extra":{"saleType":"P","margin":"D","reportingType":"OM","ideess":"14863","idMunicipio":"7549","idProvincia":"48","idCCAA":"16"}}},{"type":"Feature","geometry":{"type":"Point","coordinates":[-3.85875,43.440417]},"properties":{"id":"es-14940","source":"ES","brand":"PETROPRIX","address":"CALLE FAUSTINO CAVADAS, 32","municipality":"Santander","province":"CANTABRIA","postalCode":"39011","schedule":"L-D: 24H","fuels":{"gasoline95":1.559,"diesel":1.629},"extra":{"saleType":"P","margin":"D","reportingType":"dm","ideess":"14940","idMunicipio":"5819","idProvincia":"39","idCCAA":"06"}}},{"type":"Feature","geometry":{"type":"Point","coordinates":[-3.859333,43.457806]},"properties":{"id":"es-15017","source":"ES","brand":"NUEVA ALISAL","address":"CALLE REPUBLICA CHECA, 1","municipality":"Santander","province":"CANTABRIA","postalCode":"39011","schedule":"L-D: 07:00-23:00","fuels":{"gasoline95":1.559,"gasoline98":1.759,"diesel":1.629,"dieselPremium":1.679,"adblue":1.299},"extra":{"saleType":"P","margin":"D","reportingType":"dm","ideess":"15017","idMunicipio":"5819","idProvincia":"39","idCCAA":"06"}}},{"type":"Feature","geometry":{"type":"Point","coordinates":[-3.476417,43.059139]},"properties":{"id":"es-15021","source":"ES","brand":"TENERGY","address":"CALLE CAMINO REAL  EN  VILLASANTE, S/N","municipality":"Merindad de Montija","province":"BURGOS","postalCode":"09569","schedule":"L-D: 24H","fuels":{"gasoline95":1.585,"diesel":1.719,"adblue":0.849},"extra":{"saleType":"P","margin":"D","reportingType":"dm","ideess":"15021","idMunicipio":"1336","idProvincia":"09","idCCAA":"08"}}},{"type":"Feature","geometry":{"type":"Point","coordinates":[-3.842111,43.424722]},"properties":{"id":"es-15027","source":"ES","brand":"BALLENOIL","address":"CALLE GUTIERREZ SOLANA 24, 24","municipality":"Camargo","province":"CANTABRIA","postalCode":"39600","schedule":"L-D: 24H","fuels":{"gasoline95":1.599,"diesel":1.629,"dieselPremium":1.649},"extra":{"saleType":"P","margin":"D","reportingType":"OM","ideess":"15027","idMunicipio":"5759","idProvincia":"39","idCCAA":"06"}}},{"type":"Feature","geometry":{"type":"Point","coordinates":[-3.858528,43.383167]},"properties":{"id":"es-15090","source":"ES","brand":"REPSOL","address":"BARRIO LIAÑO-SANTA BARBARA, 25","municipality":"Villaescusa","province":"CANTABRIA","postalCode":"39692","schedule":"L-D: 07:00-23:00","fuels":{"gasoline95":1.795,"gasoline98":1.965,"diesel":1.899,"dieselRenewable":2.019,"lpg":1.125},"extra":{"saleType":"P","margin":"D","reportingType":"OM","ideess":"15090","idMunicipio":"5843","idProvincia":"39","idCCAA":"06"}}},{"type":"Feature","geometry":{"type":"Point","coordinates":[-3.004222,43.303444]},"properties":{"id":"es-15158","source":"ES","brand":"COSTCO","address":"AVENIDA BABCOCK WILCOX  POLIGONO IBARZAHARRA, 2,4,6","municipality":"Sestao","province":"BIZKAIA","postalCode":"48910","schedule":"L-S: 07:00-22:30","fuels":{"gasoline95":1.799,"gasoline98":1.939,"diesel":1.921},"extra":{"saleType":"P","margin":"N","reportingType":"dm","ideess":"15158","idMunicipio":"7550","idProvincia":"48","idCCAA":"16"}}},{"type":"Feature","geometry":{"type":"Point","coordinates":[-3.85775,43.386139]},"properties":{"id":"es-15252","source":"ES","brand":"SHELL","address":"BARRIO LIAÑO - RONDA DE LA BAHIA DE SANTANDER, 16","municipality":"Villaescusa","province":"CANTABRIA","postalCode":"39690","schedule":"L-D: 24H","fuels":{"gasoline95":1.659,"diesel":1.739,"adblue":1.25},"extra":{"saleType":"P","margin":"D","reportingType":"OM","ideess":"15252","idMunicipio":"5843","idProvincia":"39","idCCAA":"06"}}},{"type":"Feature","geometry":{"type":"Point","coordinates":[-3.834417,43.465028]},"properties":{"id":"es-15329","source":"ES","brand":"GALP","address":"CALLE REPUENTE, 30","municipality":"Santander","province":"CANTABRIA","postalCode":"39012","schedule":"L: 06:30-22:30","fuels":{"gasoline95":1.699,"gasoline95Premium":1.799,"diesel":1.799,"dieselPremium":1.879},"extra":{"saleType":"P","margin":"D","reportingType":"dm","ideess":"15329","idMunicipio":"5819","idProvincia":"39","idCCAA":"06"}}},{"type":"Feature","geometry":{"type":"Point","coordinates":[-3.073861,43.350472]},"properties":{"id":"es-15357","source":"ES","brand":"PORTUOIL","address":"BARRIO REFRADIGAS, 3","municipality":"Zierbena","province":"BIZKAIA","postalCode":"48508","schedule":"L: 24H","fuels":{"gasoline95":1.599,"diesel":1.639},"extra":{"saleType":"P","margin":"N","reportingType":"dm","ideess":"15357","idMunicipio":"7567","idProvincia":"48","idCCAA":"16"}}},{"type":"Feature","geometry":{"type":"Point","coordinates":[-3.124889,43.209889]},"properties":{"id":"es-154","source":"ES","brand":"EROSKI","address":"BARRIO EL BAULAR, 17","municipality":"Zalla","province":"BIZKAIA","postalCode":"48860","schedule":"L-S: 07:30-21:30","fuels":{"gasoline95":1.666,"diesel":1.705,"dieselPremium":1.795},"extra":{"saleType":"P","margin":"N","reportingType":"dm","ideess":"154","idMunicipio":"7562","idProvincia":"48","idCCAA":"16"}}},{"type":"Feature","geometry":{"type":"Point","coordinates":[-3.940194,43.215833]},"properties":{"id":"es-15418","source":"ES","brand":"TALLERES Y SERVICIOS VILLEGAR","address":"POLIGONO RIO PAS, SN","municipality":"Corvera de Toranzo","province":"CANTABRIA","postalCode":"39699","schedule":"L-V: 06:30-22:30; S: 06:30-14:00","fuels":{"diesel":1.72,"dieselB":1.35},"extra":{"saleType":"P","margin":"D","reportingType":"dm","ideess":"15418","idMunicipio":"5770","idProvincia":"39","idCCAA":"06"}}},{"type":"Feature","geometry":{"type":"Point","coordinates":[-3.843667,43.440167]},"properties":{"id":"es-15541","source":"ES","brand":"CEPSA","address":"AVENIDA NUEVA MONTAÑA 2F, 2","municipality":"Santander","province":"CANTABRIA","postalCode":"39011","schedule":"L-V: 06:00-22:00; S-D: 09:00-17:00","fuels":{"gasoline95":1.779,"gasoline98":1.929,"diesel":1.904,"dieselPremium":1.994},"extra":{"saleType":"P","margin":"N","reportingType":"dm","ideess":"15541","idMunicipio":"5819","idProvincia":"39","idCCAA":"06"}}},{"type":"Feature","geometry":{"type":"Point","coordinates":[-3.933667,43.313306]},"properties":{"id":"es-15549","source":"ES","brand":"MOEVE","address":"AUTOVIA A8 KM. 218,75","municipality":"Castañeda","province":"CANTABRIA","postalCode":"39660","schedule":"L-D: 06:00-22:00","fuels":{"gasoline95":1.779,"gasoline98":1.929,"diesel":1.894,"dieselPremium":1.994,"dieselB":1.704,"lpg":1.169},"extra":{"saleType":"P","margin":"N","reportingType":"OM","ideess":"15549","idMunicipio":"5763","idProvincia":"39","idCCAA":"06"}}},{"type":"Feature","geometry":{"type":"Point","coordinates":[-3.836139,43.463278]},"properties":{"id":"es-15589","source":"ES","brand":"BALLENOIL","address":"CALLE REPUENTE, 53","municipality":"Santander","province":"CANTABRIA","postalCode":"39012","schedule":"L-D: 24H","fuels":{"gasoline95":1.559,"diesel":1.629,"dieselPremium":1.649},"extra":{"saleType":"P","margin":"D","reportingType":"OM","ideess":"15589","idMunicipio":"5819","idProvincia":"39","idCCAA":"06"}}},{"type":"Feature","geometry":{"type":"Point","coordinates":[-3.004194,43.287194]},"properties":{"id":"es-156","source":"ES","brand":"EROSKI","address":"CALLE KAREAGA, 40","municipality":"Barakaldo","province":"BIZKAIA","postalCode":"48903","schedule":"L-D: 24H","fuels":{"gasoline95":1.639,"diesel":1.749,"dieselPremium":1.819},"extra":{"saleType":"P","margin":"N","reportingType":"dm","ideess":"156","idMunicipio":"7476","idProvincia":"48","idCCAA":"16"}}},{"type":"Feature","geometry":{"type":"Point","coordinates":[-3.045333,43.319389]},"properties":{"id":"es-15727","source":"ES","brand":"PLENERGY","address":"AVENIDA ANTONIO ALZAGA ETORBIDEA, 134","municipality":"Santurtzi","province":"BIZKAIA","postalCode":"48980","schedule":"L-D: 24H","fuels":{"gasoline95":1.675,"diesel":1.799},"extra":{"saleType":"P","margin":"D","reportingType":"dm","ideess":"15727","idMunicipio":"7549","idProvincia":"48","idCCAA":"16"}}},{"type":"Feature","geometry":{"type":"Point","coordinates":[-3.012528,43.295917]},"properties":{"id":"es-15807","source":"ES","brand":"MOLGAS ENERGIA SAU","address":"POLIGONO POLÍGONO INDUSTRIAL APARKABISA, BARRIO EL JUNCAL, S/N., S/N","municipality":"Valle de Trápaga-Trapagaran","province":"BIZKAIA","postalCode":"48510","schedule":"L-D: 24H","fuels":{"cng":1.609,"lng":1.549},"extra":{"saleType":"P","margin":"D","reportingType":"dm","ideess":"15807","idMunicipio":"7560","idProvincia":"48","idCCAA":"16"}}},{"type":"Feature","geometry":{"type":"Point","coordinates":[-3.830833,43.452194]},"properties":{"id":"es-15857","source":"ES","brand":"PETROPRIX","address":"AVENIDA CANDINA, 15","municipality":"Santander","province":"CANTABRIA","postalCode":"39011","schedule":"L-D: 24H","fuels":{"gasoline95":1.559,"diesel":1.629},"extra":{"saleType":"P","margin":"D","reportingType":"dm","ideess":"15857","idMunicipio":"5819","idProvincia":"39","idCCAA":"06"}}},{"type":"Feature","geometry":{"type":"Point","coordinates":[-3.126639,43.212361]},"properties":{"id":"es-159","source":"ES","brand":"MOEVE","address":"BARRIO EL BAULAR, 11","municipality":"Zalla","province":"BIZKAIA","postalCode":"48860","schedule":"L-D: 06:00-22:00","fuels":{"gasoline95":1.829,"gasoline95Premium":1.919,"diesel":1.914,"dieselPremium":2.014,"dieselB":1.814,"adblue":0.977},"extra":{"saleType":"P","margin":"D","reportingType":"dm","ideess":"159","idMunicipio":"7562","idProvincia":"48","idCCAA":"16"}}},{"type":"Feature","geometry":{"type":"Point","coordinates":[-3.000889,43.044944]},"properties":{"id":"es-15918","source":"ES","brand":"BALLENOIL","address":"CALLE MASKURIBAI KALEA, 14","municipality":"Amurrio","province":"ARABA/ÁLAVA","postalCode":"01470","schedule":"L-D: 24H","fuels":{"gasoline95":1.599,"diesel":1.699,"dieselPremium":1.719},"extra":{"saleType":"P","margin":"N","reportingType":"OM","ideess":"15918","idMunicipio":"2","idProvincia":"01","idCCAA":"16"}}},{"type":"Feature","geometry":{"type":"Point","coordinates":[-3.459528,43.446028]},"properties":{"id":"es-15962","source":"ES","brand":"PLENERGY","address":"CALLE BALDOMERO VILLEGAS, 36","municipality":"Santoña","province":"CANTABRIA","postalCode":"39740","schedule":"L-D: 24H","fuels":{"gasoline95":1.659,"diesel":1.729},"extra":{"saleType":"P","margin":"D","reportingType":"dm","ideess":"15962","idMunicipio":"5823","idProvincia":"39","idCCAA":"06"}}},{"type":"Feature","geometry":{"type":"Point","coordinates":[-3.789528,43.410861]},"properties":{"id":"es-15990","source":"ES","brand":"BALLENOIL","address":"BARRIO PONTEJOS - OTERO 230M, S/N","municipality":"Marina de Cudeyo","province":"CANTABRIA","postalCode":"39618","schedule":"L-D: 24H","fuels":{"gasoline95":1.669,"diesel":1.719,"dieselPremium":1.739},"extra":{"saleType":"P","margin":"I","reportingType":"OM","ideess":"15990","idMunicipio":"5783","idProvincia":"39","idCCAA":"06"}}},{"type":"Feature","geometry":{"type":"Point","coordinates":[-3.463167,43.393556]},"properties":{"id":"es-16067","source":"ES","brand":"BALLENOIL","address":"CALLE LA MAR, 47","municipality":"Colindres","province":"CANTABRIA","postalCode":"39750","schedule":"L-D: 24H","fuels":{"gasoline95":1.719,"diesel":1.789,"dieselPremium":1.799},"extra":{"saleType":"P","margin":"N","reportingType":"OM","ideess":"16067","idMunicipio":"5767","idProvincia":"39","idCCAA":"06"}}},{"type":"Feature","geometry":{"type":"Point","coordinates":[-3.00275,43.286667]},"properties":{"id":"es-16105","source":"ES","brand":"NAFTE","address":"CALLE RETUERTO, 42","municipality":"Barakaldo","province":"BIZKAIA","postalCode":"48903","schedule":"L-D: 24H","fuels":{"gasoline95":1.639,"diesel":1.749,"dieselPremium":1.799,"adblue":0.899},"extra":{"saleType":"P","margin":"N","reportingType":"dm","ideess":"16105","idMunicipio":"7476","idProvincia":"48","idCCAA":"16"}}},{"type":"Feature","geometry":{"type":"Point","coordinates":[-3.855472,43.443472]},"properties":{"id":"es-16289","source":"ES","brand":"PLENERGY","address":"CALLE SAN MARTÍN DEL PINO, S/N","municipality":"Santander","province":"CANTABRIA","postalCode":"39009","schedule":"L-D: 24H","fuels":{"gasoline95":1.559,"diesel":1.629},"extra":{"saleType":"P","margin":"D","reportingType":"dm","ideess":"16289","idMunicipio":"5819","idProvincia":"39","idCCAA":"06"}}},{"type":"Feature","geometry":{"type":"Point","coordinates":[-3.010167,43.288694]},"properties":{"id":"es-163","source":"ES","brand":"GALP","address":"CARRETERA BILBAO-SANTANDER KM. 120","municipality":"Barakaldo","province":"BIZKAIA","postalCode":"48903","schedule":"L-D: 06:00-22:00","fuels":{"gasoline95":1.709,"diesel":1.829,"dieselPremium":1.879,"adblue":0.799},"extra":{"saleType":"P","margin":"D","reportingType":"OM","ideess":"163","idMunicipio":"7476","idProvincia":"48","idCCAA":"16"}}},{"type":"Feature","geometry":{"type":"Point","coordinates":[-3.864417,43.442639]},"properties":{"id":"es-16310","source":"ES","brand":"BALLENOIL","address":"CALLE JOAQUIN SALAS, 6","municipality":"Santander","province":"CANTABRIA","postalCode":"39011","schedule":"L-D: 24H","fuels":{"gasoline95":1.559,"gasoline95Premium":1.579,"diesel":1.629,"dieselPremium":1.649},"extra":{"saleType":"P","margin":"N","reportingType":"OM","ideess":"16310","idMunicipio":"5819","idProvincia":"39","idCCAA":"06"}}},{"type":"Feature","geometry":{"type":"Point","coordinates":[-3.837528,43.424972]},"properties":{"id":"es-16311","source":"ES","brand":"PLENERGY","address":"CALLE ALDAY, S/N","municipality":"Camargo","province":"CANTABRIA","postalCode":"39509","schedule":"L-D: 24H","fuels":{"gasoline95":1.599,"diesel":1.629},"extra":{"saleType":"P","margin":"D","reportingType":"dm","ideess":"16311","idMunicipio":"5759","idProvincia":"39","idCCAA":"06"}}},{"type":"Feature","geometry":{"type":"Point","coordinates":[-3.874417,43.4655]},"properties":{"id":"es-16380","source":"ES","brand":"PLENERGY","address":"AVENIDA AVENIDA MARQUÉS DE VALDECILLA, 90","municipality":"Santa Cruz de Bezana","province":"CANTABRIA","postalCode":"39110","schedule":"L-D: 24H","fuels":{"gasoline95":1.559,"diesel":1.629},"extra":{"saleType":"P","margin":"D","reportingType":"dm","ideess":"16380","idMunicipio":"5817","idProvincia":"39","idCCAA":"06"}}},{"type":"Feature","geometry":{"type":"Point","coordinates":[-3.01775,43.292806]},"properties":{"id":"es-164","source":"ES","brand":"BP VALLE DEL TRAPAGA","address":"CARRETERA N-634 KM. S/N","municipality":"Valle de Trápaga-Trapagaran","province":"BIZKAIA","postalCode":"48510","schedule":"L-D: 06:00-22:00","fuels":{"gasoline95":1.755,"diesel":1.875,"dieselPremium":1.965,"adblue":1.135},"extra":{"saleType":"P","margin":"D","reportingType":"OM","ideess":"164","idMunicipio":"7560","idProvincia":"48","idCCAA":"16"}}},{"type":"Feature","geometry":{"type":"Point","coordinates":[-3.836278,43.461194]},"properties":{"id":"es-16433","source":"ES","brand":"PLENERGY","address":"CALLE C/ GUTIÉRREZ SOLANA, 10","municipality":"Santander","province":"CANTABRIA","postalCode":"39011","schedule":"L-D: 24H","fuels":{"gasoline95":1.559,"diesel":1.629},"extra":{"saleType":"P","margin":"D","reportingType":"dm","ideess":"16433","idMunicipio":"5819","idProvincia":"39","idCCAA":"06"}}},{"type":"Feature","geometry":{"type":"Point","coordinates":[-3.989028,43.348222]},"properties":{"id":"es-16499","source":"ES","brand":"REPSOL","address":"BARRIO EL OTERO, 7","municipality":"Piélagos","province":"CANTABRIA","postalCode":"39479","schedule":"L-D: 06:30-22:30","fuels":{"gasoline95":1.798,"gasoline98":1.938,"diesel":1.928,"dieselRenewable":2.048,"adblue":1.098},"extra":{"saleType":"P","margin":"D","reportingType":"dm","ideess":"16499","idMunicipio":"5795","idProvincia":"39","idCCAA":"06"}}},{"type":"Feature","geometry":{"type":"Point","coordinates":[-3.005278,43.360917]},"properties":{"id":"es-173","source":"ES","brand":"REPSOL","address":"CARRETERA BI-3737 KM. S/N","municipality":"Getxo","province":"BIZKAIA","postalCode":"48993","schedule":"L-D: 06:00-22:00","fuels":{"gasoline95":1.799,"gasoline95Premium":1.869,"gasoline98":1.909,"diesel":1.909,"dieselRenewable":2.019},"extra":{"saleType":"P","margin":"D","reportingType":"dm","ideess":"173","idMunicipio":"7507","idProvincia":"48","idCCAA":"16"}}},{"type":"Feature","geometry":{"type":"Point","coordinates":[-3.006167,43.361056]},"properties":{"id":"es-174","source":"ES","brand":"REPSOL","address":"CARRETERA BI-3737 KM. S/N","municipality":"Getxo","province":"BIZKAIA","postalCode":"48993","schedule":"L-J: 06:00-00:00; V-S: 06:00-01:00; D: 06:00-00:00","fuels":{"gasoline95":1.799,"gasoline98":1.909,"diesel":1.909,"dieselB":1.769,"dieselRenewable":2.019,"adblue":0.999},"extra":{"saleType":"P","margin":"I","reportingType":"dm","ideess":"174","idMunicipio":"7507","idProvincia":"48","idCCAA":"16"}}},{"type":"Feature","geometry":{"type":"Point","coordinates":[-3.0105,43.313194]},"properties":{"id":"es-185","source":"ES","brand":"PETRONOR","address":"CL GRUPO LA PAZ, 1 (BI-3739 km 4,7)","municipality":"Sestao","province":"BIZKAIA","postalCode":"48910","schedule":"L-D: 07:00-20:30","fuels":{"gasoline95":1.759,"gasoline98":1.929,"diesel":1.875,"dieselRenewable":1.995},"extra":{"saleType":"P","margin":"D","reportingType":"dm","ideess":"185","idMunicipio":"7550","idProvincia":"48","idCCAA":"16"}}},{"type":"Feature","geometry":{"type":"Point","coordinates":[-3.00275,43.298889]},"properties":{"id":"es-201","source":"ES","brand":"REPSOL","address":"CARRETERA BI-3745 KM. 9,2","municipality":"Sestao","province":"BIZKAIA","postalCode":"48910","schedule":"L-D: 06:00-22:00","fuels":{"gasoline95":1.775,"gasoline98":1.915,"diesel":1.895,"dieselRenewable":2.015},"extra":{"saleType":"P","margin":"D","reportingType":"OM","ideess":"201","idMunicipio":"7550","idProvincia":"48","idCCAA":"16"}}},{"type":"Feature","geometry":{"type":"Point","coordinates":[-3.003167,43.298528]},"properties":{"id":"es-202","source":"ES","brand":"REPSOL","address":"CARRETERA BI-3745 KM. 9,2","municipality":"Sestao","province":"BIZKAIA","postalCode":"48910","schedule":"L-D: 24H","fuels":{"gasoline95":1.775,"gasoline98":1.915,"diesel":1.905,"dieselRenewable":2.015,"lpg":1.159,"cng":1.609},"extra":{"saleType":"P","margin":"I","reportingType":"OM","ideess":"202","idMunicipio":"7550","idProvincia":"48","idCCAA":"16"}}},{"type":"Feature","geometry":{"type":"Point","coordinates":[-3.021278,43.315389]},"properties":{"id":"es-205","source":"ES","brand":"CEPSA","address":"RAMON Y CAJAL, S/N","municipality":"Portugalete","province":"BIZKAIA","postalCode":"48920","schedule":"L-D: 07:00-22:00","fuels":{"gasoline95":1.799,"diesel":1.899,"dieselPremium":1.999},"extra":{"saleType":"P","margin":"D","reportingType":"dm","ideess":"205","idMunicipio":"7548","idProvincia":"48","idCCAA":"16"}}},{"type":"Feature","geometry":{"type":"Point","coordinates":[-3.355694,43.238139]},"properties":{"id":"es-224","source":"ES","brand":"PETRONOR","address":"CL AMBASAGUAS, 7","municipality":"Karrantza Harana/Valle de Carranza","province":"BIZKAIA","postalCode":"48991","schedule":"L-D: 08:00-21:00","fuels":{"gasoline95":1.829,"diesel":1.929,"dieselPremium":2.019,"dieselB":1.739},"extra":{"saleType":"P","margin":"D","reportingType":"dm","ideess":"224","idMunicipio":"7517","idProvincia":"48","idCCAA":"16"}}},{"type":"Feature","geometry":{"type":"Point","coordinates":[-3.068056,43.321861]},"properties":{"id":"es-228","source":"ES","brand":"REPSOL","address":"CR N-634, 127,2","municipality":"Abanto y Ciérvana-Abanto Zierbena","province":"BIZKAIA","postalCode":"48500","schedule":"L-D: 06:00-22:00","fuels":{"gasoline95":1.765,"gasoline98":1.935,"diesel":1.879,"dieselRenewable":1.999},"extra":{"saleType":"P","margin":"D","reportingType":"OM","ideess":"228","idMunicipio":"7458","idProvincia":"48","idCCAA":"16"}}},{"type":"Feature","geometry":{"type":"Point","coordinates":[-3.152944,43.267]},"properties":{"id":"es-234","source":"ES","brand":"REPSOL","address":"CL BARRIO MERCADILLO, S.N. (BI-2701 km 0,9)","municipality":"Sopuerta","province":"BIZKAIA","postalCode":"48190","schedule":"L-D: 07:00-22:00","fuels":{"gasoline95":1.779,"gasoline98":1.949,"diesel":1.895,"dieselRenewable":2.015},"extra":{"saleType":"P","margin":"I","reportingType":"OM","ideess":"234","idMunicipio":"7553","idProvincia":"48","idCCAA":"16"}}},{"type":"Feature","geometry":{"type":"Point","coordinates":[-3.047306,43.204333]},"properties":{"id":"es-237","source":"ES","brand":"PETRONOR","address":"CARRETERA BI-636 KM. 15,5","municipality":"Güeñes","province":"BIZKAIA","postalCode":"48830","schedule":"L-D: 06:00-22:00","fuels":{"gasoline95":1.785,"diesel":1.899,"dieselRenewable":2.019},"extra":{"saleType":"P","margin":"D","reportingType":"OM","ideess":"237","idMunicipio":"7511","idProvincia":"48","idCCAA":"16"}}},{"type":"Feature","geometry":{"type":"Point","coordinates":[-3.0135,43.29725]},"properties":{"id":"es-242","source":"ES","brand":"PETRONOR","address":"CL Bº EL JUNCAL, S.N.","municipality":"Valle de Trápaga-Trapagaran","province":"BIZKAIA","postalCode":"48510","schedule":"L-V: 06:00-20:00","fuels":{"gasoline95":1.775,"gasoline98":1.915,"diesel":1.895,"dieselRenewable":2.015},"extra":{"saleType":"P","margin":"D","reportingType":"OM","ideess":"242","idMunicipio":"7560","idProvincia":"48","idCCAA":"16"}}},{"type":"Feature","geometry":{"type":"Point","coordinates":[-3.068806,43.3285]},"properties":{"id":"es-244","source":"ES","brand":"PETRONOR","address":"AT A-8, 131","municipality":"Abanto y Ciérvana-Abanto Zierbena","province":"BIZKAIA","postalCode":"48500","schedule":"L-D: 24H","fuels":{"gasoline95":1.775,"gasolineRenewable":1.895,"diesel":1.889,"dieselRenewable":2.009,"lpg":1.149},"extra":{"saleType":"P","margin":"D","reportingType":"OM","ideess":"244","idMunicipio":"7458","idProvincia":"48","idCCAA":"16"}}},{"type":"Feature","geometry":{"type":"Point","coordinates":[-3.067722,43.327111]},"properties":{"id":"es-245","source":"ES","brand":"PETRONOR","address":"AT A-8, 131","municipality":"Abanto y Ciérvana-Abanto Zierbena","province":"BIZKAIA","postalCode":"48500","schedule":"L-D: 24H","fuels":{"gasoline95":1.785,"gasoline98":1.905,"diesel":1.889,"dieselRenewable":2.009},"extra":{"saleType":"P","margin":"I","reportingType":"OM","ideess":"245","idMunicipio":"7458","idProvincia":"48","idCCAA":"16"}}},{"type":"Feature","geometry":{"type":"Point","coordinates":[-3.004722,43.292806]},"properties":{"id":"es-246","source":"ES","brand":"REPSOL","address":"CL DE LA RIBERA , 11","municipality":"Barakaldo","province":"BIZKAIA","postalCode":"48902","schedule":"L-D: 07:00-22:00","fuels":{"gasoline95":1.775,"gasoline98":1.915,"diesel":1.895,"dieselRenewable":2.015,"lpg":1.159},"extra":{"saleType":"P","margin":"D","reportingType":"OM","ideess":"246","idMunicipio":"7476","idProvincia":"48","idCCAA":"16"}}},{"type":"Feature","geometry":{"type":"Point","coordinates":[-3.046944,43.319639]},"properties":{"id":"es-247","source":"ES","brand":"MOEVE","address":"POLIGONO EL ARBOL, 1","municipality":"Santurtzi","province":"BIZKAIA","postalCode":"48980","schedule":"L-D: 06:00-22:00","fuels":{"gasoline95":1.799,"gasoline98":1.919,"diesel":1.884,"dieselPremium":1.984},"extra":{"saleType":"P","margin":"D","reportingType":"OM","ideess":"247","idMunicipio":"7549","idProvincia":"48","idCCAA":"16"}}},{"type":"Feature","geometry":{"type":"Point","coordinates":[-3.833333,43.434139]},"properties":{"id":"es-420","source":"ES","brand":"EESSMAS, S.L.","address":"AREA, ARRABAL PUERTO DE RAOS, 8","municipality":"Santander","province":"CANTABRIA","postalCode":"39011","schedule":"L-V: 07:00-21:00; S: 08:00-20:00","fuels":{"gasoline95":1.769,"diesel":1.879,"dieselPremium":1.909,"lpg":1.049,"adblue":1.099},"extra":{"saleType":"P","margin":"N","reportingType":"dm","ideess":"420","idMunicipio":"5819","idProvincia":"39","idCCAA":"06"}}},{"type":"Feature","geometry":{"type":"Point","coordinates":[-3.365528,43.398583]},"properties":{"id":"es-423","source":"ES","brand":"VALLE DE LIENDO","address":"N-634 km 165","municipality":"Liendo","province":"CANTABRIA","postalCode":"39776","schedule":"L-D: 07:30-22:00","fuels":{"gasoline95":1.769,"gasoline98E10":1.899,"diesel":1.885,"adblue":1.28},"extra":{"saleType":"P","margin":"D","reportingType":"dm","ideess":"423","idMunicipio":"5779","idProvincia":"39","idCCAA":"06"}}},{"type":"Feature","geometry":{"type":"Point","coordinates":[-3.852694,43.422806]},"properties":{"id":"es-425","source":"ES","brand":"MOEVE","address":"AVENIDA BILBAO, 8","municipality":"Camargo","province":"CANTABRIA","postalCode":"39600","schedule":"L-S: 06:00-22:00; D: 07:00-22:00","fuels":{"gasoline95":1.779,"gasoline95Premium":1.879,"diesel":1.864,"dieselPremium":1.994},"extra":{"saleType":"P","margin":"D","reportingType":"OM","ideess":"425","idMunicipio":"5759","idProvincia":"39","idCCAA":"06"}}},{"type":"Feature","geometry":{"type":"Point","coordinates":[-3.68825,43.04575]},"properties":{"id":"es-4959","source":"ES","brand":"AVIA","address":"CARRETERA BU526 KM. 22","municipality":"Merindad de Sotoscueva","province":"BURGOS","postalCode":"09568","schedule":"L-D: 24H","fuels":{"gasoline95":1.708,"diesel":1.799},"extra":{"saleType":"P","margin":"N","reportingType":"dm","ideess":"4959","idMunicipio":"1338","idProvincia":"09","idCCAA":"08"}}},{"type":"Feature","geometry":{"type":"Point","coordinates":[-3.122528,43.123361]},"properties":{"id":"es-5","source":"ES","brand":"AVIA","address":"AVENIDA GARAY, 23","municipality":"Artziniega","province":"ARABA/ÁLAVA","postalCode":"01474","schedule":"L-D: 06:00-22:00","fuels":{"gasoline95":1.775,"gasoline98":1.945,"diesel":1.895,"dieselPremium":1.935,"dieselB":1.455},"extra":{"saleType":"P","margin":"D","reportingType":"dm","ideess":"5","idMunicipio":"8","idProvincia":"01","idCCAA":"16"}}},{"type":"Feature","geometry":{"type":"Point","coordinates":[-3.458333,43.080083]},"properties":{"id":"es-6018","source":"ES","brand":"REPSOL","address":"CR C-629, 60","municipality":"Merindad de Montija","province":"BURGOS","postalCode":"09569","schedule":"L-D: 06:00-20:00","fuels":{"gasoline95":1.695,"gasoline98":1.895,"diesel":1.815,"dieselPremium":1.915,"dieselB":1.545},"extra":{"saleType":"P","margin":"D","reportingType":"dm","ideess":"6018","idMunicipio":"1336","idProvincia":"09","idCCAA":"08"}}},{"type":"Feature","geometry":{"type":"Point","coordinates":[-3.266222,43.111639]},"properties":{"id":"es-6046","source":"ES","brand":"PETRONOR","address":"CARRETERA C-6318 KM. 43,4","municipality":"Valle de Mena","province":"BURGOS","postalCode":"09585","schedule":"L-D: 07:00-21:00","fuels":{"gasoline95":1.715,"diesel":1.81,"dieselB":1.535},"extra":{"saleType":"P","margin":"I","reportingType":"dm","ideess":"6046","idMunicipio":"1483","idProvincia":"09","idCCAA":"08"}}},{"type":"Feature","geometry":{"type":"Point","coordinates":[-3.229222,43.166972]},"properties":{"id":"es-6052","source":"ES","brand":"REPSOL","address":"CR C-6318, 34","municipality":"Valle de Mena","province":"BURGOS","postalCode":"09585","schedule":"L-V: 07:00-20:00; S: 07:30-20:00","fuels":{"gasoline95":1.739,"diesel":1.825,"dieselRenewable":1.945},"extra":{"saleType":"P","margin":"D","reportingType":"OM","ideess":"6052","idMunicipio":"1483","idProvincia":"09","idCCAA":"08"}}},{"type":"Feature","geometry":{"type":"Point","coordinates":[-3.461944,43.251889]},"properties":{"id":"es-8063","source":"ES","brand":"AVIA","address":"N-629 CERECEDA-COLINDRES km 67.8","municipality":"Ramales de la Victoria","province":"CANTABRIA","postalCode":"39800","schedule":"L-D: 06:00-22:00","fuels":{"gasoline95":1.599,"diesel":1.739,"dieselB":1.49},"extra":{"saleType":"P","margin":"I","reportingType":"dm","ideess":"8063","idMunicipio":"5800","idProvincia":"39","idCCAA":"06"}}},{"type":"Feature","geometry":{"type":"Point","coordinates":[-3.836944,43.428889]},"properties":{"id":"es-8231","source":"ES","brand":"CARREFOUR","address":"CARRETERA NACIONAL 635 KM. 2,7","municipality":"Camargo","province":"CANTABRIA","postalCode":"39600","schedule":"L-S: 07:00-23:00; D: 09:00-21:00","fuels":{"gasoline95":1.739,"gasoline98":1.949,"diesel":1.779,"dieselPremium":1.819},"extra":{"saleType":"P","margin":"N","reportingType":"dm","ideess":"8231","idMunicipio":"5759","idProvincia":"39","idCCAA":"06"}}},{"type":"Feature","geometry":{"type":"Point","coordinates":[-3.955306,43.355222]},"properties":{"id":"es-8363","source":"ES","brand":"MOEVE","address":"AVENIDA LUIS DE LA CONCHA, 63","municipality":"Piélagos","province":"CANTABRIA","postalCode":"39470","schedule":"L-S: 06:30-22:30; D: 07:00-22:30","fuels":{"gasoline95":1.798,"diesel":1.908,"dieselPremium":2.028,"lpg":1.158},"extra":{"saleType":"P","margin":"N","reportingType":"dm","ideess":"8363","idMunicipio":"5795","idProvincia":"39","idCCAA":"06"}}},{"type":"Feature","geometry":{"type":"Point","coordinates":[-3.176389,43.354722]},"properties":{"id":"es-8504","source":"ES","brand":"EASYGAS","address":"AUTV.A-8 (AUTOV. CANTABRICO) km 141","municipality":"Castro-Urdiales","province":"CANTABRIA","postalCode":"39700","schedule":"L-D: 24H","fuels":{"gasoline95":1.589,"gasoline95Premium":1.589,"diesel":1.689,"dieselPremium":1.689},"extra":{"saleType":"P","margin":"N","reportingType":"dm","ideess":"8504","idMunicipio":"5764","idProvincia":"39","idCCAA":"06"}}},{"type":"Feature","geometry":{"type":"Point","coordinates":[-3.987222,43.407778]},"properties":{"id":"es-8505","source":"ES","brand":"CEPSA","address":"CARRETERA A67 KM. 13","municipality":"Miengo","province":"CANTABRIA","postalCode":"39310","schedule":"L-D: 24H","fuels":{"gasoline95":1.779,"gasoline98":1.929,"diesel":1.894,"dieselPremium":1.994,"adblue":0.878},"extra":{"saleType":"P","margin":"I","reportingType":"dm","ideess":"8505","idMunicipio":"5787","idProvincia":"39","idCCAA":"06"}}},{"type":"Feature","geometry":{"type":"Point","coordinates":[-3.985806,43.406722]},"properties":{"id":"es-8506","source":"ES","brand":"CEPSA","address":"CARRETERA A67 KM. 13","municipality":"Miengo","province":"CANTABRIA","postalCode":"39310","schedule":"L-D: 24H","fuels":{"gasoline95":1.779,"gasoline98":1.929,"diesel":1.894,"dieselPremium":1.994,"adblue":0.878},"extra":{"saleType":"P","margin":"D","reportingType":"dm","ideess":"8506","idMunicipio":"5787","idProvincia":"39","idCCAA":"06"}}},{"type":"Feature","geometry":{"type":"Point","coordinates":[-3.859694,43.45125]},"properties":{"id":"es-8892","source":"ES","brand":"BALLENOIL","address":"POLIGONO EL CAMPON,, S/N","municipality":"Santander","province":"CANTABRIA","postalCode":"39011","schedule":"L-D: 24H","fuels":{"gasoline95":1.559,"gasoline95Premium":1.579,"diesel":1.629,"dieselPremium":1.649},"extra":{"saleType":"P","margin":"N","reportingType":"OM","ideess":"8892","idMunicipio":"5819","idProvincia":"39","idCCAA":"06"}}},{"type":"Feature","geometry":{"type":"Point","coordinates":[-3.698944,43.446667]},"properties":{"id":"es-9225","source":"ES","brand":"MOEVE","address":"CALLE CASTANEDO-EL SOLARON, 13","municipality":"Ribamontán al Mar","province":"CANTABRIA","postalCode":"39150","schedule":"L-D: 07:00-22:00","fuels":{"gasoline95":1.739,"gasoline98":1.869,"diesel":1.829},"extra":{"saleType":"P","margin":"D","reportingType":"dm","ideess":"9225","idMunicipio":"5804","idProvincia":"39","idCCAA":"06"}}},{"type":"Feature","geometry":{"type":"Point","coordinates":[-3.800083,43.485333]},"properties":{"id":"es-9541","source":"ES","brand":"MEROIL","address":"CALLE CAMUS, 75","municipality":"Santander","province":"CANTABRIA","postalCode":"39012","schedule":"L-D: 07:30-22:30","fuels":{"gasoline95":1.789,"gasoline98":1.889,"diesel":1.889,"dieselPremium":1.949,"lpg":1.055},"extra":{"saleType":"P","margin":"D","reportingType":"dm","ideess":"9541","idMunicipio":"5819","idProvincia":"39","idCCAA":"06"}}},{"type":"Feature","geometry":{"type":"Point","coordinates":[-3.830472,43.450056]},"properties":{"id":"es-9564","source":"ES","brand":"EASYGAS","address":"AVENIDA AVDA PARAYAS, 12","municipality":"Santander","province":"CANTABRIA","postalCode":"39011","schedule":"L-D: 24H","fuels":{"gasoline95":1.569,"gasoline95Premium":1.569,"diesel":1.669,"dieselPremium":1.669,"adblue":0.909},"extra":{"saleType":"P","margin":"D","reportingType":"dm","ideess":"9564","idMunicipio":"5819","idProvincia":"39","idCCAA":"06"}}},{"type":"Feature","geometry":{"type":"Point","coordinates":[-3.847056,43.441722]},"properties":{"id":"es-9632","source":"ES","brand":"BEROIL","address":"ISLA DEL OLEO 19 - POL. IND. NUEVA MONTAÑA","municipality":"Santander","province":"CANTABRIA","postalCode":"39011","schedule":"L-D: 24H","fuels":{"gasoline95":1.499,"diesel":1.599},"extra":{"saleType":"P","margin":"D","reportingType":"dm","ideess":"9632","idMunicipio":"5819","idProvincia":"39","idCCAA":"06"}}},{"type":"Feature","geometry":{"type":"Point","coordinates":[-3.155083,43.340917]},"properties":{"id":"es-9768","source":"ES","brand":"REPSOL","address":"CARRETERA N-634 KM. 136,4","municipality":"Castro-Urdiales","province":"CANTABRIA","postalCode":"39706","schedule":"L-D: 06:00-22:00","fuels":{"gasoline95":1.769,"gasoline98":1.899,"diesel":1.899,"dieselRenewable":1.999,"adblue":1.0},"extra":{"saleType":"P","margin":"I","reportingType":"dm","ideess":"9768","idMunicipio":"5764","idProvincia":"39","idCCAA":"06"}}},{"type":"Feature","geometry":{"type":"Point","coordinates":[-3.824222,43.237778]},"properties":{"id":"es-9907","source":"ES","brand":"AGROCANTABRIA","address":"BARRIO CHAROLA, SN","municipality":"Villacarriedo","province":"CANTABRIA","postalCode":"39640","schedule":"L-D: 24H","fuels":{"gasoline95":1.65,"diesel":1.68,"dieselB":1.25},"extra":{"saleType":"P","margin":"N","reportingType":"dm","ideess":"9907","idMunicipio":"5842","idProvincia":"39","idCCAA":"06"}}},{"type":"Feature","geometry":{"type":"Point","coordinates":[-3.078528,43.307222]},"properties":{"id":"es-9933","source":"ES","brand":"E.S.EL CAMPILLO","address":"POL.IND. EL CAMPILLO, PARC. 1-2 FASE II","municipality":"Abanto y Ciérvana-Abanto Zierbena","province":"BIZKAIA","postalCode":"48500","schedule":"L-V: 06:00-22:00; S: 08:00-15:00","fuels":{"gasoline95":1.775,"gasoline98":1.915,"diesel":1.899,"dieselPremium":1.999,"adblue":1.54},"extra":{"saleType":"P","margin":"D","reportingType":"dm","ideess":"9933","idMunicipio":"7458","idProvincia":"48","idCCAA":"16"}}},{"type":"Feature","geometry":{"type":"Point","coordinates":[-3.917694,43.433222]},"properties":{"id":"es-994","source":"ES","brand":"REPSOL","address":"AVENIDA DE LOS CONDES, SN, ","municipality":"Santa Cruz de Bezana","province":"CANTABRIA","postalCode":"39108","schedule":"L: 06:00-23:00","fuels":{"gasoline95":1.779,"gasoline98":1.899,"diesel":1.919,"dieselRenewable":2.039},"extra":{"saleType":"P","margin":"D","reportingType":"OM","ideess":"994","idMunicipio":"5817","idProvincia":"39","idCCAA":"06"}}},{"type":"Feature","geometry":{"type":"Point","coordinates":[-3.709361,43.456778]},"properties":{"id":"es-996","source":"ES","brand":"REPSOL","address":"CALLE ZUÑEDA, 7","municipality":"Ribamontán al Mar","province":"CANTABRIA","postalCode":"39160","schedule":"L: 07:00-22:00","fuels":{"gasoline95":1.79,"gasoline98":1.92,"diesel":1.84,"dieselB":1.42,"dieselRenewable":1.99,"lpg":1.12,"adblue":1.1},"extra":{"saleType":"P","margin":"I","reportingType":"dm","ideess":"996","idMunicipio":"5804","idProvincia":"39","idCCAA":"06"}}},{"type":"Feature","geometry":{"type":"Point","coordinates":[-3.787222,43.396583]},"properties":{"id":"es-997","source":"ES","brand":"MOEVE","address":"CARRETERA N-635 KM. 10,200","municipality":"Medio Cudeyo","province":"CANTABRIA","postalCode":"39792","schedule":"L-D: 06:00-22:00","fuels":{"gasoline95":1.779,"gasoline98":1.929,"diesel":1.894,"dieselPremium":1.994,"dieselB":1.654},"extra":{"saleType":"P","margin":"D","reportingType":"OM","ideess":"997","idMunicipio":"5785","idProvincia":"39","idCCAA":"06"}}},{"type":"Feature","geometry":{"type":"Point","coordinates":[-3.967583,43.328167]},"properties":{"id":"es-999","source":"ES","brand":"MEROIL","address":"N-623 km 28","municipality":"Puente Viesgo","province":"CANTABRIA","postalCode":"39670","schedule":"L-D: 07:00-22:00","fuels":{"gasoline95":1.715,"gasoline98":1.859,"diesel":1.795,"dieselPremium":1.895,"dieselB":1.615,"lpg":1.139,"adblue":0.885},"extra":{"saleType":"P","margin":"D","reportingType":"dm","ideess":"999","idMunicipio":"5799","idProvincia":"39","idCCAA":"06"}}}]}