{"type":"FeatureCollection","features":[{"type":"Feature","geometry":{"type":"Point","coordinates":[-13.568611,28.964944]},"properties":{"id":"es-10462","source":"ES","brand":"REPSOL","address":"CARRETERA CIRCUNVALACION KM. 4,5","municipality":"Arrecife","province":"PALMAS (LAS)","postalCode":"35500","schedule":"L: 06:00-22:00","fuels":{"gasoline95":1.468,"gasoline98":1.589,"diesel":1.569,"dieselPremium":1.61},"extra":{"saleType":"P","margin":"I","reportingType":"dm","ideess":"10462","idMunicipio":"5237","idProvincia":"35","idCCAA":"05"}}},{"type":"Feature","geometry":{"type":"Point","coordinates":[-13.535806,28.979806]},"properties":{"id":"es-10725","source":"ES","brand":"DISA CIRCUNVALACION II","address":"CARRETERA CIRCUNVALACIÒN KM. 0,370","municipality":"Arrecife","province":"PALMAS (LAS)","postalCode":"35500","schedule":"L-D: 06:00-22:00","fuels":{"gasoline95":1.505,"gasoline98":1.635,"diesel":1.559,"dieselPremium":1.679},"extra":{"saleType":"P","margin":"D","reportingType":"OM","ideess":"10725","idMunicipio":"5237","idProvincia":"35","idCCAA":"05"}}},{"type":"Feature","geometry":{"type":"Point","coordinates":[-13.824583,28.923583]},"properties":{"id":"es-10871","source":"ES","brand":"REPSOL","address":"CARRETERA LZ-2 ARRECIFE-PLAYA BLANCA KM. S/N","municipality":"Yaiza","province":"PALMAS (LAS)","postalCode":"35570","schedule":"L-D: 07:00-21:00","fuels":{"gasoline95":1.539,"gasoline98":1.679,"diesel":1.609,"dieselPremium":1.729},"extra":{"saleType":"P","margin":"I","reportingType":"dm","ideess":"10871","idMunicipio":"5266","idProvincia":"35","idCCAA":"05"}}},{"type":"Feature","geometry":{"type":"Point","coordinates":[-13.736972,28.9395]},"properties":{"id":"es-11074","source":"ES","brand":"COMBUSTIBLES CANARIOS","address":"CARRETERA ARECIFE-YAIZA KM. 18,150","municipality":"Yaiza","province":"PALMAS (LAS)","postalCode":"35570","schedule":"L-D: 07:00-22:00","fuels":{"gasoline95":1.469,"gasoline98":1.559,"diesel":1.559},"extra":{"saleType":"P","margin":"N","reportingType":"dm","ideess":"11074","idMunicipio":"5266","idProvincia":"35","idCCAA":"05"}}},{"type":"Feature","geometry":{"type":"Point","coordinates":[-13.686278,28.948306]},"properties":{"id":"es-11198","source":"ES","brand":"DISA MACHER","address":"CARRETERA ARRECIFE YAIZA KM. 12","municipality":"Tías","province":"PALMAS (LAS)","postalCode":"35571","schedule":"L-S: 06:30-21:30; D: 08:00-15:00","fuels":{"gasoline95":1.458,"gasoline98":1.558,"diesel":1.579,"dieselPremium":1.689},"extra":{"saleType":"P","margin":"D","reportingType":"dm","ideess":"11198","idMunicipio":"5260","idProvincia":"35","idCCAA":"05"}}},{"type":"Feature","geometry":{"type":"Point","coordinates":[-13.8775,28.516833]},"properties":{"id":"es-11455","source":"ES","brand":"DISA","address":"CARRETERA LA OLIVA KM. 2,7","municipality":"Puerto del Rosario","province":"PALMAS (LAS)","postalCode":"35600","schedule":"L-D: 06:30-22:00","fuels":{"gasoline95":1.415,"gasoline98":1.529,"diesel":1.499,"dieselPremium":1.599},"extra":{"saleType":"P","margin":"I","reportingType":"dm","ideess":"11455","idMunicipio":"5250","idProvincia":"35","idCCAA":"05"}}},{"type":"Feature","geometry":{"type":"Point","coordinates":[-13.876306,28.516833]},"properties":{"id":"es-11456","source":"ES","brand":"DISA","address":"CARRETERA LA OLIVA KM. 2,7","municipality":"Puerto del Rosario","province":"PALMAS (LAS)","postalCode":"35600","schedule":"L-D: 06:30-22:00","fuels":{"gasoline95":1.415,"gasoline98":1.529,"diesel":1.499,"dieselPremium":1.599,"adblue":1.175},"extra":{"saleType":"P","margin":"D","reportingType":"dm","ideess":"11456","idMunicipio":"5250","idProvincia":"35","idCCAA":"05"}}},{"type":"Feature","geometry":{"type":"Point","coordinates":[-13.862583,28.497444]},"properties":{"id":"es-11607","source":"ES","brand":"MERCASOSA","address":"CALLE PROFESOR JUAN TADEO CABRERA, 20","municipality":"Puerto del Rosario","province":"PALMAS (LAS)","postalCode":"35600","schedule":"L-D: 06:30-22:00","fuels":{"gasoline95":1.415,"gasoline98":1.529,"diesel":1.499,"dieselPremium":1.599},"extra":{"saleType":"P","margin":"N","reportingType":"dm","ideess":"11607","idMunicipio":"5250","idProvincia":"35","idCCAA":"05"}}},{"type":"Feature","geometry":{"type":"Point","coordinates":[-13.815639,28.859167]},"properties":{"id":"es-11640","source":"ES","brand":"MARINA RUBICON","address":"CALLE BERRUGO EL, 2","municipality":"Yaiza","province":"PALMAS (LAS)","postalCode":"35570","schedule":"L-D: 08:00-22:00","fuels":{"gasoline95":1.474,"diesel":1.569},"extra":{"saleType":"P","margin":"D","reportingType":"dm","ideess":"11640","idMunicipio":"5266","idProvincia":"35","idCCAA":"05"}}},{"type":"Feature","geometry":{"type":"Point","coordinates":[-13.935472,28.611167]},"properties":{"id":"es-11660","source":"ES","brand":"DISA LA OLIVA","address":"CALLE LLANOS DE LOS BURROS, S/N","municipality":"Oliva (La)","province":"PALMAS (LAS)","postalCode":"35640","schedule":"L-D: 06:00-22:00","fuels":{"gasoline95":1.529,"gasoline98":1.629,"diesel":1.589,"dieselPremium":1.699},"extra":{"saleType":"P","margin":"I","reportingType":"OM","ideess":"11660","idMunicipio":"5247","idProvincia":"35","idCCAA":"05"}}},{"type":"Feature","geometry":{"type":"Point","coordinates":[-13.607806,28.953806]},"properties":{"id":"es-11757","source":"ES","brand":"REPSOL","address":"ACCESO AEROPUERTO DE LANZAROTE-LADO TIERRA, SN","municipality":"Arrecife","province":"PALMAS (LAS)","postalCode":"35500","schedule":"L-D: 07:00-23:00","fuels":{"gasoline95":1.449,"gasoline98":1.549,"diesel":1.579,"dieselPremium":1.639},"extra":{"saleType":"P","margin":"D","reportingType":"OM","ideess":"11757","idMunicipio":"5237","idProvincia":"35","idCCAA":"05"}}},{"type":"Feature","geometry":{"type":"Point","coordinates":[-13.603778,28.955417]},"properties":{"id":"es-11828","source":"ES","brand":"REPSOL","address":"ACCESO AEROPUERTO DE LANZAROTE-LADO AIRE, SN","municipality":"Arrecife","province":"PALMAS (LAS)","postalCode":"35500","schedule":"L-D: 07:00-23:00","fuels":{"gasoline95":1.459,"diesel":1.589},"extra":{"saleType":"P","margin":"D","reportingType":"OM","ideess":"11828","idMunicipio":"5237","idProvincia":"35","idCCAA":"05"}}},{"type":"Feature","geometry":{"type":"Point","coordinates":[-13.5925,28.958278]},"properties":{"id":"es-12810","source":"ES","brand":"REPSOL","address":"AVENIDA MAMERTO CABRERA ESQUINA CALLE LA HOYA, SN","municipality":"San Bartolomé","province":"PALMAS (LAS)","postalCode":"35509","schedule":"L-D: 24H","fuels":{"gasoline95":1.469,"gasoline98":1.59,"diesel":1.529,"dieselPremium":1.61},"extra":{"saleType":"P","margin":"N","reportingType":"dm","ideess":"12810","idMunicipio":"5251","idProvincia":"35","idCCAA":"05"}}},{"type":"Feature","geometry":{"type":"Point","coordinates":[-13.67325,28.920639]},"properties":{"id":"es-13121","source":"ES","brand":"CEPSA","address":"AVENIDA DEL VARADERO, S/N","municipality":"Tías","province":"PALMAS (LAS)","postalCode":"35510","schedule":"L-D: 08:30-23:59","fuels":{"gasoline95":1.459,"gasoline98":1.634,"diesel":1.539},"extra":{"saleType":"P","margin":"N","reportingType":"dm","ideess":"13121","idMunicipio":"5260","idProvincia":"35","idCCAA":"05"}}},{"type":"Feature","geometry":{"type":"Point","coordinates":[-13.871,28.455389]},"properties":{"id":"es-13695","source":"ES","brand":"MOEVE","address":"CARRETERA AEROPUERTO KM. S/N","municipality":"Puerto del Rosario","province":"PALMAS (LAS)","postalCode":"35610","schedule":"L-D: 06:00-22:00","fuels":{"gasoline95":1.429,"gasoline98":1.559,"diesel":1.519,"dieselPremium":1.619},"extra":{"saleType":"P","margin":"D","reportingType":"OM","ideess":"13695","idMunicipio":"5250","idProvincia":"35","idCCAA":"05"}}},{"type":"Feature","geometry":{"type":"Point","coordinates":[-13.562361,28.974833]},"properties":{"id":"es-14092","source":"ES","brand":"REPSOL","address":"CALLE TENDERETE, S/N","municipality":"Arrecife","province":"PALMAS (LAS)","postalCode":"35500","schedule":"L-D: 24H","fuels":{"gasoline95":1.469,"gasoline98":1.59,"diesel":1.529,"dieselPremium":1.61},"extra":{"saleType":"P","margin":"N","reportingType":"dm","ideess":"14092","idMunicipio":"5237","idProvincia":"35","idCCAA":"05"}}},{"type":"Feature","geometry":{"type":"Point","coordinates":[-13.845167,28.521278]},"properties":{"id":"es-14393","source":"ES","brand":"BP LA HONDURA","address":"CALLE GUELDERA, S/N","municipality":"Puerto del Rosario","province":"PALMAS (LAS)","postalCode":"35600","schedule":"L-S: 06:00-22:00; D: 07:00-22:00","fuels":{"gasoline95":1.397,"gasoline98":1.499,"diesel":1.499,"dieselPremium":1.599,"adblue":1.25},"extra":{"saleType":"P","margin":"D","reportingType":"dm","ideess":"14393","idMunicipio":"5250","idProvincia":"35","idCCAA":"05"}}},{"type":"Feature","geometry":{"type":"Point","coordinates":[-13.876333,28.727278]},"properties":{"id":"es-14683","source":"ES","brand":"H2GO CORRALEJO","address":"AVENIDA JUAN CARLOS I, S/N","municipality":"Oliva (La)","province":"PALMAS (LAS)","postalCode":"35660","schedule":"L-D: 24H","fuels":{"gasoline95":1.494,"gasoline98":1.564,"diesel":1.529,"dieselRenewable":1.675,"adblue":1.48},"extra":{"saleType":"P","margin":"D","reportingType":"dm","ideess":"14683","idMunicipio":"5247","idProvincia":"35","idCCAA":"05"}}},{"type":"Feature","geometry":{"type":"Point","coordinates":[-13.547056,28.970139]},"properties":{"id":"es-16106","source":"ES","brand":"PLENERGY","address":"CALLE LEON Y CASTILLO, 139","municipality":"Arrecife","province":"PALMAS (LAS)","postalCode":"35500","schedule":"L-D: 24H","fuels":{"gasoline95":1.369,"diesel":1.417},"extra":{"saleType":"P","margin":"D","reportingType":"dm","ideess":"16106","idMunicipio":"5237","idProvincia":"35","idCCAA":"05"}}},{"type":"Feature","geometry":{"type":"Point","coordinates":[-13.545083,28.976944]},"properties":{"id":"es-16221","source":"ES","brand":"PLENERGY","address":"CALLE LEÓN Y CASTILLO, S/N","municipality":"Arrecife","province":"PALMAS (LAS)","postalCode":"35500","schedule":"L-D: 24H","fuels":{"gasoline95":1.369,"diesel":1.417},"extra":{"saleType":"P","margin":"D","reportingType":"dm","ideess":"16221","idMunicipio":"5237","idProvincia":"35","idCCAA":"05"}}},{"type":"Feature","geometry":{"type":"Point","coordinates":[-13.864028,28.416806]},"properties":{"id":"es-16278","source":"ES","brand":"PETROPRIX","address":"CALLE JANANA, 46","municipality":"Antigua","province":"PALMAS (LAS)","postalCode":"35610","schedule":"L-D: 24H","fuels":{"gasoline95":1.329,"diesel":1.419},"extra":{"saleType":"P","margin":"N","reportingType":"dm","ideess":"16278","idMunicipio":"5236","idProvincia":"35","idCCAA":"05"}}},{"type":"Feature","geometry":{"type":"Point","coordinates":[-13.542778,28.988222]},"properties":{"id":"es-7671","source":"ES","brand":"MOEVE TAHICHE I","address":"CARRETERA C-ARRECIFE-TAHICHE KM 2 KM. 2","municipality":"Teguise","province":"PALMAS (LAS)","postalCode":"35110","schedule":"L-D: 24H","fuels":{"gasoline95":1.485,"gasoline98":1.615,"diesel":1.539,"dieselPremium":1.659},"extra":{"saleType":"P","margin":"D","reportingType":"dm","ideess":"7671","idMunicipio":"5256","idProvincia":"35","idCCAA":"05"}}},{"type":"Feature","geometry":{"type":"Point","coordinates":[-13.543806,28.987667]},"properties":{"id":"es-7672","source":"ES","brand":"MOEVE TAHICHE II","address":"CARRETERA C-ARRECIFE-TAHICHE KM 2 KM. 2","municipality":"Teguise","province":"PALMAS (LAS)","postalCode":"35110","schedule":"L-D: 06:30-22:30","fuels":{"gasoline95":1.485,"gasoline98":1.615,"diesel":1.539,"dieselPremium":1.659},"extra":{"saleType":"P","margin":"I","reportingType":"dm","ideess":"7672","idMunicipio":"5256","idProvincia":"35","idCCAA":"05"}}},{"type":"Feature","geometry":{"type":"Point","coordinates":[-13.974167,28.488333]},"properties":{"id":"es-7680","source":"ES","brand":"REPSOL","address":"CALLE CASILLAS DEL ANGEL, 132","municipality":"Puerto del Rosario","province":"PALMAS (LAS)","postalCode":"35600","schedule":"L-S: 06:00-22:00","fuels":{"gasoline95":1.439,"gasoline98":1.559,"diesel":1.529,"dieselPremium":1.639},"extra":{"saleType":"P","margin":"D","reportingType":"OM","ideess":"7680","idMunicipio":"5250","idProvincia":"35","idCCAA":"05"}}},{"type":"Feature","geometry":{"type":"Point","coordinates":[-13.564528,28.971667]},"properties":{"id":"es-7681","source":"ES","brand":"REPSOL","address":"CARRETERA GARCIA ESCAMEZ 230 KM. 0,300","municipality":"Arrecife","province":"PALMAS (LAS)","postalCode":"35509","schedule":"L-D: 24H","fuels":{"gasoline95":1.469,"gasoline98":1.59,"diesel":1.529,"dieselPremium":1.61},"extra":{"saleType":"P","margin":"D","reportingType":"dm","ideess":"7681","idMunicipio":"5237","idProvincia":"35","idCCAA":"05"}}},{"type":"Feature","geometry":{"type":"Point","coordinates":[-13.616389,28.949444]},"properties":{"id":"es-7693","source":"ES","brand":"SPL","address":"CARRETERA CR LZ-40 KM 0,6(LZ-40KM1) KM. 0,6","municipality":"Tías","province":"PALMAS (LAS)","postalCode":"35572","schedule":"L-D: 06:00-23:00","fuels":{"gasoline95":1.469,"gasoline98":1.59,"diesel":1.529,"dieselPremium":1.61},"extra":{"saleType":"P","margin":"D","reportingType":"dm","ideess":"7693","idMunicipio":"5260","idProvincia":"35","idCCAA":"05"}}},{"type":"Feature","geometry":{"type":"Point","coordinates":[-13.615639,28.949722]},"properties":{"id":"es-7694","source":"ES","brand":"SPL","address":"CARRETERA CRTA. DE LAS PLAYAS KM 0,6 KM. 0,6","municipality":"Tías","province":"PALMAS (LAS)","postalCode":"35572","schedule":"L-D: 07:00-22:00","fuels":{"gasoline95":1.469,"gasoline98":1.59,"diesel":1.529,"dieselPremium":1.61},"extra":{"saleType":"P","margin":"I","reportingType":"dm","ideess":"7694","idMunicipio":"5260","idProvincia":"35","idCCAA":"05"}}},{"type":"Feature","geometry":{"type":"Point","coordinates":[-13.844694,28.522167]},"properties":{"id":"es-7695","source":"ES","brand":"REPSOL","address":"CR FV-1, 2","municipality":"Puerto del Rosario","province":"PALMAS (LAS)","postalCode":"35600","schedule":"L-D: 06:00-22:00","fuels":{"gasoline95":1.409,"gasoline98":1.519,"diesel":1.499,"dieselPremium":1.619},"extra":{"saleType":"P","margin":"D","reportingType":"OM","ideess":"7695","idMunicipio":"5250","idProvincia":"35","idCCAA":"05"}}},{"type":"Feature","geometry":{"type":"Point","coordinates":[-13.864722,28.387806]},"properties":{"id":"es-7714","source":"ES","brand":"BP CALETA DE FUSTE","address":"CR  FV-2 P.K. 11 M.D. ( PUERTO DEL","municipality":"Antigua","province":"PALMAS (LAS)","postalCode":"35610","schedule":"L-D: 24H","fuels":{"gasoline95":1.429,"gasoline98":1.569,"diesel":1.509,"dieselPremium":1.629},"extra":{"saleType":"P","margin":"D","reportingType":"OM","ideess":"7714","idMunicipio":"5236","idProvincia":"35","idCCAA":"05"}}},{"type":"Feature","geometry":{"type":"Point","coordinates":[-13.631278,28.955056]},"properties":{"id":"es-7715","source":"ES","brand":"SPL","address":"CARRETERA CR LZ-2 ARRECIFE-YAIZA,P.K.6,7KM KM. 6,7","municipality":"Tías","province":"PALMAS (LAS)","postalCode":"35572","schedule":"L-D: 05:00-22:00","fuels":{"gasoline95":1.418,"gasoline98":1.569,"diesel":1.498,"dieselPremium":1.599},"extra":{"saleType":"P","margin":"D","reportingType":"dm","ideess":"7715","idMunicipio":"5260","idProvincia":"35","idCCAA":"05"}}},{"type":"Feature","geometry":{"type":"Point","coordinates":[-13.632278,28.954556]},"properties":{"id":"es-7716","source":"ES","brand":"SPL","address":"CARRETERA CR LZ-2 ARRECIFE-YAIZA,P.K.6,7KM KM. 6,7","municipality":"Tías","province":"PALMAS (LAS)","postalCode":"35572","schedule":"L-D: 07:00-22:00","fuels":{"gasoline95":1.418,"gasoline98":1.569,"diesel":1.498,"dieselPremium":1.599},"extra":{"saleType":"P","margin":"I","reportingType":"dm","ideess":"7716","idMunicipio":"5260","idProvincia":"35","idCCAA":"05"}}},{"type":"Feature","geometry":{"type":"Point","coordinates":[-13.859889,28.495639]},"properties":{"id":"es-7717","source":"ES","brand":"H2GO MUELLE CHICO","address":"CALLE MUELLE DARSENA PESQUERA, S/N","municipality":"Puerto del Rosario","province":"PALMAS (LAS)","postalCode":"35600","schedule":"L-D: 06:00-22:00","fuels":{"gasoline95":1.494,"gasoline98":1.564,"diesel":1.529,"dieselRenewable":1.675,"adblue":1.48},"extra":{"saleType":"P","margin":"D","reportingType":"dm","ideess":"7717","idMunicipio":"5250","idProvincia":"35","idCCAA":"05"}}},{"type":"Feature","geometry":{"type":"Point","coordinates":[-13.649278,28.951389]},"properties":{"id":"es-7739","source":"ES","brand":"PCAN","address":"CALLE SAN BLAS, 15","municipality":"Tías","province":"PALMAS (LAS)","postalCode":"35572","schedule":"L-D: 06:00-23:00","fuels":{"gasoline95":1.453,"gasoline98":1.583,"diesel":1.563},"extra":{"saleType":"P","margin":"N","reportingType":"dm","ideess":"7739","idMunicipio":"5260","idProvincia":"35","idCCAA":"05"}}},{"type":"Feature","geometry":{"type":"Point","coordinates":[-13.543722,28.96825]},"properties":{"id":"es-7740","source":"ES","brand":"BP","address":"CARRETERA LOS MARMOLES KM. 2","municipality":"Arrecife","province":"PALMAS (LAS)","postalCode":"35500","schedule":"L-D: 24H","fuels":{"gasoline95":1.479,"gasoline98":1.619,"diesel":1.529,"dieselPremium":1.659},"extra":{"saleType":"P","margin":"D","reportingType":"dm","ideess":"7740","idMunicipio":"5237","idProvincia":"35","idCCAA":"05"}}},{"type":"Feature","geometry":{"type":"Point","coordinates":[-13.85225,28.50075]},"properties":{"id":"es-7742","source":"ES","brand":"PCAN GIL","address":"CALLE ALMIRANTE LALLERMAND, 31","municipality":"Puerto del Rosario","province":"PALMAS (LAS)","postalCode":"35600","schedule":"L-D: 24H","fuels":{"gasoline95":1.414,"gasoline98":1.528,"diesel":1.498,"dieselPremium":1.498},"extra":{"saleType":"P","margin":"I","reportingType":"OM","ideess":"7742","idMunicipio":"5250","idProvincia":"35","idCCAA":"05"}}},{"type":"Feature","geometry":{"type":"Point","coordinates":[-13.865139,28.421694]},"properties":{"id":"es-7744","source":"ES","brand":"DISA EL MATORRAL","address":"CARRETERA PUERTO ROSARIO - EL CASTILLO KM. 8","municipality":"Antigua","province":"PALMAS (LAS)","postalCode":"35610","schedule":"L-D: 08:00-16:00","fuels":{"gasoline95":1.415,"gasoline98":1.529,"diesel":1.499,"dieselRenewable":1.756,"lpg":0.898},"extra":{"saleType":"P","margin":"I","reportingType":"OM","ideess":"7744","idMunicipio":"5236","idProvincia":"35","idCCAA":"05"}}},{"type":"Feature","geometry":{"type":"Point","coordinates":[-13.56825,28.965167]},"properties":{"id":"es-7803","source":"ES","brand":"REPSOL","address":"CARRETERA CIRCUNVALACION KM. 4,5","municipality":"Arrecife","province":"PALMAS (LAS)","postalCode":"35500","schedule":"L-D: 06:00-22:00","fuels":{"gasoline95":1.468,"gasoline98":1.589,"diesel":1.569,"dieselPremium":1.61},"extra":{"saleType":"P","margin":"D","reportingType":"dm","ideess":"7803","idMunicipio":"5237","idProvincia":"35","idCCAA":"05"}}},{"type":"Feature","geometry":{"type":"Point","coordinates":[-13.546111,28.965361]},"properties":{"id":"es-7809","source":"ES","brand":"DISA VALTERRA","address":"CL BENITO PEREZ GALDOS, 75","municipality":"Arrecife","province":"PALMAS (LAS)","postalCode":"35500","schedule":"L-V: 07:00-21:00; S: 07:00-14:00","fuels":{"gasoline95":1.525,"gasoline98":1.655,"diesel":1.579},"extra":{"saleType":"P","margin":"N","reportingType":"OM","ideess":"7809","idMunicipio":"5237","idProvincia":"35","idCCAA":"05"}}},{"type":"Feature","geometry":{"type":"Point","coordinates":[-13.763,28.954611]},"properties":{"id":"es-7822","source":"ES","brand":"E.S.DISA YAIZA","address":"CARRETERA YAIZA A MONTAÑA DEL FUEGO KM2 KM. 2","municipality":"Yaiza","province":"PALMAS (LAS)","postalCode":"35570","schedule":"L-D: 08:00-21:00","fuels":{"gasoline95":1.559,"gasoline98":1.669,"diesel":1.699},"extra":{"saleType":"P","margin":"N","reportingType":"dm","ideess":"7822","idMunicipio":"5266","idProvincia":"35","idCCAA":"05"}}},{"type":"Feature","geometry":{"type":"Point","coordinates":[-13.558472,28.977917]},"properties":{"id":"es-7895","source":"ES","brand":"DISA","address":"CALLE IGUAZU, S/N","municipality":"Arrecife","province":"PALMAS (LAS)","postalCode":"35500","schedule":"L-D: 24H","fuels":{"gasoline95":1.499,"gasoline98":1.621,"diesel":1.674,"dieselPremium":1.719,"lpg":0.915},"extra":{"saleType":"P","margin":"N","reportingType":"dm","ideess":"7895","idMunicipio":"5237","idProvincia":"35","idCCAA":"05"}}},{"type":"Feature","geometry":{"type":"Point","coordinates":[-13.57175,28.958028]},"properties":{"id":"es-7898","source":"ES","brand":"DISA AEROPUERTO","address":"CARRETERA ARRECIFE A AEROPUERTO KM. 1,6","municipality":"Arrecife","province":"PALMAS (LAS)","postalCode":"35500","schedule":"L-D: 06:00-22:00","fuels":{"gasoline95":1.459,"gasoline98":1.539,"diesel":1.599},"extra":{"saleType":"P","margin":"D","reportingType":"OM","ideess":"7898","idMunicipio":"5237","idProvincia":"35","idCCAA":"05"}}},{"type":"Feature","geometry":{"type":"Point","coordinates":[-13.866806,28.468722]},"properties":{"id":"es-7902","source":"ES","brand":"DISA RIO CABRAS","address":"AUTOVIA PUERTO DEL ROSARIO-CALETA DE FUSTE KM. 3,5","municipality":"Puerto del Rosario","province":"PALMAS (LAS)","postalCode":"35600","schedule":"L-D: 06:00-22:00","fuels":{"gasoline95":1.425,"gasoline98":1.549,"diesel":1.519,"dieselPremium":1.609},"extra":{"saleType":"P","margin":"D","reportingType":"OM","ideess":"7902","idMunicipio":"5250","idProvincia":"35","idCCAA":"05"}}},{"type":"Feature","geometry":{"type":"Point","coordinates":[-13.570778,28.976306]},"properties":{"id":"es-7903","source":"ES","brand":"MOEVE","address":"CARRETERA SAN BARTOLOME KM. 44","municipality":"Arrecife","province":"PALMAS (LAS)","postalCode":"35500","schedule":"L-D: 07:00-23:00","fuels":{"gasoline95":1.489,"gasoline98":1.619,"diesel":1.549,"dieselPremium":1.649},"extra":{"saleType":"P","margin":"D","reportingType":"OM","ideess":"7903","idMunicipio":"5237","idProvincia":"35","idCCAA":"05"}}},{"type":"Feature","geometry":{"type":"Point","coordinates":[-13.666361,28.923861]},"properties":{"id":"es-7905","source":"ES","brand":"DISA PUERTO DEL CARMEN","address":"CALLE JUAN CARLOS I, 23","municipality":"Tías","province":"PALMAS (LAS)","postalCode":"35510","schedule":"L-D: 24H","fuels":{"gasoline95":1.449,"gasoline98":1.599,"diesel":1.539,"dieselPremium":1.659},"extra":{"saleType":"P","margin":"N","reportingType":"OM","ideess":"7905","idMunicipio":"5260","idProvincia":"35","idCCAA":"05"}}},{"type":"Feature","geometry":{"type":"Point","coordinates":[-13.831611,28.867833]},"properties":{"id":"es-7914","source":"ES","brand":"ESTACION PLAYA BLANCA","address":"CARRETERA ARRECIFE-PLAYA BLANCA KM. 34","municipality":"Yaiza","province":"PALMAS (LAS)","postalCode":"35570","schedule":"L-D: 07:00-22:00","fuels":{"gasoline95":1.469,"gasoline98":1.559,"diesel":1.559},"extra":{"saleType":"P","margin":"N","reportingType":"dm","ideess":"7914","idMunicipio":"5266","idProvincia":"35","idCCAA":"05"}}},{"type":"Feature","geometry":{"type":"Point","coordinates":[-13.534389,28.974306]},"properties":{"id":"es-7915","source":"ES","brand":"DISA LOS MARMOLES","address":"CARRER CARRETERA DE LOA MARMOLES, 138","municipality":"Arrecife","province":"PALMAS (LAS)","postalCode":"35500","schedule":"L-D: 06:00-22:00","fuels":{"gasoline95":1.505,"gasoline98":1.635,"diesel":1.559,"dieselPremium":1.679},"extra":{"saleType":"P","margin":"D","reportingType":"OM","ideess":"7915","idMunicipio":"5237","idProvincia":"35","idCCAA":"05"}}},{"type":"Feature","geometry":{"type":"Point","coordinates":[-13.575389,28.958417]},"properties":{"id":"es-7924","source":"ES","brand":"DISA NUEVA AEROPUERTO","address":"CARRETERA ARRECIFE A AEROPUERTO KM. 1,4","municipality":"Arrecife","province":"PALMAS (LAS)","postalCode":"35500","schedule":"L-D: 06:00-22:00","fuels":{"gasoline95":1.459,"gasoline98":1.539,"diesel":1.599,"dieselPremium":1.689,"lpg":0.898,"adblue":1.95},"extra":{"saleType":"P","margin":"I","reportingType":"OM","ideess":"7924","idMunicipio":"5237","idProvincia":"35","idCCAA":"05"}}},{"type":"Feature","geometry":{"type":"Point","coordinates":[-13.552417,28.96225]},"properties":{"id":"es-7932","source":"ES","brand":"DISA ARRECIFE","address":"CALLE GARCIA ESCAMEZ, 1","municipality":"Arrecife","province":"PALMAS (LAS)","postalCode":"35500","schedule":"L-D: 06:00-22:00","fuels":{"gasoline95":1.525,"gasoline98":1.655,"diesel":1.579},"extra":{"saleType":"P","margin":"N","reportingType":"OM","ideess":"7932","idMunicipio":"5237","idProvincia":"35","idCCAA":"05"}}},{"type":"Feature","geometry":{"type":"Point","coordinates":[-13.870111,28.731556]},"properties":{"id":"es-7941","source":"ES","brand":"DISA CORRALEJO","address":"AVENIDA NUESTRA SEÑORA DEL CARMEN, 25","municipality":"Oliva (La)","province":"PALMAS (LAS)","postalCode":"35660","schedule":"L-D: 06:00-22:00","fuels":{"gasoline95":1.499,"gasoline98":1.599,"diesel":1.559,"dieselPremium":1.669},"extra":{"saleType":"P","margin":"N","reportingType":"OM","ideess":"7941","idMunicipio":"5247","idProvincia":"35","idCCAA":"05"}}},{"type":"Feature","geometry":{"type":"Point","coordinates":[-13.850556,28.506194]},"properties":{"id":"es-7943","source":"ES","brand":"DISA  EL CHARCO","address":"CALLE ALFONSO XIII, 65","municipality":"Puerto del Rosario","province":"PALMAS (LAS)","postalCode":"35600","schedule":"L-D: 06:00-22:00","fuels":{"gasoline95":1.435,"gasoline98":1.559,"diesel":1.519,"dieselPremium":1.609},"extra":{"saleType":"P","margin":"N","reportingType":"OM","ideess":"7943","idMunicipio":"5250","idProvincia":"35","idCCAA":"05"}}},{"type":"Feature","geometry":{"type":"Point","coordinates":[-13.515944,28.986889]},"properties":{"id":"es-7944","source":"ES","brand":"DISA COSTA TEGUISE","address":"AVENIDA LAS PALMERAS, S/N","municipality":"Teguise","province":"PALMAS (LAS)","postalCode":"35509","schedule":"L-D: 06:00-22:00","fuels":{"gasoline95":1.499,"gasoline98":1.609,"diesel":1.569,"dieselPremium":1.669,"lpg":0.898},"extra":{"saleType":"P","margin":"N","reportingType":"OM","ideess":"7944","idMunicipio":"5256","idProvincia":"35","idCCAA":"05"}}},{"type":"Feature","geometry":{"type":"Point","coordinates":[-13.557389,28.965167]},"properties":{"id":"es-8712","source":"ES","brand":"SHELL FLICK LANZAROTE","address":"CALLE BLAS CABRERA TOPHAN, 78","municipality":"Arrecife","province":"PALMAS (LAS)","postalCode":"35500","schedule":"L-D: 06:00-22:00","fuels":{"gasoline95":1.525,"gasoline98":1.655,"diesel":1.579},"extra":{"saleType":"P","margin":"N","reportingType":"OM","ideess":"8712","idMunicipio":"5237","idProvincia":"35","idCCAA":"05"}}},{"type":"Feature","geometry":{"type":"Point","coordinates":[-13.546083,28.972389]},"properties":{"id":"es-8713","source":"ES","brand":"SHELL ARRECIFE I","address":"CALLE LEON Y CASTILLO, 194","municipality":"Arrecife","province":"PALMAS (LAS)","postalCode":"35500","schedule":"L-D: 24H","fuels":{"gasoline95":1.439,"gasoline98":1.559,"diesel":1.487,"dieselPremium":1.579},"extra":{"saleType":"P","margin":"D","reportingType":"dm","ideess":"8713","idMunicipio":"5237","idProvincia":"35","idCCAA":"05"}}},{"type":"Feature","geometry":{"type":"Point","coordinates":[-13.536278,28.979306]},"properties":{"id":"es-8714","source":"ES","brand":"DISA CIRCUNVALACION I","address":"CARRETERA CIRCUNVALACIÒN KM. 0,370","municipality":"Arrecife","province":"PALMAS (LAS)","postalCode":"35500","schedule":"L-D: 06:00-22:00","fuels":{"gasoline95":1.505,"gasoline98":1.635,"diesel":1.559,"dieselPremium":1.679},"extra":{"saleType":"P","margin":"I","reportingType":"OM","ideess":"8714","idMunicipio":"5237","idProvincia":"35","idCCAA":"05"}}},{"type":"Feature","geometry":{"type":"Point","coordinates":[-13.546528,28.972139]},"properties":{"id":"es-8716","source":"ES","brand":"SHELL ARRECIFE II","address":"CALLE LEON Y CASTILLO, 194","municipality":"Arrecife","province":"PALMAS (LAS)","postalCode":"35500","schedule":"L-D: 06:00-22:00","fuels":{"gasoline95":1.439,"gasoline98":1.559,"diesel":1.487},"extra":{"saleType":"P","margin":"I","reportingType":"dm","ideess":"8716","idMunicipio":"5237","idProvincia":"35","idCCAA":"05"}}},{"type":"Feature","geometry":{"type":"Point","coordinates":[-13.861806,28.498417]},"properties":{"id":"es-8735","source":"ES","brand":"DISA SECUNDINO ALONSO","address":"CALLE SECUNDINO ALONSO, 26","municipality":"Puerto del Rosario","province":"PALMAS (LAS)","postalCode":"35600","schedule":"L-D: 06:00-22:00","fuels":{"gasoline95":1.435,"gasoline98":1.559,"diesel":1.529,"dieselPremium":1.619},"extra":{"saleType":"P","margin":"D","reportingType":"OM","ideess":"8735","idMunicipio":"5250","idProvincia":"35","idCCAA":"05"}}}]}