{"type":"FeatureCollection","features":[{"type":"Feature","geometry":{"type":"Point","coordinates":[3.206028,41.951194]},"properties":{"id":"es-10451","source":"ES","brand":"\"BP\"BEGUR","address":"CARRER DE LA CREU, 30","municipality":"Begur","province":"GIRONA","postalCode":"17255","schedule":"L-D: 07:00-22:00","fuels":{"gasoline95":1.859,"gasoline98":2.0,"diesel":1.968,"dieselPremium":2.059},"extra":{"saleType":"P","margin":"N","reportingType":"dm","ideess":"10451","idMunicipio":"2463","idProvincia":"17","idCCAA":"09"}}},{"type":"Feature","geometry":{"type":"Point","coordinates":[3.055361,41.957472]},"properties":{"id":"es-11039","source":"ES","brand":"BP","address":"PARCELA 27 POLIGON 8 (C-66)","municipality":"Forallac","province":"GIRONA","postalCode":"17111","schedule":"L-D: 06:00-23:00","fuels":{"gasoline95":1.799,"gasoline98":1.939,"diesel":1.899,"dieselPremium":1.999,"adblue":0.999},"extra":{"saleType":"P","margin":"N","reportingType":"dm","ideess":"11039","idMunicipio":"2517","idProvincia":"17","idCCAA":"09"}}},{"type":"Feature","geometry":{"type":"Point","coordinates":[3.156833,41.917917]},"properties":{"id":"es-11671","source":"ES","brand":"\"BP\"PROPERLY, S.A.","address":"CARRER JOAN MARAGALL, 1","municipality":"Palafrugell","province":"GIRONA","postalCode":"17200","schedule":"L-D: 06:00-22:00","fuels":{"gasoline95":1.859,"gasoline98":2.0,"diesel":1.968,"dieselPremium":2.059},"extra":{"saleType":"P","margin":"N","reportingType":"dm","ideess":"11671","idMunicipio":"2559","idProvincia":"17","idCCAA":"09"}}},{"type":"Feature","geometry":{"type":"Point","coordinates":[3.153889,41.91225]},"properties":{"id":"es-12232","source":"ES","brand":"REPSOL","address":"AVENIDA ESPANYA, S/N","municipality":"Palafrugell","province":"GIRONA","postalCode":"17200","schedule":"L-D: 06:00-22:00","fuels":{"gasoline95":1.869,"gasoline98":1.979,"diesel":1.949,"dieselPremium":2.019},"extra":{"saleType":"P","margin":"D","reportingType":"OM","ideess":"12232","idMunicipio":"2559","idProvincia":"17","idCCAA":"09"}}},{"type":"Feature","geometry":{"type":"Point","coordinates":[3.119056,41.85525]},"properties":{"id":"es-12313","source":"ES","brand":"ESCLATOIL","address":"CAMINO PLÀ DEL LLOP (DEL), 2","municipality":"Palamós","province":"GIRONA","postalCode":"17230","schedule":"L-D: 24H","fuels":{"gasoline95":1.629,"diesel":1.799,"adblue":0.529},"extra":{"saleType":"P","margin":"N","reportingType":"dm","ideess":"12313","idMunicipio":"2560","idProvincia":"17","idCCAA":"09"}}},{"type":"Feature","geometry":{"type":"Point","coordinates":[3.1525,41.912611]},"properties":{"id":"es-12532","source":"ES","brand":"ANEU OIL","address":"AVENIDA GENERALITAT, 31","municipality":"Palafrugell","province":"GIRONA","postalCode":"17200","schedule":"L-D: 24H","fuels":{"gasoline95":1.639,"diesel":1.739},"extra":{"saleType":"P","margin":"D","reportingType":"dm","ideess":"12532","idMunicipio":"2559","idProvincia":"17","idCCAA":"09"}}},{"type":"Feature","geometry":{"type":"Point","coordinates":[3.166972,41.951389]},"properties":{"id":"es-12537","source":"ES","brand":"REGENCOS OIL","address":"CARRETERA C-31 KM. 1","municipality":"Regencós","province":"GIRONA","postalCode":"17214","schedule":"L-D: 05:00-23:00","fuels":{"gasoline95":1.859,"gasoline98":1.979,"diesel":1.919,"dieselPremium":1.979,"dieselB":1.599,"adblue":0.999},"extra":{"saleType":"P","margin":"D","reportingType":"dm","ideess":"12537","idMunicipio":"2584","idProvincia":"17","idCCAA":"09"}}},{"type":"Feature","geometry":{"type":"Point","coordinates":[3.159889,41.935583]},"properties":{"id":"es-12732","source":"ES","brand":"ANEU OIL","address":"CALLE DELS SALINCS, 11","municipality":"Begur","province":"GIRONA","postalCode":"17255","schedule":"L-D: 24H","fuels":{"gasoline95":1.697,"diesel":1.747,"adblue":0.777},"extra":{"saleType":"P","margin":"D","reportingType":"dm","ideess":"12732","idMunicipio":"2463","idProvincia":"17","idCCAA":"09"}}},{"type":"Feature","geometry":{"type":"Point","coordinates":[3.154361,41.923667]},"properties":{"id":"es-12752","source":"ES","brand":"SERVIOIL","address":"CALLE CADAQUES, 3","municipality":"Palafrugell","province":"GIRONA","postalCode":"17200","schedule":"L-D: 24H","fuels":{"gasoline95":1.558,"diesel":1.738,"adblue":0.75},"extra":{"saleType":"P","margin":"D","reportingType":"dm","ideess":"12752","idMunicipio":"2559","idProvincia":"17","idCCAA":"09"}}},{"type":"Feature","geometry":{"type":"Point","coordinates":[3.149306,41.927278]},"properties":{"id":"es-12829","source":"ES","brand":"ESCLATOIL","address":"AVENIDA COSTA BRAVA, S/N","municipality":"Palafrugell","province":"GIRONA","postalCode":"17200","schedule":"L-D: 24H","fuels":{"gasoline95":1.609,"diesel":1.789,"adblue":0.529},"extra":{"saleType":"P","margin":"N","reportingType":"dm","ideess":"12829","idMunicipio":"2559","idProvincia":"17","idCCAA":"09"}}},{"type":"Feature","geometry":{"type":"Point","coordinates":[3.057,41.816389]},"properties":{"id":"es-12949","source":"ES","brand":"BP PLATJA D'ARO","address":"AVENIDA PARIS, 6","municipality":"Castell-Platja d'Aro","province":"GIRONA","postalCode":"17249","schedule":"L: 07:00-23:00","fuels":{"gasoline95":1.839,"gasoline98":1.979,"diesel":1.949,"dieselPremium":2.039},"extra":{"saleType":"P","margin":"D","reportingType":"OM","ideess":"12949","idMunicipio":"2493","idProvincia":"17","idCCAA":"09"}}},{"type":"Feature","geometry":{"type":"Point","coordinates":[3.137972,41.872306]},"properties":{"id":"es-13146","source":"ES","brand":"REPSOL","address":"CARRETERA C-31 KM. 327,000","municipality":"Palamós","province":"GIRONA","postalCode":"17230","schedule":"L-D: 00:00-23:59","fuels":{"gasoline95":1.859,"gasoline98":1.979,"diesel":1.935,"dieselPremium":2.035,"lpg":1.199},"extra":{"saleType":"P","margin":"I","reportingType":"OM","ideess":"13146","idMunicipio":"2560","idProvincia":"17","idCCAA":"09"}}},{"type":"Feature","geometry":{"type":"Point","coordinates":[3.029194,41.813917]},"properties":{"id":"es-13850","source":"ES","brand":"EPSILON PLUS","address":"AVENIDA PLATJA (DE LA), 34","municipality":"Castell-Platja d'Aro","province":"GIRONA","postalCode":"17249","schedule":"L-D: 24H","fuels":{"gasoline95":1.789,"diesel":1.899,"lpg":1.099},"extra":{"saleType":"P","margin":"N","reportingType":"dm","ideess":"13850","idMunicipio":"2493","idProvincia":"17","idCCAA":"09"}}},{"type":"Feature","geometry":{"type":"Point","coordinates":[3.080361,41.853611]},"properties":{"id":"es-13975","source":"ES","brand":"ANEU OIL","address":"CARRER VAREMA, 1","municipality":"Calonge","province":"GIRONA","postalCode":"17251","schedule":"L-D: 24H","fuels":{"gasoline95":1.737,"diesel":1.777,"adblue":0.777},"extra":{"saleType":"P","margin":"D","reportingType":"dm","ideess":"13975","idMunicipio":"2481","idProvincia":"17","idCCAA":"09"}}},{"type":"Feature","geometry":{"type":"Point","coordinates":[3.157222,41.917389]},"properties":{"id":"es-14996","source":"ES","brand":"ZONA ZERO","address":"CALLE TORROELLA, 25","municipality":"Palafrugell","province":"GIRONA","postalCode":"17200","schedule":"L-D: 24H","fuels":{"gasoline95":1.558,"diesel":1.738,"adblue":0.745},"extra":{"saleType":"P","margin":"D","reportingType":"dm","ideess":"14996","idMunicipio":"2559","idProvincia":"17","idCCAA":"09"}}},{"type":"Feature","geometry":{"type":"Point","coordinates":[3.133861,41.862278]},"properties":{"id":"es-15550","source":"ES","brand":"GM OIL PALAMÓS","address":"CARRER RAFEL SAVALLS, 1","municipality":"Palamós","province":"GIRONA","postalCode":"17320","schedule":"L-D: 24H","fuels":{"gasoline95":1.599,"diesel":1.759},"extra":{"saleType":"P","margin":"D","reportingType":"dm","ideess":"15550","idMunicipio":"2560","idProvincia":"17","idCCAA":"09"}}},{"type":"Feature","geometry":{"type":"Point","coordinates":[3.031222,41.967528]},"properties":{"id":"es-1729","source":"ES","brand":"CONDIS","address":"POLIGONO DE LA AIGUETA, S/N","municipality":"Bisbal d'Empordà (La)","province":"GIRONA","postalCode":"17100","schedule":"L-D: 24H","fuels":{"gasoline95":1.649,"diesel":1.769},"extra":{"saleType":"P","margin":"N","reportingType":"dm","ideess":"1729","idMunicipio":"2468","idProvincia":"17","idCCAA":"09"}}},{"type":"Feature","geometry":{"type":"Point","coordinates":[3.031139,41.967583]},"properties":{"id":"es-1756","source":"ES","brand":"Q8","address":"CALLE L'AIGÜETA PI B2 PARCELA 11, S/N","municipality":"Bisbal d'Empordà (La)","province":"GIRONA","postalCode":"17100","schedule":"L-D: 24H","fuels":{"gasoline95":1.699,"gasoline98":1.809,"diesel":1.819,"dieselPremium":1.889},"extra":{"saleType":"P","margin":"N","reportingType":"dm","ideess":"1756","idMunicipio":"2468","idProvincia":"17","idCCAA":"09"}}},{"type":"Feature","geometry":{"type":"Point","coordinates":[3.072694,41.858389]},"properties":{"id":"es-1828","source":"ES","brand":"PETRONOR","address":"CARRETERA GE-667 KM. 1","municipality":"Calonge","province":"GIRONA","postalCode":"17251","schedule":"L-D: 06:00-22:00","fuels":{"gasoline95":1.869,"gasoline98":1.979,"diesel":1.945,"dieselPremium":2.045,"lpg":1.195},"extra":{"saleType":"P","margin":"D","reportingType":"OM","ideess":"1828","idMunicipio":"2481","idProvincia":"17","idCCAA":"09"}}},{"type":"Feature","geometry":{"type":"Point","coordinates":[3.086,41.836833]},"properties":{"id":"es-2259","source":"ES","brand":"GALP","address":"CARRETERA CTRA. C-253, P.K. 47,5 KM. 47,5","municipality":"Calonge","province":"GIRONA","postalCode":"17251","schedule":"L-D: 24H","fuels":{"gasoline95":1.719,"gasoline98":1.839,"diesel":1.834,"dieselPremium":1.884},"extra":{"saleType":"P","margin":"I","reportingType":"OM","ideess":"2259","idMunicipio":"2481","idProvincia":"17","idCCAA":"09"}}},{"type":"Feature","geometry":{"type":"Point","coordinates":[3.050861,41.816222]},"properties":{"id":"es-2273","source":"ES","brand":"REPSOL","address":"AVENIDA CASTELL D'ARO, 122","municipality":"Castell-Platja d'Aro","province":"GIRONA","postalCode":"17249","schedule":"L-D: 06:00-22:00","fuels":{"gasoline95":1.839,"gasoline95Premium":1.909,"gasoline98":1.959,"diesel":1.955,"dieselPremium":2.015,"lpg":1.199},"extra":{"saleType":"P","margin":"I","reportingType":"OM","ideess":"2273","idMunicipio":"2493","idProvincia":"17","idCCAA":"09"}}},{"type":"Feature","geometry":{"type":"Point","coordinates":[3.117444,41.850139]},"properties":{"id":"es-2319","source":"ES","brand":"REPSOL","address":"AVENIDA DE LA CERDANYA, S/N","municipality":"Calonge","province":"GIRONA","postalCode":"17251","schedule":"L-D: 24H","fuels":{"gasoline95":1.879,"gasoline98":2.049,"diesel":1.949,"dieselPremium":2.069},"extra":{"saleType":"P","margin":"D","reportingType":"dm","ideess":"2319","idMunicipio":"2481","idProvincia":"17","idCCAA":"09"}}},{"type":"Feature","geometry":{"type":"Point","coordinates":[3.020194,41.7945]},"properties":{"id":"es-2417","source":"ES","brand":"BP","address":"CARRETERA DE GIRONA C-65 KM. 0","municipality":"Sant Feliu de Guíxols","province":"GIRONA","postalCode":"17220","schedule":"L-D: 24H","fuels":{"gasoline95":1.839,"gasoline98":1.986,"diesel":1.95,"dieselPremium":2.045,"adblue":1.125},"extra":{"saleType":"P","margin":"N","reportingType":"dm","ideess":"2417","idMunicipio":"2600","idProvincia":"17","idCCAA":"09"}}},{"type":"Feature","geometry":{"type":"Point","coordinates":[3.136611,41.864056]},"properties":{"id":"es-2859","source":"ES","brand":"GALP","address":"CARRETERA C-225 KM. 42","municipality":"Palamós","province":"GIRONA","postalCode":"17230","schedule":"L-D: 06:00-22:00","fuels":{"gasoline95":1.839,"gasoline98":1.979,"diesel":1.934,"dieselPremium":1.984},"extra":{"saleType":"P","margin":"N","reportingType":"OM","ideess":"2859","idMunicipio":"2560","idProvincia":"17","idCCAA":"09"}}},{"type":"Feature","geometry":{"type":"Point","coordinates":[3.172694,41.90875]},"properties":{"id":"es-2861","source":"ES","brand":"MOEVE","address":"PARATGE SANTA MARGARIDA, 7","municipality":"Palafrugell","province":"GIRONA","postalCode":"17200","schedule":"L: 07:00-22:00","fuels":{"gasoline95":1.824,"gasoline98":1.904,"diesel":1.924,"dieselPremium":2.004},"extra":{"saleType":"P","margin":"D","reportingType":"OM","ideess":"2861","idMunicipio":"2559","idProvincia":"17","idCCAA":"09"}}},{"type":"Feature","geometry":{"type":"Point","coordinates":[3.144028,41.893444]},"properties":{"id":"es-2863","source":"ES","brand":"PETROLIS INDEPENDENTS","address":"CARRETERA C-31 KM. 38,5","municipality":"Mont-ras","province":"GIRONA","postalCode":"17253","schedule":"L-S: 07:00-21:00","fuels":{"gasoline95":1.789,"gasoline98":1.849,"diesel":1.899,"dieselPremium":1.959},"extra":{"saleType":"P","margin":"D","reportingType":"dm","ideess":"2863","idMunicipio":"2553","idProvincia":"17","idCCAA":"09"}}},{"type":"Feature","geometry":{"type":"Point","coordinates":[3.046889,41.791556]},"properties":{"id":"es-2945","source":"ES","brand":"MOEVE","address":"CARRETERA C-253 KM. 41,3","municipality":"Sant Feliu de Guíxols","province":"GIRONA","postalCode":"17220","schedule":"L-D: 07:00-23:00","fuels":{"gasoline95":1.844,"gasoline98":1.964,"diesel":1.954,"dieselPremium":2.034},"extra":{"saleType":"P","margin":"D","reportingType":"OM","ideess":"2945","idMunicipio":"2600","idProvincia":"17","idCCAA":"09"}}},{"type":"Feature","geometry":{"type":"Point","coordinates":[3.030917,41.970861]},"properties":{"id":"es-3247","source":"ES","brand":"GALP","address":"CARRETERA C-255 KM. 23,175","municipality":"Bisbal d'Empordà (La)","province":"GIRONA","postalCode":"17100","schedule":"L-D: 06:00-22:00","fuels":{"gasoline95":1.789,"gasoline98":1.949,"diesel":1.889,"dieselPremium":1.939},"extra":{"saleType":"P","margin":"I","reportingType":"OM","ideess":"3247","idMunicipio":"2468","idProvincia":"17","idCCAA":"09"}}},{"type":"Feature","geometry":{"type":"Point","coordinates":[3.020944,41.982778]},"properties":{"id":"es-6886","source":"ES","brand":"BP","address":"CARRETERA C-66 KM. 12,977","municipality":"Corçà","province":"GIRONA","postalCode":"17121","schedule":"L-D: 06:30-22:00","fuels":{"gasoline95":1.799,"gasoline98":1.939,"diesel":1.899,"dieselPremium":1.999,"dieselB":1.699,"dieselRenewable":1.899,"adblue":0.999},"extra":{"saleType":"P","margin":"D","reportingType":"dm","ideess":"6886","idMunicipio":"2500","idProvincia":"17","idCCAA":"09"}}},{"type":"Feature","geometry":{"type":"Point","coordinates":[3.052972,41.806444]},"properties":{"id":"es-8791","source":"ES","brand":"SHELL","address":"C/SANTIAGO RUSSINYOL/AV TRAMUNTANA","municipality":"Castell-Platja d'Aro","province":"GIRONA","postalCode":"17250","schedule":"L-D: 07:00-22:00","fuels":{"gasoline95":1.799,"gasoline98":1.939,"diesel":1.899,"dieselPremium":1.979},"extra":{"saleType":"P","margin":"D","reportingType":"OM","ideess":"8791","idMunicipio":"2493","idProvincia":"17","idCCAA":"09"}}}]}