{"type":"FeatureCollection","features":[{"type":"Feature","geometry":{"type":"Point","coordinates":[-4.302806,41.39025]},"properties":{"id":"es-10777","source":"ES","brand":"AN ENERGETICOS - CUELLAR GLUS I","address":"SEGOVIA km 00","municipality":"Cuéllar","province":"SEGOVIA","postalCode":"40200","schedule":"L-D: 24H","fuels":{"gasoline95":1.759,"diesel":1.719,"dieselPremium":1.719,"adblue":0.705},"extra":{"saleType":"P","margin":"I","reportingType":"dm","ideess":"10777","idMunicipio":"5904","idProvincia":"40","idCCAA":"08"}}},{"type":"Feature","geometry":{"type":"Point","coordinates":[-4.194361,41.488861]},"properties":{"id":"es-10813","source":"ES","brand":"COCOPE S.COOP","address":"CAMINO LAS FUENTE, 1","municipality":"Campaspero","province":"VALLADOLID","postalCode":"47310","schedule":"L-D: 24H","fuels":{"diesel":1.709,"dieselB":1.339},"extra":{"saleType":"P","margin":"N","reportingType":"dm","ideess":"10813","idMunicipio":"7261","idProvincia":"47","idCCAA":"08"}}},{"type":"Feature","geometry":{"type":"Point","coordinates":[-4.777583,41.132361]},"properties":{"id":"es-10827","source":"ES","brand":"REPSOL","address":"AUTOVIA NOROESTE A-6 KM. 135,500","municipality":"Palacios de Goda","province":"ÁVILA","postalCode":"05215","schedule":"L-D: 24H","fuels":{"gasoline95":1.999,"gasoline98":2.149,"diesel":1.949,"dieselPremium":1.999,"adblue":1.0},"extra":{"saleType":"P","margin":"I","reportingType":"dm","ideess":"10827","idMunicipio":"542","idProvincia":"05","idCCAA":"08"}}},{"type":"Feature","geometry":{"type":"Point","coordinates":[-4.909111,41.301806]},"properties":{"id":"es-10876","source":"ES","brand":"REPSOL","address":"AVENIDA QUINTO CENTENARIO, 2","municipality":"Medina del Campo","province":"VALLADOLID","postalCode":"47400","schedule":"L-D: 07:00-23:00","fuels":{"gasoline95":1.925,"gasoline95Premium":1.995,"gasoline98":2.085,"diesel":1.895,"dieselB":1.775,"dieselRenewable":2.005},"extra":{"saleType":"P","margin":"D","reportingType":"OM","ideess":"10876","idMunicipio":"7316","idProvincia":"47","idCCAA":"08"}}},{"type":"Feature","geometry":{"type":"Point","coordinates":[-4.368806,41.625083]},"properties":{"id":"es-11021","source":"ES","brand":"REPSOL","address":"CARRETERA SORIA N_122 KM. 329","municipality":"Quintanilla de Onésimo","province":"VALLADOLID","postalCode":"47350","schedule":"L-V: 08:00-21:00; S: 09:00-15:00","fuels":{"gasoline95":1.925,"gasoline98":2.095,"diesel":1.885,"dieselPremium":1.995},"extra":{"saleType":"P","margin":"I","reportingType":"OM","ideess":"11021","idMunicipio":"7355","idProvincia":"47","idCCAA":"08"}}},{"type":"Feature","geometry":{"type":"Point","coordinates":[-4.720778,41.618556]},"properties":{"id":"es-11330","source":"ES","brand":"GASOLINERA VALLADOLID PISUERGA","address":"CALLE RONDA INTERIOR SUR, SN","municipality":"Valladolid","province":"VALLADOLID","postalCode":"47008","schedule":"L-D: 07:00-23:00","fuels":{"gasoline95":1.759,"diesel":1.639,"adblue":0.799},"extra":{"saleType":"P","margin":"N","reportingType":"OM","ideess":"11330","idMunicipio":"7410","idProvincia":"47","idCCAA":"08"}}},{"type":"Feature","geometry":{"type":"Point","coordinates":[-4.694083,41.646306]},"properties":{"id":"es-11421","source":"ES","brand":"REPSOL","address":"CARRETERA VILLABAÑEZ KM. 100","municipality":"Valladolid","province":"VALLADOLID","postalCode":"47012","schedule":"L-D: 07:00-23:00","fuels":{"gasoline95":1.969,"gasoline98":2.109,"diesel":1.909,"dieselPremium":1.969},"extra":{"saleType":"P","margin":"D","reportingType":"OM","ideess":"11421","idMunicipio":"7410","idProvincia":"47","idCCAA":"08"}}},{"type":"Feature","geometry":{"type":"Point","coordinates":[-4.916333,41.525028]},"properties":{"id":"es-11506","source":"ES","brand":"SHELL","address":"CARRETERA VP-9803 KM. 0,7","municipality":"San Miguel del Pino","province":"VALLADOLID","postalCode":"47132","schedule":"L-D: 07:00-23:00","fuels":{"gasoline95":1.849,"gasoline98":1.989,"diesel":1.884,"dieselPremium":1.964,"adblue":1.33},"extra":{"saleType":"P","margin":"N","reportingType":"OM","ideess":"11506","idMunicipio":"7372","idProvincia":"47","idCCAA":"08"}}},{"type":"Feature","geometry":{"type":"Point","coordinates":[-4.509278,41.997306]},"properties":{"id":"es-11614","source":"ES","brand":"SHELL","address":"CALLE ANDALUCIA ESQ. AVD. COMUNIDAD EUROPEA, S/N","municipality":"Palencia","province":"PALENCIA","postalCode":"34004","schedule":"L-D: 05:30-23:30","fuels":{"gasoline95":1.819,"gasoline98":1.959,"diesel":1.769,"dieselPremium":1.849},"extra":{"saleType":"P","margin":"N","reportingType":"OM","ideess":"11614","idMunicipio":"5134","idProvincia":"34","idCCAA":"08"}}},{"type":"Feature","geometry":{"type":"Point","coordinates":[-4.724222,41.674361]},"properties":{"id":"es-11667","source":"ES","brand":"SHELL","address":"AVENIDA DE BURGOS, 51","municipality":"Valladolid","province":"VALLADOLID","postalCode":"47009","schedule":"L-D: 00:00-23:59","fuels":{"gasoline95":1.759,"gasoline98":1.959,"diesel":1.677,"dieselPremium":1.777},"extra":{"saleType":"P","margin":"I","reportingType":"OM","ideess":"11667","idMunicipio":"7410","idProvincia":"47","idCCAA":"08"}}},{"type":"Feature","geometry":{"type":"Point","coordinates":[-4.187889,41.2215]},"properties":{"id":"es-11760","source":"ES","brand":"ANDRES TEJEDOR E HIJOS","address":"CARRETERA TUREGANO KM. 18,700","municipality":"Fuentepelayo","province":"SEGOVIA","postalCode":"40260","schedule":"L-D: 24H","fuels":{"diesel":1.799},"extra":{"saleType":"P","margin":"D","reportingType":"dm","ideess":"11760","idMunicipio":"5923","idProvincia":"40","idCCAA":"08"}}},{"type":"Feature","geometry":{"type":"Point","coordinates":[-4.753333,41.605444]},"properties":{"id":"es-11958","source":"ES","brand":"REPSOL","address":"CARRETERA C-610 KM. 3,50","municipality":"Valladolid","province":"VALLADOLID","postalCode":"47008","schedule":"L-V: 06:00-22:00; S: 08:00-22:00; D: 09:00-22:00","fuels":{"gasoline95":1.955,"gasoline98":2.095,"diesel":1.919,"dieselPremium":1.979},"extra":{"saleType":"P","margin":"I","reportingType":"OM","ideess":"11958","idMunicipio":"7410","idProvincia":"47","idCCAA":"08"}}},{"type":"Feature","geometry":{"type":"Point","coordinates":[-4.705028,41.618306]},"properties":{"id":"es-11960","source":"ES","brand":"REPSOL","address":"CALLE PLATA, 40","municipality":"Valladolid","province":"VALLADOLID","postalCode":"47012","schedule":"L-S: 06:00-21:00","fuels":{"gasoline95":1.969,"gasoline98":2.139,"diesel":1.919,"dieselRenewable":1.999,"lpg":1.119},"extra":{"saleType":"P","margin":"N","reportingType":"dm","ideess":"11960","idMunicipio":"7410","idProvincia":"47","idCCAA":"08"}}},{"type":"Feature","geometry":{"type":"Point","coordinates":[-4.504417,41.368278]},"properties":{"id":"es-12055","source":"ES","brand":"MAXPETROL","address":"CARRETERA ISCAR-CUELLAR KM. 17,3","municipality":"Íscar","province":"VALLADOLID","postalCode":"47420","schedule":"L-D: 24H","fuels":{"gasoline95":1.699,"gasoline98":1.799,"diesel":1.729,"dieselPremium":1.789,"lpg":1.05},"extra":{"saleType":"P","margin":"D","reportingType":"dm","ideess":"12055","idMunicipio":"7305","idProvincia":"47","idCCAA":"08"}}},{"type":"Feature","geometry":{"type":"Point","coordinates":[-4.759639,41.627806]},"properties":{"id":"es-12395","source":"ES","brand":"REPSOL","address":"AVENIDA SALAMANCA, 80","municipality":"Valladolid","province":"VALLADOLID","postalCode":"47014","schedule":"L-D: 07:00-23:00","fuels":{"gasoline95":1.975,"gasoline98":2.145,"diesel":1.915,"dieselRenewable":2.025},"extra":{"saleType":"P","margin":"D","reportingType":"OM","ideess":"12395","idMunicipio":"7410","idProvincia":"47","idCCAA":"08"}}},{"type":"Feature","geometry":{"type":"Point","coordinates":[-4.842333,41.22225]},"properties":{"id":"es-12433","source":"ES","brand":"VALCARCE","address":"AUTOVIA A-6 KM. 147","municipality":"San Vicente del Palacio","province":"VALLADOLID","postalCode":"47493","schedule":"L-D: 24H","fuels":{"gasoline95":1.899,"diesel":1.849,"dieselPremium":1.889,"dieselB":1.529,"adblue":0.799},"extra":{"saleType":"P","margin":"D","reportingType":"dm","ideess":"12433","idMunicipio":"7378","idProvincia":"47","idCCAA":"08"}}},{"type":"Feature","geometry":{"type":"Point","coordinates":[-4.736333,41.6155]},"properties":{"id":"es-12558","source":"ES","brand":"REPSOL BUTANO","address":"CALLE BRONCE, S/N","municipality":"Valladolid","province":"VALLADOLID","postalCode":"47008","schedule":"L-V: 07:00-21:00; S-D: 07:00-14:00","fuels":{"lpg":1.115},"extra":{"saleType":"P","margin":"N","reportingType":"dm","ideess":"12558","idMunicipio":"7410","idProvincia":"47","idCCAA":"08"}}},{"type":"Feature","geometry":{"type":"Point","coordinates":[-4.253806,41.112611]},"properties":{"id":"es-12646","source":"ES","brand":"AN ENERGETICOS - CARBONERO EL MAYOR MESENOR","address":"AUTOVIA A-601 VALLADOLID-SEGOVIA KM. 90,800","municipality":"Carbonero el Mayor","province":"SEGOVIA","postalCode":"40270","schedule":"L-D: 24H","fuels":{"gasoline95":1.759,"diesel":1.719,"dieselB":1.509,"adblue":0.705},"extra":{"saleType":"P","margin":"I","reportingType":"dm","ideess":"12646","idMunicipio":"5883","idProvincia":"40","idCCAA":"08"}}},{"type":"Feature","geometry":{"type":"Point","coordinates":[-4.113917,41.603083]},"properties":{"id":"es-12711","source":"ES","brand":"AUTOSERVICIO 24H JLZ","address":"AVENIDA ESCALONA, 5","municipality":"Peñafiel","province":"VALLADOLID","postalCode":"47300","schedule":"L-D: 24H","fuels":{"gasoline95":1.859,"diesel":1.689},"extra":{"saleType":"P","margin":"D","reportingType":"dm","ideess":"12711","idMunicipio":"7342","idProvincia":"47","idCCAA":"08"}}},{"type":"Feature","geometry":{"type":"Point","coordinates":[-4.979556,41.441028]},"properties":{"id":"es-12893","source":"ES","brand":"DST","address":"CARRETERA A-6 KM. 175","municipality":"Rueda","province":"VALLADOLID","postalCode":"47490","schedule":"L-D: 24H","fuels":{"gasoline95":1.849,"diesel":1.829,"lpg":1.135},"extra":{"saleType":"P","margin":"D","reportingType":"dm","ideess":"12893","idMunicipio":"7365","idProvincia":"47","idCCAA":"08"}}},{"type":"Feature","geometry":{"type":"Point","coordinates":[-4.269944,41.186444]},"properties":{"id":"es-12974","source":"ES","brand":"NAVATRANS","address":"AUTOVIA A-601 KM. 75,9","municipality":"Navalmanzano","province":"SEGOVIA","postalCode":"40280","schedule":"L-D: 24H","fuels":{"gasoline95":1.729,"gasoline98":1.799,"diesel":1.729,"dieselPremium":1.779,"lpg":1.065,"adblue":0.649},"extra":{"saleType":"P","margin":"D","reportingType":"dm","ideess":"12974","idMunicipio":"5970","idProvincia":"40","idCCAA":"08"}}},{"type":"Feature","geometry":{"type":"Point","coordinates":[-4.769028,41.628278]},"properties":{"id":"es-12981","source":"ES","brand":"LA ESTRELLA DE QATAR","address":"CALLE SANTIAGO LOPEZ GONZALEZ, 17","municipality":"Valladolid","province":"VALLADOLID","postalCode":"47016","schedule":"L-D: 06:00-23:59","fuels":{"gasoline95":1.695,"diesel":1.66,"dieselPremium":1.7},"extra":{"saleType":"P","margin":"D","reportingType":"dm","ideess":"12981","idMunicipio":"7410","idProvincia":"47","idCCAA":"08"}}},{"type":"Feature","geometry":{"type":"Point","coordinates":[-4.510972,41.990694]},"properties":{"id":"es-13067","source":"ES","brand":"AVIA","address":"AVENIDA ANDALUCÍA, 180","municipality":"Palencia","province":"PALENCIA","postalCode":"34004","schedule":"L-D: 24H","fuels":{"gasoline95":1.799,"gasoline98":1.939,"diesel":1.899,"dieselPremium":1.979,"lpg":1.109,"adblue":0.79},"extra":{"saleType":"P","margin":"N","reportingType":"dm","ideess":"13067","idMunicipio":"5134","idProvincia":"34","idCCAA":"08"}}},{"type":"Feature","geometry":{"type":"Point","coordinates":[-4.636333,41.511056]},"properties":{"id":"es-13436","source":"ES","brand":"MAXPETROL","address":"CALLE CALVARIO, 18","municipality":"Aldeamayor de San Martín","province":"VALLADOLID","postalCode":"47162","schedule":"L-D: 24H","fuels":{"gasoline95":1.699,"diesel":1.729,"lpg":1.05},"extra":{"saleType":"P","margin":"D","reportingType":"dm","ideess":"13436","idMunicipio":"7238","idProvincia":"47","idCCAA":"08"}}},{"type":"Feature","geometry":{"type":"Point","coordinates":[-4.766556,41.660944]},"properties":{"id":"es-13449","source":"ES","brand":"GASEXPRESS","address":"AVENIDA GIJÓN, 37","municipality":"Zaratán","province":"VALLADOLID","postalCode":"47310","schedule":"L-V: 06:00-00:00; S: 09:00-14:00 y 16:00-21:00; D: 10:00-14:00 y 16:00-21:00","fuels":{"gasoline95":1.709,"diesel":1.649},"extra":{"saleType":"P","margin":"D","reportingType":"dm","ideess":"13449","idMunicipio":"7455","idProvincia":"47","idCCAA":"08"}}},{"type":"Feature","geometry":{"type":"Point","coordinates":[-4.725306,41.671139]},"properties":{"id":"es-13492","source":"ES","brand":"GASEXPRESS","address":"AVENIDA BURGOS, 82","municipality":"Valladolid","province":"VALLADOLID","postalCode":"47009","schedule":"L-V: 06:00-00:00; S: 09:00-14:00 y 16:00-21:00; D: 10:00-14:00 y 16:00-21:00","fuels":{"gasoline95":1.759,"diesel":1.717},"extra":{"saleType":"P","margin":"I","reportingType":"dm","ideess":"13492","idMunicipio":"7410","idProvincia":"47","idCCAA":"08"}}},{"type":"Feature","geometry":{"type":"Point","coordinates":[-4.726417,41.619694]},"properties":{"id":"es-13507","source":"ES","brand":"GASEXPRESS","address":"CALLE ARCA7, S/N","municipality":"Valladolid","province":"VALLADOLID","postalCode":"47007","schedule":"L-V: 06:00-00:00; S: 09:00-14:00 y 16:00-21:00; D: 10:00-14:00 y 16:00-21:00","fuels":{"gasoline95":1.729,"diesel":1.679},"extra":{"saleType":"P","margin":"D","reportingType":"dm","ideess":"13507","idMunicipio":"7410","idProvincia":"47","idCCAA":"08"}}},{"type":"Feature","geometry":{"type":"Point","coordinates":[-4.990528,41.096972]},"properties":{"id":"es-13508","source":"ES","brand":"AN ENERGETICOS - MADRIGAL","address":"CAMINO BAJORRO, S/N","municipality":"Madrigal de las Altas Torres","province":"ÁVILA","postalCode":"05220","schedule":"L-D: 24H","fuels":{"diesel":1.719,"dieselB":1.529},"extra":{"saleType":"P","margin":"D","reportingType":"dm","ideess":"13508","idMunicipio":"481","idProvincia":"05","idCCAA":"08"}}},{"type":"Feature","geometry":{"type":"Point","coordinates":[-4.735861,41.6195]},"properties":{"id":"es-13570","source":"ES","brand":"GASEXPRESS","address":"AVENIDA ZAMORA, 51","municipality":"Valladolid","province":"VALLADOLID","postalCode":"47008","schedule":"L-V: 06:00-00:00; S: 09:00-14:00 y 16:00-21:00; D: 10:00-14:00 y 16:00-21:00","fuels":{"gasoline95":1.709,"diesel":1.667},"extra":{"saleType":"P","margin":"D","reportingType":"dm","ideess":"13570","idMunicipio":"7410","idProvincia":"47","idCCAA":"08"}}},{"type":"Feature","geometry":{"type":"Point","coordinates":[-4.666944,41.433806]},"properties":{"id":"es-13574","source":"ES","brand":"MAXPETROL","address":"CALLE MIGUEL PELILLO, 30","municipality":"Mojados","province":"VALLADOLID","postalCode":"47250","schedule":"L-D: 24H","fuels":{"gasoline95":1.699,"diesel":1.729},"extra":{"saleType":"P","margin":"D","reportingType":"dm","ideess":"13574","idMunicipio":"7320","idProvincia":"47","idCCAA":"08"}}},{"type":"Feature","geometry":{"type":"Point","coordinates":[-4.696694,41.62075]},"properties":{"id":"es-13756","source":"ES","brand":"LA ESTRELLA DE QATAR","address":"CALLE TURQUESA, 71","municipality":"Valladolid","province":"VALLADOLID","postalCode":"47012","schedule":"L-D: 24H","fuels":{"gasoline95":1.699,"diesel":1.695,"dieselPremium":1.75},"extra":{"saleType":"P","margin":"I","reportingType":"dm","ideess":"13756","idMunicipio":"7410","idProvincia":"47","idCCAA":"08"}}},{"type":"Feature","geometry":{"type":"Point","coordinates":[-4.707444,41.625861]},"properties":{"id":"es-13782","source":"ES","brand":"TENCAR","address":"CALLE CROMO, 50","municipality":"Valladolid","province":"VALLADOLID","postalCode":"47012","schedule":"L-D: 24H","fuels":{"gasoline95":1.719,"diesel":1.689,"adblue":0.895},"extra":{"saleType":"P","margin":"D","reportingType":"dm","ideess":"13782","idMunicipio":"7410","idProvincia":"47","idCCAA":"08"}}},{"type":"Feature","geometry":{"type":"Point","coordinates":[-4.717611,41.619972]},"properties":{"id":"es-13813","source":"ES","brand":"LA ESTRELLA DE QATAR","address":"CALLE TEIDE, 8","municipality":"Valladolid","province":"VALLADOLID","postalCode":"47008","schedule":"L-D: 06:00-00:00","fuels":{"gasoline95":1.698,"gasoline98":1.85,"diesel":1.635,"dieselPremium":1.685},"extra":{"saleType":"P","margin":"D","reportingType":"dm","ideess":"13813","idMunicipio":"7410","idProvincia":"47","idCCAA":"08"}}},{"type":"Feature","geometry":{"type":"Point","coordinates":[-4.6975,41.60175]},"properties":{"id":"es-13834","source":"ES","brand":"ESPECIAL OIL","address":"CALLE HIDROGENO, 83","municipality":"Valladolid","province":"VALLADOLID","postalCode":"47012","schedule":"L-D: 24H","fuels":{"gasoline95":1.719,"diesel":1.699},"extra":{"saleType":"P","margin":"D","reportingType":"dm","ideess":"13834","idMunicipio":"7410","idProvincia":"47","idCCAA":"08"}}},{"type":"Feature","geometry":{"type":"Point","coordinates":[-4.672944,41.431167]},"properties":{"id":"es-14028","source":"ES","brand":"NUÑEZ VILLARREAL","address":"CARRETERA VA 404 KM. 26","municipality":"Mojados","province":"VALLADOLID","postalCode":"47250","schedule":"L-D: 24H","fuels":{"gasoline95":1.6,"diesel":1.73},"extra":{"saleType":"P","margin":"D","reportingType":"dm","ideess":"14028","idMunicipio":"7320","idProvincia":"47","idCCAA":"08"}}},{"type":"Feature","geometry":{"type":"Point","coordinates":[-4.72825,41.626889]},"properties":{"id":"es-14101","source":"ES","brand":"DST ARCA REAL","address":"CALLE CONTINUACION ARCA REAL, 111","municipality":"Valladolid","province":"VALLADOLID","postalCode":"47008","schedule":"L-D: 24H","fuels":{"gasoline95":1.709,"diesel":1.599,"dieselPremium":1.659,"adblue":0.829},"extra":{"saleType":"P","margin":"D","reportingType":"dm","ideess":"14101","idMunicipio":"7410","idProvincia":"47","idCCAA":"08"}}},{"type":"Feature","geometry":{"type":"Point","coordinates":[-4.710361,41.615806]},"properties":{"id":"es-14269","source":"ES","brand":"LOW COST SAN CRISTOBAL","address":"CALLE PLATA, 74","municipality":"Valladolid","province":"VALLADOLID","postalCode":"47012","schedule":"L-D: 24H","fuels":{"gasoline95":1.699,"diesel":1.619},"extra":{"saleType":"P","margin":"D","reportingType":"dm","ideess":"14269","idMunicipio":"7410","idProvincia":"47","idCCAA":"08"}}},{"type":"Feature","geometry":{"type":"Point","coordinates":[-4.326972,41.405972]},"properties":{"id":"es-14294","source":"ES","brand":"EL SURTIDOR","address":"CARRETERA VALLADOLID S/N FINCA 16114 KM. 148","municipality":"Cuéllar","province":"SEGOVIA","postalCode":"40200","schedule":"L-D: 24H","fuels":{"gasoline95":1.759,"diesel":1.719,"adblue":0.705},"extra":{"saleType":"P","margin":"D","reportingType":"dm","ideess":"14294","idMunicipio":"5904","idProvincia":"40","idCCAA":"08"}}},{"type":"Feature","geometry":{"type":"Point","coordinates":[-4.689889,41.6425]},"properties":{"id":"es-14350","source":"ES","brand":"DST","address":"CALLE AZALEA, 1","municipality":"Valladolid","province":"VALLADOLID","postalCode":"47012","schedule":"L-D: 24H","fuels":{"gasoline95":1.719,"diesel":1.719,"dieselPremium":1.779,"adblue":0.829},"extra":{"saleType":"P","margin":"D","reportingType":"dm","ideess":"14350","idMunicipio":"7410","idProvincia":"47","idCCAA":"08"}}},{"type":"Feature","geometry":{"type":"Point","coordinates":[-4.751611,41.660861]},"properties":{"id":"es-14537","source":"ES","brand":"PETROPRIX","address":"AVENIDA GIJON, 78","municipality":"Valladolid","province":"VALLADOLID","postalCode":"47009","schedule":"L-D: 24H","fuels":{"gasoline95":1.759,"diesel":1.717},"extra":{"saleType":"P","margin":"D","reportingType":"dm","ideess":"14537","idMunicipio":"7410","idProvincia":"47","idCCAA":"08"}}},{"type":"Feature","geometry":{"type":"Point","coordinates":[-4.737056,41.619472]},"properties":{"id":"es-14618","source":"ES","brand":"BALLENOIL","address":"AVENIDA NORTE DE CASTILLA, 54","municipality":"Valladolid","province":"VALLADOLID","postalCode":"47008","schedule":"L-D: 24H","fuels":{"gasoline95":1.709,"diesel":1.667,"dieselPremium":1.687},"extra":{"saleType":"P","margin":"D","reportingType":"OM","ideess":"14618","idMunicipio":"7410","idProvincia":"47","idCCAA":"08"}}},{"type":"Feature","geometry":{"type":"Point","coordinates":[-4.510972,41.156556]},"properties":{"id":"es-14666","source":"ES","brand":"GAR","address":"CALLE REQUIJADA, 2","municipality":"Nava de la Asunción","province":"SEGOVIA","postalCode":"40450","schedule":"L-D: 24H","fuels":{"gasoline95":1.799,"diesel":1.729},"extra":{"saleType":"P","margin":"D","reportingType":"dm","ideess":"14666","idMunicipio":"5967","idProvincia":"40","idCCAA":"08"}}},{"type":"Feature","geometry":{"type":"Point","coordinates":[-4.784389,41.635083]},"properties":{"id":"es-14688","source":"ES","brand":"DST","address":"AVENIDA RAMON Y CAJAL, S/N","municipality":"Zaratán","province":"VALLADOLID","postalCode":"47610","schedule":"L-D: 24H","fuels":{"gasoline95":1.749,"diesel":1.689,"dieselPremium":1.749,"adblue":0.829},"extra":{"saleType":"P","margin":"D","reportingType":"dm","ideess":"14688","idMunicipio":"7455","idProvincia":"47","idCCAA":"08"}}},{"type":"Feature","geometry":{"type":"Point","coordinates":[-4.945028,41.517806]},"properties":{"id":"es-14768","source":"ES","brand":"REPSOL","address":"AUTOVIA A 62 KM. 148","municipality":"Tordesillas","province":"VALLADOLID","postalCode":"47100","schedule":"L-D: 07:00-23:00","fuels":{"gasoline95":1.975,"gasoline98":2.115,"diesel":1.925,"dieselRenewable":2.035,"lpg":1.135,"adblue":1.399},"extra":{"saleType":"P","margin":"D","reportingType":"dm","ideess":"14768","idMunicipio":"7391","idProvincia":"47","idCCAA":"08"}}},{"type":"Feature","geometry":{"type":"Point","coordinates":[-4.729028,41.666167]},"properties":{"id":"es-14859","source":"ES","brand":"ESPANOIL","address":"AVENIDA BURGOS, 50","municipality":"Valladolid","province":"VALLADOLID","postalCode":"47009","schedule":"L-D: 24H","fuels":{"gasoline95":1.759,"diesel":1.717},"extra":{"saleType":"P","margin":"D","reportingType":"dm","ideess":"14859","idMunicipio":"7410","idProvincia":"47","idCCAA":"08"}}},{"type":"Feature","geometry":{"type":"Point","coordinates":[-4.7325,41.627528]},"properties":{"id":"es-14873","source":"ES","brand":"PETROPRIX","address":"CALLE DANIEL DEL OLMO GONZÁLEZ, 16","municipality":"Valladolid","province":"VALLADOLID","postalCode":"47008","schedule":"L-D: 24H","fuels":{"gasoline95":1.759,"diesel":1.717},"extra":{"saleType":"P","margin":"D","reportingType":"dm","ideess":"14873","idMunicipio":"7410","idProvincia":"47","idCCAA":"08"}}},{"type":"Feature","geometry":{"type":"Point","coordinates":[-4.729056,41.627861]},"properties":{"id":"es-14897","source":"ES","brand":"PLENERGY","address":"CALLE DANIEL DEL OLMO 23, 23","municipality":"Valladolid","province":"VALLADOLID","postalCode":"47008","schedule":"L-D: 24H","fuels":{"gasoline95":1.759,"diesel":1.717},"extra":{"saleType":"P","margin":"D","reportingType":"dm","ideess":"14897","idMunicipio":"7410","idProvincia":"47","idCCAA":"08"}}},{"type":"Feature","geometry":{"type":"Point","coordinates":[-4.268694,41.185361]},"properties":{"id":"es-14935","source":"ES","brand":"BEROIL NAVALMANZANO","address":"POLIGONO POLIGONO 13, PARCELA 46. MOLINO, 46","municipality":"Navalmanzano","province":"SEGOVIA","postalCode":"40280","schedule":"L-D: 24H","fuels":{"gasoline95":1.689,"diesel":1.699,"adblue":0.6},"extra":{"saleType":"P","margin":"D","reportingType":"dm","ideess":"14935","idMunicipio":"5970","idProvincia":"40","idCCAA":"08"}}},{"type":"Feature","geometry":{"type":"Point","coordinates":[-4.920861,41.322111]},"properties":{"id":"es-14937","source":"ES","brand":"PETROPRIX","address":"AVENIDA DE LA CONSTITUCION, 82","municipality":"Medina del Campo","province":"VALLADOLID","postalCode":"47400","schedule":"L-D: 24H","fuels":{"gasoline95":1.699,"diesel":1.617},"extra":{"saleType":"P","margin":"D","reportingType":"dm","ideess":"14937","idMunicipio":"7316","idProvincia":"47","idCCAA":"08"}}},{"type":"Feature","geometry":{"type":"Point","coordinates":[-4.766556,41.626083]},"properties":{"id":"es-15074","source":"ES","brand":"BALLENOIL","address":"CALLE SANTIAGO LOPEZ GONZALEZ, 3","municipality":"Valladolid","province":"VALLADOLID","postalCode":"47197","schedule":"L-D: 24H","fuels":{"gasoline95":1.709,"diesel":1.667,"dieselPremium":1.687},"extra":{"saleType":"P","margin":"D","reportingType":"OM","ideess":"15074","idMunicipio":"7410","idProvincia":"47","idCCAA":"08"}}},{"type":"Feature","geometry":{"type":"Point","coordinates":[-4.267944,41.209028]},"properties":{"id":"es-15076","source":"ES","brand":"HAM","address":"CARRETERA TUREGANO-NAVAS DE ORO KM. 1","municipality":"Navalmanzano","province":"SEGOVIA","postalCode":"40280","schedule":"L-D: 24H","fuels":{"lng":1.599,"bioLng":1.569},"extra":{"saleType":"P","margin":"D","reportingType":"dm","ideess":"15076","idMunicipio":"5970","idProvincia":"40","idCCAA":"08"}}},{"type":"Feature","geometry":{"type":"Point","coordinates":[-4.761972,41.628333]},"properties":{"id":"es-15212","source":"ES","brand":"LAS PALMERAS","address":"CALLE FRANCISCO UMBRAL, 3","municipality":"Valladolid","province":"VALLADOLID","postalCode":"47197","schedule":"L-D: 24H","fuels":{"gasoline95":1.777,"gasoline98":1.957,"diesel":1.777,"dieselPremium":1.807,"adblue":0.949},"extra":{"saleType":"P","margin":"I","reportingType":"dm","ideess":"15212","idMunicipio":"7410","idProvincia":"47","idCCAA":"08"}}},{"type":"Feature","geometry":{"type":"Point","coordinates":[-4.915944,41.324417]},"properties":{"id":"es-15415","source":"ES","brand":"LOWCOST MEDINA","address":"CALLE ALARIFES, 3","municipality":"Medina del Campo","province":"VALLADOLID","postalCode":"47400","schedule":"L-D: 24H","fuels":{"gasoline95":1.699,"diesel":1.627},"extra":{"saleType":"P","margin":"D","reportingType":"dm","ideess":"15415","idMunicipio":"7316","idProvincia":"47","idCCAA":"08"}}},{"type":"Feature","geometry":{"type":"Point","coordinates":[-4.786889,41.618194]},"properties":{"id":"es-15521","source":"ES","brand":"GASEXPRESS VALLADOLID 5","address":"CALLE FELIPE II, 2","municipality":"Arroyo de la Encomienda","province":"VALLADOLID","postalCode":"47195","schedule":"L-D: 24H","fuels":{"gasoline95":1.729,"diesel":1.681},"extra":{"saleType":"P","margin":"D","reportingType":"dm","ideess":"15521","idMunicipio":"7241","idProvincia":"47","idCCAA":"08"}}},{"type":"Feature","geometry":{"type":"Point","coordinates":[-4.730472,41.664278]},"properties":{"id":"es-15556","source":"ES","brand":"PLENERGY","address":"AVENIDA BURGOS, 36","municipality":"Valladolid","province":"VALLADOLID","postalCode":"47071","schedule":"L-D: 24H","fuels":{"gasoline95":1.759,"diesel":1.717},"extra":{"saleType":"P","margin":"D","reportingType":"dm","ideess":"15556","idMunicipio":"7410","idProvincia":"47","idCCAA":"08"}}},{"type":"Feature","geometry":{"type":"Point","coordinates":[-4.77075,41.623833]},"properties":{"id":"es-15578","source":"ES","brand":"MOEVE","address":"AVENIDA SALAMANCA, 25","municipality":"Arroyo de la Encomienda","province":"VALLADOLID","postalCode":"47195","schedule":"L-D: 07:00-23:00","fuels":{"gasoline95":1.954,"gasoline95Premium":2.004,"diesel":1.909,"dieselPremium":1.989},"extra":{"saleType":"P","margin":"I","reportingType":"OM","ideess":"15578","idMunicipio":"7241","idProvincia":"47","idCCAA":"08"}}},{"type":"Feature","geometry":{"type":"Point","coordinates":[-4.470222,41.973028]},"properties":{"id":"es-15658","source":"ES","brand":"CEPSA","address":"AUTOVIA A610 KM. 5,5","municipality":"Villamuriel de Cerrato","province":"PALENCIA","postalCode":"34190","schedule":"L-D: 07:00-23:00","fuels":{"gasoline95":1.944,"gasoline98":2.024,"diesel":1.909,"dieselPremium":1.989},"extra":{"saleType":"P","margin":"D","reportingType":"OM","ideess":"15658","idMunicipio":"5215","idProvincia":"34","idCCAA":"08"}}},{"type":"Feature","geometry":{"type":"Point","coordinates":[-4.728611,41.067944]},"properties":{"id":"es-15660","source":"ES","brand":"BEROIL","address":"CALLE FUENTE EL SAUZ, 1","municipality":"Arévalo","province":"ÁVILA","postalCode":"05100","schedule":"L-D: 24H","fuels":{"gasoline95":1.739,"diesel":1.749,"dieselB":1.489,"adblue":0.6},"extra":{"saleType":"P","margin":"D","reportingType":"dm","ideess":"15660","idMunicipio":"392","idProvincia":"05","idCCAA":"08"}}},{"type":"Feature","geometry":{"type":"Point","coordinates":[-4.769778,41.623056]},"properties":{"id":"es-15678","source":"ES","brand":"BALLENOIL","address":"AVENIDA SALAMANCA, 21","municipality":"Arroyo de la Encomienda","province":"VALLADOLID","postalCode":"47195","schedule":"L-D: 24H","fuels":{"gasoline95":1.709,"diesel":1.667,"dieselPremium":1.687},"extra":{"saleType":"P","margin":"D","reportingType":"OM","ideess":"15678","idMunicipio":"7241","idProvincia":"47","idCCAA":"08"}}},{"type":"Feature","geometry":{"type":"Point","coordinates":[-4.827056,41.696889]},"properties":{"id":"es-15742","source":"ES","brand":"BEROIL VILLANUBLA","address":"AVENIDA FUENTES CLARAS, 1","municipality":"Villanubla","province":"VALLADOLID","postalCode":"47620","schedule":"L-D: 24H","fuels":{"gasoline95":1.709,"diesel":1.639,"adblue":0.6},"extra":{"saleType":"P","margin":"D","reportingType":"dm","ideess":"15742","idMunicipio":"7440","idProvincia":"47","idCCAA":"08"}}},{"type":"Feature","geometry":{"type":"Point","coordinates":[-4.692806,41.617417]},"properties":{"id":"es-15759","source":"ES","brand":"PLENERGY","address":"AVENIDA DE SORIA 28-B, S/N","municipality":"Valladolid","province":"VALLADOLID","postalCode":"47012","schedule":"L-D: 24H","fuels":{"gasoline95":1.749,"diesel":1.737},"extra":{"saleType":"P","margin":"D","reportingType":"dm","ideess":"15759","idMunicipio":"7410","idProvincia":"47","idCCAA":"08"}}},{"type":"Feature","geometry":{"type":"Point","coordinates":[-4.703917,41.621056]},"properties":{"id":"es-15788","source":"ES","brand":"TEXACOIL","address":"CALLE PIRITA, 49","municipality":"Valladolid","province":"VALLADOLID","postalCode":"47012","schedule":"L-D: 24H","fuels":{"gasoline95":1.719,"diesel":1.699,"adblue":0.9},"extra":{"saleType":"P","margin":"N","reportingType":"dm","ideess":"15788","idMunicipio":"7410","idProvincia":"47","idCCAA":"08"}}},{"type":"Feature","geometry":{"type":"Point","coordinates":[-4.723306,41.592]},"properties":{"id":"es-15862","source":"ES","brand":"PLENERGY","address":"CALLE ROBLE, 1","municipality":"Laguna de Duero","province":"VALLADOLID","postalCode":"47140","schedule":"L-D: 24H","fuels":{"gasoline95":1.779,"diesel":1.749},"extra":{"saleType":"P","margin":"D","reportingType":"dm","ideess":"15862","idMunicipio":"7306","idProvincia":"47","idCCAA":"08"}}},{"type":"Feature","geometry":{"type":"Point","coordinates":[-4.542917,41.358361]},"properties":{"id":"es-15928","source":"ES","brand":"ION+","address":"CALLE SAN MIGUEL, 47","municipality":"Íscar","province":"VALLADOLID","postalCode":"47420","schedule":"L: 24H","fuels":{"gasoline95":1.699,"diesel":1.729,"adblue":0.75},"extra":{"saleType":"P","margin":"D","reportingType":"dm","ideess":"15928","idMunicipio":"7305","idProvincia":"47","idCCAA":"08"}}},{"type":"Feature","geometry":{"type":"Point","coordinates":[-4.699472,41.64525]},"properties":{"id":"es-16056","source":"ES","brand":"BALLENOIL","address":"CALLE SANTA MARIA DE LA CABEZA, 28","municipality":"Valladolid","province":"VALLADOLID","postalCode":"47012","schedule":"L-D: 24H","fuels":{"gasoline95":1.709,"diesel":1.667,"dieselPremium":1.687},"extra":{"saleType":"P","margin":"N","reportingType":"OM","ideess":"16056","idMunicipio":"7410","idProvincia":"47","idCCAA":"08"}}},{"type":"Feature","geometry":{"type":"Point","coordinates":[-4.075917,41.786306]},"properties":{"id":"es-16212","source":"ES","brand":"AGROPAL","address":"CARRETERA P-140 KM. 5","municipality":"Castrillo de Don Juan","province":"PALENCIA","postalCode":"34246","schedule":"L-V: 09:00-13:30 y 16:00-19:00","fuels":{"dieselB":1.488},"extra":{"saleType":"P","margin":"D","reportingType":"dm","ideess":"16212","idMunicipio":"5078","idProvincia":"34","idCCAA":"08"}}},{"type":"Feature","geometry":{"type":"Point","coordinates":[-4.710972,41.632389]},"properties":{"id":"es-16351","source":"ES","brand":"PETROPRIX","address":"CALLE CARRACA, 4","municipality":"Valladolid","province":"VALLADOLID","postalCode":"47013","schedule":"L-D: 24H","fuels":{"gasoline95":1.759,"diesel":1.717},"extra":{"saleType":"P","margin":"D","reportingType":"dm","ideess":"16351","idMunicipio":"7410","idProvincia":"47","idCCAA":"08"}}},{"type":"Feature","geometry":{"type":"Point","coordinates":[-4.918306,41.319]},"properties":{"id":"es-16503","source":"ES","brand":"BALLENOIL","address":"AVENIDA CONSTITUCIÓN, 71","municipality":"Medina del Campo","province":"VALLADOLID","postalCode":"47400","schedule":"L-D: 24H","fuels":{"gasoline95":1.699,"gasoline95Premium":1.709,"diesel":1.617,"dieselPremium":1.627},"extra":{"saleType":"P","margin":"N","reportingType":"OM","ideess":"16503","idMunicipio":"7316","idProvincia":"47","idCCAA":"08"}}},{"type":"Feature","geometry":{"type":"Point","coordinates":[-4.849111,41.042333]},"properties":{"id":"es-4927","source":"ES","brand":"LAS CORREHUELAS, S.L","address":"CARRETERA C-605 KM. 72","municipality":"Villanueva del Aceral","province":"ÁVILA","postalCode":"05212","schedule":"L-D: 07:00-23:00","fuels":{"gasoline95":1.879,"diesel":1.919,"dieselPremium":1.979,"adblue":0.99},"extra":{"saleType":"P","margin":"I","reportingType":"dm","ideess":"4927","idMunicipio":"621","idProvincia":"05","idCCAA":"08"}}},{"type":"Feature","geometry":{"type":"Point","coordinates":[-4.59875,41.345139]},"properties":{"id":"es-4928","source":"ES","brand":"E.S.PEDRAJAS","address":"CARRETERA CTRA.ALCAZAREN-PEDRAJAS, KM8 KM. ","municipality":"Pedrajas de San Esteban","province":"VALLADOLID","postalCode":"47430","schedule":"L-D: 07:00-22:00","fuels":{"gasoline95":1.698,"diesel":1.688,"dieselPremium":1.738,"dieselB":1.52,"adblue":0.75},"extra":{"saleType":"P","margin":"I","reportingType":"dm","ideess":"4928","idMunicipio":"7340","idProvincia":"47","idCCAA":"08"}}},{"type":"Feature","geometry":{"type":"Point","coordinates":[-4.718722,41.587083]},"properties":{"id":"es-4930","source":"ES","brand":"AVIA","address":"AVENIDA DE MADRID, 1","municipality":"Laguna de Duero","province":"VALLADOLID","postalCode":"47140","schedule":"L-D: 24H","fuels":{"gasoline95":1.829,"diesel":1.779,"dieselPremium":1.839,"adblue":0.999},"extra":{"saleType":"P","margin":"N","reportingType":"dm","ideess":"4930","idMunicipio":"7306","idProvincia":"47","idCCAA":"08"}}},{"type":"Feature","geometry":{"type":"Point","coordinates":[-4.683056,41.687417]},"properties":{"id":"es-4932","source":"ES","brand":"SERVATRA","address":"CARRETERA VIEJA DE SANTANDER Nº 22 KM. ","municipality":"Santovenia de Pisuerga","province":"VALLADOLID","postalCode":"47155","schedule":"L-V: 07:00-22:00; S: 09:00-14:00","fuels":{"gasoline95":1.689,"diesel":1.779,"adblue":0.83},"extra":{"saleType":"P","margin":"I","reportingType":"dm","ideess":"4932","idMunicipio":"7382","idProvincia":"47","idCCAA":"08"}}},{"type":"Feature","geometry":{"type":"Point","coordinates":[-4.119111,41.347444]},"properties":{"id":"es-4960","source":"ES","brand":"REPOSTAR","address":"CARRERA RIAZA A TORO, SN","municipality":"Hontalbilla","province":"SEGOVIA","postalCode":"40353","schedule":"L-D: 24H","fuels":{"gasoline95":1.87,"diesel":1.839,"dieselPremium":1.959,"dieselB":1.469},"extra":{"saleType":"P","margin":"N","reportingType":"dm","ideess":"4960","idMunicipio":"5934","idProvincia":"40","idCCAA":"08"}}},{"type":"Feature","geometry":{"type":"Point","coordinates":[-4.960806,41.406111]},"properties":{"id":"es-4965","source":"ES","brand":"LOS CEAS","address":"CARRETERA MADRID KM. 171","municipality":"Rueda","province":"VALLADOLID","postalCode":"47490","schedule":"L-D: 07:00-23:00","fuels":{"gasoline95":1.859,"gasoline98":2.019,"diesel":1.829,"dieselPremium":1.879},"extra":{"saleType":"P","margin":"D","reportingType":"dm","ideess":"4965","idMunicipio":"7365","idProvincia":"47","idCCAA":"08"}}},{"type":"Feature","geometry":{"type":"Point","coordinates":[-4.768083,41.661806]},"properties":{"id":"es-5510","source":"ES","brand":"REPOSTAR--ZARATAN","address":"ADVA. GIJON, N-601 km 194,6","municipality":"Zaratán","province":"VALLADOLID","postalCode":"47610","schedule":"L-D: 07:00-22:00","fuels":{"gasoline95":1.783,"gasoline98":1.933,"diesel":1.829,"dieselPremium":1.899,"biodiesel":1.827},"extra":{"saleType":"P","margin":"N","reportingType":"dm","ideess":"5510","idMunicipio":"7455","idProvincia":"47","idCCAA":"08"}}},{"type":"Feature","geometry":{"type":"Point","coordinates":[-4.678083,41.692194]},"properties":{"id":"es-5513","source":"ES","brand":"AVIA U.S. LA AGUILERA","address":"CAÑADA LA AGUILERA, S/N","municipality":"Santovenia de Pisuerga","province":"VALLADOLID","postalCode":"47155","schedule":"L-D: 24H","fuels":{"gasoline95":1.866,"diesel":1.836},"extra":{"saleType":"P","margin":"N","reportingType":"dm","ideess":"5513","idMunicipio":"7382","idProvincia":"47","idCCAA":"08"}}},{"type":"Feature","geometry":{"type":"Point","coordinates":[-4.698639,41.04375]},"properties":{"id":"es-5978","source":"ES","brand":"REPSOL","address":"CR N-6 123   A","municipality":"Arévalo","province":"ÁVILA","postalCode":"05200","schedule":"L-V: 07:00-23:00; S: 07:00-15:00","fuels":{"gasoline95":1.879,"gasoline98":2.049,"diesel":1.909,"dieselRenewable":2.019},"extra":{"saleType":"P","margin":"D","reportingType":"OM","ideess":"5978","idMunicipio":"392","idProvincia":"05","idCCAA":"08"}}},{"type":"Feature","geometry":{"type":"Point","coordinates":[-5.0,41.092972]},"properties":{"id":"es-5990","source":"ES","brand":"F.COCA P. S.L.","address":"CARRETERA CR C610 KM. 26,2","municipality":"Madrigal de las Altas Torres","province":"ÁVILA","postalCode":"05220","schedule":"L-S: 07:00-22:00; D: 08:00-14:00","fuels":{"gasoline95":1.899,"gasoline98":2.029,"diesel":1.869,"dieselPremium":1.929,"dieselB":1.529,"adblue":0.899},"extra":{"saleType":"P","margin":"I","reportingType":"dm","ideess":"5990","idMunicipio":"481","idProvincia":"05","idCCAA":"08"}}},{"type":"Feature","geometry":{"type":"Point","coordinates":[-4.720528,41.059611]},"properties":{"id":"es-6048","source":"ES","brand":"REPSOL","address":"PLAZA FRAY JUAN GIL, 2, ","municipality":"Arévalo","province":"ÁVILA","postalCode":"05200","schedule":"L-S: 08:00-22:00","fuels":{"gasoline95":1.909,"diesel":1.919},"extra":{"saleType":"P","margin":"D","reportingType":"OM","ideess":"6048","idMunicipio":"392","idProvincia":"05","idCCAA":"08"}}},{"type":"Feature","geometry":{"type":"Point","coordinates":[-4.664472,41.010083]},"properties":{"id":"es-6058","source":"ES","brand":"REPSOL","address":"CR A-6, 118,5","municipality":"Espinosa de los Caballeros","province":"ÁVILA","postalCode":"05296","schedule":"L-D: 07:00-23:00","fuels":{"gasoline95":1.879,"gasoline98":2.049,"diesel":1.929,"dieselRenewable":2.029,"lpg":1.185},"extra":{"saleType":"P","margin":"D","reportingType":"OM","ideess":"6058","idMunicipio":"442","idProvincia":"05","idCCAA":"08"}}},{"type":"Feature","geometry":{"type":"Point","coordinates":[-4.5185,41.991611]},"properties":{"id":"es-6079","source":"ES","brand":"CARREFOUR","address":"AVENIDA DE MADRID, 37","municipality":"Palencia","province":"PALENCIA","postalCode":"34004","schedule":"L-D: 24H","fuels":{"gasoline95":1.879,"gasoline98":1.939,"diesel":1.849,"dieselPremium":1.889},"extra":{"saleType":"P","margin":"N","reportingType":"dm","ideess":"6079","idMunicipio":"5134","idProvincia":"34","idCCAA":"08"}}},{"type":"Feature","geometry":{"type":"Point","coordinates":[-4.774333,41.659722]},"properties":{"id":"es-6091","source":"ES","brand":"GASOLINERA ZARATAN","address":"CALLE PARQUE DE OCIO EQUINOCIO, S/N","municipality":"Zaratán","province":"VALLADOLID","postalCode":"47610","schedule":"L-D: 07:00-23:00","fuels":{"gasoline95":1.759,"diesel":1.659},"extra":{"saleType":"P","margin":"N","reportingType":"OM","ideess":"6091","idMunicipio":"7455","idProvincia":"47","idCCAA":"08"}}},{"type":"Feature","geometry":{"type":"Point","coordinates":[-4.763278,41.642833]},"properties":{"id":"es-6092","source":"ES","brand":"CARREFOUR","address":"AUTOVIA PUENTE COLGANTE, URB. PARQUE SOL KM. S/N","municipality":"Valladolid","province":"VALLADOLID","postalCode":"47014","schedule":"L-D: 24H","fuels":{"gasoline95":1.869,"gasoline98":2.009,"diesel":1.809,"dieselPremium":1.849},"extra":{"saleType":"P","margin":"N","reportingType":"dm","ideess":"6092","idMunicipio":"7410","idProvincia":"47","idCCAA":"08"}}},{"type":"Feature","geometry":{"type":"Point","coordinates":[-4.708639,41.670028]},"properties":{"id":"es-6093","source":"ES","brand":"CARREFOUR","address":"CALLE COSTA BRAVA, 2","municipality":"Valladolid","province":"VALLADOLID","postalCode":"47010","schedule":"L-D: 24H","fuels":{"gasoline95":1.869,"gasoline98":2.069,"diesel":1.809,"dieselPremium":1.849},"extra":{"saleType":"P","margin":"N","reportingType":"dm","ideess":"6093","idMunicipio":"7410","idProvincia":"47","idCCAA":"08"}}},{"type":"Feature","geometry":{"type":"Point","coordinates":[-4.6995,41.536222]},"properties":{"id":"es-6107","source":"ES","brand":"MOEVE","address":"CARRETERA MADRID KM. 177","municipality":"Boecillo","province":"VALLADOLID","postalCode":"47151","schedule":"L-D: 07:00-23:00","fuels":{"gasoline95":1.954,"gasoline95Premium":2.004,"diesel":1.909,"dieselPremium":1.989,"dieselB":1.809},"extra":{"saleType":"P","margin":"I","reportingType":"OM","ideess":"6107","idMunicipio":"7254","idProvincia":"47","idCCAA":"08"}}},{"type":"Feature","geometry":{"type":"Point","coordinates":[-4.94175,41.78625]},"properties":{"id":"es-6124","source":"ES","brand":"SHELL","address":"CARRERA NACIONAL 601, 218,1","municipality":"Mudarra (La)","province":"VALLADOLID","postalCode":"47630","schedule":"L-V: 06:30-23:00; S-D: 08:00-23:00","fuels":{"gasoline95":1.903,"gasoline98":2.042,"diesel":1.812,"dieselPremium":1.866},"extra":{"saleType":"P","margin":"I","reportingType":"dm","ideess":"6124","idMunicipio":"7329","idProvincia":"47","idCCAA":"08"}}},{"type":"Feature","geometry":{"type":"Point","coordinates":[-4.453833,41.439333]},"properties":{"id":"es-6137","source":"ES","brand":"MOEVE","address":"CARRETERA CL-601 KM. 35,5","municipality":"San Miguel del Arroyo","province":"VALLADOLID","postalCode":"47164","schedule":"L-D: 06:00-22:00","fuels":{"gasoline95":1.839,"diesel":1.889,"dieselPremium":1.945,"dieselB":1.638},"extra":{"saleType":"P","margin":"D","reportingType":"dm","ideess":"6137","idMunicipio":"7371","idProvincia":"47","idCCAA":"08"}}},{"type":"Feature","geometry":{"type":"Point","coordinates":[-4.860583,41.566278]},"properties":{"id":"es-6140","source":"ES","brand":"MOEVE","address":"A-62 km 138,6","municipality":"Simancas","province":"VALLADOLID","postalCode":"47130","schedule":"L-D: 24H","fuels":{"gasoline95":1.949,"gasoline98":2.059,"diesel":1.914,"dieselPremium":1.994},"extra":{"saleType":"P","margin":"D","reportingType":"OM","ideess":"6140","idMunicipio":"7387","idProvincia":"47","idCCAA":"08"}}},{"type":"Feature","geometry":{"type":"Point","coordinates":[-4.85975,41.565833]},"properties":{"id":"es-6141","source":"ES","brand":"MOEVE","address":"AUTOVIA A-62 KM. 138,6","municipality":"Simancas","province":"VALLADOLID","postalCode":"47130","schedule":"L-D: 06:00-22:00","fuels":{"gasoline95":1.949,"gasoline98":2.059,"diesel":1.914,"dieselPremium":1.994},"extra":{"saleType":"P","margin":"I","reportingType":"OM","ideess":"6141","idMunicipio":"7387","idProvincia":"47","idCCAA":"08"}}},{"type":"Feature","geometry":{"type":"Point","coordinates":[-4.704417,41.652]},"properties":{"id":"es-6148","source":"ES","brand":"MOEVE","address":"CTRA. DE CIRCUNVALACION, 113","municipality":"Valladolid","province":"VALLADOLID","postalCode":"47011","schedule":"L-D: 06:00-23:00","fuels":{"gasoline95":1.954,"gasoline95Premium":2.004,"diesel":1.909,"dieselPremium":1.989},"extra":{"saleType":"P","margin":"D","reportingType":"OM","ideess":"6148","idMunicipio":"7410","idProvincia":"47","idCCAA":"08"}}},{"type":"Feature","geometry":{"type":"Point","coordinates":[-4.701222,41.712556]},"properties":{"id":"es-6150","source":"ES","brand":"CEPSA","address":"AUTOVIA BURGOS KM. 117","municipality":"Valladolid","province":"VALLADOLID","postalCode":"47009","schedule":"L-V: 07:00-22:00; S-D: 09:00-18:00","fuels":{"gasoline95":1.824,"gasoline98":1.914,"diesel":1.964,"dieselPremium":2.054,"dieselB":1.662,"adblue":0.85},"extra":{"saleType":"P","margin":"I","reportingType":"dm","ideess":"6150","idMunicipio":"7410","idProvincia":"47","idCCAA":"08"}}},{"type":"Feature","geometry":{"type":"Point","coordinates":[-4.656111,41.598583]},"properties":{"id":"es-6165","source":"ES","brand":"MOEVE","address":"N-122 km 353,8","municipality":"Cistérniga","province":"VALLADOLID","postalCode":"47193","schedule":"L-D: 07:00-23:00","fuels":{"gasoline95":1.954,"gasoline95Premium":2.004,"diesel":1.919,"dieselPremium":1.989},"extra":{"saleType":"P","margin":"I","reportingType":"OM","ideess":"6165","idMunicipio":"7283","idProvincia":"47","idCCAA":"08"}}},{"type":"Feature","geometry":{"type":"Point","coordinates":[-4.699306,41.052917]},"properties":{"id":"es-6166","source":"ES","brand":"GALP","address":"AUTOVIA A-6 KM. 124","municipality":"Martín Muñoz de la Dehesa","province":"SEGOVIA","postalCode":"40466","schedule":"L-D: 07:00-23:00","fuels":{"gasoline95":1.939,"gasoline98":2.079,"diesel":1.869,"dieselPremium":1.919,"adblue":0.799},"extra":{"saleType":"P","margin":"D","reportingType":"OM","ideess":"6166","idMunicipio":"5951","idProvincia":"40","idCCAA":"08"}}},{"type":"Feature","geometry":{"type":"Point","coordinates":[-4.33425,41.409167]},"properties":{"id":"es-6168","source":"ES","brand":"REPSOL","address":"CR CL-601 , 46","municipality":"Cuéllar","province":"SEGOVIA","postalCode":"40200","schedule":"L-V: 06:00-22:00; S: 07:00-22:00; D: 07:00-23:00","fuels":{"gasoline95":1.945,"diesel":1.925,"dieselPremium":1.985},"extra":{"saleType":"P","margin":"D","reportingType":"OM","ideess":"6168","idMunicipio":"5904","idProvincia":"40","idCCAA":"08"}}},{"type":"Feature","geometry":{"type":"Point","coordinates":[-4.19175,41.143028]},"properties":{"id":"es-6169","source":"ES","brand":"REPSOL","address":"CARRETERA YANGUAS-PEÑAFIEL KM. 11,700","municipality":"Mozoncillo","province":"SEGOVIA","postalCode":"40250","schedule":"L-S: 07:30-22:00; D: 09:00-15:00","fuels":{"gasoline95":1.969,"gasoline98":2.149,"diesel":1.909,"dieselPremium":1.999,"dieselB":1.709},"extra":{"saleType":"P","margin":"I","reportingType":"dm","ideess":"6169","idMunicipio":"5964","idProvincia":"40","idCCAA":"08"}}},{"type":"Feature","geometry":{"type":"Point","coordinates":[-4.810306,41.603694]},"properties":{"id":"es-6176","source":"ES","brand":"REPSOL","address":"AUTOVIA A-62 KM. 132,6","municipality":"Simancas","province":"VALLADOLID","postalCode":"47130","schedule":"L-D: 24H","fuels":{"gasoline95":1.975,"gasoline98":2.145,"diesel":1.919,"dieselRenewable":2.029},"extra":{"saleType":"P","margin":"I","reportingType":"OM","ideess":"6176","idMunicipio":"7387","idProvincia":"47","idCCAA":"08"}}},{"type":"Feature","geometry":{"type":"Point","coordinates":[-4.175444,41.612611]},"properties":{"id":"es-6179","source":"ES","brand":"REPSOL","address":"CR N-122, 312","municipality":"Peñafiel","province":"VALLADOLID","postalCode":"47314","schedule":"L-V: 07:00-22:00; S-D: 09:00-22:00","fuels":{"gasoline95":1.979,"gasoline98":2.139,"diesel":1.899,"dieselPremium":1.969,"dieselB":1.729},"extra":{"saleType":"P","margin":"D","reportingType":"dm","ideess":"6179","idMunicipio":"7342","idProvincia":"47","idCCAA":"08"}}},{"type":"Feature","geometry":{"type":"Point","coordinates":[-4.685056,41.386556]},"properties":{"id":"es-6180","source":"ES","brand":"MOEVE","address":"CARRETERA N-601, PK. 159,40 KM. ","municipality":"Alcazarén","province":"VALLADOLID","postalCode":"47238","schedule":"L-V: 06:30-21:30; S: 09:00-14:00","fuels":{"gasoline95":1.905,"gasoline95Premium":1.965,"diesel":1.865,"dieselPremium":1.925,"adblue":0.83},"extra":{"saleType":"P","margin":"I","reportingType":"dm","ideess":"6180","idMunicipio":"7236","idProvincia":"47","idCCAA":"08"}}},{"type":"Feature","geometry":{"type":"Point","coordinates":[-4.75625,41.621556]},"properties":{"id":"es-6181","source":"ES","brand":"REPSOL","address":"CALLE CAMINO VIEJO DE SIMANCAS, 46","municipality":"Valladolid","province":"VALLADOLID","postalCode":"47008","schedule":"L-D: 07:00-23:00","fuels":{"gasoline95":1.959,"gasoline95Premium":2.029,"gasoline98":2.079,"diesel":1.915,"dieselRenewable":2.025},"extra":{"saleType":"P","margin":"D","reportingType":"OM","ideess":"6181","idMunicipio":"7410","idProvincia":"47","idCCAA":"08"}}},{"type":"Feature","geometry":{"type":"Point","coordinates":[-4.441222,41.606861]},"properties":{"id":"es-6185","source":"ES","brand":"HAFESA OIL","address":"CR N-122, 335,4","municipality":"Sardón de Duero","province":"VALLADOLID","postalCode":"47340","schedule":"L-X: 06:00-22:00; J-D: 08:30-13:30 y 16:00-19:00","fuels":{"gasoline95":1.829,"gasoline95Premium":1.839,"diesel":1.769,"dieselPremium":1.779,"adblue":0.899},"extra":{"saleType":"P","margin":"D","reportingType":"dm","ideess":"6185","idMunicipio":"7383","idProvincia":"47","idCCAA":"08"}}},{"type":"Feature","geometry":{"type":"Point","coordinates":[-4.690083,41.508972]},"properties":{"id":"es-6194","source":"ES","brand":"REPSOL","address":"CARRETERA N-601 KM. 173,8","municipality":"Pedraja de Portillo (La)","province":"VALLADOLID","postalCode":"47196","schedule":"L-D: 07:00-23:00","fuels":{"gasoline95":1.925,"gasoline98":2.095,"diesel":1.889,"dieselPremium":1.969},"extra":{"saleType":"P","margin":"I","reportingType":"OM","ideess":"6194","idMunicipio":"7339","idProvincia":"47","idCCAA":"08"}}},{"type":"Feature","geometry":{"type":"Point","coordinates":[-4.887778,41.275306]},"properties":{"id":"es-6198","source":"ES","brand":"REPSOL","address":"AUTOVIA A - 6 MADRID-LA CORUÑA KM. 154,100","municipality":"Medina del Campo","province":"VALLADOLID","postalCode":"47400","schedule":"L-D: 24H","fuels":{"gasoline95":1.959,"gasoline95Premium":2.029,"gasoline98":2.129,"diesel":1.889,"dieselPremium":1.949},"extra":{"saleType":"P","margin":"D","reportingType":"OM","ideess":"6198","idMunicipio":"7316","idProvincia":"47","idCCAA":"08"}}},{"type":"Feature","geometry":{"type":"Point","coordinates":[-4.848167,41.220694]},"properties":{"id":"es-6199","source":"ES","brand":"REPSOL","address":"AUTOVIA A6 KM. 147,200","municipality":"San Vicente del Palacio","province":"VALLADOLID","postalCode":"47493","schedule":"L-V: 24H; S: 00:00-16:00; D: 10:00-00:00","fuels":{"gasoline95":1.949,"gasoline98":2.099,"diesel":1.899,"dieselPremium":1.959,"adblue":1.169},"extra":{"saleType":"P","margin":"I","reportingType":"dm","ideess":"6199","idMunicipio":"7378","idProvincia":"47","idCCAA":"08"}}},{"type":"Feature","geometry":{"type":"Point","coordinates":[-4.564028,41.835389]},"properties":{"id":"es-6202","source":"ES","brand":"REPSOL","address":"CR A-62, 98,9","municipality":"Dueñas","province":"PALENCIA","postalCode":"34210","schedule":"L-D: 05:00-23:00","fuels":{"gasoline95":1.969,"gasoline98":2.139,"diesel":1.929,"dieselRenewable":2.039},"extra":{"saleType":"P","margin":"D","reportingType":"OM","ideess":"6202","idMunicipio":"5094","idProvincia":"34","idCCAA":"08"}}},{"type":"Feature","geometry":{"type":"Point","coordinates":[-4.322861,41.511]},"properties":{"id":"es-6210","source":"ES","brand":"COCOPE S.COOP.","address":"CALLE Real, 81","municipality":"Cogeces del Monte","province":"VALLADOLID","postalCode":"47313","schedule":"L-D: 24H","fuels":{"gasoline95":1.699,"diesel":1.709,"dieselB":1.339,"adblue":0.7},"extra":{"saleType":"P","margin":"I","reportingType":"dm","ideess":"6210","idMunicipio":"7285","idProvincia":"47","idCCAA":"08"}}},{"type":"Feature","geometry":{"type":"Point","coordinates":[-4.721889,41.637139]},"properties":{"id":"es-6220","source":"ES","brand":"REPSOL","address":"AVENIDA SEGOVIA, 44","municipality":"Valladolid","province":"VALLADOLID","postalCode":"47013","schedule":"L-D: 07:00-23:00","fuels":{"gasoline95":1.949,"gasoline98":2.119,"diesel":1.899,"dieselPremium":1.959},"extra":{"saleType":"P","margin":"I","reportingType":"OM","ideess":"6220","idMunicipio":"7410","idProvincia":"47","idCCAA":"08"}}},{"type":"Feature","geometry":{"type":"Point","coordinates":[-4.72825,41.668]},"properties":{"id":"es-6222","source":"ES","brand":"REPSOL","address":"AVENIDA DE BURGOS, 33","municipality":"Valladolid","province":"VALLADOLID","postalCode":"47009","schedule":"L-D: 07:00-23:00","fuels":{"gasoline95":1.955,"gasoline95Premium":2.035,"gasoline98":2.125,"diesel":1.905,"dieselPremium":1.965},"extra":{"saleType":"P","margin":"D","reportingType":"OM","ideess":"6222","idMunicipio":"7410","idProvincia":"47","idCCAA":"08"}}},{"type":"Feature","geometry":{"type":"Point","coordinates":[-4.895778,41.539972]},"properties":{"id":"es-6227","source":"ES","brand":"REPSOL","address":"CARRETERA A-62 KM. 142","municipality":"Tordesillas","province":"VALLADOLID","postalCode":"47132","schedule":"L-D: 07:00-23:00","fuels":{"gasoline95":1.975,"gasoline98":2.115,"diesel":1.935,"dieselRenewable":2.035},"extra":{"saleType":"P","margin":"D","reportingType":"OM","ideess":"6227","idMunicipio":"7391","idProvincia":"47","idCCAA":"08"}}},{"type":"Feature","geometry":{"type":"Point","coordinates":[-4.746639,41.637972]},"properties":{"id":"es-6233","source":"ES","brand":"REPSOL","address":"AVENIDA SALAMANCA, 126","municipality":"Valladolid","province":"VALLADOLID","postalCode":"47014","schedule":"L-D: 07:00-23:00","fuels":{"gasoline95":1.975,"gasoline98":2.115,"diesel":1.915,"dieselRenewable":2.025,"lpg":1.135},"extra":{"saleType":"P","margin":"D","reportingType":"OM","ideess":"6233","idMunicipio":"7410","idProvincia":"47","idCCAA":"08"}}},{"type":"Feature","geometry":{"type":"Point","coordinates":[-4.73075,41.664139]},"properties":{"id":"es-6239","source":"ES","brand":"CEPSA","address":"AVENIDA BURGOS, 34","municipality":"Valladolid","province":"VALLADOLID","postalCode":"47009","schedule":"L-D: 07:00-22:00","fuels":{"gasoline95":1.909,"gasoline95Premium":1.989,"diesel":1.849,"dieselPremium":1.929,"lpg":1.0},"extra":{"saleType":"P","margin":"D","reportingType":"dm","ideess":"6239","idMunicipio":"7410","idProvincia":"47","idCCAA":"08"}}},{"type":"Feature","geometry":{"type":"Point","coordinates":[-4.911028,41.305194]},"properties":{"id":"es-6246","source":"ES","brand":"REPSOL","address":"AVENIDA DEL CUARTEL, 1","municipality":"Medina del Campo","province":"VALLADOLID","postalCode":"47400","schedule":"L: 07:00-23:00","fuels":{"gasoline95":1.925,"gasoline98":2.085,"diesel":1.895,"dieselRenewable":2.005},"extra":{"saleType":"P","margin":"N","reportingType":"OM","ideess":"6246","idMunicipio":"7316","idProvincia":"47","idCCAA":"08"}}},{"type":"Feature","geometry":{"type":"Point","coordinates":[-4.681167,41.287889]},"properties":{"id":"es-6247","source":"ES","brand":"REPSOL","address":"CR N-601 149","municipality":"Olmedo","province":"VALLADOLID","postalCode":"47410","schedule":"L-D: 08:00-20:00","fuels":{"gasoline95":1.925,"diesel":1.885},"extra":{"saleType":"P","margin":"I","reportingType":"OM","ideess":"6247","idMunicipio":"7334","idProvincia":"47","idCCAA":"08"}}},{"type":"Feature","geometry":{"type":"Point","coordinates":[-4.733472,41.6605]},"properties":{"id":"es-6248","source":"ES","brand":"CEPSA","address":"PLAZA SAN BARTOLOME, SN","municipality":"Valladolid","province":"VALLADOLID","postalCode":"47009","schedule":"L: 07:00-22:00","fuels":{"gasoline95":1.909,"diesel":1.899,"dieselPremium":1.969},"extra":{"saleType":"P","margin":"I","reportingType":"dm","ideess":"6248","idMunicipio":"7410","idProvincia":"47","idCCAA":"08"}}},{"type":"Feature","geometry":{"type":"Point","coordinates":[-4.726361,41.618806]},"properties":{"id":"es-6255","source":"ES","brand":"REPSOL","address":"CR N-601, 187","municipality":"Valladolid","province":"VALLADOLID","postalCode":"47008","schedule":"L-D: 24H","fuels":{"gasoline95":1.949,"gasoline95Premium":2.019,"gasoline98":2.069,"diesel":1.909,"dieselRenewable":2.019},"extra":{"saleType":"P","margin":"I","reportingType":"OM","ideess":"6255","idMunicipio":"7410","idProvincia":"47","idCCAA":"08"}}},{"type":"Feature","geometry":{"type":"Point","coordinates":[-4.732111,41.628806]},"properties":{"id":"es-6259","source":"ES","brand":"REPSOL","address":"AVENIDA NORTE DE CASTILLA, 1","municipality":"Valladolid","province":"VALLADOLID","postalCode":"47008","schedule":"L-D: 06:00-22:00","fuels":{"gasoline95":1.955,"gasoline98":2.125,"diesel":1.915,"dieselRenewable":2.015},"extra":{"saleType":"P","margin":"D","reportingType":"OM","ideess":"6259","idMunicipio":"7410","idProvincia":"47","idCCAA":"08"}}},{"type":"Feature","geometry":{"type":"Point","coordinates":[-4.709417,41.608861]},"properties":{"id":"es-6260","source":"ES","brand":"REPSOL","address":"CARRETERA CL-601 KM. 4,8","municipality":"Valladolid","province":"VALLADOLID","postalCode":"47012","schedule":"L-D: 06:00-23:00","fuels":{"gasoline95":1.969,"gasoline98":2.139,"diesel":1.925,"dieselRenewable":2.025},"extra":{"saleType":"P","margin":"D","reportingType":"OM","ideess":"6260","idMunicipio":"7410","idProvincia":"47","idCCAA":"08"}}},{"type":"Feature","geometry":{"type":"Point","coordinates":[-4.52675,41.213417]},"properties":{"id":"es-6269","source":"ES","brand":"REPSOL","address":"CARRETERA CUELLAR-ALDEANUEVA 32.6 KM. 3431","municipality":"Coca","province":"SEGOVIA","postalCode":"40480","schedule":"L-V: 07:00-21:00; S: 08:00-15:00","fuels":{"gasoline95":1.949,"diesel":1.909,"dieselPremium":1.999,"dieselB":1.439},"extra":{"saleType":"P","margin":"D","reportingType":"dm","ideess":"6269","idMunicipio":"5897","idProvincia":"40","idCCAA":"08"}}},{"type":"Feature","geometry":{"type":"Point","coordinates":[-4.484083,41.145028]},"properties":{"id":"es-6270","source":"ES","brand":"REPSOL","address":"CARRETERA SG-341 STA.MA.NIEVA-NAVA 10.1 KM. 341","municipality":"Nava de la Asunción","province":"SEGOVIA","postalCode":"40450","schedule":"L-S: 06:00-22:00; D: 08:00-22:00","fuels":{"gasoline95":1.949,"diesel":1.909,"dieselPremium":1.999,"dieselB":1.439},"extra":{"saleType":"P","margin":"I","reportingType":"dm","ideess":"6270","idMunicipio":"5967","idProvincia":"40","idCCAA":"08"}}},{"type":"Feature","geometry":{"type":"Point","coordinates":[-4.724333,41.672694]},"properties":{"id":"es-6277","source":"ES","brand":"REPSOL","address":"AVENIDA BURGOS, 100","municipality":"Valladolid","province":"VALLADOLID","postalCode":"47009","schedule":"L-D: 07:00-23:00","fuels":{"gasoline95":1.949,"gasoline95Premium":2.029,"gasoline98":2.119,"diesel":1.905,"dieselRenewable":2.015},"extra":{"saleType":"P","margin":"I","reportingType":"OM","ideess":"6277","idMunicipio":"7410","idProvincia":"47","idCCAA":"08"}}},{"type":"Feature","geometry":{"type":"Point","coordinates":[-4.299639,41.291694]},"properties":{"id":"es-6283","source":"ES","brand":"REPSOL","address":"AUTOVIA CL 601 KM. 63","municipality":"Gomezserracín","province":"SEGOVIA","postalCode":"40240","schedule":"L-S: 07:00-22:00; D: 09:00-22:00","fuels":{"gasoline95":1.939,"diesel":1.919,"dieselPremium":1.979,"dieselB":1.679},"extra":{"saleType":"P","margin":"D","reportingType":"OM","ideess":"6283","idMunicipio":"5931","idProvincia":"40","idCCAA":"08"}}},{"type":"Feature","geometry":{"type":"Point","coordinates":[-4.727306,41.629611]},"properties":{"id":"es-6290","source":"ES","brand":"REPSOL","address":"PASEO ARCO DE LADRILLO, 65","municipality":"Valladolid","province":"VALLADOLID","postalCode":"47013","schedule":"L-D: 06:00-23:00","fuels":{"gasoline95":1.949,"gasoline98":2.119,"diesel":1.899,"dieselPremium":1.959},"extra":{"saleType":"P","margin":"D","reportingType":"OM","ideess":"6290","idMunicipio":"7410","idProvincia":"47","idCCAA":"08"}}},{"type":"Feature","geometry":{"type":"Point","coordinates":[-4.114806,41.602528]},"properties":{"id":"es-6291","source":"ES","brand":"REPSOL","address":"AVENIDA ESCALONA, 19","municipality":"Peñafiel","province":"VALLADOLID","postalCode":"47300","schedule":"L-S: 07:00-23:00; D: 09:00-21:00","fuels":{"gasoline95":2.029,"gasoline98":2.139,"diesel":1.909,"dieselPremium":1.969,"dieselB":1.689,"lpg":1.119,"adblue":0.87},"extra":{"saleType":"P","margin":"N","reportingType":"dm","ideess":"6291","idMunicipio":"7342","idProvincia":"47","idCCAA":"08"}}},{"type":"Feature","geometry":{"type":"Point","coordinates":[-4.510639,41.913361]},"properties":{"id":"es-6294","source":"ES","brand":"REPSOL","address":"AUTOVIA A-62 KM. 88,850","municipality":"Dueñas","province":"PALENCIA","postalCode":"34210","schedule":"L-D: 07:00-23:00","fuels":{"gasoline95":1.969,"gasoline98":2.139,"diesel":1.919,"dieselPremium":1.979},"extra":{"saleType":"P","margin":"D","reportingType":"OM","ideess":"6294","idMunicipio":"5094","idProvincia":"34","idCCAA":"08"}}},{"type":"Feature","geometry":{"type":"Point","coordinates":[-4.512583,41.911889]},"properties":{"id":"es-6295","source":"ES","brand":"REPSOL","address":"CARRETERA N-620 KM. 88,9","municipality":"Dueñas","province":"PALENCIA","postalCode":"34210","schedule":"L-D: 24H","fuels":{"gasoline95":1.969,"gasoline98":2.109,"diesel":1.939,"dieselRenewable":2.039,"lpg":1.175},"extra":{"saleType":"P","margin":"I","reportingType":"OM","ideess":"6295","idMunicipio":"5094","idProvincia":"34","idCCAA":"08"}}},{"type":"Feature","geometry":{"type":"Point","coordinates":[-4.263333,41.11775]},"properties":{"id":"es-6298","source":"ES","brand":"REPSOL","address":"CR CL-601, 83,7","municipality":"Carbonero el Mayor","province":"SEGOVIA","postalCode":"40270","schedule":"L-S: 07:00-22:00; D: 08:00-22:00","fuels":{"gasoline95":1.935,"gasoline98":2.105,"diesel":1.895,"dieselPremium":2.005},"extra":{"saleType":"P","margin":"D","reportingType":"dm","ideess":"6298","idMunicipio":"5883","idProvincia":"40","idCCAA":"08"}}},{"type":"Feature","geometry":{"type":"Point","coordinates":[-4.658667,41.541917]},"properties":{"id":"es-6302","source":"ES","brand":"VALCARCE","address":"AUTOVIA CARRETERA SG 601 KM 13,75 KM. 13,750","municipality":"Aldeamayor de San Martín","province":"VALLADOLID","postalCode":"47162","schedule":"L-D: 24H","fuels":{"gasoline95":1.799,"diesel":1.769},"extra":{"saleType":"P","margin":"N","reportingType":"dm","ideess":"6302","idMunicipio":"7238","idProvincia":"47","idCCAA":"08"}}},{"type":"Feature","geometry":{"type":"Point","coordinates":[-4.539611,41.359028]},"properties":{"id":"es-6313","source":"ES","brand":"REPSOL","address":"CR C-112, 21","municipality":"Íscar","province":"VALLADOLID","postalCode":"47420","schedule":"L-D: 07:00-23:00","fuels":{"gasoline95":1.925,"gasoline98":2.095,"diesel":1.885,"dieselPremium":1.945},"extra":{"saleType":"P","margin":"I","reportingType":"OM","ideess":"6313","idMunicipio":"7305","idProvincia":"47","idCCAA":"08"}}},{"type":"Feature","geometry":{"type":"Point","coordinates":[-4.305333,41.394417]},"properties":{"id":"es-6316","source":"ES","brand":"REPSOL","address":"CARRETERA CL-601 KM. 51,1","municipality":"Cuéllar","province":"SEGOVIA","postalCode":"40200","schedule":"L-D: 07:00-23:00","fuels":{"gasoline95":1.959,"gasoline98":2.119,"diesel":1.899,"dieselRenewable":2.009},"extra":{"saleType":"P","margin":"I","reportingType":"OM","ideess":"6316","idMunicipio":"5904","idProvincia":"40","idCCAA":"08"}}},{"type":"Feature","geometry":{"type":"Point","coordinates":[-4.704111,41.631528]},"properties":{"id":"es-6323","source":"ES","brand":"GALP","address":"CARRETERA SORIA KM. 3,200","municipality":"Valladolid","province":"VALLADOLID","postalCode":"47012","schedule":"L-D: 06:00-20:00","fuels":{"gasoline95":1.919,"diesel":1.879,"dieselPremium":1.929,"adblue":0.799},"extra":{"saleType":"P","margin":"D","reportingType":"OM","ideess":"6323","idMunicipio":"7410","idProvincia":"47","idCCAA":"08"}}},{"type":"Feature","geometry":{"type":"Point","coordinates":[-4.681639,41.282361]},"properties":{"id":"es-6325","source":"ES","brand":"GALP","address":"CARRETERA N-601 KM. 147,8","municipality":"Olmedo","province":"VALLADOLID","postalCode":"47410","schedule":"L-D: 07:00-23:00","fuels":{"gasoline95":1.919,"gasoline95Premium":1.969,"diesel":1.879,"dieselPremium":1.929,"adblue":0.799},"extra":{"saleType":"P","margin":"I","reportingType":"OM","ideess":"6325","idMunicipio":"7334","idProvincia":"47","idCCAA":"08"}}},{"type":"Feature","geometry":{"type":"Point","coordinates":[-4.742167,41.680694]},"properties":{"id":"es-6327","source":"ES","brand":"REPSOL","address":"CARRETERA FUENSALDAÑA KM. 2,7","municipality":"Valladolid","province":"VALLADOLID","postalCode":"47609","schedule":"L-D: 07:00-23:00","fuels":{"gasoline95":1.975,"gasoline98":2.145,"diesel":1.909,"dieselPremium":1.969},"extra":{"saleType":"P","margin":"D","reportingType":"OM","ideess":"6327","idMunicipio":"7410","idProvincia":"47","idCCAA":"08"}}},{"type":"Feature","geometry":{"type":"Point","coordinates":[-4.916472,41.318139]},"properties":{"id":"es-6330","source":"ES","brand":"REPSOL","address":"AVENIDA DE LA CONSTITUCION, 54","municipality":"Medina del Campo","province":"VALLADOLID","postalCode":"47400","schedule":"L-D: 07:00-23:00","fuels":{"gasoline95":1.925,"gasoline98":2.085,"diesel":1.895,"dieselRenewable":2.005},"extra":{"saleType":"P","margin":"D","reportingType":"OM","ideess":"6330","idMunicipio":"7316","idProvincia":"47","idCCAA":"08"}}},{"type":"Feature","geometry":{"type":"Point","coordinates":[-4.598167,41.475833]},"properties":{"id":"es-6339","source":"ES","brand":"REPSOL","address":"CR CL-601, 22,7","municipality":"Portillo","province":"VALLADOLID","postalCode":"47160","schedule":"L-D: 06:30-22:30","fuels":{"gasoline95":1.945,"gasoline98":2.115,"diesel":1.895,"dieselB":1.765,"dieselRenewable":2.005},"extra":{"saleType":"P","margin":"D","reportingType":"OM","ideess":"6339","idMunicipio":"7349","idProvincia":"47","idCCAA":"08"}}},{"type":"Feature","geometry":{"type":"Point","coordinates":[-4.667667,41.453528]},"properties":{"id":"es-6344","source":"ES","brand":"REPSOL","address":"CR N-601, 167,7","municipality":"Mojados","province":"VALLADOLID","postalCode":"47250","schedule":"L-D: 07:00-23:00","fuels":{"gasoline95":1.925,"gasoline98":2.095,"diesel":1.885,"dieselRenewable":1.995},"extra":{"saleType":"P","margin":"D","reportingType":"OM","ideess":"6344","idMunicipio":"7320","idProvincia":"47","idCCAA":"08"}}},{"type":"Feature","geometry":{"type":"Point","coordinates":[-4.607056,41.591583]},"properties":{"id":"es-6345","source":"ES","brand":"REPSOL","address":"AUTOVIA A-11 KM. 349","municipality":"Tudela de Duero","province":"VALLADOLID","postalCode":"47320","schedule":"L-S: 07:00-22:00","fuels":{"gasoline95":1.959,"gasoline98":2.129,"diesel":1.899,"dieselPremium":1.969},"extra":{"saleType":"P","margin":"I","reportingType":"OM","ideess":"6345","idMunicipio":"7401","idProvincia":"47","idCCAA":"08"}}},{"type":"Feature","geometry":{"type":"Point","coordinates":[-4.416639,41.986639]},"properties":{"id":"es-6346","source":"ES","brand":"REPSOL","address":"CARRETERA N-620 KM. 76","municipality":"Magaz de Pisuerga","province":"PALENCIA","postalCode":"34220","schedule":"L-V: 07:00-22:00; S: 08:00-22:00; D: 09:00-22:00","fuels":{"gasoline95":1.929,"gasoline95Premium":1.999,"diesel":1.909,"dieselPremium":1.969},"extra":{"saleType":"P","margin":"I","reportingType":"OM","ideess":"6346","idMunicipio":"5117","idProvincia":"34","idCCAA":"08"}}},{"type":"Feature","geometry":{"type":"Point","coordinates":[-4.773583,41.622861]},"properties":{"id":"es-6356","source":"ES","brand":"REPSOL","address":"AVENIDA SALAMANCA, 34","municipality":"Arroyo de la Encomienda","province":"VALLADOLID","postalCode":"47195","schedule":"L-D: 06:30-22:30","fuels":{"gasoline95":1.969,"gasoline98":2.139,"diesel":1.909,"dieselPremium":1.969},"extra":{"saleType":"P","margin":"D","reportingType":"OM","ideess":"6356","idMunicipio":"7241","idProvincia":"47","idCCAA":"08"}}},{"type":"Feature","geometry":{"type":"Point","coordinates":[-4.807472,41.182028]},"properties":{"id":"es-6357","source":"ES","brand":"REPSOL","address":"AUTOVIA A6 KM. 141","municipality":"Ataquines","province":"VALLADOLID","postalCode":"47210","schedule":"L-D: 06:30-23:00","fuels":{"gasoline95":1.909,"gasoline98":2.049,"diesel":1.875,"dieselB":1.735,"dieselRenewable":2.029,"lpg":1.184,"adblue":0.999},"extra":{"saleType":"P","margin":"D","reportingType":"dm","ideess":"6357","idMunicipio":"7242","idProvincia":"47","idCCAA":"08"}}},{"type":"Feature","geometry":{"type":"Point","coordinates":[-4.659833,41.744056]},"properties":{"id":"es-6360","source":"ES","brand":"REPSOL","address":"CARRETERA A-62 KM. 112","municipality":"Cabezón de Pisuerga","province":"VALLADOLID","postalCode":"47260","schedule":"L-D: 06:30-22:30","fuels":{"gasoline95":1.959,"gasoline98":2.129,"diesel":1.925,"dieselRenewable":2.035},"extra":{"saleType":"P","margin":"D","reportingType":"OM","ideess":"6360","idMunicipio":"7258","idProvincia":"47","idCCAA":"08"}}},{"type":"Feature","geometry":{"type":"Point","coordinates":[-4.6495,41.134167]},"properties":{"id":"es-6363","source":"ES","brand":"REPSOL","address":"CR N-601, 131","municipality":"Tolocirio","province":"SEGOVIA","postalCode":"40467","schedule":"L-V: 07:00-22:00; S-D: 08:00-22:00","fuels":{"gasoline95":1.805,"gasoline98":1.975,"diesel":1.959,"dieselPremium":2.069},"extra":{"saleType":"P","margin":"D","reportingType":"OM","ideess":"6363","idMunicipio":"6026","idProvincia":"40","idCCAA":"08"}}},{"type":"Feature","geometry":{"type":"Point","coordinates":[-4.007611,41.153472]},"properties":{"id":"es-6366","source":"ES","brand":"REPSOL","address":"CARRETERA ARANDA DE DUERO  -  SEGOVIA KM. 68","municipality":"Turégano","province":"SEGOVIA","postalCode":"40370","schedule":"L-S: 07:00-21:30; D: 08:00-21:30","fuels":{"gasoline95":1.945,"diesel":1.905,"dieselPremium":1.945,"adblue":0.95},"extra":{"saleType":"P","margin":"D","reportingType":"dm","ideess":"6366","idMunicipio":"6033","idProvincia":"40","idCCAA":"08"}}},{"type":"Feature","geometry":{"type":"Point","coordinates":[-4.441861,41.339722]},"properties":{"id":"es-6373","source":"ES","brand":"REPSOL","address":"CARRETERA SEGOVIA 333 KM. 13,90","municipality":"Chañe","province":"SEGOVIA","postalCode":"40216","schedule":"L-S: 07:00-14:00 y 15:30-21:00; D: 08:00-12:00","fuels":{"gasoline95":1.945,"diesel":1.895,"dieselPremium":2.005,"dieselB":1.685},"extra":{"saleType":"P","margin":"D","reportingType":"OM","ideess":"6373","idMunicipio":"5894","idProvincia":"40","idCCAA":"08"}}},{"type":"Feature","geometry":{"type":"Point","coordinates":[-4.256528,41.940083]},"properties":{"id":"es-6376","source":"ES","brand":"REPSOL","address":"CR C-619, 64","municipality":"Baltanás","province":"PALENCIA","postalCode":"34240","schedule":"L-V: 07:00-22:00","fuels":{"gasoline95":1.945,"gasoline98":2.115,"diesel":1.885,"dieselPremium":1.995},"extra":{"saleType":"P","margin":"I","reportingType":"OM","ideess":"6376","idMunicipio":"5056","idProvincia":"34","idCCAA":"08"}}},{"type":"Feature","geometry":{"type":"Point","coordinates":[-4.403333,41.068028]},"properties":{"id":"es-6377","source":"ES","brand":"POLO","address":"CL CORONEL ORTEGA 45 (C-605 km 30)","municipality":"Santa María la Real de Nieva","province":"SEGOVIA","postalCode":"40440","schedule":"L-D: 24H","fuels":{"gasoline95":1.759,"diesel":1.789,"dieselPremium":1.889,"adblue":0.939},"extra":{"saleType":"P","margin":"D","reportingType":"dm","ideess":"6377","idMunicipio":"6012","idProvincia":"40","idCCAA":"08"}}},{"type":"Feature","geometry":{"type":"Point","coordinates":[-4.51975,41.992639]},"properties":{"id":"es-6378","source":"ES","brand":"REPSOL","address":"AVENIDA MADRID, 2","municipality":"Palencia","province":"PALENCIA","postalCode":"34004","schedule":"L: 07:00-23:00","fuels":{"gasoline95":1.889,"gasoline98":2.059,"diesel":1.849,"dieselPremium":1.899},"extra":{"saleType":"P","margin":"D","reportingType":"dm","ideess":"6378","idMunicipio":"5134","idProvincia":"34","idCCAA":"08"}}},{"type":"Feature","geometry":{"type":"Point","coordinates":[-4.640111,41.658278]},"properties":{"id":"es-6379","source":"ES","brand":"REPSOL","address":"CARRETERA VALLADOLID-TORTOLES KM. 7","municipality":"Renedo de Esgueva","province":"VALLADOLID","postalCode":"47170","schedule":"L-D: 07:00-23:00","fuels":{"gasoline95":1.959,"gasoline98":2.089,"diesel":1.909,"dieselPremium":1.959,"adblue":1.1},"extra":{"saleType":"P","margin":"I","reportingType":"dm","ideess":"6379","idMunicipio":"7360","idProvincia":"47","idCCAA":"08"}}},{"type":"Feature","geometry":{"type":"Point","coordinates":[-4.582806,41.809667]},"properties":{"id":"es-6383","source":"ES","brand":"REPSOL","address":"AUTOVIA A-62 KM. 102","municipality":"Cubillas de Santa Marta","province":"VALLADOLID","postalCode":"47290","schedule":"L-D: 24H","fuels":{"gasoline95":1.945,"gasoline98":2.105,"diesel":1.939,"dieselPremium":1.989,"adblue":0.83},"extra":{"saleType":"P","margin":"D","reportingType":"dm","ideess":"6383","idMunicipio":"7288","idProvincia":"47","idCCAA":"08"}}},{"type":"Feature","geometry":{"type":"Point","coordinates":[-4.58375,41.809722]},"properties":{"id":"es-6384","source":"ES","brand":"REPSOL","address":"AUTOVIA A-62 KM. 102","municipality":"Cubillas de Santa Marta","province":"VALLADOLID","postalCode":"47290","schedule":"L-D: 06:00-00:00","fuels":{"gasoline95":1.945,"gasoline98":2.105,"diesel":1.939,"dieselPremium":1.989,"adblue":0.83},"extra":{"saleType":"P","margin":"I","reportingType":"dm","ideess":"6384","idMunicipio":"7288","idProvincia":"47","idCCAA":"08"}}},{"type":"Feature","geometry":{"type":"Point","coordinates":[-4.48975,41.926722]},"properties":{"id":"es-6390","source":"ES","brand":"REPSOL","address":"CARRETERA BURGOS KM. 19","municipality":"Venta de Baños","province":"PALENCIA","postalCode":"34200","schedule":"L-D: 06:00-22:00","fuels":{"gasoline95":1.959,"gasoline98":2.129,"diesel":1.909,"dieselPremium":1.969},"extra":{"saleType":"P","margin":"D","reportingType":"OM","ideess":"6390","idMunicipio":"5194","idProvincia":"34","idCCAA":"08"}}},{"type":"Feature","geometry":{"type":"Point","coordinates":[-4.402972,41.848444]},"properties":{"id":"es-6394","source":"ES","brand":"AGROPAL","address":"CARRETERA CEVICO-HERMEDES, 1 KM. 1","municipality":"Cevico de la Torre","province":"PALENCIA","postalCode":"34218","schedule":"L-D: 24H","fuels":{"gasoline95":1.617,"diesel":1.717},"extra":{"saleType":"P","margin":"I","reportingType":"dm","ideess":"6394","idMunicipio":"5084","idProvincia":"34","idCCAA":"08"}}},{"type":"Feature","geometry":{"type":"Point","coordinates":[-4.861028,41.461389]},"properties":{"id":"es-6399","source":"ES","brand":"REPSOL","address":"CARRETERA C A-610 KM. 26","municipality":"Serrada","province":"VALLADOLID","postalCode":"47239","schedule":"L-D: 07:00-22:00","fuels":{"gasoline95":1.925,"gasoline98":2.095,"diesel":1.899,"dieselRenewable":2.009},"extra":{"saleType":"P","margin":"I","reportingType":"OM","ideess":"6399","idMunicipio":"7385","idProvincia":"47","idCCAA":"08"}}},{"type":"Feature","geometry":{"type":"Point","coordinates":[-4.718611,41.674278]},"properties":{"id":"es-6406","source":"ES","brand":"REPSOL","address":"CL CAMINO CABILDO, S.N.","municipality":"Valladolid","province":"VALLADOLID","postalCode":"47009","schedule":"L-D: 06:00-23:00","fuels":{"gasoline95":1.969,"gasoline98":2.139,"diesel":1.915,"dieselPremium":1.975,"lpg":1.119},"extra":{"saleType":"P","margin":"D","reportingType":"OM","ideess":"6406","idMunicipio":"7410","idProvincia":"47","idCCAA":"08"}}},{"type":"Feature","geometry":{"type":"Point","coordinates":[-4.519444,41.957222]},"properties":{"id":"es-6408","source":"ES","brand":"REPSOL","address":"CARRETERA P-900 KM. 5","municipality":"Villamuriel de Cerrato","province":"PALENCIA","postalCode":"34190","schedule":"L-D: 08:00-21:00","fuels":{"gasoline95":1.889,"diesel":1.849,"dieselPremium":1.899},"extra":{"saleType":"P","margin":"I","reportingType":"dm","ideess":"6408","idMunicipio":"5215","idProvincia":"34","idCCAA":"08"}}},{"type":"Feature","geometry":{"type":"Point","coordinates":[-4.734222,41.641111]},"properties":{"id":"es-6413","source":"ES","brand":"REPSOL","address":"CALLE PUENTE COLGANTE, 10","municipality":"Valladolid","province":"VALLADOLID","postalCode":"47007","schedule":"L-D: 07:00-23:00","fuels":{"gasoline95":1.959,"gasoline95Premium":2.019,"gasoline98":2.119,"diesel":1.899,"dieselB":1.755,"dieselRenewable":2.009},"extra":{"saleType":"P","margin":"D","reportingType":"OM","ideess":"6413","idMunicipio":"7410","idProvincia":"47","idCCAA":"08"}}},{"type":"Feature","geometry":{"type":"Point","coordinates":[-4.723111,41.600639]},"properties":{"id":"es-6414","source":"ES","brand":"CEPSA","address":"CARRETERA N-601 MADRID KM. 183","municipality":"Valladolid","province":"VALLADOLID","postalCode":"47008","schedule":"L-S: 07:00-23:00; D: 08:30-23:00","fuels":{"gasoline95":1.939,"gasoline98":2.059,"diesel":1.924,"dieselPremium":2.004,"adblue":1.2},"extra":{"saleType":"P","margin":"D","reportingType":"dm","ideess":"6414","idMunicipio":"7410","idProvincia":"47","idCCAA":"08"}}},{"type":"Feature","geometry":{"type":"Point","coordinates":[-4.958806,41.355278]},"properties":{"id":"es-8294","source":"ES","brand":"GALP","address":"AUTOVIA A-6 KM. 165","municipality":"Medina del Campo","province":"VALLADOLID","postalCode":"47400","schedule":"L-D: 24H","fuels":{"gasoline95":1.939,"gasoline98":2.079,"diesel":1.869,"dieselPremium":1.919,"dieselRenewable":1.959,"adblue":0.799},"extra":{"saleType":"P","margin":"N","reportingType":"OM","ideess":"8294","idMunicipio":"7316","idProvincia":"47","idCCAA":"08"}}},{"type":"Feature","geometry":{"type":"Point","coordinates":[-4.723694,41.594639]},"properties":{"id":"es-8553","source":"ES","brand":"SHELL","address":"CTRA.N-601 (AVDA. DE LA RONDA S/N) km 184","municipality":"Laguna de Duero","province":"VALLADOLID","postalCode":"47140","schedule":"L-D: 06:00-00:00","fuels":{"gasoline95":1.839,"gasoline98":1.979,"diesel":1.789,"dieselPremium":1.869,"lpg":1.039,"adblue":1.33},"extra":{"saleType":"P","margin":"N","reportingType":"OM","ideess":"8553","idMunicipio":"7306","idProvincia":"47","idCCAA":"08"}}},{"type":"Feature","geometry":{"type":"Point","coordinates":[-4.746083,41.661111]},"properties":{"id":"es-8555","source":"ES","brand":"SHELL","address":"AVDA.DE GIJON","municipality":"Valladolid","province":"VALLADOLID","postalCode":"47009","schedule":"L-D: 06:00-23:59","fuels":{"gasoline95":1.829,"gasoline98":1.969,"diesel":1.759,"dieselPremium":1.839},"extra":{"saleType":"P","margin":"N","reportingType":"OM","ideess":"8555","idMunicipio":"7410","idProvincia":"47","idCCAA":"08"}}},{"type":"Feature","geometry":{"type":"Point","coordinates":[-4.767361,41.631889]},"properties":{"id":"es-8556","source":"ES","brand":"SHELL","address":"CL.CIUDAD HABANA (PARQUESOL)","municipality":"Valladolid","province":"VALLADOLID","postalCode":"47014","schedule":"L-D: 06:00-23:59","fuels":{"gasoline95":1.889,"gasoline98":2.029,"diesel":1.789,"dieselPremium":1.869,"lpg":1.039},"extra":{"saleType":"P","margin":"N","reportingType":"OM","ideess":"8556","idMunicipio":"7410","idProvincia":"47","idCCAA":"08"}}},{"type":"Feature","geometry":{"type":"Point","coordinates":[-4.5005,41.939056]},"properties":{"id":"es-872","source":"ES","brand":"IDS","address":"POLIGONO INDUSTRIAL, 88","municipality":"Villamuriel de Cerrato","province":"PALENCIA","postalCode":"34190","schedule":"L-D: 24H","fuels":{"diesel":1.905,"adblue":1.105},"extra":{"saleType":"P","margin":"N","reportingType":"dm","ideess":"872","idMunicipio":"5215","idProvincia":"34","idCCAA":"08"}}},{"type":"Feature","geometry":{"type":"Point","coordinates":[-4.708889,41.720667]},"properties":{"id":"es-8891","source":"ES","brand":"E.S. REAL","address":"CTRA. VALLADOLID - CIGALES , KM. 1,7","municipality":"Cigales","province":"VALLADOLID","postalCode":"47270","schedule":"L-D: 24H","fuels":{"gasoline95":1.699,"diesel":1.739,"lpg":1.05,"adblue":0.85},"extra":{"saleType":"P","margin":"I","reportingType":"dm","ideess":"8891","idMunicipio":"7281","idProvincia":"47","idCCAA":"08"}}},{"type":"Feature","geometry":{"type":"Point","coordinates":[-4.678333,41.285111]},"properties":{"id":"es-9190","source":"ES","brand":"COOP COCOL","address":"CARRETERA AGUASAL KM. 15","municipality":"Olmedo","province":"VALLADOLID","postalCode":"47410","schedule":"L-D: 24H","fuels":{"diesel":1.7,"dieselB":1.4,"adblue":0.726},"extra":{"saleType":"P","margin":"D","reportingType":"dm","ideess":"9190","idMunicipio":"7334","idProvincia":"47","idCCAA":"08"}}},{"type":"Feature","geometry":{"type":"Point","coordinates":[-4.717556,41.661]},"properties":{"id":"es-9265","source":"ES","brand":"REPSOL","address":"AVENIDA DE PALENCIA Nº 35","municipality":"Valladolid","province":"VALLADOLID","postalCode":"47010","schedule":"L-D: 07:00-23:00","fuels":{"gasoline95":1.945,"gasoline98":2.115,"diesel":1.895,"dieselPremium":1.955},"extra":{"saleType":"P","margin":"N","reportingType":"OM","ideess":"9265","idMunicipio":"7410","idProvincia":"47","idCCAA":"08"}}},{"type":"Feature","geometry":{"type":"Point","coordinates":[-4.385306,41.741194]},"properties":{"id":"es-9370","source":"ES","brand":"AN ENERGETICOS, S.L. - ESGUEVILLAS DE ESGUEVA","address":"VALLADOLID-TORTOLES, KM. 30","municipality":"Esguevillas de Esgueva","province":"VALLADOLID","postalCode":"47176","schedule":"L-D: 24H","fuels":{"gasoline95":1.759,"diesel":1.719},"extra":{"saleType":"P","margin":"N","reportingType":"dm","ideess":"9370","idMunicipio":"7292","idProvincia":"47","idCCAA":"08"}}},{"type":"Feature","geometry":{"type":"Point","coordinates":[-4.064667,41.428611]},"properties":{"id":"es-9384","source":"ES","brand":"AN ENERGETICOS - FUENTESAUCO GLUS I","address":"CARRETERA FUENTESAUCO - VEGAFRIA KM. 0,6","municipality":"Fuentesaúco de Fuentidueña","province":"SEGOVIA","postalCode":"40355","schedule":"L-D: 24H","fuels":{"gasoline95":1.759,"diesel":1.719,"dieselB":1.38,"adblue":0.705},"extra":{"saleType":"P","margin":"I","reportingType":"dm","ideess":"9384","idMunicipio":"5926","idProvincia":"40","idCCAA":"08"}}},{"type":"Feature","geometry":{"type":"Point","coordinates":[-4.115278,41.608694]},"properties":{"id":"es-9391","source":"ES","brand":"COCOPE, S. COOP.","address":"CARRETERA PESQUERA KM. 0,800","municipality":"Peñafiel","province":"VALLADOLID","postalCode":"47300","schedule":"L-D: 24H","fuels":{"gasoline95":1.739,"diesel":1.689,"dieselB":1.339,"adblue":0.7},"extra":{"saleType":"P","margin":"D","reportingType":"dm","ideess":"9391","idMunicipio":"7342","idProvincia":"47","idCCAA":"08"}}},{"type":"Feature","geometry":{"type":"Point","coordinates":[-4.560694,41.601]},"properties":{"id":"es-9406","source":"ES","brand":"AN ENERGETICOS - JARAMIEL","address":"VILLABAÑEZ km 2,5","municipality":"Tudela de Duero","province":"VALLADOLID","postalCode":"47320","schedule":"L-D: 24H","fuels":{"gasoline95":1.769,"diesel":1.729,"dieselB":1.609},"extra":{"saleType":"P","margin":"D","reportingType":"dm","ideess":"9406","idMunicipio":"7401","idProvincia":"47","idCCAA":"08"}}},{"type":"Feature","geometry":{"type":"Point","coordinates":[-4.708917,41.618139]},"properties":{"id":"es-9415","source":"ES","brand":"DEL OLMO HERMANOS","address":"CALLE COBALTO, 55","municipality":"Valladolid","province":"VALLADOLID","postalCode":"47012","schedule":"L-V: 09:00-13:00 y 16:00-19:00; S: 09:00-12:00","fuels":{"dieselPremium":1.97},"extra":{"saleType":"P","margin":"D","reportingType":"dm","ideess":"9415","idMunicipio":"7410","idProvincia":"47","idCCAA":"08"}}},{"type":"Feature","geometry":{"type":"Point","coordinates":[-4.717806,41.672528]},"properties":{"id":"es-9482","source":"ES","brand":"DST MERCAOLID","address":"CALLE EURO, 17","municipality":"Valladolid","province":"VALLADOLID","postalCode":"47009","schedule":"L-D: 24H","fuels":{"gasoline95":1.749,"diesel":1.699,"dieselPremium":1.759,"adblue":0.829},"extra":{"saleType":"P","margin":"D","reportingType":"dm","ideess":"9482","idMunicipio":"7410","idProvincia":"47","idCCAA":"08"}}},{"type":"Feature","geometry":{"type":"Point","coordinates":[-4.243333,41.94375]},"properties":{"id":"es-9785","source":"ES","brand":"AGROPAL","address":"CARRETERA CR VALDECAÑAS 8 KM. ","municipality":"Baltanás","province":"PALENCIA","postalCode":"34240","schedule":"L-V: 09:00-19:00","fuels":{"dieselB":1.488},"extra":{"saleType":"P","margin":"D","reportingType":"dm","ideess":"9785","idMunicipio":"5056","idProvincia":"34","idCCAA":"08"}}},{"type":"Feature","geometry":{"type":"Point","coordinates":[-4.539417,41.871861]},"properties":{"id":"es-9794","source":"ES","brand":"AGROPAL","address":"AVENIDA AV VALORIA 1, ","municipality":"Dueñas","province":"PALENCIA","postalCode":"34210","schedule":"L-V: 09:00-19:00","fuels":{"dieselB":1.488},"extra":{"saleType":"P","margin":"I","reportingType":"dm","ideess":"9794","idMunicipio":"5094","idProvincia":"34","idCCAA":"08"}}},{"type":"Feature","geometry":{"type":"Point","coordinates":[-4.810444,41.180444]},"properties":{"id":"es-9918","source":"ES","brand":"SAN AGUSTIN","address":"CARRETERA FUENTE EL SOL KM. S/N","municipality":"Ataquines","province":"VALLADOLID","postalCode":"47210","schedule":"L-D: 24H","fuels":{"gasoline95":1.801,"diesel":1.73,"adblue":0.605},"extra":{"saleType":"P","margin":"D","reportingType":"dm","ideess":"9918","idMunicipio":"7242","idProvincia":"47","idCCAA":"08"}}},{"type":"Feature","geometry":{"type":"Point","coordinates":[-4.733556,41.078083]},"properties":{"id":"es-9956","source":"ES","brand":"VALCARCE","address":"POLG.IND. TIERRA AREVALO, F-10 (A-VI km 129)","municipality":"Arévalo","province":"ÁVILA","postalCode":"05200","schedule":"L-D: 24H","fuels":{"gasoline95":1.799,"diesel":1.765,"dieselPremium":1.815,"adblue":0.799},"extra":{"saleType":"P","margin":"I","reportingType":"dm","ideess":"9956","idMunicipio":"392","idProvincia":"05","idCCAA":"08"}}}]}