{"type":"FeatureCollection","features":[{"type":"Feature","geometry":{"type":"Point","coordinates":[-2.748806,36.780444]},"properties":{"id":"es-10005","source":"ES","brand":"MOEVE - PARKING LA REDONDA","address":"CARRETERA IRYDA POLIG. IND. LA REDONDA KM. S/N","municipality":"Ejido (El)","province":"ALMERÍA","postalCode":"04710","schedule":"L-D: 24H","fuels":{"gasoline95":1.949,"diesel":1.939,"dieselPremium":1.989,"dieselB":1.799},"extra":{"saleType":"P","margin":"D","reportingType":"dm","ideess":"10005","idMunicipio":"317","idProvincia":"04","idCCAA":"01"}}},{"type":"Feature","geometry":{"type":"Point","coordinates":[-2.787444,36.782167]},"properties":{"id":"es-10155","source":"ES","brand":"BP SANTA MARIA DEL AGUILA","address":"CARRETERA AL-3303 KM. 1","municipality":"Ejido (El)","province":"ALMERÍA","postalCode":"04700","schedule":"L-D: 06:30-23:30","fuels":{"gasoline95":1.714,"gasoline98":1.772,"diesel":1.798,"dieselPremium":1.836,"dieselB":1.496,"adblue":0.65},"extra":{"saleType":"P","margin":"D","reportingType":"dm","ideess":"10155","idMunicipio":"317","idProvincia":"04","idCCAA":"01"}}},{"type":"Feature","geometry":{"type":"Point","coordinates":[-2.450111,36.845861]},"properties":{"id":"es-10168","source":"ES","brand":"CEPSA","address":"CALLE CARRETERA DE NIJAR, S/N","municipality":"Almería","province":"ALMERÍA","postalCode":"04009","schedule":"L: 06:00-00:00","fuels":{"gasoline95":1.869,"gasoline95Premium":1.929,"gasoline98":1.969,"diesel":1.863,"dieselPremium":1.924},"extra":{"saleType":"P","margin":"I","reportingType":"OM","ideess":"10168","idMunicipio":"292","idProvincia":"04","idCCAA":"01"}}},{"type":"Feature","geometry":{"type":"Point","coordinates":[-2.863306,36.759667]},"properties":{"id":"es-10396","source":"ES","brand":"LA TARAMBANA","address":"CR N-340; SALIDA BALERMA 6.50","municipality":"Ejido (El)","province":"ALMERÍA","postalCode":"04700","schedule":"L-D: 24H","fuels":{"gasoline95":1.699,"diesel":1.729},"extra":{"saleType":"P","margin":"N","reportingType":"dm","ideess":"10396","idMunicipio":"317","idProvincia":"04","idCCAA":"01"}}},{"type":"Feature","geometry":{"type":"Point","coordinates":[-2.445611,36.840028]},"properties":{"id":"es-10433","source":"ES","brand":"BP MONTSERRAT  ALMERIA","address":"CALLE MONSERRAT, 0","municipality":"Almería","province":"ALMERÍA","postalCode":"04006","schedule":"L-D: 24H","fuels":{"gasoline95":1.859,"gasoline98":1.999,"diesel":1.899,"dieselPremium":1.989},"extra":{"saleType":"P","margin":"N","reportingType":"OM","ideess":"10433","idMunicipio":"292","idProvincia":"04","idCCAA":"01"}}},{"type":"Feature","geometry":{"type":"Point","coordinates":[-2.727306,36.797944]},"properties":{"id":"es-10562","source":"ES","brand":"TRANSPORTES BEARCA S.L.","address":"RAMBLA BERNAL, 19","municipality":"Ejido (El)","province":"ALMERÍA","postalCode":"04700","schedule":"L-V: 09:00-18:00","fuels":{"diesel":1.809},"extra":{"saleType":"P","margin":"I","reportingType":"dm","ideess":"10562","idMunicipio":"317","idProvincia":"04","idCCAA":"01"}}},{"type":"Feature","geometry":{"type":"Point","coordinates":[-2.884444,36.733306]},"properties":{"id":"es-10571","source":"ES","brand":"E.S.BALERMAMAR S.C.A","address":"AVENIDA LA REDONDA S/N, S/N","municipality":"Ejido (El)","province":"ALMERÍA","postalCode":"04712","schedule":"L: 06:00-22:00","fuels":{"gasoline95":1.619,"diesel":1.689,"dieselPremium":1.739},"extra":{"saleType":"P","margin":"D","reportingType":"dm","ideess":"10571","idMunicipio":"317","idProvincia":"04","idCCAA":"01"}}},{"type":"Feature","geometry":{"type":"Point","coordinates":[-2.062944,36.992]},"properties":{"id":"es-10574","source":"ES","brand":"SHELL","address":"N-341 (NIJAR-CARBONERAS) km 0,5","municipality":"Níjar","province":"ALMERÍA","postalCode":"04100","schedule":"L-D: 05:30-23:30","fuels":{"gasoline95":1.839,"gasoline98":1.979,"diesel":1.844,"dieselPremium":1.924,"dieselB":1.669,"adblue":1.33},"extra":{"saleType":"P","margin":"D","reportingType":"OM","ideess":"10574","idMunicipio":"343","idProvincia":"04","idCCAA":"01"}}},{"type":"Feature","geometry":{"type":"Point","coordinates":[-2.448639,36.865528]},"properties":{"id":"es-10829","source":"ES","brand":"BP RAMBLA INIESTA","address":"CALLE CUESTA DE LOS CALLEJONES, 0","municipality":"Almería","province":"ALMERÍA","postalCode":"04009","schedule":"L-D: 24H","fuels":{"gasoline95":1.859,"gasoline98":1.999,"diesel":1.899,"dieselPremium":1.989},"extra":{"saleType":"P","margin":"N","reportingType":"OM","ideess":"10829","idMunicipio":"292","idProvincia":"04","idCCAA":"01"}}},{"type":"Feature","geometry":{"type":"Point","coordinates":[-2.597167,36.819917]},"properties":{"id":"es-10860","source":"ES","brand":"REPSOL","address":"CR  E-15  ,P.K. 429  (N-340 SALIDA","municipality":"Roquetas de Mar","province":"ALMERÍA","postalCode":"04740","schedule":"L-D: 06:00-22:00","fuels":{"gasoline95":1.895,"gasoline98":1.995,"diesel":1.889,"dieselRenewable":1.989,"lpg":1.199},"extra":{"saleType":"P","margin":"D","reportingType":"OM","ideess":"10860","idMunicipio":"356","idProvincia":"04","idCCAA":"01"}}},{"type":"Feature","geometry":{"type":"Point","coordinates":[-2.831861,36.768917]},"properties":{"id":"es-10910","source":"ES","brand":"E.S CAMPOEJIDO LAS PEÑAS","address":"CALLE CUATRO VIENTOS 228, S/N","municipality":"Ejido (El)","province":"ALMERÍA","postalCode":"04700","schedule":"L-D: 24H","fuels":{"gasoline95":1.694,"diesel":1.645,"dieselPremium":1.697,"dieselB":1.388,"adblue":0.78},"extra":{"saleType":"P","margin":"I","reportingType":"dm","ideess":"10910","idMunicipio":"317","idProvincia":"04","idCCAA":"01"}}},{"type":"Feature","geometry":{"type":"Point","coordinates":[-2.795139,36.723944]},"properties":{"id":"es-10925","source":"ES","brand":"E.S CAMPOEJIDO TIERRAS ALMERIA","address":"CARRETERA AL-9008 KM. 4,593","municipality":"Ejido (El)","province":"ALMERÍA","postalCode":"04700","schedule":"L-D: 06:00-00:00","fuels":{"gasoline95":1.694,"diesel":1.645},"extra":{"saleType":"P","margin":"D","reportingType":"dm","ideess":"10925","idMunicipio":"317","idProvincia":"04","idCCAA":"01"}}},{"type":"Feature","geometry":{"type":"Point","coordinates":[-2.868306,36.814722]},"properties":{"id":"es-10926","source":"ES","brand":"E.S. CAMPEJIDO DALIAS","address":"AVENIDA DE LAS ALPUJARRAS, S/N","municipality":"Dalías","province":"ALMERÍA","postalCode":"04750","schedule":"L-D: 06:00-00:00","fuels":{"gasoline95":1.694,"diesel":1.645},"extra":{"saleType":"P","margin":"I","reportingType":"dm","ideess":"10926","idMunicipio":"316","idProvincia":"04","idCCAA":"01"}}},{"type":"Feature","geometry":{"type":"Point","coordinates":[-2.735917,36.74775]},"properties":{"id":"es-10952","source":"ES","brand":"ECONORIAS","address":"LOMA DEL VIENTO,  Nº 78","municipality":"Ejido (El)","province":"ALMERÍA","postalCode":"04716","schedule":"L: 07:00-22:00","fuels":{"gasoline95":1.589,"diesel":1.729,"dieselPremium":1.759},"extra":{"saleType":"P","margin":"D","reportingType":"dm","ideess":"10952","idMunicipio":"317","idProvincia":"04","idCCAA":"01"}}},{"type":"Feature","geometry":{"type":"Point","coordinates":[-2.637818,36.751385]},"properties":{"id":"es-10971","source":"ES","brand":"CONSUMOMAR S.C.A.","address":"CAMINO DE LAS MERCADOS Nº 50","municipality":"Roquetas de Mar","province":"ALMERÍA","postalCode":"04740","schedule":"L-S: 08:00-14:00 y 16:00-19:00","fuels":{"gasoline95":1.745,"diesel":1.705},"extra":{"saleType":"P","margin":"D","reportingType":"dm","ideess":"10971","idMunicipio":"356","idProvincia":"04","idCCAA":"01"}}},{"type":"Feature","geometry":{"type":"Point","coordinates":[-2.653568,36.799468]},"properties":{"id":"es-11046","source":"ES","brand":"CONSUMOMAR","address":"CTRA. NACIONAL 340","municipality":"Vícar","province":"ALMERÍA","postalCode":"04738","schedule":"L-D: 24H","fuels":{"gasoline95":1.775,"gasoline98":1.895,"diesel":1.735,"dieselPremium":1.775},"extra":{"saleType":"P","margin":"D","reportingType":"dm","ideess":"11046","idMunicipio":"380","idProvincia":"04","idCCAA":"01"}}},{"type":"Feature","geometry":{"type":"Point","coordinates":[-2.409389,36.876639]},"properties":{"id":"es-11278","source":"ES","brand":"S.A.T. PISAICA DE LA VIRGEN","address":"PARAJE PISAICA DE LA VIRGEN S/N","municipality":"Viator","province":"ALMERÍA","postalCode":"04240","schedule":"L-D: 06:00-22:00","fuels":{"gasoline95":1.74,"diesel":1.69,"lpg":0.85,"adblue":0.7},"extra":{"saleType":"P","margin":"N","reportingType":"dm","ideess":"11278","idMunicipio":"379","idProvincia":"04","idCCAA":"01"}}},{"type":"Feature","geometry":{"type":"Point","coordinates":[-2.445028,36.827333]},"properties":{"id":"es-11493","source":"ES","brand":"REPSOL","address":"AVENIDA MEDITERRANEO, S/N","municipality":"Almería","province":"ALMERÍA","postalCode":"04007","schedule":"L-D: 06:00-22:00","fuels":{"gasoline95":1.859,"gasoline98":2.009,"diesel":1.875,"dieselPremium":1.975},"extra":{"saleType":"P","margin":"D","reportingType":"OM","ideess":"11493","idMunicipio":"292","idProvincia":"04","idCCAA":"01"}}},{"type":"Feature","geometry":{"type":"Point","coordinates":[-2.642722,36.831444]},"properties":{"id":"es-11515","source":"ES","brand":"BP VIAPARK","address":"CARRETERA ROQUETAS KM. 9","municipality":"Vícar","province":"ALMERÍA","postalCode":"04738","schedule":"L-D: 24H","fuels":{"gasoline95":1.849,"gasoline98":1.989,"diesel":1.889,"dieselPremium":1.979},"extra":{"saleType":"P","margin":"N","reportingType":"OM","ideess":"11515","idMunicipio":"380","idProvincia":"04","idCCAA":"01"}}},{"type":"Feature","geometry":{"type":"Point","coordinates":[-2.311194,36.851806]},"properties":{"id":"es-11553","source":"ES","brand":"GALP","address":"CARRETERA NIJAR A RETAMAR (DISEMINADO) (DE) KM. 0","municipality":"Almería","province":"ALMERÍA","postalCode":"04131","schedule":"L-D: 06:00-23:00","fuels":{"gasoline95":1.869,"gasoline98":1.999,"diesel":1.874,"dieselPremium":1.924},"extra":{"saleType":"P","margin":"D","reportingType":"OM","ideess":"11553","idMunicipio":"292","idProvincia":"04","idCCAA":"01"}}},{"type":"Feature","geometry":{"type":"Point","coordinates":[-2.959944,36.831889]},"properties":{"id":"es-11701","source":"ES","brand":"BP","address":"CAMINO OLIVO GORDO, S/N","municipality":"Berja","province":"ALMERÍA","postalCode":"04760","schedule":"L: 06:00-22:00","fuels":{"gasoline95":1.819,"gasoline98":1.959,"diesel":1.899,"dieselPremium":1.989},"extra":{"saleType":"P","margin":"D","reportingType":"dm","ideess":"11701","idMunicipio":"307","idProvincia":"04","idCCAA":"01"}}},{"type":"Feature","geometry":{"type":"Point","coordinates":[-2.802,36.773889]},"properties":{"id":"es-11783","source":"ES","brand":"SPLASH","address":"PASEO PEDRO PONCE, 105","municipality":"Ejido (El)","province":"ALMERÍA","postalCode":"04700","schedule":"L-D: 24H","fuels":{"gasoline95":1.699,"diesel":1.799},"extra":{"saleType":"P","margin":"D","reportingType":"dm","ideess":"11783","idMunicipio":"317","idProvincia":"04","idCCAA":"01"}}},{"type":"Feature","geometry":{"type":"Point","coordinates":[-2.801167,36.758028]},"properties":{"id":"es-11807","source":"ES","brand":"CIUDAD EJIDO,S.L","address":"CALLE ARQUIMEDES, S/N","municipality":"Ejido (El)","province":"ALMERÍA","postalCode":"04700","schedule":"L-S: 08:00-22:00","fuels":{"diesel":1.779,"dieselB":1.439,"adblue":0.699},"extra":{"saleType":"P","margin":"D","reportingType":"dm","ideess":"11807","idMunicipio":"317","idProvincia":"04","idCCAA":"01"}}},{"type":"Feature","geometry":{"type":"Point","coordinates":[-2.983333,36.758889]},"properties":{"id":"es-11826","source":"ES","brand":"CAMPOADRA","address":"AVENIDA LEGION ESPAÑOLA, 2","municipality":"Adra","province":"ALMERÍA","postalCode":"04779","schedule":"L-D: 24H","fuels":{"gasoline95":1.578,"diesel":1.629},"extra":{"saleType":"P","margin":"D","reportingType":"dm","ideess":"11826","idMunicipio":"282","idProvincia":"04","idCCAA":"01"}}},{"type":"Feature","geometry":{"type":"Point","coordinates":[-2.625167,36.803278]},"properties":{"id":"es-11934","source":"ES","brand":"CAMPO ROQUETAS","address":"AVENIDA SIERRA DE GADOR, 6","municipality":"Vícar","province":"ALMERÍA","postalCode":"04738","schedule":"L-D: 24H","fuels":{"gasoline95":1.675,"diesel":1.735},"extra":{"saleType":"P","margin":"N","reportingType":"dm","ideess":"11934","idMunicipio":"380","idProvincia":"04","idCCAA":"01"}}},{"type":"Feature","geometry":{"type":"Point","coordinates":[-2.582556,36.822694]},"properties":{"id":"es-11946","source":"ES","brand":"REPSOL","address":"CALLE JOSE MARIA MOLINA, S/N","municipality":"Roquetas de Mar","province":"ALMERÍA","postalCode":"04720","schedule":"L-D: 07:00-23:00","fuels":{"gasoline95":1.889,"gasoline98":1.999,"diesel":1.869,"dieselPremium":1.919},"extra":{"saleType":"P","margin":"D","reportingType":"OM","ideess":"11946","idMunicipio":"356","idProvincia":"04","idCCAA":"01"}}},{"type":"Feature","geometry":{"type":"Point","coordinates":[-2.985778,36.765444]},"properties":{"id":"es-12113","source":"ES","brand":"CEPSA","address":"AUTOVIA A-7 KM. 391","municipality":"Adra","province":"ALMERÍA","postalCode":"04770","schedule":"L-D: 24H","fuels":{"gasoline95":1.859,"diesel":1.899,"dieselPremium":1.989,"dieselB":1.689,"adblue":1.24},"extra":{"saleType":"P","margin":"N","reportingType":"dm","ideess":"12113","idMunicipio":"282","idProvincia":"04","idCCAA":"01"}}},{"type":"Feature","geometry":{"type":"Point","coordinates":[-2.983028,36.761639]},"properties":{"id":"es-12462","source":"ES","brand":"E.S CAMPOEJIDO ADRA","address":"CALLE BARCELONA, 2","municipality":"Adra","province":"ALMERÍA","postalCode":"04779","schedule":"L-D: 24H","fuels":{"gasoline95":1.694,"diesel":1.645},"extra":{"saleType":"P","margin":"N","reportingType":"dm","ideess":"12462","idMunicipio":"282","idProvincia":"04","idCCAA":"01"}}},{"type":"Feature","geometry":{"type":"Point","coordinates":[-2.752222,36.775]},"properties":{"id":"es-12543","source":"ES","brand":"E.S.CAMPOEJIDO-LA ALDEILLA","address":"CAMINO CAMINO DE ROQUETAS, 77","municipality":"Ejido (El)","province":"ALMERÍA","postalCode":"04710","schedule":"L-D: 06:00-00:00","fuels":{"gasoline95":1.694,"diesel":1.645,"dieselPremium":1.697,"dieselB":1.388,"adblue":0.78},"extra":{"saleType":"P","margin":"D","reportingType":"dm","ideess":"12543","idMunicipio":"317","idProvincia":"04","idCCAA":"01"}}},{"type":"Feature","geometry":{"type":"Point","coordinates":[-2.422972,36.843083]},"properties":{"id":"es-12615","source":"ES","brand":"MOEVE","address":"CARRETERA AL-12 KM. 3.6","municipality":"Almería","province":"ALMERÍA","postalCode":"04120","schedule":"L-D: 00:00-23:59","fuels":{"gasoline95":1.899,"gasoline98":2.009,"diesel":1.853,"dieselPremium":1.949,"lpg":1.189},"extra":{"saleType":"P","margin":"D","reportingType":"OM","ideess":"12615","idMunicipio":"292","idProvincia":"04","idCCAA":"01"}}},{"type":"Feature","geometry":{"type":"Point","coordinates":[-2.825111,36.788611]},"properties":{"id":"es-12661","source":"ES","brand":"INDASOL","address":"PARAJE LOS ALJIBILLOS, S/N","municipality":"Ejido (El)","province":"ALMERÍA","postalCode":"04700","schedule":"L-S: 08:00-20:00","fuels":{"gasoline95":1.65,"diesel":1.8},"extra":{"saleType":"P","margin":"D","reportingType":"dm","ideess":"12661","idMunicipio":"317","idProvincia":"04","idCCAA":"01"}}},{"type":"Feature","geometry":{"type":"Point","coordinates":[-2.675944,36.782806]},"properties":{"id":"es-12670","source":"ES","brand":"E.S.VICASOL","address":"PARAJE EL VIZCONDE CARRETERA IRYDA SECTOR IV, S/N","municipality":"Vícar","province":"ALMERÍA","postalCode":"04738","schedule":"L-D: 06:00-22:00","fuels":{"gasoline95":1.65,"diesel":1.7,"dieselPremium":1.76,"adblue":0.79},"extra":{"saleType":"P","margin":"I","reportingType":"dm","ideess":"12670","idMunicipio":"380","idProvincia":"04","idCCAA":"01"}}},{"type":"Feature","geometry":{"type":"Point","coordinates":[-2.336444,36.875028]},"properties":{"id":"es-12687","source":"ES","brand":"REPSOL","address":"AUTOVIA A7 KM. 460,000","municipality":"Almería","province":"ALMERÍA","postalCode":"04130","schedule":"L-D: 24H","fuels":{"gasoline95":1.949,"gasoline98":2.159,"diesel":1.799,"dieselPremium":1.899,"dieselB":1.659},"extra":{"saleType":"P","margin":"D","reportingType":"dm","ideess":"12687","idMunicipio":"292","idProvincia":"04","idCCAA":"01"}}},{"type":"Feature","geometry":{"type":"Point","coordinates":[-2.149167,36.922972]},"properties":{"id":"es-12783","source":"ES","brand":"HORTOFRUCOOP S.C.A.","address":"CARRETERA IRYDA (CH) KM. 5","municipality":"Níjar","province":"ALMERÍA","postalCode":"04117","schedule":"L-D: 07:00-23:00","fuels":{"gasoline95":1.699,"diesel":1.759},"extra":{"saleType":"P","margin":"D","reportingType":"dm","ideess":"12783","idMunicipio":"343","idProvincia":"04","idCCAA":"01"}}},{"type":"Feature","geometry":{"type":"Point","coordinates":[-2.442972,36.842167]},"properties":{"id":"es-12812","source":"ES","brand":"CARREFOUR","address":"CALLE JORGE GUILLEN, S/N","municipality":"Almería","province":"ALMERÍA","postalCode":"04006","schedule":"L-D: 06:00-23:00","fuels":{"gasoline95":1.849,"gasoline98":1.929,"diesel":1.849,"dieselPremium":1.889},"extra":{"saleType":"P","margin":"N","reportingType":"dm","ideess":"12812","idMunicipio":"292","idProvincia":"04","idCCAA":"01"}}},{"type":"Feature","geometry":{"type":"Point","coordinates":[-2.629694,36.773194]},"properties":{"id":"es-12965","source":"ES","brand":"E.S PACOCALCULA","address":"CARRETERA ALMERIA 9029 KM. 1","municipality":"Roquetas de Mar","province":"ALMERÍA","postalCode":"04740","schedule":"L-D: 24H","fuels":{"gasoline95":1.789,"gasoline98":1.879,"diesel":1.849,"dieselPremium":1.899,"lpg":1.189,"adblue":1.069},"extra":{"saleType":"P","margin":"D","reportingType":"dm","ideess":"12965","idMunicipio":"356","idProvincia":"04","idCCAA":"01"}}},{"type":"Feature","geometry":{"type":"Point","coordinates":[-2.431333,36.85325]},"properties":{"id":"es-13023","source":"ES","brand":"SECTOROIL","address":"CALLE COBRE, 26","municipality":"Almería","province":"ALMERÍA","postalCode":"04009","schedule":"L-D: 07:00-21:30","fuels":{"gasoline95":1.699,"diesel":1.729,"lpg":1.089,"adblue":0.889},"extra":{"saleType":"P","margin":"I","reportingType":"dm","ideess":"13023","idMunicipio":"292","idProvincia":"04","idCCAA":"01"}}},{"type":"Feature","geometry":{"type":"Point","coordinates":[-2.9275,36.83325]},"properties":{"id":"es-13161","source":"ES","brand":"ES VEFRUBER","address":"CALLE LOS IBEROS, 13","municipality":"Berja","province":"ALMERÍA","postalCode":"04760","schedule":"L-D: 24H","fuels":{"gasoline95":1.69,"diesel":1.71,"dieselPremium":1.75,"dieselB":1.42,"adblue":0.78},"extra":{"saleType":"P","margin":"N","reportingType":"dm","ideess":"13161","idMunicipio":"307","idProvincia":"04","idCCAA":"01"}}},{"type":"Feature","geometry":{"type":"Point","coordinates":[-2.827583,36.769278]},"properties":{"id":"es-13415","source":"ES","brand":"BP EL EJIDO - COOP SANTA MARIA","address":"CALLE CAMINO DE ADRA S/N ESQUINA CALLE LA PARRA, 0","municipality":"Ejido (El)","province":"ALMERÍA","postalCode":"04700","schedule":"L-D: 24H","fuels":{"gasoline95":1.74,"diesel":1.798,"dieselPremium":1.846,"dieselB":1.496,"adblue":0.65},"extra":{"saleType":"P","margin":"N","reportingType":"dm","ideess":"13415","idMunicipio":"317","idProvincia":"04","idCCAA":"01"}}},{"type":"Feature","geometry":{"type":"Point","coordinates":[-2.691417,36.709667]},"properties":{"id":"es-13428","source":"ES","brand":"COHORSAN SCA","address":"CALLE AGUA, 60","municipality":"Ejido (El)","province":"ALMERÍA","postalCode":"04716","schedule":"L-S: 07:00-22:00","fuels":{"gasoline95":1.579,"diesel":1.649,"dieselPremium":1.709},"extra":{"saleType":"P","margin":"D","reportingType":"dm","ideess":"13428","idMunicipio":"317","idProvincia":"04","idCCAA":"01"}}},{"type":"Feature","geometry":{"type":"Point","coordinates":[-2.371972,36.850889]},"properties":{"id":"es-13518","source":"ES","brand":"E.S. ALVAMAR","address":"CARRETERA NIJAR-LA CAÑADA KM. 7,500","municipality":"Almería","province":"ALMERÍA","postalCode":"04130","schedule":"L-S: 07:00-22:00","fuels":{"gasoline95":1.798,"diesel":1.789},"extra":{"saleType":"P","margin":"I","reportingType":"dm","ideess":"13518","idMunicipio":"292","idProvincia":"04","idCCAA":"01"}}},{"type":"Feature","geometry":{"type":"Point","coordinates":[-2.420694,36.883306]},"properties":{"id":"es-13591","source":"ES","brand":"REPSOL","address":"POLIGONO SIERRA DE CAZORLA, S7N","municipality":"Viator","province":"ALMERÍA","postalCode":"04230","schedule":"L-D: 24H","fuels":{"gasoline95":1.999,"diesel":1.905},"extra":{"saleType":"P","margin":"D","reportingType":"dm","ideess":"13591","idMunicipio":"379","idProvincia":"04","idCCAA":"01"}}},{"type":"Feature","geometry":{"type":"Point","coordinates":[-2.445167,36.898972]},"properties":{"id":"es-13892","source":"ES","brand":"CEPSA","address":"CARRETERA NACIONAL 340, PARAJE ZAMARULA KM. 449","municipality":"Huércal de Almería","province":"ALMERÍA","postalCode":"04230","schedule":"L-V: 06:00-22:00; S-D: 07:00-21:30","fuels":{"gasoline95":1.859,"diesel":1.839,"dieselPremium":1.934,"adblue":0.899},"extra":{"saleType":"P","margin":"D","reportingType":"dm","ideess":"13892","idMunicipio":"328","idProvincia":"04","idCCAA":"01"}}},{"type":"Feature","geometry":{"type":"Point","coordinates":[-2.234194,36.813056]},"properties":{"id":"es-14026","source":"ES","brand":"BP CABO DE GATA","address":"CARRETERA SAN JOSÉ KM. 0,000","municipality":"Almería","province":"ALMERÍA","postalCode":"04150","schedule":"L-D: 24H","fuels":{"gasoline95":1.875,"gasoline98":2.015,"diesel":1.875,"dieselPremium":1.965},"extra":{"saleType":"P","margin":"I","reportingType":"OM","ideess":"14026","idMunicipio":"292","idProvincia":"04","idCCAA":"01"}}},{"type":"Feature","geometry":{"type":"Point","coordinates":[-2.172417,36.920917]},"properties":{"id":"es-14181","source":"ES","brand":"COPROHNIJAR S.C.A.","address":"PARAJE CAÑADA MENA, PARCELAS 10-11, 10","municipality":"Níjar","province":"ALMERÍA","postalCode":"04117","schedule":"L: 07:00-22:00","fuels":{"gasoline95":1.735,"diesel":1.775},"extra":{"saleType":"P","margin":"N","reportingType":"dm","ideess":"14181","idMunicipio":"343","idProvincia":"04","idCCAA":"01"}}},{"type":"Feature","geometry":{"type":"Point","coordinates":[-2.439056,36.841972]},"properties":{"id":"es-14241","source":"ES","brand":"LA TORRE","address":"AVENIDA SIERRA ALHAMILLA, 310","municipality":"Almería","province":"ALMERÍA","postalCode":"04007","schedule":"L-D: 24H","fuels":{"gasoline95":1.759,"gasoline95Premium":1.759,"diesel":1.739,"dieselPremium":1.739,"adblue":0.995},"extra":{"saleType":"P","margin":"N","reportingType":"dm","ideess":"14241","idMunicipio":"292","idProvincia":"04","idCCAA":"01"}}},{"type":"Feature","geometry":{"type":"Point","coordinates":[-2.143944,36.925778]},"properties":{"id":"es-14538","source":"ES","brand":"PETROPRIX","address":"CALLE VILLA MARIA SURTIDOR, S/N","municipality":"Níjar","province":"ALMERÍA","postalCode":"04110","schedule":"L-D: 24H","fuels":{"gasoline95":1.739,"diesel":1.777},"extra":{"saleType":"P","margin":"N","reportingType":"dm","ideess":"14538","idMunicipio":"343","idProvincia":"04","idCCAA":"01"}}},{"type":"Feature","geometry":{"type":"Point","coordinates":[-2.166361,36.911806]},"properties":{"id":"es-14559","source":"ES","brand":"PLENERGY","address":"CALLE BRUSELAS, 60","municipality":"Níjar","province":"ALMERÍA","postalCode":"04117","schedule":"L-D: 24H","fuels":{"gasoline95":1.739,"diesel":1.777},"extra":{"saleType":"P","margin":"D","reportingType":"dm","ideess":"14559","idMunicipio":"343","idProvincia":"04","idCCAA":"01"}}},{"type":"Feature","geometry":{"type":"Point","coordinates":[-2.436333,36.843556]},"properties":{"id":"es-14598","source":"ES","brand":"PLENERGY","address":"CARRETERA NIJAR LOS MOLINOS KM. 396","municipality":"Almería","province":"ALMERÍA","postalCode":"04001","schedule":"L-D: 24H","fuels":{"gasoline95":1.719,"diesel":1.707},"extra":{"saleType":"P","margin":"D","reportingType":"dm","ideess":"14598","idMunicipio":"292","idProvincia":"04","idCCAA":"01"}}},{"type":"Feature","geometry":{"type":"Point","coordinates":[-2.157222,36.896111]},"properties":{"id":"es-14712","source":"ES","brand":"LITORAL DE NIJAR","address":"PARAJE LOS TRANCES. POLÍGONO 205 PARCELAS 9-10, S/N","municipality":"Níjar","province":"ALMERÍA","postalCode":"04117","schedule":"L-S: 08:00-20:00","fuels":{"diesel":1.655},"extra":{"saleType":"P","margin":"N","reportingType":"dm","ideess":"14712","idMunicipio":"343","idProvincia":"04","idCCAA":"01"}}},{"type":"Feature","geometry":{"type":"Point","coordinates":[-2.623361,36.804333]},"properties":{"id":"es-14715","source":"ES","brand":"PLENERGY","address":"AVENIDA BULEVAR CIUDAD DE VÍCAR, 715","municipality":"Vícar","province":"ALMERÍA","postalCode":"04738","schedule":"L-D: 24H","fuels":{"gasoline95":1.605,"diesel":1.705},"extra":{"saleType":"P","margin":"D","reportingType":"dm","ideess":"14715","idMunicipio":"380","idProvincia":"04","idCCAA":"01"}}},{"type":"Feature","geometry":{"type":"Point","coordinates":[-2.816667,36.737778]},"properties":{"id":"es-14743","source":"ES","brand":"ESTACION DE SERVICIO VICASOL S.L.","address":"DISEMINADO LOS MAJALES, 39","municipality":"Ejido (El)","province":"ALMERÍA","postalCode":"04700","schedule":"L-D: 06:00-22:00","fuels":{"gasoline95":1.65,"diesel":1.7,"dieselPremium":1.76,"adblue":0.79},"extra":{"saleType":"P","margin":"D","reportingType":"dm","ideess":"14743","idMunicipio":"317","idProvincia":"04","idCCAA":"01"}}},{"type":"Feature","geometry":{"type":"Point","coordinates":[-2.641889,36.831444]},"properties":{"id":"es-14814","source":"ES","brand":"E.S. COOP SANTA MARIA-VICAR-MURGIVERDE","address":"DISEMINADO CARRETERA ZAMORA 2702, 2702","municipality":"Vícar","province":"ALMERÍA","postalCode":"04738","schedule":"L: 07:00-20:00","fuels":{"diesel":1.683},"extra":{"saleType":"P","margin":"D","reportingType":"dm","ideess":"14814","idMunicipio":"380","idProvincia":"04","idCCAA":"01"}}},{"type":"Feature","geometry":{"type":"Point","coordinates":[-2.133694,36.935694]},"properties":{"id":"es-14870","source":"ES","brand":"PLENERGY","address":"CARRETERA LOS GALLARDOS KM. 40","municipality":"Níjar","province":"ALMERÍA","postalCode":"04110","schedule":"L-D: 24H","fuels":{"gasoline95":1.739,"diesel":1.777},"extra":{"saleType":"P","margin":"D","reportingType":"dm","ideess":"14870","idMunicipio":"343","idProvincia":"04","idCCAA":"01"}}},{"type":"Feature","geometry":{"type":"Point","coordinates":[-2.448361,36.836222]},"properties":{"id":"es-14876","source":"ES","brand":"PLENERGY","address":"CALLE OLULA DEL RIO, 1","municipality":"Almería","province":"ALMERÍA","postalCode":"04008","schedule":"L-D: 24H","fuels":{"gasoline95":1.719,"diesel":1.707},"extra":{"saleType":"P","margin":"D","reportingType":"dm","ideess":"14876","idMunicipio":"292","idProvincia":"04","idCCAA":"01"}}},{"type":"Feature","geometry":{"type":"Point","coordinates":[-2.447139,36.837778]},"properties":{"id":"es-14879","source":"ES","brand":"PLENERGY","address":"AVENIDA MEDITERRANEO, 184","municipality":"Almería","province":"ALMERÍA","postalCode":"04008","schedule":"L-D: 24H","fuels":{"gasoline95":1.719,"diesel":1.707},"extra":{"saleType":"P","margin":"D","reportingType":"dm","ideess":"14879","idMunicipio":"292","idProvincia":"04","idCCAA":"01"}}},{"type":"Feature","geometry":{"type":"Point","coordinates":[-2.441389,36.867972]},"properties":{"id":"es-14916","source":"ES","brand":"SECTOROIL","address":"CALLE ROSITA, 25","municipality":"Almería","province":"ALMERÍA","postalCode":"04001","schedule":"L-D: 07:00-21:30","fuels":{"gasoline95":1.699,"diesel":1.729,"adblue":0.889},"extra":{"saleType":"P","margin":"D","reportingType":"dm","ideess":"14916","idMunicipio":"292","idProvincia":"04","idCCAA":"01"}}},{"type":"Feature","geometry":{"type":"Point","coordinates":[-2.794083,36.776889]},"properties":{"id":"es-14955","source":"ES","brand":"PLENERGY","address":"CALLE SIERRA DE ATALAYA, 2","municipality":"Ejido (El)","province":"ALMERÍA","postalCode":"04700","schedule":"L-D: 24H","fuels":{"gasoline95":1.689,"diesel":1.645},"extra":{"saleType":"P","margin":"D","reportingType":"dm","ideess":"14955","idMunicipio":"317","idProvincia":"04","idCCAA":"01"}}},{"type":"Feature","geometry":{"type":"Point","coordinates":[-2.695389,36.751667]},"properties":{"id":"es-14975","source":"ES","brand":"AGLA E.S. CRUCE LOS PALOS","address":"CALLE ALHONDIGA, S/N","municipality":"Mojonera (La)","province":"ALMERÍA","postalCode":"04745","schedule":"L: 24H","fuels":{"gasoline95":1.829,"diesel":1.799},"extra":{"saleType":"P","margin":"D","reportingType":"dm","ideess":"14975","idMunicipio":"341","idProvincia":"04","idCCAA":"01"}}},{"type":"Feature","geometry":{"type":"Point","coordinates":[-2.440944,36.866694]},"properties":{"id":"es-14985","source":"ES","brand":"PLENERGY","address":"CARRETERA TORRECÁRDENAS Nº 167 KM. 8","municipality":"Huércal de Almería","province":"ALMERÍA","postalCode":"04230","schedule":"L-D: 24H","fuels":{"gasoline95":1.729,"diesel":1.717},"extra":{"saleType":"P","margin":"D","reportingType":"dm","ideess":"14985","idMunicipio":"328","idProvincia":"04","idCCAA":"01"}}},{"type":"Feature","geometry":{"type":"Point","coordinates":[-2.420194,36.854333]},"properties":{"id":"es-15129","source":"ES","brand":"PETROPRIX","address":"CARRETERA AL-3117 - AL-3110 KM. 0+925","municipality":"Almería","province":"ALMERÍA","postalCode":"04120","schedule":"L-D: 24H","fuels":{"gasoline95":1.719,"diesel":1.707},"extra":{"saleType":"P","margin":"N","reportingType":"dm","ideess":"15129","idMunicipio":"292","idProvincia":"04","idCCAA":"01"}}},{"type":"Feature","geometry":{"type":"Point","coordinates":[-2.432556,36.854778]},"properties":{"id":"es-15440","source":"ES","brand":"CIUDAD DEL TAXI","address":"CALLE MICA, 62","municipality":"Almería","province":"ALMERÍA","postalCode":"04009","schedule":"L-D: 24H","fuels":{"gasoline95":1.633,"diesel":1.755,"lpg":0.849},"extra":{"saleType":"P","margin":"D","reportingType":"dm","ideess":"15440","idMunicipio":"292","idProvincia":"04","idCCAA":"01"}}},{"type":"Feature","geometry":{"type":"Point","coordinates":[-2.422972,36.879306]},"properties":{"id":"es-15456","source":"ES","brand":"ENERGY CARBURANTES","address":"CALLE SIERRA   ATALAYA, 6","municipality":"Viator","province":"ALMERÍA","postalCode":"04240","schedule":"L-D: 06:30-22:30","fuels":{"gasoline95":1.709,"diesel":1.669},"extra":{"saleType":"P","margin":"D","reportingType":"dm","ideess":"15456","idMunicipio":"379","idProvincia":"04","idCCAA":"01"}}},{"type":"Feature","geometry":{"type":"Point","coordinates":[-2.742972,36.785444]},"properties":{"id":"es-15462","source":"ES","brand":"GASOLEOS VILOMORE,S.L.","address":"POLIGONO INDUSTRIAL LA REDONDA S/N, S/N","municipality":"Ejido (El)","province":"ALMERÍA","postalCode":"04710","schedule":"L-S: 07:30-23:30","fuels":{"diesel":1.775,"dieselB":1.455},"extra":{"saleType":"P","margin":"D","reportingType":"dm","ideess":"15462","idMunicipio":"317","idProvincia":"04","idCCAA":"01"}}},{"type":"Feature","geometry":{"type":"Point","coordinates":[-2.797944,36.770722]},"properties":{"id":"es-15465","source":"ES","brand":"GASOLEOS SOTOMONTES,S.L.","address":"CARRETERA MATAGORDA - GUARDIAS VIEJAS S/N KM. S/N","municipality":"Ejido (El)","province":"ALMERÍA","postalCode":"04715","schedule":"L: 07:30-22:30","fuels":{"gasoline95":1.685,"diesel":1.775,"dieselB":1.455},"extra":{"saleType":"P","margin":"D","reportingType":"dm","ideess":"15465","idMunicipio":"317","idProvincia":"04","idCCAA":"01"}}},{"type":"Feature","geometry":{"type":"Point","coordinates":[-2.757,36.759806]},"properties":{"id":"es-15480","source":"ES","brand":"NORIAS VILO,S.L","address":"CALLE FRAILE, 18","municipality":"Ejido (El)","province":"ALMERÍA","postalCode":"04716","schedule":"L-S: 07:30-10:30","fuels":{"gasoline95":1.624,"diesel":1.819},"extra":{"saleType":"P","margin":"D","reportingType":"dm","ideess":"15480","idMunicipio":"317","idProvincia":"04","idCCAA":"01"}}},{"type":"Feature","geometry":{"type":"Point","coordinates":[-2.636944,36.749444]},"properties":{"id":"es-15497","source":"ES","brand":"BP ROQUETAS","address":"CAMINO A-1051, 10","municipality":"Roquetas de Mar","province":"ALMERÍA","postalCode":"04740","schedule":"L-D: 24H","fuels":{"gasoline95":1.849,"gasoline98":1.989,"diesel":1.889,"dieselPremium":1.979,"adblue":1.135},"extra":{"saleType":"P","margin":"D","reportingType":"OM","ideess":"15497","idMunicipio":"356","idProvincia":"04","idCCAA":"01"}}},{"type":"Feature","geometry":{"type":"Point","coordinates":[-2.448917,36.863833]},"properties":{"id":"es-15729","source":"ES","brand":"PLENERGY","address":"CARRETERA DE GRANADA, 2 TRAMOS 55.57 KM. S/N","municipality":"Almería","province":"ALMERÍA","postalCode":"04009","schedule":"L-D: 24H","fuels":{"gasoline95":1.729,"diesel":1.717},"extra":{"saleType":"P","margin":"D","reportingType":"dm","ideess":"15729","idMunicipio":"292","idProvincia":"04","idCCAA":"01"}}},{"type":"Feature","geometry":{"type":"Point","coordinates":[-2.63275,36.762167]},"properties":{"id":"es-15736","source":"ES","brand":"PLENERGY","address":"CARRETERA LA MOJONERA KM. 142","municipality":"Roquetas de Mar","province":"ALMERÍA","postalCode":"04740","schedule":"L-D: 24H","fuels":{"gasoline95":1.689,"diesel":1.645},"extra":{"saleType":"P","margin":"D","reportingType":"dm","ideess":"15736","idMunicipio":"356","idProvincia":"04","idCCAA":"01"}}},{"type":"Feature","geometry":{"type":"Point","coordinates":[-2.704167,36.752833]},"properties":{"id":"es-15761","source":"ES","brand":"ES FEPSA  LA PALMA","address":"CARRETERA A-1050 KM. 7,2","municipality":"Ejido (El)","province":"ALMERÍA","postalCode":"04716","schedule":"L-D: 24H","fuels":{"gasoline95":1.69,"diesel":1.71,"dieselB":1.42,"adblue":0.78},"extra":{"saleType":"P","margin":"I","reportingType":"dm","ideess":"15761","idMunicipio":"317","idProvincia":"04","idCCAA":"01"}}},{"type":"Feature","geometry":{"type":"Point","coordinates":[-2.449472,36.865139]},"properties":{"id":"es-15821","source":"ES","brand":"PLENERGY","address":"CAMINO LOS ALMENDROS, 18","municipality":"Almería","province":"ALMERÍA","postalCode":"04009","schedule":"L-D: 24H","fuels":{"gasoline95":1.729,"diesel":1.717},"extra":{"saleType":"P","margin":"D","reportingType":"dm","ideess":"15821","idMunicipio":"292","idProvincia":"04","idCCAA":"01"}}},{"type":"Feature","geometry":{"type":"Point","coordinates":[-2.444528,36.838694]},"properties":{"id":"es-15858","source":"ES","brand":"PETROPRIX","address":"AVENIDA NUESTRA SEÑORA DE MONTSERRAT, 160","municipality":"Almería","province":"ALMERÍA","postalCode":"04006","schedule":"L-D: 24H","fuels":{"gasoline95":1.719,"diesel":1.707},"extra":{"saleType":"P","margin":"D","reportingType":"dm","ideess":"15858","idMunicipio":"292","idProvincia":"04","idCCAA":"01"}}},{"type":"Feature","geometry":{"type":"Point","coordinates":[-2.537194,36.962778]},"properties":{"id":"es-15994","source":"ES","brand":"BP E.S. LOS MILLARES","address":"CARRETERA A1075 KM. 1","municipality":"Santa Fe de Mondújar","province":"ALMERÍA","postalCode":"04420","schedule":"L: 06:00-22:00","fuels":{"gasoline95":1.859,"gasoline98":1.999,"diesel":1.909,"dieselPremium":1.999},"extra":{"saleType":"P","margin":"I","reportingType":"dm","ideess":"15994","idMunicipio":"358","idProvincia":"04","idCCAA":"01"}}},{"type":"Feature","geometry":{"type":"Point","coordinates":[-2.754139,36.771611]},"properties":{"id":"es-16001","source":"ES","brand":"REPSOL","address":"CARRETERA PUESTO RUBIO KM. 66","municipality":"Ejido (El)","province":"ALMERÍA","postalCode":"04716","schedule":"L-D: 06:00-22:00","fuels":{"gasoline95E10":1.775,"gasoline98E10":1.929,"diesel":1.899,"dieselPremium":1.959,"adblue":0.795},"extra":{"saleType":"P","margin":"D","reportingType":"dm","ideess":"16001","idMunicipio":"317","idProvincia":"04","idCCAA":"01"}}},{"type":"Feature","geometry":{"type":"Point","coordinates":[-2.469694,36.854611]},"properties":{"id":"es-16019","source":"ES","brand":"PLENERGY","address":"ZONA NORTE DE LA RAMBLA CALLE JOSÉ MANUEL GÓMEZ ANGULO, S/N","municipality":"Almería","province":"ALMERÍA","postalCode":"04008","schedule":"L-D: 24H","fuels":{"gasoline95":1.729,"diesel":1.717},"extra":{"saleType":"P","margin":"D","reportingType":"dm","ideess":"16019","idMunicipio":"292","idProvincia":"04","idCCAA":"01"}}},{"type":"Feature","geometry":{"type":"Point","coordinates":[-2.687917,36.79625]},"properties":{"id":"es-16034","source":"ES","brand":"PLENERGY","address":"AVENIDA DE LAS CANTINAS, S/N","municipality":"Mojonera (La)","province":"ALMERÍA","postalCode":"04745","schedule":"L-D: 24H","fuels":{"gasoline95":1.605,"diesel":1.705},"extra":{"saleType":"P","margin":"D","reportingType":"dm","ideess":"16034","idMunicipio":"341","idProvincia":"04","idCCAA":"01"}}},{"type":"Feature","geometry":{"type":"Point","coordinates":[-2.442806,36.865194]},"properties":{"id":"es-16143","source":"ES","brand":"PLENERGY","address":"CARRETERA TORRECÁRDENAS KM. 16","municipality":"Huércal de Almería","province":"ALMERÍA","postalCode":"04230","schedule":"L-D: 24H","fuels":{"gasoline95":1.729,"diesel":1.717},"extra":{"saleType":"P","margin":"D","reportingType":"dm","ideess":"16143","idMunicipio":"328","idProvincia":"04","idCCAA":"01"}}},{"type":"Feature","geometry":{"type":"Point","coordinates":[-2.42325,36.880333]},"properties":{"id":"es-16149","source":"ES","brand":"GONZALEZ CAÑABATE, S.L.","address":"CALLE SIERRA NEVADA, 90","municipality":"Viator","province":"ALMERÍA","postalCode":"04240","schedule":"L-D: 06:00-22:00","fuels":{"gasoline95":1.729,"gasoline98":1.799,"diesel":1.707,"adblue":0.641},"extra":{"saleType":"P","margin":"D","reportingType":"dm","ideess":"16149","idMunicipio":"379","idProvincia":"04","idCCAA":"01"}}},{"type":"Feature","geometry":{"type":"Point","coordinates":[-2.806444,36.759278]},"properties":{"id":"es-16199","source":"ES","brand":"PLENERGY","address":"CALLE PÉRGOLA, S/N","municipality":"Ejido (El)","province":"ALMERÍA","postalCode":"04700","schedule":"L-D: 24H","fuels":{"gasoline95":1.689,"diesel":1.645},"extra":{"saleType":"P","margin":"D","reportingType":"dm","ideess":"16199","idMunicipio":"317","idProvincia":"04","idCCAA":"01"}}},{"type":"Feature","geometry":{"type":"Point","coordinates":[-2.800389,36.758083]},"properties":{"id":"es-16414","source":"ES","brand":"BEROIL","address":"CALLE JUAN DE LA CIERVA, 1","municipality":"Ejido (El)","province":"ALMERÍA","postalCode":"04700","schedule":"L-D: 24H","fuels":{"gasoline95":1.729,"diesel":1.679,"adblue":0.6},"extra":{"saleType":"P","margin":"D","reportingType":"dm","ideess":"16414","idMunicipio":"317","idProvincia":"04","idCCAA":"01"}}},{"type":"Feature","geometry":{"type":"Point","coordinates":[-2.452167,36.851222]},"properties":{"id":"es-16467","source":"ES","brand":"RASPAOIL ALMERIA","address":"CARRETERA DEL MAMI KM 0,4 AL-3117 KM. 0,4","municipality":"Almería","province":"ALMERÍA","postalCode":"04009","schedule":"L: 06:00-22:00","fuels":{"gasoline95":1.719,"gasoline95Premium":1.719,"diesel":1.707,"dieselPremium":1.707,"lpg":0.9,"adblue":0.697},"extra":{"saleType":"P","margin":"D","reportingType":"dm","ideess":"16467","idMunicipio":"292","idProvincia":"04","idCCAA":"01"}}},{"type":"Feature","geometry":{"type":"Point","coordinates":[-2.997028,36.749528]},"properties":{"id":"es-16502","source":"ES","brand":"BALLENOIL","address":"CALLE CARRETERA DEL CAMPILLO, 31","municipality":"Adra","province":"ALMERÍA","postalCode":"04779","schedule":"L-D: 24H","fuels":{"gasoline95":1.619,"gasoline95Premium":1.629,"diesel":1.649,"dieselPremium":1.669},"extra":{"saleType":"P","margin":"N","reportingType":"OM","ideess":"16502","idMunicipio":"282","idProvincia":"04","idCCAA":"01"}}},{"type":"Feature","geometry":{"type":"Point","coordinates":[-2.802306,36.774722]},"properties":{"id":"es-5561","source":"ES","brand":"GASOLINERA EL EJIDO","address":"CALLE Avellano, 492","municipality":"Ejido (El)","province":"ALMERÍA","postalCode":"04700","schedule":"L-D: 06:00-22:00","fuels":{"gasoline95":1.689,"diesel":1.649,"adblue":0.799},"extra":{"saleType":"P","margin":"N","reportingType":"OM","ideess":"5561","idMunicipio":"317","idProvincia":"04","idCCAA":"01"}}},{"type":"Feature","geometry":{"type":"Point","coordinates":[-2.611944,36.776111]},"properties":{"id":"es-5572","source":"ES","brand":"CARREFOUR","address":"CARRETERA CRTA. ALICUN KM. S/N","municipality":"Roquetas de Mar","province":"ALMERÍA","postalCode":"04740","schedule":"L-D: 24H","fuels":{"gasoline95":1.799,"gasoline98":1.979,"diesel":1.799},"extra":{"saleType":"P","margin":"N","reportingType":"dm","ideess":"5572","idMunicipio":"356","idProvincia":"04","idCCAA":"01"}}},{"type":"Feature","geometry":{"type":"Point","coordinates":[-2.613361,36.77175]},"properties":{"id":"es-5573","source":"ES","brand":"CEPSA","address":"AVENIDA ALICUN, 62","municipality":"Roquetas de Mar","province":"ALMERÍA","postalCode":"04740","schedule":"L-D: 24H","fuels":{"gasoline95":1.859,"gasoline95Premium":2.029,"gasoline98":2.049,"diesel":1.879,"dieselPremium":1.979,"adblue":1.289},"extra":{"saleType":"P","margin":"D","reportingType":"dm","ideess":"5573","idMunicipio":"356","idProvincia":"04","idCCAA":"01"}}},{"type":"Feature","geometry":{"type":"Point","coordinates":[-2.613417,36.769972]},"properties":{"id":"es-5574","source":"ES","brand":"CEPSA","address":"AVENIDA DE ALICUN, 23 (A-391 km 0,5)","municipality":"Roquetas de Mar","province":"ALMERÍA","postalCode":"04740","schedule":"L-D: 07:00-23:00","fuels":{"gasoline95":1.859,"gasoline98":2.049,"diesel":1.879,"dieselPremium":1.979,"lpg":1.289},"extra":{"saleType":"P","margin":"I","reportingType":"dm","ideess":"5574","idMunicipio":"356","idProvincia":"04","idCCAA":"01"}}},{"type":"Feature","geometry":{"type":"Point","coordinates":[-2.799917,36.720917]},"properties":{"id":"es-5605","source":"ES","brand":"BAHIA DE ALMERIMAR","address":"CARRERA ALMERIMAR, 5","municipality":"Ejido (El)","province":"ALMERÍA","postalCode":"04700","schedule":"L-D: 06:30-22:30","fuels":{"gasoline95":1.739,"gasoline98":1.749,"diesel":1.849,"dieselPremium":1.899,"dieselB":1.459,"adblue":0.99},"extra":{"saleType":"P","margin":"N","reportingType":"dm","ideess":"5605","idMunicipio":"317","idProvincia":"04","idCCAA":"01"}}},{"type":"Feature","geometry":{"type":"Point","coordinates":[-2.229556,36.869083]},"properties":{"id":"es-5613","source":"ES","brand":"BP ESTACION DE SERVICIO EL 21","address":"AUTOVIA AUTOVIA DEL MEDITERRANEO SAL.471 KM. 471","municipality":"Níjar","province":"ALMERÍA","postalCode":"04100","schedule":"L: 07:00-22:00","fuels":{"gasoline95":1.859,"gasoline98":1.999,"diesel":1.869,"dieselPremium":1.959,"adblue":0.999},"extra":{"saleType":"P","margin":"N","reportingType":"dm","ideess":"5613","idMunicipio":"343","idProvincia":"04","idCCAA":"01"}}},{"type":"Feature","geometry":{"type":"Point","coordinates":[-2.609389,36.807389]},"properties":{"id":"es-5614","source":"ES","brand":"BP VICAR","address":"BULEVAR BULEVAR CIUDAD DE VICAR, 300","municipality":"Vícar","province":"ALMERÍA","postalCode":"04738","schedule":"L-D: 06:30-22:30","fuels":{"gasoline95":1.849,"gasoline98":1.989,"diesel":1.876,"dieselPremium":1.965},"extra":{"saleType":"P","margin":"N","reportingType":"dm","ideess":"5614","idMunicipio":"380","idProvincia":"04","idCCAA":"01"}}},{"type":"Feature","geometry":{"type":"Point","coordinates":[-2.390944,36.845]},"properties":{"id":"es-5618","source":"ES","brand":"MOEVE","address":"CARRETERA NIJAR (ALQUIAN) KM. 6,9","municipality":"Almería","province":"ALMERÍA","postalCode":"04120","schedule":"L-D: 06:00-23:00","fuels":{"gasoline95":1.899,"gasoline95Premium":1.989,"diesel":1.863,"dieselPremium":1.959},"extra":{"saleType":"P","margin":"I","reportingType":"OM","ideess":"5618","idMunicipio":"292","idProvincia":"04","idCCAA":"01"}}},{"type":"Feature","geometry":{"type":"Point","coordinates":[-2.462528,36.8335]},"properties":{"id":"es-5619","source":"ES","brand":"MOEVE","address":"AVENIDA CABO DE GATA, 4","municipality":"Almería","province":"ALMERÍA","postalCode":"04007","schedule":"L-D: 06:00-23:00","fuels":{"gasoline95":1.879,"gasoline95Premium":1.969,"diesel":1.863,"dieselPremium":1.959},"extra":{"saleType":"P","margin":"I","reportingType":"OM","ideess":"5619","idMunicipio":"292","idProvincia":"04","idCCAA":"01"}}},{"type":"Feature","geometry":{"type":"Point","coordinates":[-2.447278,36.857778]},"properties":{"id":"es-5620","source":"ES","brand":"CEPSA","address":"CARRETERA N-340A KM. 444","municipality":"Almería","province":"ALMERÍA","postalCode":"04009","schedule":"L-D: 06:00-23:30","fuels":{"gasoline95":1.869,"gasoline98":2.019,"diesel":1.864,"dieselPremium":2.004},"extra":{"saleType":"P","margin":"D","reportingType":"dm","ideess":"5620","idMunicipio":"292","idProvincia":"04","idCCAA":"01"}}},{"type":"Feature","geometry":{"type":"Point","coordinates":[-2.834417,36.78425]},"properties":{"id":"es-5621","source":"ES","brand":"CAMPOEJIDO","address":"CARRETERA CARRETERA DE BERJA KM. 16","municipality":"Ejido (El)","province":"ALMERÍA","postalCode":"04700","schedule":"L-D: 06:00-22:00","fuels":{"gasoline95":1.694,"diesel":1.645,"dieselPremium":1.697,"lpg":0.984},"extra":{"saleType":"P","margin":"D","reportingType":"dm","ideess":"5621","idMunicipio":"317","idProvincia":"04","idCCAA":"01"}}},{"type":"Feature","geometry":{"type":"Point","coordinates":[-2.831333,36.780778]},"properties":{"id":"es-5622","source":"ES","brand":"CAMPOEJIDO","address":"CARRETERA CARRETERA DE BERJA KM. 16","municipality":"Ejido (El)","province":"ALMERÍA","postalCode":"04700","schedule":"L-D: 06:00-22:00","fuels":{"gasoline95":1.694,"gasoline98":1.736,"diesel":1.645,"dieselPremium":1.697,"dieselB":1.388,"adblue":0.78},"extra":{"saleType":"P","margin":"I","reportingType":"dm","ideess":"5622","idMunicipio":"317","idProvincia":"04","idCCAA":"01"}}},{"type":"Feature","geometry":{"type":"Point","coordinates":[-2.802194,36.727361]},"properties":{"id":"es-5623","source":"ES","brand":"E.S. CAMPOEJIDO CTRA ALMERIMAR","address":"CARRETERA DE ALMERIMAR KM. 3","municipality":"Ejido (El)","province":"ALMERÍA","postalCode":"04700","schedule":"L-D: 24H","fuels":{"gasoline95":1.694,"diesel":1.645,"dieselPremium":1.697,"dieselB":1.388,"adblue":0.78},"extra":{"saleType":"P","margin":"D","reportingType":"dm","ideess":"5623","idMunicipio":"317","idProvincia":"04","idCCAA":"01"}}},{"type":"Feature","geometry":{"type":"Point","coordinates":[-2.475083,36.945361]},"properties":{"id":"es-5625","source":"ES","brand":"CEPSA","address":"BARRIO RUINI, 16","municipality":"Gádor","province":"ALMERÍA","postalCode":"04560","schedule":"L: 06:00-22:00","fuels":{"gasoline95":1.879,"diesel":1.883,"dieselPremium":1.964},"extra":{"saleType":"P","margin":"D","reportingType":"dm","ideess":"5625","idMunicipio":"323","idProvincia":"04","idCCAA":"01"}}},{"type":"Feature","geometry":{"type":"Point","coordinates":[-2.592917,36.809278]},"properties":{"id":"es-5627","source":"ES","brand":"CEPSA","address":"AVENIDA CALOS III, 82","municipality":"Roquetas de Mar","province":"ALMERÍA","postalCode":"04720","schedule":"L-D: 24H","fuels":{"gasoline95":1.839,"gasoline98":1.979,"diesel":1.849,"dieselPremium":1.929,"dieselB":1.499,"lpg":1.169,"adblue":0.899},"extra":{"saleType":"P","margin":"D","reportingType":"dm","ideess":"5627","idMunicipio":"356","idProvincia":"04","idCCAA":"01"}}},{"type":"Feature","geometry":{"type":"Point","coordinates":[-2.616861,36.741306]},"properties":{"id":"es-5629","source":"ES","brand":"CEPSA","address":"CARRETERA SABINAL KM. 337","municipality":"Roquetas de Mar","province":"ALMERÍA","postalCode":"04740","schedule":"L-D: 06:00-23:00","fuels":{"gasoline95":1.919,"gasoline95Premium":2.029,"gasoline98":2.069,"diesel":1.949,"dieselPremium":2.039},"extra":{"saleType":"P","margin":"I","reportingType":"dm","ideess":"5629","idMunicipio":"356","idProvincia":"04","idCCAA":"01"}}},{"type":"Feature","geometry":{"type":"Point","coordinates":[-2.645694,36.759611]},"properties":{"id":"es-5630","source":"ES","brand":"BALLENOIL","address":"CARRETERA MOJONERA (MO) KM. 37","municipality":"Roquetas de Mar","province":"ALMERÍA","postalCode":"04740","schedule":"L-D: 24H","fuels":{"gasoline95":1.619,"gasoline95Premium":1.629,"diesel":1.667},"extra":{"saleType":"P","margin":"I","reportingType":"OM","ideess":"5630","idMunicipio":"356","idProvincia":"04","idCCAA":"01"}}},{"type":"Feature","geometry":{"type":"Point","coordinates":[-2.143667,36.927306]},"properties":{"id":"es-5640","source":"ES","brand":"CEPSA","address":"CARRETERA IRIDA KM. 15,6","municipality":"Níjar","province":"ALMERÍA","postalCode":"04110","schedule":"L-S: 06:00-22:00; D: 07:00-22:00","fuels":{"gasoline95":1.869,"gasoline98":2.029,"diesel":1.879,"dieselPremium":1.989},"extra":{"saleType":"P","margin":"D","reportingType":"dm","ideess":"5640","idMunicipio":"343","idProvincia":"04","idCCAA":"01"}}},{"type":"Feature","geometry":{"type":"Point","coordinates":[-2.492667,36.829444]},"properties":{"id":"es-5641","source":"ES","brand":"BALLENOIL","address":"CARRETERA N-340A KM. 438,5","municipality":"Almería","province":"ALMERÍA","postalCode":"04002","schedule":"L-D: 24H","fuels":{"gasoline95":1.719,"diesel":1.707},"extra":{"saleType":"P","margin":"I","reportingType":"OM","ideess":"5641","idMunicipio":"292","idProvincia":"04","idCCAA":"01"}}},{"type":"Feature","geometry":{"type":"Point","coordinates":[-2.432944,36.816083]},"properties":{"id":"es-5746","source":"ES","brand":"REPSOL","address":"AVENIDA CABO DE GATA, 280","municipality":"Almería","province":"ALMERÍA","postalCode":"04007","schedule":"L-D: 06:30-22:30","fuels":{"gasoline95":1.919,"gasoline95Premium":1.959,"gasoline98":2.059,"diesel":1.929,"dieselPremium":2.049,"adblue":1.199},"extra":{"saleType":"P","margin":"D","reportingType":"dm","ideess":"5746","idMunicipio":"292","idProvincia":"04","idCCAA":"01"}}},{"type":"Feature","geometry":{"type":"Point","coordinates":[-2.930361,36.834389]},"properties":{"id":"es-5764","source":"ES","brand":"TRUCKSTOP","address":"CARRETERA A-358 KM. 3","municipality":"Berja","province":"ALMERÍA","postalCode":"04760","schedule":"L-D: 06:00-22:00","fuels":{"gasoline95":1.655,"diesel":1.699,"dieselPremium":1.739,"dieselB":1.399},"extra":{"saleType":"P","margin":"D","reportingType":"dm","ideess":"5764","idMunicipio":"307","idProvincia":"04","idCCAA":"01"}}},{"type":"Feature","geometry":{"type":"Point","coordinates":[-2.826111,36.771278]},"properties":{"id":"es-5765","source":"ES","brand":"REPSOL LA COSTA","address":"CALLE BULEVAR, 74","municipality":"Ejido (El)","province":"ALMERÍA","postalCode":"04700","schedule":"L-D: 06:00-22:00","fuels":{"gasoline95":1.839,"diesel":1.829,"dieselPremium":1.919,"dieselB":1.719,"adblue":1.05},"extra":{"saleType":"P","margin":"D","reportingType":"dm","ideess":"5765","idMunicipio":"317","idProvincia":"04","idCCAA":"01"}}},{"type":"Feature","geometry":{"type":"Point","coordinates":[-2.466583,36.96075]},"properties":{"id":"es-5769","source":"ES","brand":"REPSOL","address":"CR A-92, 386","municipality":"Rioja","province":"ALMERÍA","postalCode":"04260","schedule":"L-D: 06:00-22:00","fuels":{"gasoline95":1.865,"gasoline98":1.989,"diesel":1.875,"adblue":0.889},"extra":{"saleType":"P","margin":"I","reportingType":"dm","ideess":"5769","idMunicipio":"355","idProvincia":"04","idCCAA":"01"}}},{"type":"Feature","geometry":{"type":"Point","coordinates":[-2.805444,36.758556]},"properties":{"id":"es-5795","source":"ES","brand":"REPSOL","address":"AVENIDA OASIS, 260","municipality":"Ejido (El)","province":"ALMERÍA","postalCode":"04700","schedule":"L-D: 06:00-23:00","fuels":{"gasoline95":1.959,"gasoline98":2.109,"diesel":1.899,"dieselRenewable":1.999,"lpg":1.15},"extra":{"saleType":"P","margin":"D","reportingType":"dm","ideess":"5795","idMunicipio":"317","idProvincia":"04","idCCAA":"01"}}},{"type":"Feature","geometry":{"type":"Point","coordinates":[-2.127806,36.955639]},"properties":{"id":"es-5798","source":"ES","brand":"REPSOL","address":"AUTOVIA A7  E15   SALIDA 742  NIJAR KM. 742","municipality":"Níjar","province":"ALMERÍA","postalCode":"04100","schedule":"L-D: 24H","fuels":{"gasoline95":1.889,"gasoline98":2.049,"diesel":1.879,"dieselB":1.755,"dieselRenewable":1.989,"lpg":1.179},"extra":{"saleType":"P","margin":"I","reportingType":"OM","ideess":"5798","idMunicipio":"343","idProvincia":"04","idCCAA":"01"}}},{"type":"Feature","geometry":{"type":"Point","coordinates":[-2.423139,36.878167]},"properties":{"id":"es-5799","source":"ES","brand":"BP","address":"CARRETERA VIATOR - EL ALQUIAN KM. 8,5","municipality":"Viator","province":"ALMERÍA","postalCode":"04240","schedule":"L-D: 05:00-23:00","fuels":{"gasoline95":1.919,"gasoline98":2.059,"diesel":1.949,"dieselPremium":2.039,"adblue":1.219},"extra":{"saleType":"P","margin":"N","reportingType":"dm","ideess":"5799","idMunicipio":"379","idProvincia":"04","idCCAA":"01"}}},{"type":"Feature","geometry":{"type":"Point","coordinates":[-2.601222,36.798611]},"properties":{"id":"es-5801","source":"ES","brand":"REPSOL","address":"CTRA. ALICUN KM 5.05 (A-391 km 3,8)","municipality":"Roquetas de Mar","province":"ALMERÍA","postalCode":"04740","schedule":"L-D: 06:00-23:00","fuels":{"gasoline95":1.859,"gasoline98":2.049,"diesel":1.879,"dieselPremium":1.979,"adblue":1.289},"extra":{"saleType":"P","margin":"D","reportingType":"dm","ideess":"5801","idMunicipio":"356","idProvincia":"04","idCCAA":"01"}}},{"type":"Feature","geometry":{"type":"Point","coordinates":[-2.602111,36.798722]},"properties":{"id":"es-5802","source":"ES","brand":"REPSOL","address":"CARRETERA ALICUN KM. 5,05","municipality":"Roquetas de Mar","province":"ALMERÍA","postalCode":"04740","schedule":"L: 06:00-22:00","fuels":{"gasoline95":1.859,"gasoline98":2.049,"diesel":1.879,"dieselPremium":1.979},"extra":{"saleType":"P","margin":"I","reportingType":"dm","ideess":"5802","idMunicipio":"356","idProvincia":"04","idCCAA":"01"}}},{"type":"Feature","geometry":{"type":"Point","coordinates":[-2.420722,36.853639]},"properties":{"id":"es-5806","source":"ES","brand":"REPSOL","address":"CARRETERA ALP 201 KM. 1,60","municipality":"Almería","province":"ALMERÍA","postalCode":"04009","schedule":"L-D: 06:00-22:00","fuels":{"gasoline95":1.909,"gasoline98":2.039,"diesel":1.889,"dieselPremium":1.979,"dieselB":1.7,"adblue":0.99},"extra":{"saleType":"P","margin":"I","reportingType":"dm","ideess":"5806","idMunicipio":"292","idProvincia":"04","idCCAA":"01"}}},{"type":"Feature","geometry":{"type":"Point","coordinates":[-2.700944,36.714472]},"properties":{"id":"es-6427","source":"ES","brand":"AGLA","address":"CARRETERA 223 KM. 29","municipality":"Ejido (El)","province":"ALMERÍA","postalCode":"04700","schedule":"L-D: 06:00-22:00","fuels":{"gasoline95":1.799,"gasoline98":1.849,"diesel":1.789,"dieselB":1.58},"extra":{"saleType":"P","margin":"N","reportingType":"dm","ideess":"6427","idMunicipio":"317","idProvincia":"04","idCCAA":"01"}}},{"type":"Feature","geometry":{"type":"Point","coordinates":[-2.661,36.737694]},"properties":{"id":"es-6428","source":"ES","brand":"AGLA","address":"CARRETERA MOJONERA AL SOLANILLO KM. S/N","municipality":"Vícar","province":"ALMERÍA","postalCode":"04738","schedule":"L-D: 24H","fuels":{"gasoline95":1.799,"gasoline98":1.849,"diesel":1.789},"extra":{"saleType":"P","margin":"N","reportingType":"dm","ideess":"6428","idMunicipio":"380","idProvincia":"04","idCCAA":"01"}}},{"type":"Feature","geometry":{"type":"Point","coordinates":[-2.178361,36.904333]},"properties":{"id":"es-6517","source":"ES","brand":"ESTACION DE SERVICIO REPSOL ** CASI **","address":"CRTA. DE YRIDA km 27","municipality":"Níjar","province":"ALMERÍA","postalCode":"04117","schedule":"L-D: 06:00-21:30","fuels":{"gasoline95":1.839,"diesel":1.869,"dieselRenewable":1.979,"adblue":0.899},"extra":{"saleType":"P","margin":"I","reportingType":"dm","ideess":"6517","idMunicipio":"343","idProvincia":"04","idCCAA":"01"}}},{"type":"Feature","geometry":{"type":"Point","coordinates":[-2.419722,36.840833]},"properties":{"id":"es-6524","source":"ES","brand":"BP LOS PARTIDORES","address":"CARRETERA CARRETERA ALMERIA KM. 201","municipality":"Almería","province":"ALMERÍA","postalCode":"04120","schedule":"L-D: 06:00-22:00","fuels":{"gasoline95":1.869,"gasoline98":2.009,"diesel":1.869,"dieselPremium":1.959,"adblue":0.9},"extra":{"saleType":"P","margin":"N","reportingType":"dm","ideess":"6524","idMunicipio":"292","idProvincia":"04","idCCAA":"01"}}},{"type":"Feature","geometry":{"type":"Point","coordinates":[-2.186444,36.898083]},"properties":{"id":"es-6824","source":"ES","brand":"REPSOL","address":"CARRETERA DE IRYDA KM. 5200","municipality":"Níjar","province":"ALMERÍA","postalCode":"04117","schedule":"L-D: 06:00-22:00","fuels":{"gasoline95":1.849,"gasoline98":2.009,"diesel":1.855,"dieselPremium":1.955},"extra":{"saleType":"P","margin":"I","reportingType":"OM","ideess":"6824","idMunicipio":"343","idProvincia":"04","idCCAA":"01"}}},{"type":"Feature","geometry":{"type":"Point","coordinates":[-2.911278,36.988611]},"properties":{"id":"es-6827","source":"ES","brand":"REPSOL","address":"CARRETERA ORGIVA-AGADOR KM. 96","municipality":"Láujar de Andarax","province":"ALMERÍA","postalCode":"04470","schedule":"L-D: 07:00-14:00","fuels":{"gasoline95":1.829,"diesel":1.849,"dieselB":1.659},"extra":{"saleType":"P","margin":"I","reportingType":"dm","ideess":"6827","idMunicipio":"333","idProvincia":"04","idCCAA":"01"}}},{"type":"Feature","geometry":{"type":"Point","coordinates":[-2.792222,36.777611]},"properties":{"id":"es-6838","source":"ES","brand":"REPSOL","address":"AVENIDA DEL TREINTA, 121","municipality":"Ejido (El)","province":"ALMERÍA","postalCode":"04700","schedule":"L: 06:00-22:00","fuels":{"gasoline95":1.845,"diesel":1.835,"dieselPremium":1.895,"dieselB":1.735},"extra":{"saleType":"P","margin":"I","reportingType":"OM","ideess":"6838","idMunicipio":"317","idProvincia":"04","idCCAA":"01"}}},{"type":"Feature","geometry":{"type":"Point","coordinates":[-2.621028,36.804778]},"properties":{"id":"es-6841","source":"ES","brand":"REPSOL","address":"BULEVAR CIUDAD DE VICAR, 659","municipality":"Vícar","province":"ALMERÍA","postalCode":"04738","schedule":"L-D: 06:00-22:00","fuels":{"gasoline95":1.855,"gasoline98":2.015,"diesel":1.855,"dieselPremium":1.955},"extra":{"saleType":"P","margin":"N","reportingType":"OM","ideess":"6841","idMunicipio":"380","idProvincia":"04","idCCAA":"01"}}},{"type":"Feature","geometry":{"type":"Point","coordinates":[-2.461556,36.924639]},"properties":{"id":"es-6856","source":"ES","brand":"REPSOL","address":"CARRERA A-92 KM.391, 40","municipality":"Benahadux","province":"ALMERÍA","postalCode":"04410","schedule":"L-D: 24H","fuels":{"gasoline95":1.719,"gasoline98":1.719,"diesel":1.819,"dieselPremium":1.899},"extra":{"saleType":"P","margin":"I","reportingType":"dm","ideess":"6856","idMunicipio":"303","idProvincia":"04","idCCAA":"01"}}},{"type":"Feature","geometry":{"type":"Point","coordinates":[-2.444778,36.874972]},"properties":{"id":"es-6861","source":"ES","brand":"REPSOL","address":"CARRETERA N-340 KM. 446","municipality":"Huércal de Almería","province":"ALMERÍA","postalCode":"04230","schedule":"L-D: 06:00-22:00","fuels":{"gasoline95":1.899,"gasoline98":1.999,"diesel":1.879,"dieselPremium":1.919,"lpg":1.189},"extra":{"saleType":"P","margin":"D","reportingType":"OM","ideess":"6861","idMunicipio":"328","idProvincia":"04","idCCAA":"01"}}},{"type":"Feature","geometry":{"type":"Point","coordinates":[-2.205833,36.94925]},"properties":{"id":"es-6864","source":"ES","brand":"BP NIJAR","address":"CARRETERA AL-340 ALMERIA-NIJAR KM. 30","municipality":"Níjar","province":"ALMERÍA","postalCode":"04100","schedule":"L-D: 07:00-22:00","fuels":{"gasoline95":1.849,"diesel":1.879,"dieselPremium":1.989},"extra":{"saleType":"P","margin":"N","reportingType":"dm","ideess":"6864","idMunicipio":"343","idProvincia":"04","idCCAA":"01"}}},{"type":"Feature","geometry":{"type":"Point","coordinates":[-2.806056,36.754056]},"properties":{"id":"es-6872","source":"ES","brand":"HAFESA","address":"CARRETERA ALMERIMAR KM. S/N","municipality":"Ejido (El)","province":"ALMERÍA","postalCode":"04700","schedule":"L-D: 24H","fuels":{"gasoline95":1.759,"diesel":1.699,"dieselPremium":1.709,"dieselB":1.449,"adblue":0.899},"extra":{"saleType":"P","margin":"N","reportingType":"dm","ideess":"6872","idMunicipio":"317","idProvincia":"04","idCCAA":"01"}}},{"type":"Feature","geometry":{"type":"Point","coordinates":[-2.160972,36.815778]},"properties":{"id":"es-6919","source":"ES","brand":"REPSOL","address":"CARRETERA AL-3201 KM. 6,5","municipality":"Níjar","province":"ALMERÍA","postalCode":"04117","schedule":"L-D: 07:00-22:00","fuels":{"gasoline95":1.889,"diesel":1.839,"dieselB":1.725,"dieselRenewable":1.949},"extra":{"saleType":"P","margin":"I","reportingType":"OM","ideess":"6919","idMunicipio":"343","idProvincia":"04","idCCAA":"01"}}},{"type":"Feature","geometry":{"type":"Point","coordinates":[-2.584861,36.811083]},"properties":{"id":"es-6926","source":"ES","brand":"BP AGUADULCE","address":"AVENIDA CARLOS III (AS), 305","municipality":"Roquetas de Mar","province":"ALMERÍA","postalCode":"04720","schedule":"L-D: 24H","fuels":{"gasoline95":1.849,"gasoline98":1.989,"diesel":1.876,"dieselPremium":1.965,"adblue":0.899},"extra":{"saleType":"P","margin":"N","reportingType":"dm","ideess":"6926","idMunicipio":"356","idProvincia":"04","idCCAA":"01"}}},{"type":"Feature","geometry":{"type":"Point","coordinates":[-2.945833,36.841667]},"properties":{"id":"es-6954","source":"ES","brand":"REPSOL","address":"AVENIDA JOSE BARRIONUEVO PEÑA, S/N","municipality":"Berja","province":"ALMERÍA","postalCode":"04760","schedule":"L-S: 06:30-20:30; D: 06:30-14:30","fuels":{"gasoline95":1.845,"gasoline98":2.005,"diesel":1.835,"dieselPremium":1.935},"extra":{"saleType":"P","margin":"D","reportingType":"OM","ideess":"6954","idMunicipio":"307","idProvincia":"04","idCCAA":"01"}}},{"type":"Feature","geometry":{"type":"Point","coordinates":[-2.467333,36.852083]},"properties":{"id":"es-6964","source":"ES","brand":"REPSOL","address":"AVENIDA FEDERICO GARCIA LORCA, S/N","municipality":"Almería","province":"ALMERÍA","postalCode":"04008","schedule":"L-D: 24H","fuels":{"gasoline95":1.899,"gasoline98":1.999,"diesel":1.889,"dieselRenewable":1.989,"lpg":1.179},"extra":{"saleType":"P","margin":"D","reportingType":"OM","ideess":"6964","idMunicipio":"292","idProvincia":"04","idCCAA":"01"}}},{"type":"Feature","geometry":{"type":"Point","coordinates":[-2.686917,36.796056]},"properties":{"id":"es-6966","source":"ES","brand":"REPSOL","address":"N-340 km 420,7","municipality":"Mojonera (La)","province":"ALMERÍA","postalCode":"04745","schedule":"L-D: 24H","fuels":{"gasoline95":1.855,"gasoline98":1.985,"diesel":1.859,"dieselB":1.755,"dieselRenewable":1.969},"extra":{"saleType":"P","margin":"I","reportingType":"OM","ideess":"6966","idMunicipio":"341","idProvincia":"04","idCCAA":"01"}}},{"type":"Feature","geometry":{"type":"Point","coordinates":[-2.419472,36.884611]},"properties":{"id":"es-8276","source":"ES","brand":"ENI","address":"CALLE SIERRA DE CAZORLA, 23 (P.I. LA JUAIDA), 23","municipality":"Viator","province":"ALMERÍA","postalCode":"04240","schedule":"L-D: 06:00-22:00","fuels":{"gasoline95":1.865,"gasoline98":1.995,"diesel":1.839,"dieselPremium":1.929,"adblue":0.899},"extra":{"saleType":"P","margin":"D","reportingType":"dm","ideess":"8276","idMunicipio":"379","idProvincia":"04","idCCAA":"01"}}},{"type":"Feature","geometry":{"type":"Point","coordinates":[-2.636944,36.761111]},"properties":{"id":"es-8386","source":"ES","brand":"E.S. CAMPOEJIDO ROQUETAS","address":"CARRETERA DE LA MOJONERA KM. 285","municipality":"Roquetas de Mar","province":"ALMERÍA","postalCode":"04740","schedule":"L-D: 06:00-22:00","fuels":{"gasoline95":1.694,"diesel":1.645,"dieselPremium":1.697,"dieselB":1.388,"adblue":0.78},"extra":{"saleType":"P","margin":"N","reportingType":"dm","ideess":"8386","idMunicipio":"356","idProvincia":"04","idCCAA":"01"}}},{"type":"Feature","geometry":{"type":"Point","coordinates":[-2.706861,36.791667]},"properties":{"id":"es-8568","source":"ES","brand":"SHELL","address":"CARRETERA N-340 KM. 418","municipality":"Mojonera (La)","province":"ALMERÍA","postalCode":"04279","schedule":"L-D: 05:30-23:30","fuels":{"gasoline95":1.819,"gasoline98":1.959,"diesel":1.809,"dieselPremium":1.889,"adblue":1.33},"extra":{"saleType":"P","margin":"D","reportingType":"OM","ideess":"8568","idMunicipio":"341","idProvincia":"04","idCCAA":"01"}}},{"type":"Feature","geometry":{"type":"Point","coordinates":[-2.706361,36.790778]},"properties":{"id":"es-8569","source":"ES","brand":"SHELL","address":"CARRETERA N-340 KM. 418","municipality":"Mojonera (La)","province":"ALMERÍA","postalCode":"04745","schedule":"L-S: 06:00-22:00","fuels":{"gasoline95":1.819,"gasoline98":1.959,"diesel":1.809,"dieselPremium":1.889,"adblue":1.33},"extra":{"saleType":"P","margin":"I","reportingType":"OM","ideess":"8569","idMunicipio":"341","idProvincia":"04","idCCAA":"01"}}},{"type":"Feature","geometry":{"type":"Point","coordinates":[-2.138694,36.940667]},"properties":{"id":"es-8788","source":"ES","brand":"ENI","address":"CARRETERA DE LAS NEGRAS KM. 149","municipality":"Níjar","province":"ALMERÍA","postalCode":"04110","schedule":"L-D: 06:00-22:00","fuels":{"gasoline95":1.879,"gasoline98":1.999,"diesel":1.835,"dieselPremium":1.915,"dieselB":1.648,"adblue":0.899},"extra":{"saleType":"P","margin":"D","reportingType":"dm","ideess":"8788","idMunicipio":"343","idProvincia":"04","idCCAA":"01"}}},{"type":"Feature","geometry":{"type":"Point","coordinates":[-2.748222,36.757417]},"properties":{"id":"es-8918","source":"ES","brand":"ES NORIAS","address":"CRA DE LA MOJONERA NORIAS 155","municipality":"Ejido (El)","province":"ALMERÍA","postalCode":"04700","schedule":"L-D: 06:00-22:00","fuels":{"gasoline95":1.739,"gasoline98":1.749,"diesel":1.849,"dieselPremium":1.899,"dieselB":1.459},"extra":{"saleType":"P","margin":"N","reportingType":"dm","ideess":"8918","idMunicipio":"317","idProvincia":"04","idCCAA":"01"}}},{"type":"Feature","geometry":{"type":"Point","coordinates":[-2.828556,36.768306]},"properties":{"id":"es-8919","source":"ES","brand":"EJIDO OESTE","address":"PARAJE DERRAMADERO DE CABRILES","municipality":"Ejido (El)","province":"ALMERÍA","postalCode":"04700","schedule":"L-D: 24H","fuels":{"gasoline95":1.739,"gasoline98":1.749,"diesel":1.849,"dieselPremium":1.899,"dieselB":1.459,"adblue":0.99},"extra":{"saleType":"P","margin":"N","reportingType":"dm","ideess":"8919","idMunicipio":"317","idProvincia":"04","idCCAA":"01"}}},{"type":"Feature","geometry":{"type":"Point","coordinates":[-2.555722,36.949944]},"properties":{"id":"es-8944","source":"ES","brand":"REPSOL","address":"CARRETERA A-348 KM. 138,830","municipality":"Alhama de Almería","province":"ALMERÍA","postalCode":"04400","schedule":"L-D: 06:00-22:00","fuels":{"gasoline95":1.879,"gasoline98":1.999,"diesel":1.849,"dieselPremium":1.949,"dieselB":1.669},"extra":{"saleType":"P","margin":"D","reportingType":"dm","ideess":"8944","idMunicipio":"290","idProvincia":"04","idCCAA":"01"}}},{"type":"Feature","geometry":{"type":"Point","coordinates":[-2.642528,36.757167]},"properties":{"id":"es-8954","source":"ES","brand":"COSTA DE ALMERIA","address":"CAMINO DE LOS MERCADOS, S/N","municipality":"Roquetas de Mar","province":"ALMERÍA","postalCode":"04740","schedule":"L-D: 07:00-22:00","fuels":{"gasoline95":1.691,"gasoline98":1.859,"diesel":1.791,"dieselB":1.457,"adblue":0.8},"extra":{"saleType":"P","margin":"D","reportingType":"dm","ideess":"8954","idMunicipio":"356","idProvincia":"04","idCCAA":"01"}}},{"type":"Feature","geometry":{"type":"Point","coordinates":[-2.772639,36.778167]},"properties":{"id":"es-8985","source":"ES","brand":"E.S. COOP SANTA MARIA DEL AGUILA - EL EJIDO","address":"CALLE CAMINO DE ROQUETAS, 6","municipality":"Ejido (El)","province":"ALMERÍA","postalCode":"04700","schedule":"L-D: 24H","fuels":{"gasoline95":1.589,"diesel":1.637,"dieselPremium":1.728,"dieselB":1.328,"adblue":0.65},"extra":{"saleType":"P","margin":"D","reportingType":"dm","ideess":"8985","idMunicipio":"317","idProvincia":"04","idCCAA":"01"}}},{"type":"Feature","geometry":{"type":"Point","coordinates":[-2.446806,36.852444]},"properties":{"id":"es-9131","source":"ES","brand":"ALCAMPO","address":"AVENIDA DEL MEDITERRANEO, S/N","municipality":"Almería","province":"ALMERÍA","postalCode":"04006","schedule":"L-D: 24H","fuels":{"gasoline95":1.719,"gasoline98":1.737,"diesel":1.707,"dieselPremium":1.719},"extra":{"saleType":"P","margin":"N","reportingType":"dm","ideess":"9131","idMunicipio":"292","idProvincia":"04","idCCAA":"01"}}},{"type":"Feature","geometry":{"type":"Point","coordinates":[-2.067056,36.993861]},"properties":{"id":"es-9494","source":"ES","brand":"BP VENTA DEL POBRE","address":"AUTOVIA ALMERIA  MURCIA SALIDA 494 KM. ","municipality":"Níjar","province":"ALMERÍA","postalCode":"04100","schedule":"L: 06:00-00:00","fuels":{"gasoline95":1.864,"gasoline98":2.004,"diesel":1.875,"dieselPremium":1.965,"dieselB":1.704,"adblue":0.8},"extra":{"saleType":"P","margin":"I","reportingType":"dm","ideess":"9494","idMunicipio":"343","idProvincia":"04","idCCAA":"01"}}},{"type":"Feature","geometry":{"type":"Point","coordinates":[-2.23,36.868389]},"properties":{"id":"es-9665","source":"ES","brand":"JCARRION","address":"CARRETERA E-15/N-340 KM. 471","municipality":"Almería","province":"ALMERÍA","postalCode":"04130","schedule":"L-D: 24H","fuels":{"gasoline95":1.839,"gasoline98":1.959,"diesel":1.859,"dieselPremium":1.899,"dieselB":1.699,"adblue":0.699},"extra":{"saleType":"P","margin":"I","reportingType":"dm","ideess":"9665","idMunicipio":"292","idProvincia":"04","idCCAA":"01"}}},{"type":"Feature","geometry":{"type":"Point","coordinates":[-2.78225,36.775278]},"properties":{"id":"es-9738","source":"ES","brand":"TRUCK STOP EL EJIDO S.L.","address":"CARRETERA DE LA MOJONERA KM. 0,300","municipality":"Ejido (El)","province":"ALMERÍA","postalCode":"04710","schedule":"L-D: 24H","fuels":{"gasoline95":1.655,"gasoline98":1.699,"diesel":1.699,"dieselPremium":1.739,"dieselB":1.399,"adblue":0.69},"extra":{"saleType":"P","margin":"D","reportingType":"dm","ideess":"9738","idMunicipio":"317","idProvincia":"04","idCCAA":"01"}}},{"type":"Feature","geometry":{"type":"Point","coordinates":[-2.863444,36.81125]},"properties":{"id":"es-9740","source":"ES","brand":"TRUCK STOP DALIAS","address":"CTRA. EL EJIDO-BERJA km 10,200","municipality":"Dalías","province":"ALMERÍA","postalCode":"04750","schedule":"L-D: 24H","fuels":{"gasoline95":1.655,"gasoline98":1.699,"diesel":1.699,"dieselPremium":1.739,"dieselB":1.399},"extra":{"saleType":"P","margin":"D","reportingType":"dm","ideess":"9740","idMunicipio":"316","idProvincia":"04","idCCAA":"01"}}},{"type":"Feature","geometry":{"type":"Point","coordinates":[-2.756222,36.782917]},"properties":{"id":"es-9742","source":"ES","brand":"TRUCK STOP DEL PONIENTE","address":"CARRETERA N 340 KM. 413","municipality":"Ejido (El)","province":"ALMERÍA","postalCode":"04710","schedule":"L-D: 06:00-00:00","fuels":{"gasoline95":1.655,"gasoline98":1.699,"diesel":1.699,"dieselPremium":1.739,"dieselB":1.399,"adblue":0.69},"extra":{"saleType":"P","margin":"D","reportingType":"dm","ideess":"9742","idMunicipio":"317","idProvincia":"04","idCCAA":"01"}}}]}