{"type":"FeatureCollection","features":[{"type":"Feature","geometry":{"type":"Point","coordinates":[-2.882583,38.69975]},"properties":{"id":"es-12514","source":"ES","brand":"CASTILLO DE MONTIEL","address":"CARRERA VILLANUEVA DE LOS INFANTES, S/N","municipality":"Montiel","province":"CIUDAD REAL","postalCode":"13326","schedule":"L-D: 24H","fuels":{"gasoline95":1.509,"diesel":1.629,"dieselB":1.285},"extra":{"saleType":"P","margin":"D","reportingType":"dm","ideess":"12514","idMunicipio":"1999","idProvincia":"13","idCCAA":"07"}}},{"type":"Feature","geometry":{"type":"Point","coordinates":[-2.955028,38.621444]},"properties":{"id":"es-12773","source":"ES","brand":"E.S. SAN GREGORIO","address":"CARRETERA PUEBLA DEL PRINCIPE KM. 1","municipality":"Almedina","province":"CIUDAD REAL","postalCode":"13328","schedule":"L-D: 24H","fuels":{"gasoline95":1.489,"diesel":1.635,"dieselB":1.305},"extra":{"saleType":"P","margin":"D","reportingType":"dm","ideess":"12773","idMunicipio":"1954","idProvincia":"13","idCCAA":"07"}}},{"type":"Feature","geometry":{"type":"Point","coordinates":[-2.947889,38.269722]},"properties":{"id":"es-12806","source":"ES","brand":"SEGUROIL","address":"POLIGONO INDUSTRIAL EL CORNICABRAL, 516","municipality":"Beas de Segura","province":"JAÉN","postalCode":"23280","schedule":"L-V: 07:00-23:00; S-D: 07:00-15:00","fuels":{"gasoline95":1.62,"diesel":1.72},"extra":{"saleType":"P","margin":"I","reportingType":"dm","ideess":"12806","idMunicipio":"3508","idProvincia":"23","idCCAA":"01"}}},{"type":"Feature","geometry":{"type":"Point","coordinates":[-2.840083,38.608194]},"properties":{"id":"es-13221","source":"ES","brand":"E.S.STO.DOMINGO DE GUZMAN","address":"AVENIDA CONSTITUCION, S/N","municipality":"Terrinches","province":"CIUDAD REAL","postalCode":"13341","schedule":"L-D: 24H","fuels":{"gasoline95":1.613,"diesel":1.732,"dieselB":1.394},"extra":{"saleType":"P","margin":"D","reportingType":"dm","ideess":"13221","idMunicipio":"2025","idProvincia":"13","idCCAA":"07"}}},{"type":"Feature","geometry":{"type":"Point","coordinates":[-2.755833,38.361472]},"properties":{"id":"es-13294","source":"ES","brand":"ENERGY CARBURANTES","address":"POLIGONO LLANOS DE ARMIJO, PARCELA, 4","municipality":"Puerta de Segura (La)","province":"JAÉN","postalCode":"23360","schedule":"L-D: 06:00-23:59","fuels":{"gasoline95":1.689,"diesel":1.829},"extra":{"saleType":"P","margin":"D","reportingType":"dm","ideess":"13294","idMunicipio":"3565","idProvincia":"23","idCCAA":"01"}}},{"type":"Feature","geometry":{"type":"Point","coordinates":[-2.718,38.251528]},"properties":{"id":"es-13710","source":"ES","brand":"JAENCOOP ENERGY CORTIJOS NUEVOS","address":"CARRETERA DEL OJUELO KM. 0,5","municipality":"Segura de la Sierra","province":"JAÉN","postalCode":"23293","schedule":"L-D: 24H","fuels":{"gasoline95":1.679,"diesel":1.845,"dieselB":1.579},"extra":{"saleType":"P","margin":"I","reportingType":"dm","ideess":"13710","idMunicipio":"3574","idProvincia":"23","idCCAA":"01"}}},{"type":"Feature","geometry":{"type":"Point","coordinates":[-2.999778,38.174806]},"properties":{"id":"es-14420","source":"ES","brand":"JAENCOOP ENERGY VILLANUEVA II","address":"AVENIDA VALENCIA DE, S/N","municipality":"Villanueva del Arzobispo","province":"JAÉN","postalCode":"23330","schedule":"L-D: 24H","fuels":{"gasoline95":1.679,"diesel":1.845,"dieselB":1.579,"adblue":0.899},"extra":{"saleType":"P","margin":"D","reportingType":"dm","ideess":"14420","idMunicipio":"3588","idProvincia":"23","idCCAA":"01"}}},{"type":"Feature","geometry":{"type":"Point","coordinates":[-2.864389,38.63525]},"properties":{"id":"es-15019","source":"ES","brand":"ESTACION DE CARBURANTES SAN BARTOLOME APOSTOL","address":"CALLE CALVARIO, 6","municipality":"Santa Cruz de los Cáñamos","province":"CIUDAD REAL","postalCode":"13327","schedule":"L-D: 24H","fuels":{"gasoline95":1.489,"diesel":1.599,"dieselB":1.303},"extra":{"saleType":"P","margin":"D","reportingType":"dm","ideess":"15019","idMunicipio":"2020","idProvincia":"13","idCCAA":"07"}}},{"type":"Feature","geometry":{"type":"Point","coordinates":[-2.017917,38.460694]},"properties":{"id":"es-15394","source":"ES","brand":"DLP","address":"POLIGONO EL CAMPILLO A, 2","municipality":"Elche de la Sierra","province":"ALBACETE","postalCode":"02430","schedule":"L-V: 08:00-21:00; S: 08:00-14:00","fuels":{"gasoline95":1.679,"diesel":1.865},"extra":{"saleType":"P","margin":"D","reportingType":"dm","ideess":"15394","idMunicipio":"81","idProvincia":"02","idCCAA":"07"}}},{"type":"Feature","geometry":{"type":"Point","coordinates":[-2.672278,38.414611]},"properties":{"id":"es-15531","source":"ES","brand":"JAENCOOP ENERGY TORRES DE ALBANCHEZ","address":"AVENIDA ANDALUCIA, S/N","municipality":"Torres de Albánchez","province":"JAÉN","postalCode":"23391","schedule":"L: 24H","fuels":{"gasoline95":1.679,"diesel":1.845,"dieselB":1.579},"extra":{"saleType":"P","margin":"I","reportingType":"dm","ideess":"15531","idMunicipio":"3582","idProvincia":"23","idCCAA":"01"}}},{"type":"Feature","geometry":{"type":"Point","coordinates":[-2.926611,38.568361]},"properties":{"id":"es-15993","source":"ES","brand":"E.S. LOGAFUELL","address":"AVENIDA DE LOS EMIGRANTES, 1","municipality":"Puebla del Príncipe","province":"CIUDAD REAL","postalCode":"13342","schedule":"L-D: 24H","fuels":{"gasoline95E10":1.499,"diesel":1.629},"extra":{"saleType":"P","margin":"D","reportingType":"dm","ideess":"15993","idMunicipio":"2011","idProvincia":"13","idCCAA":"07"}}},{"type":"Feature","geometry":{"type":"Point","coordinates":[-2.450028,38.771194]},"properties":{"id":"es-4370","source":"ES","brand":"CANOIL","address":"CARRETERA NACIONAL 320 KM. 289","municipality":"Robledo","province":"ALBACETE","postalCode":"02340","schedule":"L-V: 07:00-21:00; S: 07:00-14:30; D: 07:00-21:00","fuels":{"gasoline95":1.699,"diesel":1.799},"extra":{"saleType":"P","margin":"D","reportingType":"dm","ideess":"4370","idMunicipio":"120","idProvincia":"02","idCCAA":"07"}}},{"type":"Feature","geometry":{"type":"Point","coordinates":[-2.111056,38.356556]},"properties":{"id":"es-4393","source":"ES","brand":"E.S. LETUR","address":"CARRETERA A 45 KM. 39,8","municipality":"Letur","province":"ALBACETE","postalCode":"02434","schedule":"L-D: 07:30-21:30","fuels":{"gasoline95":1.757,"diesel":1.917,"dieselB":1.555},"extra":{"saleType":"P","margin":"D","reportingType":"dm","ideess":"4393","idMunicipio":"93","idProvincia":"02","idCCAA":"07"}}},{"type":"Feature","geometry":{"type":"Point","coordinates":[-2.150639,38.878028]},"properties":{"id":"es-4396","source":"ES","brand":"E.S. BALAZOTE S.L.","address":"N-322 km 326,2","municipality":"Balazote","province":"ALBACETE","postalCode":"02320","schedule":"L-D: 06:00-22:00","fuels":{"gasoline95":1.769,"diesel":1.895,"dieselB":1.599},"extra":{"saleType":"P","margin":"D","reportingType":"dm","ideess":"4396","idMunicipio":"63","idProvincia":"02","idCCAA":"07"}}},{"type":"Feature","geometry":{"type":"Point","coordinates":[-2.098778,38.804722]},"properties":{"id":"es-4410","source":"ES","brand":"INLOCOR S.L.","address":"CARRETERA M 313 KM. 50","municipality":"Pozuelo","province":"ALBACETE","postalCode":"02327","schedule":"L-D: 07:00-22:00","fuels":{"gasoline95":1.779,"gasoline98":1.929,"diesel":1.939,"dieselB":1.799},"extra":{"saleType":"P","margin":"I","reportingType":"dm","ideess":"4410","idMunicipio":"117","idProvincia":"02","idCCAA":"07"}}},{"type":"Feature","geometry":{"type":"Point","coordinates":[-2.411444,38.493528]},"properties":{"id":"es-4793","source":"ES","brand":"CEPSA","address":"CARRETERA CM-412 KM. 199,5","municipality":"Riópar","province":"ALBACETE","postalCode":"02450","schedule":"L-D: 08:00-20:00","fuels":{"gasoline95":1.829,"gasoline95Premium":1.929,"diesel":1.969,"dieselPremium":2.049},"extra":{"saleType":"P","margin":"I","reportingType":"dm","ideess":"4793","idMunicipio":"119","idProvincia":"02","idCCAA":"07"}}},{"type":"Feature","geometry":{"type":"Point","coordinates":[-2.314667,38.368667]},"properties":{"id":"es-4796","source":"ES","brand":"CEPSA","address":"CARRETERA DE HELLIN KM. 42","municipality":"Yeste","province":"ALBACETE","postalCode":"02480","schedule":"L-D: 07:00-21:00","fuels":{"gasoline95":1.759,"diesel":1.904,"dieselPremium":1.984},"extra":{"saleType":"P","margin":"I","reportingType":"OM","ideess":"4796","idMunicipio":"138","idProvincia":"02","idCCAA":"07"}}},{"type":"Feature","geometry":{"type":"Point","coordinates":[-2.626222,38.581722]},"properties":{"id":"es-4893","source":"ES","brand":"REPSOL","address":"CR N-322, 258,8","municipality":"Villapalacios","province":"ALBACETE","postalCode":"02350","schedule":"L-D: 07:00-21:00","fuels":{"gasoline95":1.759,"gasoline98":1.829,"diesel":1.859,"dieselB":1.499,"dieselRenewable":1.989},"extra":{"saleType":"P","margin":"D","reportingType":"dm","ideess":"4893","idMunicipio":"132","idProvincia":"02","idCCAA":"07"}}},{"type":"Feature","geometry":{"type":"Point","coordinates":[-2.883,38.978222]},"properties":{"id":"es-5102","source":"ES","brand":"REPSOL","address":"AVENIDA CASTILLA LA MANCHA, 59","municipality":"Ruidera","province":"CIUDAD REAL","postalCode":"13249","schedule":"L-D: 09:00-22:00","fuels":{"gasoline95":1.839,"diesel":1.969,"dieselRenewable":2.049},"extra":{"saleType":"P","margin":"I","reportingType":"dm","ideess":"5102","idMunicipio":"2016","idProvincia":"13","idCCAA":"07"}}},{"type":"Feature","geometry":{"type":"Point","coordinates":[-2.031861,38.925833]},"properties":{"id":"es-5116","source":"ES","brand":"REPSOL","address":"CR N-322, 337,8","municipality":"Albacete","province":"ALBACETE","postalCode":"02006","schedule":"L-D: 07:00-21:30","fuels":{"gasoline95":1.759,"gasoline98":1.929,"diesel":1.889,"dieselPremium":1.959},"extra":{"saleType":"P","margin":"I","reportingType":"dm","ideess":"5116","idMunicipio":"54","idProvincia":"02","idCCAA":"07"}}},{"type":"Feature","geometry":{"type":"Point","coordinates":[-2.993639,38.836694]},"properties":{"id":"es-5118","source":"ES","brand":"PETRONOR","address":"CARRETERA CRTA.INFANTES S/N KM. ","municipality":"Carrizosa","province":"CIUDAD REAL","postalCode":"13329","schedule":"L: 6:30-22:00","fuels":{"gasoline95":1.709,"diesel":1.859,"dieselB":1.519},"extra":{"saleType":"P","margin":"D","reportingType":"dm","ideess":"5118","idMunicipio":"1973","idProvincia":"13","idCCAA":"07"}}},{"type":"Feature","geometry":{"type":"Point","coordinates":[-2.327639,38.808528]},"properties":{"id":"es-5134","source":"ES","brand":"REPSOL","address":"CARRETERA 322 KM. 302","municipality":"Alcaraz","province":"ALBACETE","postalCode":"02330","schedule":"L-V: 07:00-17:00","fuels":{"gasoline95":1.719,"gasoline95Premium":1.779,"diesel":1.899,"dieselPremium":2.009},"extra":{"saleType":"P","margin":"I","reportingType":"OM","ideess":"5134","idMunicipio":"59","idProvincia":"02","idCCAA":"07"}}},{"type":"Feature","geometry":{"type":"Point","coordinates":[-2.874611,38.750861]},"properties":{"id":"es-5229","source":"ES","brand":"CHM","address":"AVENIDA CASTILLA LA MANCHA, 11","municipality":"Villahermosa","province":"CIUDAD REAL","postalCode":"13332","schedule":"L-D: 24H","fuels":{"gasoline95":1.598,"diesel":1.758,"dieselPremium":1.798,"dieselB":1.399,"adblue":0.98},"extra":{"saleType":"P","margin":"I","reportingType":"dm","ideess":"5229","idMunicipio":"2033","idProvincia":"13","idCCAA":"07"}}},{"type":"Feature","geometry":{"type":"Point","coordinates":[-2.492222,38.673111]},"properties":{"id":"es-5241","source":"ES","brand":"REPSOL","address":"CR N-322 276,5","municipality":"Alcaraz","province":"ALBACETE","postalCode":"02300","schedule":"L-D: 07:00-22:00","fuels":{"gasoline95":1.759,"gasoline98":1.999,"diesel":1.919,"dieselPremium":1.989},"extra":{"saleType":"P","margin":"D","reportingType":"dm","ideess":"5241","idMunicipio":"59","idProvincia":"02","idCCAA":"07"}}},{"type":"Feature","geometry":{"type":"Point","coordinates":[-2.044778,38.451306]},"properties":{"id":"es-5255","source":"ES","brand":"CAMPSA","address":"CL BOLEA, 36 (CM-412 km 235,65)","municipality":"Elche de la Sierra","province":"ALBACETE","postalCode":"02430","schedule":"L: 06:00-22:00","fuels":{"gasoline95":1.759,"gasoline98":1.929,"diesel":1.955,"dieselB":1.619,"dieselRenewable":2.075},"extra":{"saleType":"P","margin":"D","reportingType":"OM","ideess":"5255","idMunicipio":"81","idProvincia":"02","idCCAA":"07"}}},{"type":"Feature","geometry":{"type":"Point","coordinates":[-2.293444,38.151167]},"properties":{"id":"es-5265","source":"ES","brand":"CAMPSA","address":"CR AB-702, 45,6","municipality":"Nerpio","province":"ALBACETE","postalCode":"02530","schedule":"L-D: 07:00-21:00","fuels":{"gasoline95":1.719,"gasoline98":1.889,"diesel":1.899,"dieselB":1.655},"extra":{"saleType":"P","margin":"D","reportingType":"OM","ideess":"5265","idMunicipio":"106","idProvincia":"02","idCCAA":"07"}}},{"type":"Feature","geometry":{"type":"Point","coordinates":[-2.7515,38.967167]},"properties":{"id":"es-5270","source":"ES","brand":"REPSOL","address":"CARRETERA N 430 KM. 429","municipality":"Ossa de Montiel","province":"ALBACETE","postalCode":"02611","schedule":"L-D: 07:30-20:30","fuels":{"gasoline95":1.719,"gasoline95Premium":1.789,"diesel":1.899,"dieselPremium":2.009},"extra":{"saleType":"P","margin":"I","reportingType":"OM","ideess":"5270","idMunicipio":"108","idProvincia":"02","idCCAA":"07"}}},{"type":"Feature","geometry":{"type":"Point","coordinates":[-2.535056,38.953361]},"properties":{"id":"es-5282","source":"ES","brand":"REPSOL","address":"CALLE CARRETERA MUNERA, 2","municipality":"Bonillo (El)","province":"ALBACETE","postalCode":"02610","schedule":"S-D: 07:00-15:00","fuels":{"gasoline95":1.719,"gasoline98":1.889,"diesel":1.915,"dieselPremium":1.975,"dieselB":1.649},"extra":{"saleType":"P","margin":"D","reportingType":"OM","ideess":"5282","idMunicipio":"70","idProvincia":"02","idCCAA":"07"}}},{"type":"Feature","geometry":{"type":"Point","coordinates":[-2.916694,38.261444]},"properties":{"id":"es-5760","source":"ES","brand":"REPSOL","address":"CARRETERA LINARES-ORCERA KM. 80,5","municipality":"Beas de Segura","province":"JAÉN","postalCode":"23280","schedule":"L-D: 06:00-22:00","fuels":{"gasoline95":1.719,"gasoline98":1.859,"diesel":1.889,"dieselB":1.579,"dieselRenewable":1.979},"extra":{"saleType":"P","margin":"I","reportingType":"dm","ideess":"5760","idMunicipio":"3508","idProvincia":"23","idCCAA":"01"}}},{"type":"Feature","geometry":{"type":"Point","coordinates":[-2.586056,38.384944]},"properties":{"id":"es-6683","source":"ES","brand":"REPSOL GARRIMARTI","address":"CL L-700 ESTACION DE SERVICIO 17","municipality":"Siles","province":"JAÉN","postalCode":"23380","schedule":"L-D: 07:00-22:00","fuels":{"gasoline95":1.769,"diesel":1.939,"dieselPremium":1.949,"dieselB":1.43},"extra":{"saleType":"P","margin":"I","reportingType":"dm","ideess":"6683","idMunicipio":"3575","idProvincia":"23","idCCAA":"01"}}},{"type":"Feature","geometry":{"type":"Point","coordinates":[-2.744139,38.359583]},"properties":{"id":"es-6763","source":"ES","brand":"CEPSA","address":"AVENIDA DE ANDALUCIA, S/N","municipality":"Puerta de Segura (La)","province":"JAÉN","postalCode":"23360","schedule":"L: 06:00-22:00","fuels":{"gasoline95":1.709,"gasoline98":1.909,"diesel":1.899,"dieselPremium":1.959,"dieselB":1.629},"extra":{"saleType":"P","margin":"D","reportingType":"dm","ideess":"6763","idMunicipio":"3565","idProvincia":"23","idCCAA":"01"}}},{"type":"Feature","geometry":{"type":"Point","coordinates":[-2.665306,38.317167]},"properties":{"id":"es-6793","source":"ES","brand":"CEPSA","address":"CALLE JOAQUIN PAYA, 13","municipality":"Orcera","province":"JAÉN","postalCode":"23370","schedule":"L-D: 07:00-21:00","fuels":{"gasoline95":1.769,"diesel":1.949,"dieselPremium":2.029},"extra":{"saleType":"P","margin":"I","reportingType":"dm","ideess":"6793","idMunicipio":"3559","idProvincia":"23","idCCAA":"01"}}},{"type":"Feature","geometry":{"type":"Point","coordinates":[-2.727528,38.248056]},"properties":{"id":"es-6825","source":"ES","brand":"REPSOL","address":"CARRETERA LINARES ORCERA KM. 102","municipality":"Segura de la Sierra","province":"JAÉN","postalCode":"23293","schedule":"L-D: 07:00-22:00","fuels":{"gasoline95":1.756,"diesel":1.952,"dieselB":1.589},"extra":{"saleType":"P","margin":"D","reportingType":"dm","ideess":"6825","idMunicipio":"3574","idProvincia":"23","idCCAA":"01"}}},{"type":"Feature","geometry":{"type":"Point","coordinates":[-2.799222,38.357528]},"properties":{"id":"es-6867","source":"ES","brand":"REPSOL","address":"AVENIDA ANDALUCIA, 131","municipality":"Puente de Génave","province":"JAÉN","postalCode":"23350","schedule":"L-D: 06:00-22:00","fuels":{"gasoline95":1.709,"diesel":1.899,"dieselB":1.645,"dieselRenewable":2.019},"extra":{"saleType":"P","margin":"I","reportingType":"OM","ideess":"6867","idMunicipio":"3564","idProvincia":"23","idCCAA":"01"}}},{"type":"Feature","geometry":{"type":"Point","coordinates":[-2.557,38.10975]},"properties":{"id":"es-6916","source":"ES","brand":"CAMPSA","address":"AVENIDA ANDALUCIA, 59","municipality":"Santiago-Pontones","province":"JAÉN","postalCode":"23290","schedule":"L-D: 08:00-22:00","fuels":{"gasoline95":1.709,"diesel":1.925,"dieselPremium":2.015},"extra":{"saleType":"P","margin":"D","reportingType":"OM","ideess":"6916","idMunicipio":"3571","idProvincia":"23","idCCAA":"01"}}},{"type":"Feature","geometry":{"type":"Point","coordinates":[-2.902083,38.316806]},"properties":{"id":"es-6935","source":"ES","brand":"REPSOL","address":"CR N-322, 215","municipality":"Arroyo del Ojanco","province":"JAÉN","postalCode":"23340","schedule":"L-D: 06:00-22:00","fuels":{"gasoline95":1.709,"gasoline98":1.879,"diesel":1.905,"dieselB":1.619,"dieselRenewable":2.025},"extra":{"saleType":"P","margin":"I","reportingType":"OM","ideess":"6935","idMunicipio":"3504","idProvincia":"23","idCCAA":"01"}}},{"type":"Feature","geometry":{"type":"Point","coordinates":[-2.878944,38.699167]},"properties":{"id":"es-9583","source":"ES","brand":"EE.SS VALLE PIQUERAS","address":"CARRETERA CM 3127 km 12.600","municipality":"Montiel","province":"CIUDAD REAL","postalCode":"13326","schedule":"L-D: 06:30-22:00","fuels":{"gasoline95":1.579,"diesel":1.739},"extra":{"saleType":"P","margin":"N","reportingType":"dm","ideess":"9583","idMunicipio":"1999","idProvincia":"13","idCCAA":"07"}}},{"type":"Feature","geometry":{"type":"Point","coordinates":[-2.691639,38.695333]},"properties":{"id":"es-9666","source":"ES","brand":"LIBRE","address":"CM 412 km 154.8","municipality":"Villanueva de la Fuente","province":"CIUDAD REAL","postalCode":"13330","schedule":"L-D: 07:00-23:00","fuels":{"gasoline95":1.599,"diesel":1.769,"dieselB":1.18},"extra":{"saleType":"P","margin":"I","reportingType":"dm","ideess":"9666","idMunicipio":"2036","idProvincia":"13","idCCAA":"07"}}}]}