{"type":"FeatureCollection","features":[{"type":"Feature","geometry":{"type":"Point","coordinates":[-3.844889,39.964139]},"properties":{"id":"es-10100","source":"ES","brand":"LA ERMITA S.L.","address":"CARRETERA CM 4001 KM. 16,200","municipality":"Villaseca de la Sagra","province":"TOLEDO","postalCode":"45260","schedule":"L-V: 07:30-21:00","fuels":{"gasoline95":1.805,"diesel":1.93,"dieselPremium":2.039,"dieselB":1.739,"adblue":1.15},"extra":{"saleType":"P","margin":"N","reportingType":"dm","ideess":"10100","idMunicipio":"6956","idProvincia":"45","idCCAA":"07"}}},{"type":"Feature","geometry":{"type":"Point","coordinates":[-3.241944,39.5105]},"properties":{"id":"es-10218","source":"ES","brand":"REPSOL","address":"CARRETERA MIGUEL ESTEBAN KM. 14,600","municipality":"Quero","province":"TOLEDO","postalCode":"45790","schedule":"L-V: 08:00-14:00 y 16:00-20:00","fuels":{"gasoline95":1.779,"diesel":1.939,"dieselRenewable":2.059},"extra":{"saleType":"P","margin":"I","reportingType":"OM","ideess":"10218","idMunicipio":"6901","idProvincia":"45","idCCAA":"07"}}},{"type":"Feature","geometry":{"type":"Point","coordinates":[-3.549556,39.107306]},"properties":{"id":"es-10222","source":"ES","brand":"EL PICO","address":"NACIONAL 420 km 236","municipality":"Daimiel","province":"CIUDAD REAL","postalCode":"13250","schedule":"L-V: 06:00-22:00; D: 08:00-22:00","fuels":{"gasoline95":1.899,"diesel":1.959,"adblue":0.7},"extra":{"saleType":"P","margin":"D","reportingType":"dm","ideess":"10222","idMunicipio":"1980","idProvincia":"13","idCCAA":"07"}}},{"type":"Feature","geometry":{"type":"Point","coordinates":[-3.344889,39.37325]},"properties":{"id":"es-10262","source":"ES","brand":"PETRONOR","address":"420 km 275","municipality":"Herencia","province":"CIUDAD REAL","postalCode":"13640","schedule":"L-D: 06:00-12:00","fuels":{"gasoline95":1.735,"gasoline98":1.905,"diesel":1.905,"dieselB":1.634,"dieselRenewable":2.025},"extra":{"saleType":"P","margin":"D","reportingType":"OM","ideess":"10262","idMunicipio":"1988","idProvincia":"13","idCCAA":"07"}}},{"type":"Feature","geometry":{"type":"Point","coordinates":[-3.835667,39.693194]},"properties":{"id":"es-10869","source":"ES","brand":"REPSOL","address":"AUTOVIA CM- 42 KM. 21,3","municipality":"Mora","province":"TOLEDO","postalCode":"45400","schedule":"L-D: 06:00-22:00","fuels":{"gasoline95":1.829,"gasoline98":1.989,"diesel":1.975,"dieselRenewable":2.095},"extra":{"saleType":"P","margin":"D","reportingType":"OM","ideess":"10869","idMunicipio":"6866","idProvincia":"45","idCCAA":"07"}}},{"type":"Feature","geometry":{"type":"Point","coordinates":[-3.80125,39.682917]},"properties":{"id":"es-10870","source":"ES","brand":"REPSOL","address":"AUTOVIA CM-42 KM. 21,5","municipality":"Mora","province":"TOLEDO","postalCode":"45400","schedule":"L-D: 06:00-22:00","fuels":{"gasoline95":1.819,"gasoline98":1.989,"diesel":1.975,"dieselRenewable":2.095,"adblue":1.49},"extra":{"saleType":"P","margin":"I","reportingType":"dm","ideess":"10870","idMunicipio":"6866","idProvincia":"45","idCCAA":"07"}}},{"type":"Feature","geometry":{"type":"Point","coordinates":[-3.756389,39.005917]},"properties":{"id":"es-10947","source":"ES","brand":"CEPSA","address":"AUTOVIA A-43 KM. 290","municipality":"Torralba de Calatrava","province":"CIUDAD REAL","postalCode":"13160","schedule":"L-D: 07:00-23:00","fuels":{"gasoline95":1.814,"diesel":1.974,"dieselPremium":2.094},"extra":{"saleType":"P","margin":"I","reportingType":"dm","ideess":"10947","idMunicipio":"2027","idProvincia":"13","idCCAA":"07"}}},{"type":"Feature","geometry":{"type":"Point","coordinates":[-3.134333,39.723417]},"properties":{"id":"es-10948","source":"ES","brand":"CEPSA","address":"AUTOPISTA AP-36 (MRG.DCHO.) KM. 34","municipality":"Corral de Almaguer","province":"TOLEDO","postalCode":"45880","schedule":"L-D: 24H","fuels":{"gasoline95":1.864,"gasoline98":1.994,"diesel":2.049,"dieselPremium":2.134},"extra":{"saleType":"P","margin":"D","reportingType":"dm","ideess":"10948","idMunicipio":"6816","idProvincia":"45","idCCAA":"07"}}},{"type":"Feature","geometry":{"type":"Point","coordinates":[-3.132806,39.72425]},"properties":{"id":"es-11053","source":"ES","brand":"MOEVE","address":"AUTOPISTA AP-36 (MRG.IZDO.) KM. 34","municipality":"Corral de Almaguer","province":"TOLEDO","postalCode":"45880","schedule":"L-D: 07:00-23:00","fuels":{"gasoline95":2.004,"gasoline98":2.134,"diesel":2.169,"dieselPremium":2.274},"extra":{"saleType":"P","margin":"I","reportingType":"dm","ideess":"11053","idMunicipio":"6816","idProvincia":"45","idCCAA":"07"}}},{"type":"Feature","geometry":{"type":"Point","coordinates":[-3.237194,39.386361]},"properties":{"id":"es-11153","source":"ES","brand":"PLENERGY","address":"CARRETERA N-420 KM. 284,227","municipality":"Alcázar de San Juan","province":"CIUDAD REAL","postalCode":"13600","schedule":"L-D: 24H","fuels":{"gasoline95":1.679,"diesel":1.835},"extra":{"saleType":"P","margin":"D","reportingType":"dm","ideess":"11153","idMunicipio":"1945","idProvincia":"13","idCCAA":"07"}}},{"type":"Feature","geometry":{"type":"Point","coordinates":[-3.995611,39.945083]},"properties":{"id":"es-11730","source":"ES","brand":"SHELL","address":"CARRETERA CM-4006 P.IND. SECTOR 12 PARCELAS 38 A 41 KM. S/N","municipality":"Olías del Rey","province":"TOLEDO","postalCode":"45280","schedule":"L-D: 07:00-23:00","fuels":{"gasoline95":1.764,"gasoline98":1.904,"diesel":1.839,"dieselPremium":1.919},"extra":{"saleType":"P","margin":"I","reportingType":"OM","ideess":"11730","idMunicipio":"6882","idProvincia":"45","idCCAA":"07"}}},{"type":"Feature","geometry":{"type":"Point","coordinates":[-3.987056,39.805667]},"properties":{"id":"es-11805","source":"ES","brand":"NAVAMUEL","address":"CARRETERA CARRETERA TOLEDO KM. 80,250","municipality":"Burguillos de Toledo","province":"TOLEDO","postalCode":"45112","schedule":"L-D: 06:00-22:00","fuels":{"gasoline95":1.689,"gasoline98":1.859,"diesel":1.809,"dieselPremium":1.879,"lpg":0.999,"adblue":0.999},"extra":{"saleType":"P","margin":"D","reportingType":"dm","ideess":"11805","idMunicipio":"6784","idProvincia":"45","idCCAA":"07"}}},{"type":"Feature","geometry":{"type":"Point","coordinates":[-3.454583,39.974389]},"properties":{"id":"es-11848","source":"ES","brand":"T.CRUZ","address":"POLIGONO LA CARBONERA, S/N","municipality":"Noblejas","province":"TOLEDO","postalCode":"45350","schedule":"L-D: 24H","fuels":{"diesel":1.81},"extra":{"saleType":"P","margin":"I","reportingType":"dm","ideess":"11848","idMunicipio":"6875","idProvincia":"45","idCCAA":"07"}}},{"type":"Feature","geometry":{"type":"Point","coordinates":[-3.049778,39.600194]},"properties":{"id":"es-11970","source":"ES","brand":"REPSOL","address":"AVENIDA SAN FERNANDO, 80","municipality":"Quintanar de la Orden","province":"TOLEDO","postalCode":"45800","schedule":"L-D: 06:30-22:30","fuels":{"gasoline95":1.779,"gasoline98":1.949,"diesel":1.939,"dieselPremium":2.049},"extra":{"saleType":"P","margin":"I","reportingType":"OM","ideess":"11970","idMunicipio":"6902","idProvincia":"45","idCCAA":"07"}}},{"type":"Feature","geometry":{"type":"Point","coordinates":[-3.845972,39.158306]},"properties":{"id":"es-12076","source":"ES","brand":"AUTOLAVADOS Y CARBURANTES ALSE SL","address":"CALLE MADRID, 18","municipality":"Malagón","province":"CIUDAD REAL","postalCode":"13420","schedule":"L-D: 24H","fuels":{"gasoline95":1.619,"diesel":1.769,"lpg":1.22},"extra":{"saleType":"P","margin":"N","reportingType":"dm","ideess":"12076","idMunicipio":"1994","idProvincia":"13","idCCAA":"07"}}},{"type":"Feature","geometry":{"type":"Point","coordinates":[-3.593,39.076139]},"properties":{"id":"es-12296","source":"ES","brand":"GRUPO LOGISTICO CODAITRANS","address":"CALLE BODEGUEROS, PARCELA, 48","municipality":"Daimiel","province":"CIUDAD REAL","postalCode":"13250","schedule":"L-D: 24H","fuels":{"diesel":1.779},"extra":{"saleType":"P","margin":"D","reportingType":"dm","ideess":"12296","idMunicipio":"1980","idProvincia":"13","idCCAA":"07"}}},{"type":"Feature","geometry":{"type":"Point","coordinates":[-3.589639,39.0485]},"properties":{"id":"es-12382","source":"ES","brand":"REPSOL","address":"AVENIDA DE LA ENERGIA, 1","municipality":"Daimiel","province":"CIUDAD REAL","postalCode":"13250","schedule":"L-V: 06:30-22:30; S-D: 09:00-21:00","fuels":{"gasoline95":1.809,"gasoline98":1.899,"diesel":1.939,"dieselRenewable":2.049,"adblue":0.9},"extra":{"saleType":"P","margin":"N","reportingType":"dm","ideess":"12382","idMunicipio":"1980","idProvincia":"13","idCCAA":"07"}}},{"type":"Feature","geometry":{"type":"Point","coordinates":[-3.755417,39.002806]},"properties":{"id":"es-12461","source":"ES","brand":"ENERGIAS AF","address":"CALLE DEHESA DEL CAMPO, 5","municipality":"Torralba de Calatrava","province":"CIUDAD REAL","postalCode":"13160","schedule":"L-D: 24H","fuels":{"gasoline95":1.579,"diesel":1.779},"extra":{"saleType":"P","margin":"N","reportingType":"dm","ideess":"12461","idMunicipio":"2027","idProvincia":"13","idCCAA":"07"}}},{"type":"Feature","geometry":{"type":"Point","coordinates":[-3.226639,39.39525]},"properties":{"id":"es-12487","source":"ES","brand":"MACMAOIL","address":"VÍA PG RESID ALCES, 1","municipality":"Alcázar de San Juan","province":"CIUDAD REAL","postalCode":"13600","schedule":"L-D: 07:30-23:00","fuels":{"gasoline95":1.749,"diesel":1.899,"lpg":1.083,"adblue":1.05},"extra":{"saleType":"P","margin":"N","reportingType":"dm","ideess":"12487","idMunicipio":"1945","idProvincia":"13","idCCAA":"07"}}},{"type":"Feature","geometry":{"type":"Point","coordinates":[-3.3555,39.612583]},"properties":{"id":"es-12642","source":"ES","brand":"GFM CA","address":"CALLE LAS CABEZAS, 26","municipality":"Villacañas","province":"TOLEDO","postalCode":"45860","schedule":"L-D: 24H","fuels":{"lpg":1.07},"extra":{"saleType":"P","margin":"D","reportingType":"dm","ideess":"12642","idMunicipio":"6946","idProvincia":"45","idCCAA":"07"}}},{"type":"Feature","geometry":{"type":"Point","coordinates":[-3.207389,39.381361]},"properties":{"id":"es-12658","source":"ES","brand":"ECOZOIL","address":"CALLE ALAMEDA, 5","municipality":"Alcázar de San Juan","province":"CIUDAD REAL","postalCode":"13600","schedule":"L-D: 24H","fuels":{"gasoline95":1.679,"diesel":1.849},"extra":{"saleType":"P","margin":"I","reportingType":"dm","ideess":"12658","idMunicipio":"1945","idProvincia":"13","idCCAA":"07"}}},{"type":"Feature","geometry":{"type":"Point","coordinates":[-3.366611,39.01125]},"properties":{"id":"es-12704","source":"ES","brand":"JESÚS DEL PERDÓN BODEGAS YUNTERO S. COOP. DE C-LM","address":"CALLE INDUSTRIAL D, 3","municipality":"Manzanares","province":"CIUDAD REAL","postalCode":"13200","schedule":"L-D: 24H","fuels":{"gasoline95":1.575,"diesel":1.715,"dieselB":1.385},"extra":{"saleType":"P","margin":"N","reportingType":"dm","ideess":"12704","idMunicipio":"1995","idProvincia":"13","idCCAA":"07"}}},{"type":"Feature","geometry":{"type":"Point","coordinates":[-3.021167,39.171111]},"properties":{"id":"es-12710","source":"ES","brand":"COTRATO","address":"CARRETERA N-310 (ARGAMASILLA DE ALBA) KM. 0,800","municipality":"Tomelloso","province":"CIUDAD REAL","postalCode":"13700","schedule":"L-D: 07:00-22:00","fuels":{"diesel":1.819,"adblue":0.899},"extra":{"saleType":"P","margin":"D","reportingType":"dm","ideess":"12710","idMunicipio":"2026","idProvincia":"13","idCCAA":"07"}}},{"type":"Feature","geometry":{"type":"Point","coordinates":[-3.9625,39.868139]},"properties":{"id":"es-12716","source":"ES","brand":"AVIA","address":"CALLE RIO JARAMA, 45","municipality":"Toledo","province":"TOLEDO","postalCode":"45007","schedule":"L-D: 24H","fuels":{"gasoline95":1.699,"diesel":1.789,"lpg":0.999},"extra":{"saleType":"P","margin":"I","reportingType":"dm","ideess":"12716","idMunicipio":"6929","idProvincia":"45","idCCAA":"07"}}},{"type":"Feature","geometry":{"type":"Point","coordinates":[-3.347806,39.614417]},"properties":{"id":"es-12789","source":"ES","brand":"DELFINOIL","address":"CALLE PEÑUELA, 13","municipality":"Villacañas","province":"TOLEDO","postalCode":"45860","schedule":"L-D: 24H","fuels":{"gasoline95":1.745,"diesel":1.919},"extra":{"saleType":"P","margin":"D","reportingType":"dm","ideess":"12789","idMunicipio":"6946","idProvincia":"45","idCCAA":"07"}}},{"type":"Feature","geometry":{"type":"Point","coordinates":[-3.927806,39.92925]},"properties":{"id":"es-12804","source":"ES","brand":"ECOSUMINISTROS","address":"POLIGONO SECTOR TOLEDOI PARCELA 7, 1","municipality":"Mocejón","province":"TOLEDO","postalCode":"45270","schedule":"L-D: 24H","fuels":{"gasoline95":1.729,"diesel":1.839,"adblue":1.199},"extra":{"saleType":"P","margin":"D","reportingType":"dm","ideess":"12804","idMunicipio":"6862","idProvincia":"45","idCCAA":"07"}}},{"type":"Feature","geometry":{"type":"Point","coordinates":[-3.616,39.466306]},"properties":{"id":"es-12947","source":"ES","brand":"E.S. ABOX-OIL","address":"CALLE INDUSTRIAS, 5","municipality":"Consuegra","province":"TOLEDO","postalCode":"45700","schedule":"L-D: 24H","fuels":{"gasoline95":1.649,"diesel":1.769,"adblue":0.758},"extra":{"saleType":"P","margin":"N","reportingType":"dm","ideess":"12947","idMunicipio":"6815","idProvincia":"45","idCCAA":"07"}}},{"type":"Feature","geometry":{"type":"Point","coordinates":[-3.953444,39.871222]},"properties":{"id":"es-12957","source":"ES","brand":"PETROPRIX","address":"CALLE RIO JARAMA, 74","municipality":"Toledo","province":"TOLEDO","postalCode":"45007","schedule":"L-D: 24H","fuels":{"gasoline95":1.699,"diesel":1.789},"extra":{"saleType":"P","margin":"D","reportingType":"dm","ideess":"12957","idMunicipio":"6929","idProvincia":"45","idCCAA":"07"}}},{"type":"Feature","geometry":{"type":"Point","coordinates":[-3.5055,39.953806]},"properties":{"id":"es-12987","source":"ES","brand":"BALLENOIL","address":"CALLE CTRA. CABAÑAS, 2","municipality":"Ocaña","province":"TOLEDO","postalCode":"45300","schedule":"L-D: 24H","fuels":{"gasoline95":1.667,"diesel":1.789},"extra":{"saleType":"P","margin":"N","reportingType":"OM","ideess":"12987","idMunicipio":"6881","idProvincia":"45","idCCAA":"07"}}},{"type":"Feature","geometry":{"type":"Point","coordinates":[-3.039583,39.586278]},"properties":{"id":"es-13081","source":"ES","brand":"PLENERGY","address":"AVENIDA IV CENTENARIO, 58","municipality":"Quintanar de la Orden","province":"TOLEDO","postalCode":"45800","schedule":"L-D: 24H","fuels":{"gasoline95":1.698,"diesel":1.837},"extra":{"saleType":"P","margin":"I","reportingType":"dm","ideess":"13081","idMunicipio":"6902","idProvincia":"45","idCCAA":"07"}}},{"type":"Feature","geometry":{"type":"Point","coordinates":[-3.615861,39.471528]},"properties":{"id":"es-13101","source":"ES","brand":"E.S. EL DESVIO","address":"CARRETERA TOLEDO-ALCAZAR KM. 0,5","municipality":"Consuegra","province":"TOLEDO","postalCode":"45700","schedule":"L-D: 24H","fuels":{"gasoline95":1.649,"diesel":1.779,"lpg":0.909,"adblue":0.759},"extra":{"saleType":"P","margin":"I","reportingType":"dm","ideess":"13101","idMunicipio":"6815","idProvincia":"45","idCCAA":"07"}}},{"type":"Feature","geometry":{"type":"Point","coordinates":[-3.591028,39.074583]},"properties":{"id":"es-13220","source":"ES","brand":"GRUPO TRANSLOGISTICA","address":"CALLE CARRETEROS, 1","municipality":"Daimiel","province":"CIUDAD REAL","postalCode":"13250","schedule":"L-D: 24H","fuels":{"diesel":1.79},"extra":{"saleType":"P","margin":"D","reportingType":"dm","ideess":"13220","idMunicipio":"1980","idProvincia":"13","idCCAA":"07"}}},{"type":"Feature","geometry":{"type":"Point","coordinates":[-3.231611,39.168306]},"properties":{"id":"es-13288","source":"ES","brand":"GAS SOLIS","address":"CARRETERA ARGAMASILLA DE ALBA-CINCO CASAS KM. 17","municipality":"Alcázar de San Juan","province":"CIUDAD REAL","postalCode":"13720","schedule":"L-D: 07:00-23:00","fuels":{"gasoline95":1.599,"diesel":1.749,"dieselB":1.409},"extra":{"saleType":"P","margin":"I","reportingType":"dm","ideess":"13288","idMunicipio":"1945","idProvincia":"13","idCCAA":"07"}}},{"type":"Feature","geometry":{"type":"Point","coordinates":[-3.607611,39.868167]},"properties":{"id":"es-13387","source":"ES","brand":"COMBUSTIBLES HUERTA","address":"CARRETERA CM 4051 POLIGONO 5 PARCELA 122 KM. 15","municipality":"Huerta de Valdecarábanos","province":"TOLEDO","postalCode":"45750","schedule":"L-D: 24H","fuels":{"gasoline95":1.659,"diesel":1.779,"dieselB":1.399},"extra":{"saleType":"P","margin":"I","reportingType":"dm","ideess":"13387","idMunicipio":"6838","idProvincia":"45","idCCAA":"07"}}},{"type":"Feature","geometry":{"type":"Point","coordinates":[-3.964,39.992361]},"properties":{"id":"es-13399","source":"ES","brand":"REPSOL","address":"AUTOVIA A42 (ENLACE CTRA TO-2516, PK 0,50) KM. 55","municipality":"Cabañas de la Sagra","province":"TOLEDO","postalCode":"45592","schedule":"L-D: 24H","fuels":{"gasoline95":1.815,"diesel":1.959,"dieselPremium":2.079},"extra":{"saleType":"P","margin":"D","reportingType":"dm","ideess":"13399","idMunicipio":"6786","idProvincia":"45","idCCAA":"07"}}},{"type":"Feature","geometry":{"type":"Point","coordinates":[-3.118333,39.398333]},"properties":{"id":"es-13461","source":"ES","brand":"TRAVESA","address":"CALLE MOTA, 2","municipality":"Campo de Criptana","province":"CIUDAD REAL","postalCode":"13610","schedule":"L-D: 24H","fuels":{"diesel":1.759,"adblue":0.7},"extra":{"saleType":"P","margin":"D","reportingType":"dm","ideess":"13461","idMunicipio":"1969","idProvincia":"13","idCCAA":"07"}}},{"type":"Feature","geometry":{"type":"Point","coordinates":[-3.593722,39.075139]},"properties":{"id":"es-13789","source":"ES","brand":"COOP. LOS POZOS","address":"CALLE HERREROS, 1","municipality":"Daimiel","province":"CIUDAD REAL","postalCode":"13250","schedule":"L-D: 24H","fuels":{"diesel":1.779,"dieselB":1.439},"extra":{"saleType":"P","margin":"I","reportingType":"dm","ideess":"13789","idMunicipio":"1980","idProvincia":"13","idCCAA":"07"}}},{"type":"Feature","geometry":{"type":"Point","coordinates":[-3.2185,39.3995]},"properties":{"id":"es-13808","source":"ES","brand":"GASEXPRESS","address":"CALLE ALBARIÑO, 2","municipality":"Alcázar de San Juan","province":"CIUDAD REAL","postalCode":"13600","schedule":"L-D: 24H","fuels":{"gasoline95":1.679,"diesel":1.835},"extra":{"saleType":"P","margin":"D","reportingType":"dm","ideess":"13808","idMunicipio":"1945","idProvincia":"13","idCCAA":"07"}}},{"type":"Feature","geometry":{"type":"Point","coordinates":[-3.595639,39.076667]},"properties":{"id":"es-14202","source":"ES","brand":"MOEVE","address":"PASEO DEL RIO, S/N","municipality":"Daimiel","province":"CIUDAD REAL","postalCode":"13250","schedule":"L-D: 05:00-23:00","fuels":{"gasoline95":1.899,"diesel":1.979,"dieselPremium":2.089,"adblue":0.9},"extra":{"saleType":"P","margin":"D","reportingType":"dm","ideess":"14202","idMunicipio":"1980","idProvincia":"13","idCCAA":"07"}}},{"type":"Feature","geometry":{"type":"Point","coordinates":[-3.48725,39.354306]},"properties":{"id":"es-14297","source":"ES","brand":"BP","address":"AUTOVIA AUTOVIA A4 KM. 132","municipality":"Camuñas","province":"TOLEDO","postalCode":"45720","schedule":"L-D: 06:30-22:00","fuels":{"gasoline95":1.805,"gasoline98":1.945,"diesel":1.945,"dieselPremium":1.999,"lpg":0.95},"extra":{"saleType":"P","margin":"I","reportingType":"dm","ideess":"14297","idMunicipio":"6795","idProvincia":"45","idCCAA":"07"}}},{"type":"Feature","geometry":{"type":"Point","coordinates":[-3.045194,39.587694]},"properties":{"id":"es-14320","source":"ES","brand":"PETROCOES","address":"AVENIDA IV CENTENARIO, 42","municipality":"Quintanar de la Orden","province":"TOLEDO","postalCode":"45800","schedule":"L-D: 24H","fuels":{"gasoline95":1.698,"diesel":1.838},"extra":{"saleType":"P","margin":"D","reportingType":"dm","ideess":"14320","idMunicipio":"6902","idProvincia":"45","idCCAA":"07"}}},{"type":"Feature","geometry":{"type":"Point","coordinates":[-3.224611,39.39225]},"properties":{"id":"es-14386","source":"ES","brand":"BALLENOIL","address":"AVENIDA DE LOS INSTITUTOS, S/N","municipality":"Alcázar de San Juan","province":"CIUDAD REAL","postalCode":"13600","schedule":"L-D: 24H","fuels":{"gasoline95":1.679,"diesel":1.835},"extra":{"saleType":"P","margin":"D","reportingType":"OM","ideess":"14386","idMunicipio":"1945","idProvincia":"13","idCCAA":"07"}}},{"type":"Feature","geometry":{"type":"Point","coordinates":[-3.960583,39.869028]},"properties":{"id":"es-14433","source":"ES","brand":"NATURGY TOLEDO","address":"CALLE RIO JARAMA, 51","municipality":"Toledo","province":"TOLEDO","postalCode":"45007","schedule":"L-D: 24H","fuels":{"cng":1.646},"extra":{"saleType":"P","margin":"I","reportingType":"dm","ideess":"14433","idMunicipio":"6929","idProvincia":"45","idCCAA":"07"}}},{"type":"Feature","geometry":{"type":"Point","coordinates":[-3.009389,39.153778]},"properties":{"id":"es-14672","source":"ES","brand":"PLENERGY","address":"AVENIDA JUAN CARLOS I, 12","municipality":"Tomelloso","province":"CIUDAD REAL","postalCode":"13700","schedule":"L-D: 24H","fuels":{"gasoline95":1.589,"diesel":1.699},"extra":{"saleType":"P","margin":"D","reportingType":"dm","ideess":"14672","idMunicipio":"2026","idProvincia":"13","idCCAA":"07"}}},{"type":"Feature","geometry":{"type":"Point","coordinates":[-3.111111,39.125722]},"properties":{"id":"es-14695","source":"ES","brand":"MANCHA CENTRO","address":"CARRETERA NACIONAL 310 KM. 81","municipality":"Argamasilla de Alba","province":"CIUDAD REAL","postalCode":"13710","schedule":"L-D: 24H","fuels":{"gasoline95":1.629,"diesel":1.819,"dieselB":1.409},"extra":{"saleType":"P","margin":"D","reportingType":"dm","ideess":"14695","idMunicipio":"1960","idProvincia":"13","idCCAA":"07"}}},{"type":"Feature","geometry":{"type":"Point","coordinates":[-3.343028,39.374139]},"properties":{"id":"es-14880","source":"ES","brand":"DELFINCARFUEL","address":"AVENIDA ALCAZAR DE SAN JUAN, SN","municipality":"Herencia","province":"CIUDAD REAL","postalCode":"13640","schedule":"L-D: 24H","fuels":{"gasoline95":1.595,"diesel":1.695,"lpg":0.795,"adblue":0.555},"extra":{"saleType":"P","margin":"D","reportingType":"dm","ideess":"14880","idMunicipio":"1988","idProvincia":"13","idCCAA":"07"}}},{"type":"Feature","geometry":{"type":"Point","coordinates":[-3.207778,39.381778]},"properties":{"id":"es-15546","source":"ES","brand":"CEPSA","address":"AVENIDA CERVERA, 81","municipality":"Alcázar de San Juan","province":"CIUDAD REAL","postalCode":"13600","schedule":"L-V: 07:00-22:00; S-D: 08:00-22:00","fuels":{"gasoline95":1.749,"diesel":1.929,"dieselPremium":1.999},"extra":{"saleType":"P","margin":"D","reportingType":"dm","ideess":"15546","idMunicipio":"1945","idProvincia":"13","idCCAA":"07"}}},{"type":"Feature","geometry":{"type":"Point","coordinates":[-3.028333,39.143861]},"properties":{"id":"es-15642","source":"ES","brand":"STOP OIL","address":"CARRETERA CM3109 KM. 1,4","municipality":"Tomelloso","province":"CIUDAD REAL","postalCode":"13700","schedule":"L: 06:00-22:00","fuels":{"gasoline95":1.709,"diesel":1.929},"extra":{"saleType":"P","margin":"D","reportingType":"dm","ideess":"15642","idMunicipio":"2026","idProvincia":"13","idCCAA":"07"}}},{"type":"Feature","geometry":{"type":"Point","coordinates":[-3.526778,39.476417]},"properties":{"id":"es-15707","source":"ES","brand":"E.S. ABOX-OIL","address":"AVENIDA EUROPA, 156","municipality":"Madridejos","province":"TOLEDO","postalCode":"45710","schedule":"L-D: 24H","fuels":{"gasoline95":1.649,"diesel":1.769,"adblue":0.758},"extra":{"saleType":"P","margin":"N","reportingType":"dm","ideess":"15707","idMunicipio":"6847","idProvincia":"45","idCCAA":"07"}}},{"type":"Feature","geometry":{"type":"Point","coordinates":[-3.998333,39.945778]},"properties":{"id":"es-15758","source":"ES","brand":"BALLENOIL","address":"CARRETERA A-42 CALLE SECTOR 12, PARCELA P-68 KM. 58,4","municipality":"Olías del Rey","province":"TOLEDO","postalCode":"45280","schedule":"L-D: 24H","fuels":{"gasoline95":1.699,"diesel":1.789,"dieselPremium":1.809},"extra":{"saleType":"P","margin":"D","reportingType":"OM","ideess":"15758","idMunicipio":"6882","idProvincia":"45","idCCAA":"07"}}},{"type":"Feature","geometry":{"type":"Point","coordinates":[-3.488778,39.960139]},"properties":{"id":"es-15855","source":"ES","brand":"PETROPRIX","address":"CARRETERA N400 KM. 6","municipality":"Ocaña","province":"TOLEDO","postalCode":"45300","schedule":"L-D: 24H","fuels":{"gasoline95":1.667,"diesel":1.789},"extra":{"saleType":"P","margin":"D","reportingType":"dm","ideess":"15855","idMunicipio":"6881","idProvincia":"45","idCCAA":"07"}}},{"type":"Feature","geometry":{"type":"Point","coordinates":[-3.424361,39.975472]},"properties":{"id":"es-15878","source":"ES","brand":"PETROPRIX","address":"CARRETERA VILLARRUBIA KM. 33","municipality":"Noblejas","province":"TOLEDO","postalCode":"45350","schedule":"L-D: 24H","fuels":{"gasoline95":1.667,"diesel":1.789},"extra":{"saleType":"P","margin":"D","reportingType":"dm","ideess":"15878","idMunicipio":"6875","idProvincia":"45","idCCAA":"07"}}},{"type":"Feature","geometry":{"type":"Point","coordinates":[-3.007417,39.165472]},"properties":{"id":"es-15917","source":"ES","brand":"T9","address":"AVENIDA JUAN CARLOS I, 86","municipality":"Tomelloso","province":"CIUDAD REAL","postalCode":"13700","schedule":"L-D: 24H","fuels":{"gasoline95":1.539,"diesel":1.629,"adblue":0.799},"extra":{"saleType":"P","margin":"D","reportingType":"dm","ideess":"15917","idMunicipio":"2026","idProvincia":"13","idCCAA":"07"}}},{"type":"Feature","geometry":{"type":"Point","coordinates":[-3.52375,39.516889]},"properties":{"id":"es-15920","source":"ES","brand":"PLENERGY","address":"AUTOVIA A-4 KM. 113","municipality":"Madridejos","province":"TOLEDO","postalCode":"45710","schedule":"L-D: 24H","fuels":{"gasoline95":1.655,"diesel":1.799,"adblue":0.659},"extra":{"saleType":"P","margin":"D","reportingType":"dm","ideess":"15920","idMunicipio":"6847","idProvincia":"45","idCCAA":"07"}}},{"type":"Feature","geometry":{"type":"Point","coordinates":[-3.959028,39.869]},"properties":{"id":"es-15966","source":"ES","brand":"PLENERGY","address":"CALLE RIO JARAMA, 58","municipality":"Toledo","province":"TOLEDO","postalCode":"45007","schedule":"L-D: 24H","fuels":{"gasoline95":1.699,"diesel":1.789},"extra":{"saleType":"P","margin":"D","reportingType":"dm","ideess":"15966","idMunicipio":"6929","idProvincia":"45","idCCAA":"07"}}},{"type":"Feature","geometry":{"type":"Point","coordinates":[-3.524056,39.518889]},"properties":{"id":"es-15983","source":"ES","brand":"PLENERGY","address":"AUTOVIA A-4 KM. 113","municipality":"Madridejos","province":"TOLEDO","postalCode":"45710","schedule":"L-D: 24H","fuels":{"gasoline95":1.655,"diesel":1.799,"adblue":0.659},"extra":{"saleType":"P","margin":"D","reportingType":"dm","ideess":"15983","idMunicipio":"6847","idProvincia":"45","idCCAA":"07"}}},{"type":"Feature","geometry":{"type":"Point","coordinates":[-3.6455,39.909889]},"properties":{"id":"es-16008","source":"ES","brand":"PETROLCAR","address":"POLIGONO LOS LOMOS DE TOLEDO SECTOR S01 PARCELA 109, 109","municipality":"Yepes","province":"TOLEDO","postalCode":"45313","schedule":"L: 24H","fuels":{"gasoline95":1.638,"diesel":1.753,"dieselB":1.24},"extra":{"saleType":"P","margin":"D","reportingType":"dm","ideess":"16008","idMunicipio":"6962","idProvincia":"45","idCCAA":"07"}}},{"type":"Feature","geometry":{"type":"Point","coordinates":[-3.587333,39.990556]},"properties":{"id":"es-16020","source":"ES","brand":"SUPER GASOIL 2016 S.L.","address":"CALLE HOSPITAL, 36","municipality":"Ontígola","province":"TOLEDO","postalCode":"45340","schedule":"L-D: 24H","fuels":{"gasoline95":1.649,"diesel":1.799},"extra":{"saleType":"P","margin":"D","reportingType":"dm","ideess":"16020","idMunicipio":"6883","idProvincia":"45","idCCAA":"07"}}},{"type":"Feature","geometry":{"type":"Point","coordinates":[-3.137306,39.399972]},"properties":{"id":"es-16025","source":"ES","brand":"ELECTROMONTAJES CRIPTANA S.L.","address":"POLIGONO POZO HONDO AVENIDA COMUNIDAD VALENCIANA, 8","municipality":"Campo de Criptana","province":"CIUDAD REAL","postalCode":"13610","schedule":"L-D: 24H","fuels":{"diesel":1.799,"adblue":0.7},"extra":{"saleType":"P","margin":"I","reportingType":"dm","ideess":"16025","idMunicipio":"1969","idProvincia":"13","idCCAA":"07"}}},{"type":"Feature","geometry":{"type":"Point","coordinates":[-3.764111,39.99375]},"properties":{"id":"es-16170","source":"ES","brand":"BALLENOIL","address":"TRAVESÍA DESVIO ESQ. C. COLOMBIA, 1","municipality":"Añover de Tajo","province":"TOLEDO","postalCode":"45250","schedule":"L-D: 24H","fuels":{"gasoline95":1.669,"diesel":1.799,"dieselPremium":1.809},"extra":{"saleType":"P","margin":"N","reportingType":"OM","ideess":"16170","idMunicipio":"6775","idProvincia":"45","idCCAA":"07"}}},{"type":"Feature","geometry":{"type":"Point","coordinates":[-3.0145,39.170056]},"properties":{"id":"es-16452","source":"ES","brand":"BALLENOIL","address":"CARRETERA CM-400 KM. 129","municipality":"Tomelloso","province":"CIUDAD REAL","postalCode":"13700","schedule":"L-D: 24H","fuels":{"gasoline95":1.589,"diesel":1.699},"extra":{"saleType":"P","margin":"N","reportingType":"OM","ideess":"16452","idMunicipio":"2026","idProvincia":"13","idCCAA":"07"}}},{"type":"Feature","geometry":{"type":"Point","coordinates":[-3.601356,39.226473]},"properties":{"id":"es-4379","source":"ES","brand":"VILLA RUBEUM,S.L.","address":"PASEO DEL CORDON 104 (CM 4120 km 16,700)","municipality":"Villarrubia de los Ojos","province":"CIUDAD REAL","postalCode":"13670","schedule":"L-D: 06:30-22:30","fuels":{"gasoline95":1.649,"gasoline98":1.779,"diesel":1.789,"dieselB":1.449},"extra":{"saleType":"P","margin":"D","reportingType":"dm","ideess":"4379","idMunicipio":"2040","idProvincia":"13","idCCAA":"07"}}},{"type":"Feature","geometry":{"type":"Point","coordinates":[-3.774583,39.678028]},"properties":{"id":"es-4384","source":"ES","brand":"HNOS.FERNANDEZ","address":"VÍA MANZANEQUE, 92","municipality":"Mora","province":"TOLEDO","postalCode":"45400","schedule":"L-D: 24H","fuels":{"gasoline95":1.729,"diesel":1.849,"dieselB":1.38,"adblue":1.299},"extra":{"saleType":"P","margin":"D","reportingType":"dm","ideess":"4384","idMunicipio":"6866","idProvincia":"45","idCCAA":"07"}}},{"type":"Feature","geometry":{"type":"Point","coordinates":[-3.77725,39.689194]},"properties":{"id":"es-4388","source":"ES","brand":"HNOS.FERNANDEZ","address":"CL/ TOLEDO 85 (C-400 km 30,7)","municipality":"Mora","province":"TOLEDO","postalCode":"45400","schedule":"L-V: 06:00-21:00; S: 08:00-21:00; D: 08:00-14:00","fuels":{"gasoline95":1.679,"diesel":1.799,"dieselB":1.38},"extra":{"saleType":"P","margin":"D","reportingType":"dm","ideess":"4388","idMunicipio":"6866","idProvincia":"45","idCCAA":"07"}}},{"type":"Feature","geometry":{"type":"Point","coordinates":[-3.430306,39.250333]},"properties":{"id":"es-4402","source":"ES","brand":"TARAY","address":"AUTOVIA A-4 KM. 145,330","municipality":"Villarta de San Juan","province":"CIUDAD REAL","postalCode":"13210","schedule":"L-D: 24H","fuels":{"gasoline95":1.779,"gasoline98":1.909,"diesel":1.929},"extra":{"saleType":"P","margin":"I","reportingType":"dm","ideess":"4402","idMunicipio":"2041","idProvincia":"13","idCCAA":"07"}}},{"type":"Feature","geometry":{"type":"Point","coordinates":[-3.523694,39.516028]},"properties":{"id":"es-4409","source":"ES","brand":"REPSOL","address":"AUTOVIA NACIONAL IV KM. 113","municipality":"Madridejos","province":"TOLEDO","postalCode":"45710","schedule":"L-D: 24H","fuels":{"gasoline95":1.795,"gasoline98":1.985,"diesel":1.939,"dieselPremium":1.989,"adblue":0.8},"extra":{"saleType":"P","margin":"I","reportingType":"dm","ideess":"4409","idMunicipio":"6847","idProvincia":"45","idCCAA":"07"}}},{"type":"Feature","geometry":{"type":"Point","coordinates":[-3.626194,39.068694]},"properties":{"id":"es-4430","source":"ES","brand":"VALCARCE","address":"CARRETERA CM.4114 KM. 50","municipality":"Daimiel","province":"CIUDAD REAL","postalCode":"13250","schedule":"L-D: 06:00-22:00","fuels":{"gasoline95":1.798,"diesel":1.918,"dieselPremium":1.968,"dieselB":1.438,"lpg":1.168,"adblue":0.799},"extra":{"saleType":"P","margin":"D","reportingType":"dm","ideess":"4430","idMunicipio":"1980","idProvincia":"13","idCCAA":"07"}}},{"type":"Feature","geometry":{"type":"Point","coordinates":[-3.454194,39.288222]},"properties":{"id":"es-4431","source":"ES","brand":"GALP","address":"AUTOVIA N-IV KM. 140,7","municipality":"Puerto Lápice","province":"CIUDAD REAL","postalCode":"13650","schedule":"L-D: 06:00-22:00","fuels":{"gasoline95":1.729,"gasoline98":1.839,"diesel":1.889,"dieselPremium":1.939,"dieselRenewable":1.979,"adblue":0.799},"extra":{"saleType":"P","margin":"D","reportingType":"OM","ideess":"4431","idMunicipio":"2012","idProvincia":"13","idCCAA":"07"}}},{"type":"Feature","geometry":{"type":"Point","coordinates":[-3.456833,39.287556]},"properties":{"id":"es-4432","source":"ES","brand":"GALP","address":"AUTOVIA N-IV KM. 140,5","municipality":"Puerto Lápice","province":"CIUDAD REAL","postalCode":"13650","schedule":"L-D: 24H","fuels":{"gasoline95":1.729,"gasoline98":1.839,"diesel":1.889,"dieselPremium":1.939,"dieselRenewable":1.979,"adblue":0.799},"extra":{"saleType":"P","margin":"I","reportingType":"OM","ideess":"4432","idMunicipio":"2012","idProvincia":"13","idCCAA":"07"}}},{"type":"Feature","geometry":{"type":"Point","coordinates":[-3.379389,39.006528]},"properties":{"id":"es-4777","source":"ES","brand":"CARREFOUR","address":"CARRETERA ANTIGUA N-430 ESQ. CTRA. VILLARRUIBA KM. S/N","municipality":"Manzanares","province":"CIUDAD REAL","postalCode":"13200","schedule":"L-D: 24H","fuels":{"gasoline95":1.719,"gasoline98":1.899,"diesel":1.879,"dieselPremium":1.919},"extra":{"saleType":"P","margin":"N","reportingType":"dm","ideess":"4777","idMunicipio":"1995","idProvincia":"13","idCCAA":"07"}}},{"type":"Feature","geometry":{"type":"Point","coordinates":[-3.010528,39.931472]},"properties":{"id":"es-4808","source":"ES","brand":"E.S. VIRGEN DE LA SOLEDAD","address":"CARRETERA COMARCAL 200 KM. 26,064","municipality":"Fuente de Pedro Naharro","province":"CUENCA","postalCode":"16411","schedule":"L-D: 24H","fuels":{"gasoline95":1.709,"diesel":1.799,"dieselB":1.435},"extra":{"saleType":"P","margin":"D","reportingType":"dm","ideess":"4808","idMunicipio":"2289","idProvincia":"16","idCCAA":"07"}}},{"type":"Feature","geometry":{"type":"Point","coordinates":[-3.149083,39.400833]},"properties":{"id":"es-4823","source":"ES","brand":"GALP DISTRIBUCION OIL ESPAÑA, S.A.U.","address":"CARRETERA NACIONAL 420 KM. 292,700","municipality":"Campo de Criptana","province":"CIUDAD REAL","postalCode":"13610","schedule":"L-S: 06:00-22:00; D: 08:30-22:00","fuels":{"gasoline95":1.739,"diesel":1.909},"extra":{"saleType":"P","margin":"D","reportingType":"dm","ideess":"4823","idMunicipio":"1969","idProvincia":"13","idCCAA":"07"}}},{"type":"Feature","geometry":{"type":"Point","coordinates":[-3.079389,39.131944]},"properties":{"id":"es-4825","source":"ES","brand":"REPSOL E.S.MILA HERMANOS REDONDO S.L.","address":"CR N-310, 85,1 (N-310 km 85,18)","municipality":"Argamasilla de Alba","province":"CIUDAD REAL","postalCode":"13710","schedule":"L-S: 06:00-22:00; D: 07:00-22:00","fuels":{"gasoline95":1.735,"gasoline98":1.919,"diesel":1.929,"dieselB":1.395,"dieselRenewable":2.039,"adblue":0.999},"extra":{"saleType":"P","margin":"D","reportingType":"dm","ideess":"4825","idMunicipio":"1960","idProvincia":"13","idCCAA":"07"}}},{"type":"Feature","geometry":{"type":"Point","coordinates":[-3.025417,39.149083]},"properties":{"id":"es-4828","source":"ES","brand":"MOEVE","address":"PASEO SAN ISIDRO, 14","municipality":"Tomelloso","province":"CIUDAD REAL","postalCode":"13700","schedule":"L-D: 06:00-00:00","fuels":{"gasoline95":1.735,"gasoline98":1.905,"diesel":1.975,"dieselPremium":2.095},"extra":{"saleType":"P","margin":"N","reportingType":"dm","ideess":"4828","idMunicipio":"2026","idProvincia":"13","idCCAA":"07"}}},{"type":"Feature","geometry":{"type":"Point","coordinates":[-3.3735,39.023139]},"properties":{"id":"es-4860","source":"ES","brand":"REPSOL","address":"AUTOVIA A-4 KM. 167","municipality":"Manzanares","province":"CIUDAD REAL","postalCode":"13200","schedule":"L-D: 06:30-22:30","fuels":{"gasoline95":1.765,"diesel":1.925,"dieselRenewable":2.045},"extra":{"saleType":"P","margin":"I","reportingType":"OM","ideess":"4860","idMunicipio":"1995","idProvincia":"13","idCCAA":"07"}}},{"type":"Feature","geometry":{"type":"Point","coordinates":[-3.830472,39.012917]},"properties":{"id":"es-5111","source":"ES","brand":"REPSOL","address":"CARRETERA NACIONAL 430 KM. 317","municipality":"Carrión de Calatrava","province":"CIUDAD REAL","postalCode":"13150","schedule":"L-V: 07:00-21:00; S-D: 08:00-15:00","fuels":{"gasoline95":1.735,"gasoline98":1.905,"diesel":1.925,"dieselRenewable":2.045},"extra":{"saleType":"P","margin":"I","reportingType":"dm","ideess":"5111","idMunicipio":"1972","idProvincia":"13","idCCAA":"07"}}},{"type":"Feature","geometry":{"type":"Point","coordinates":[-3.618194,39.062222]},"properties":{"id":"es-5136","source":"ES","brand":"REPSOL","address":"CALLE TIBURCIO, 98","municipality":"Daimiel","province":"CIUDAD REAL","postalCode":"13250","schedule":"L-D: 06:00-22:00","fuels":{"gasoline95":1.795,"gasoline98":1.955,"diesel":1.905,"dieselRenewable":2.025,"lpg":1.175},"extra":{"saleType":"P","margin":"D","reportingType":"OM","ideess":"5136","idMunicipio":"1980","idProvincia":"13","idCCAA":"07"}}},{"type":"Feature","geometry":{"type":"Point","coordinates":[-3.373444,39.023056]},"properties":{"id":"es-5140","source":"ES","brand":"REPSOL","address":"CARRETERA N-4 KM. 171,1","municipality":"Manzanares","province":"CIUDAD REAL","postalCode":"13200","schedule":"L-D: 06:00-22:00","fuels":{"gasoline95":1.775,"gasoline98":1.935,"diesel":1.925,"dieselRenewable":2.045},"extra":{"saleType":"P","margin":"I","reportingType":"OM","ideess":"5140","idMunicipio":"1995","idProvincia":"13","idCCAA":"07"}}},{"type":"Feature","geometry":{"type":"Point","coordinates":[-3.220639,39.388139]},"properties":{"id":"es-5143","source":"ES","brand":"REPSOL","address":"CL AVENIDA DE HERENCIA S.N.","municipality":"Alcázar de San Juan","province":"CIUDAD REAL","postalCode":"13600","schedule":"L-V: 08:00-14:15 y 17:00-21:00; S: 09:00-14:00","fuels":{"gasoline95":1.745,"diesel":1.945},"extra":{"saleType":"P","margin":"D","reportingType":"dm","ideess":"5143","idMunicipio":"1945","idProvincia":"13","idCCAA":"07"}}},{"type":"Feature","geometry":{"type":"Point","coordinates":[-3.618806,39.060639]},"properties":{"id":"es-5145","source":"ES","brand":"REPSOL","address":"CARRETERA NACIONAL 430 KM. 269,9","municipality":"Daimiel","province":"CIUDAD REAL","postalCode":"13250","schedule":"L-D: 06:00-22:00","fuels":{"gasoline95":1.795,"diesel":1.905,"dieselB":1.664,"dieselRenewable":2.025},"extra":{"saleType":"P","margin":"D","reportingType":"OM","ideess":"5145","idMunicipio":"1980","idProvincia":"13","idCCAA":"07"}}},{"type":"Feature","geometry":{"type":"Point","coordinates":[-3.384028,39.005889]},"properties":{"id":"es-5155","source":"ES","brand":"MOEVE EL CRUCE","address":"AUTOVIA DE ANDALUCIA KM. 173","municipality":"Manzanares","province":"CIUDAD REAL","postalCode":"13200","schedule":"L-D: 06:00-23:00","fuels":{"gasoline95":1.805,"diesel":1.986,"dieselPremium":2.064},"extra":{"saleType":"P","margin":"D","reportingType":"dm","ideess":"5155","idMunicipio":"1995","idProvincia":"13","idCCAA":"07"}}},{"type":"Feature","geometry":{"type":"Point","coordinates":[-3.112583,39.401]},"properties":{"id":"es-5161","source":"ES","brand":"REPSOL","address":"CR N-420, 296","municipality":"Campo de Criptana","province":"CIUDAD REAL","postalCode":"13610","schedule":"L-D: 06:00-22:00","fuels":{"gasoline95":1.735,"diesel":1.905,"dieselRenewable":2.025},"extra":{"saleType":"P","margin":"I","reportingType":"OM","ideess":"5161","idMunicipio":"1969","idProvincia":"13","idCCAA":"07"}}},{"type":"Feature","geometry":{"type":"Point","coordinates":[-3.123944,39.26325]},"properties":{"id":"es-5177","source":"ES","brand":"MOEVE","address":"ESTRADA CM-42, 106/108","municipality":"Alcázar de San Juan","province":"CIUDAD REAL","postalCode":"13690","schedule":"L: 07:00-22:00","fuels":{"gasoline95":1.745,"diesel":1.93,"dieselB":1.51,"adblue":0.95},"extra":{"saleType":"P","margin":"D","reportingType":"dm","ideess":"5177","idMunicipio":"1945","idProvincia":"13","idCCAA":"07"}}},{"type":"Feature","geometry":{"type":"Point","coordinates":[-3.596278,39.076278]},"properties":{"id":"es-5178","source":"ES","brand":"WETROAD","address":"CARRETERA N-420 KM KM. 231","municipality":"Daimiel","province":"CIUDAD REAL","postalCode":"13250","schedule":"L-D: 24H","fuels":{"gasoline95":1.699,"diesel":1.799,"adblue":0.85},"extra":{"saleType":"P","margin":"D","reportingType":"dm","ideess":"5178","idMunicipio":"1980","idProvincia":"13","idCCAA":"07"}}},{"type":"Feature","geometry":{"type":"Point","coordinates":[-3.84875,39.174167]},"properties":{"id":"es-5194","source":"ES","brand":"CEPSA","address":"CALLE CERVANTES, 23","municipality":"Malagón","province":"CIUDAD REAL","postalCode":"13420","schedule":"L: 06:00-22:00","fuels":{"gasoline95":1.754,"gasoline98":1.884,"diesel":1.904,"dieselPremium":1.984,"dieselB":1.734},"extra":{"saleType":"P","margin":"D","reportingType":"dm","ideess":"5194","idMunicipio":"1994","idProvincia":"13","idCCAA":"07"}}},{"type":"Feature","geometry":{"type":"Point","coordinates":[-3.230528,39.388333]},"properties":{"id":"es-5205","source":"ES","brand":"REPSOL","address":"CR N-420, 284,7","municipality":"Alcázar de San Juan","province":"CIUDAD REAL","postalCode":"13600","schedule":"L-D: 06:30-22:30","fuels":{"gasoline95":1.765,"gasoline98":1.885,"diesel":1.925,"dieselB":1.62,"dieselRenewable":2.045,"lpg":1.189},"extra":{"saleType":"P","margin":"I","reportingType":"OM","ideess":"5205","idMunicipio":"1945","idProvincia":"13","idCCAA":"07"}}},{"type":"Feature","geometry":{"type":"Point","coordinates":[-3.012167,39.175667]},"properties":{"id":"es-5218","source":"ES","brand":"REPSOL COMERCIAL","address":"CARRETERA CR-122 KM. 26,100","municipality":"Tomelloso","province":"CIUDAD REAL","postalCode":"13700","schedule":"L-S: 06:00-22:00","fuels":{"gasoline95":1.739,"gasoline98":1.909,"diesel":1.969,"dieselPremium":2.079},"extra":{"saleType":"P","margin":"I","reportingType":"OM","ideess":"5218","idMunicipio":"2026","idProvincia":"13","idCCAA":"07"}}},{"type":"Feature","geometry":{"type":"Point","coordinates":[-3.419139,39.230444]},"properties":{"id":"es-5220","source":"ES","brand":"REPSOL","address":"CALLE CERVANTES, 104","municipality":"Villarta de San Juan","province":"CIUDAD REAL","postalCode":"13210","schedule":"L-S: 08:00-15:00 y 16:30-21:30; D: 08:00-16:00","fuels":{"gasoline95":1.745,"gasoline95Premium":1.815,"diesel":1.905,"dieselB":1.634,"dieselRenewable":2.025},"extra":{"saleType":"P","margin":"D","reportingType":"OM","ideess":"5220","idMunicipio":"2041","idProvincia":"13","idCCAA":"07"}}},{"type":"Feature","geometry":{"type":"Point","coordinates":[-3.128361,39.400861]},"properties":{"id":"es-5221","source":"ES","brand":"PETRONOR","address":"AVENIDA DE LA HISPANIDAD, 10","municipality":"Campo de Criptana","province":"CIUDAD REAL","postalCode":"13610","schedule":"L-D: 06:00-22:00","fuels":{"gasoline95":1.735,"gasoline95Premium":1.805,"diesel":1.909,"dieselRenewable":2.029},"extra":{"saleType":"P","margin":"I","reportingType":"OM","ideess":"5221","idMunicipio":"1969","idProvincia":"13","idCCAA":"07"}}},{"type":"Feature","geometry":{"type":"Point","coordinates":[-3.108861,39.127306]},"properties":{"id":"es-5231","source":"ES","brand":"REPSOL","address":"CARRETERA NACIONAL 310, KM. 82,500","municipality":"Argamasilla de Alba","province":"CIUDAD REAL","postalCode":"13710","schedule":"L-V: 06:00-22:00","fuels":{"gasoline95":1.735,"gasoline98":1.905,"diesel":1.949,"dieselRenewable":2.069},"extra":{"saleType":"P","margin":"I","reportingType":"OM","ideess":"5231","idMunicipio":"1960","idProvincia":"13","idCCAA":"07"}}},{"type":"Feature","geometry":{"type":"Point","coordinates":[-3.016139,39.163694]},"properties":{"id":"es-5239","source":"ES","brand":"REPSOL","address":"CALLE SOCUELLAMOS, 92","municipality":"Tomelloso","province":"CIUDAD REAL","postalCode":"13700","schedule":"L-V: 05:00-22:00; S-D: 06:00-22:00","fuels":{"gasoline95":1.745,"gasoline98":1.915,"diesel":1.969,"dieselRenewable":2.089},"extra":{"saleType":"P","margin":"D","reportingType":"OM","ideess":"5239","idMunicipio":"2026","idProvincia":"13","idCCAA":"07"}}},{"type":"Feature","geometry":{"type":"Point","coordinates":[-3.37825,39.108861]},"properties":{"id":"es-5273","source":"ES","brand":"REPSOL","address":"AUTOVIA A-4 KM. 162","municipality":"Manzanares","province":"CIUDAD REAL","postalCode":"13200","schedule":"L-V: 06:00-00:00; S: 06:00-22:00; D: 08:00-00:00","fuels":{"gasoline95":1.779,"diesel":1.929,"dieselB":1.659,"dieselRenewable":2.049},"extra":{"saleType":"P","margin":"D","reportingType":"dm","ideess":"5273","idMunicipio":"1995","idProvincia":"13","idCCAA":"07"}}},{"type":"Feature","geometry":{"type":"Point","coordinates":[-3.4985,39.241778]},"properties":{"id":"es-5274","source":"ES","brand":"REPSOL","address":"N-420 km 252,1","municipality":"Arenas de San Juan","province":"CIUDAD REAL","postalCode":"13679","schedule":"L-D: 07:00-23:00","fuels":{"gasoline95":1.819,"diesel":1.979,"dieselRenewable":2.049},"extra":{"saleType":"P","margin":"I","reportingType":"dm","ideess":"5274","idMunicipio":"1959","idProvincia":"13","idCCAA":"07"}}},{"type":"Feature","geometry":{"type":"Point","coordinates":[-3.022722,39.168333]},"properties":{"id":"es-5290","source":"ES","brand":"ES","address":"CALLE CAMPO, 117","municipality":"Tomelloso","province":"CIUDAD REAL","postalCode":"13700","schedule":"L-D: 06:00-22:00","fuels":{"gasoline95":1.739,"gasoline95Premium":1.809,"diesel":1.965,"dieselRenewable":2.085},"extra":{"saleType":"P","margin":"D","reportingType":"OM","ideess":"5290","idMunicipio":"2026","idProvincia":"13","idCCAA":"07"}}},{"type":"Feature","geometry":{"type":"Point","coordinates":[-3.924722,39.022]},"properties":{"id":"es-5294","source":"ES","brand":"REPSOL","address":"CR N-401, 183,6","municipality":"Ciudad Real","province":"CIUDAD REAL","postalCode":"13005","schedule":"L-D: 07:00-22:00","fuels":{"gasoline95":1.745,"gasoline98":1.915,"diesel":1.915,"dieselRenewable":2.035},"extra":{"saleType":"P","margin":"I","reportingType":"OM","ideess":"5294","idMunicipio":"1976","idProvincia":"13","idCCAA":"07"}}},{"type":"Feature","geometry":{"type":"Point","coordinates":[-3.972972,39.862944]},"properties":{"id":"es-5331","source":"ES","brand":"PLENERGY","address":"AVENIDA BOLADIEZ (C.C. EROSKI - LUZ DEL TAJO), SN","municipality":"Toledo","province":"TOLEDO","postalCode":"45007","schedule":"L-D: 24H","fuels":{"gasoline95":1.699,"diesel":1.789},"extra":{"saleType":"P","margin":"D","reportingType":"dm","ideess":"5331","idMunicipio":"6929","idProvincia":"45","idCCAA":"07"}}},{"type":"Feature","geometry":{"type":"Point","coordinates":[-3.958861,39.867278]},"properties":{"id":"es-5335","source":"ES","brand":"SHELL","address":"AVENIDA RIO ESTENILLA, 78","municipality":"Toledo","province":"TOLEDO","postalCode":"45007","schedule":"L-D: 06:00-00:00","fuels":{"gasoline95":1.799,"gasoline98":1.939,"diesel":1.949,"dieselPremium":2.029,"lpg":1.029,"adblue":1.25},"extra":{"saleType":"P","margin":"N","reportingType":"OM","ideess":"5335","idMunicipio":"6929","idProvincia":"45","idCCAA":"07"}}},{"type":"Feature","geometry":{"type":"Point","coordinates":[-3.496083,39.377833]},"properties":{"id":"es-5344","source":"ES","brand":"REPSOL","address":"CR A-4, 129,6","municipality":"Camuñas","province":"TOLEDO","postalCode":"45720","schedule":"L-D: 24H","fuels":{"gasoline95":1.795,"gasoline98":1.985,"diesel":1.939,"dieselPremium":1.989,"adblue":0.8},"extra":{"saleType":"P","margin":"I","reportingType":"dm","ideess":"5344","idMunicipio":"6795","idProvincia":"45","idCCAA":"07"}}},{"type":"Feature","geometry":{"type":"Point","coordinates":[-3.947917,39.871444]},"properties":{"id":"es-5345","source":"ES","brand":"REPSOL","address":"CL NOGUERAS, 5","municipality":"Toledo","province":"TOLEDO","postalCode":"45007","schedule":"L-V: 06:15-22:30; S-D: 07:00-22:30","fuels":{"gasoline95":1.829,"gasoline98":1.989,"diesel":1.979,"dieselPremium":2.079},"extra":{"saleType":"P","margin":"D","reportingType":"dm","ideess":"5345","idMunicipio":"6929","idProvincia":"45","idCCAA":"07"}}},{"type":"Feature","geometry":{"type":"Point","coordinates":[-3.076361,39.530222]},"properties":{"id":"es-5348","source":"ES","brand":"REPSOL","address":"CARRETERA QUINTANAR ALCAZAR KM. ","municipality":"Miguel Esteban","province":"TOLEDO","postalCode":"45830","schedule":"L-V: 05:30-22:00; S: 06:00-22:00; D: 07:00-22:00","fuels":{"gasoline95":1.788,"diesel":1.948,"dieselB":1.508,"dieselRenewable":2.038,"adblue":0.968},"extra":{"saleType":"P","margin":"D","reportingType":"dm","ideess":"5348","idMunicipio":"6861","idProvincia":"45","idCCAA":"07"}}},{"type":"Feature","geometry":{"type":"Point","coordinates":[-3.469389,39.435667]},"properties":{"id":"es-5353","source":"ES","brand":"REPSOL","address":"CARRETERA C-4133 KM. 15,600","municipality":"Camuñas","province":"TOLEDO","postalCode":"45720","schedule":"L-V: 05:00-21:30; S: 06:00-21:30; D: 07:00-21:30","fuels":{"gasoline95":1.739,"gasoline98":1.849,"diesel":1.899,"dieselRenewable":1.999},"extra":{"saleType":"P","margin":"I","reportingType":"dm","ideess":"5353","idMunicipio":"6795","idProvincia":"45","idCCAA":"07"}}},{"type":"Feature","geometry":{"type":"Point","coordinates":[-3.315611,39.619944]},"properties":{"id":"es-5354","source":"ES","brand":"MOEVE","address":"CARRETERA CM. 410 KM. 95","municipality":"Villacañas","province":"TOLEDO","postalCode":"45860","schedule":"L-V: 06:00-21:00; S: 06:30-14:30","fuels":{"gasoline95":1.775,"gasoline98":1.945,"diesel":1.945,"dieselPremium":2.029,"dieselB":1.605},"extra":{"saleType":"P","margin":"I","reportingType":"dm","ideess":"5354","idMunicipio":"6946","idProvincia":"45","idCCAA":"07"}}},{"type":"Feature","geometry":{"type":"Point","coordinates":[-3.82825,39.73375]},"properties":{"id":"es-5355","source":"ES","brand":"HERMANOS FERNANDEZ GARCIA SA","address":"CARRETERA CM-4019 TOLEDO-ALCAZAR KM 24.05 KM. ","municipality":"Mascaraque","province":"TOLEDO","postalCode":"45430","schedule":"L-S: 07:00-21:00","fuels":{"gasoline95":1.679,"gasoline98":1.729,"diesel":1.799,"dieselPremium":1.849,"dieselB":1.38,"lpg":0.919,"adblue":1.299},"extra":{"saleType":"P","margin":"D","reportingType":"dm","ideess":"5355","idMunicipio":"6854","idProvincia":"45","idCCAA":"07"}}},{"type":"Feature","geometry":{"type":"Point","coordinates":[-3.985972,39.732556]},"properties":{"id":"es-5359","source":"ES","brand":"REPSOL","address":"CR N-401, 89,5","municipality":"Ajofrín","province":"TOLEDO","postalCode":"45110","schedule":"L-D: 06:00-22:00","fuels":{"gasoline95":1.799,"gasoline98":1.979,"diesel":1.919,"dieselPremium":1.999,"adblue":0.999},"extra":{"saleType":"P","margin":"I","reportingType":"dm","ideess":"5359","idMunicipio":"6762","idProvincia":"45","idCCAA":"07"}}},{"type":"Feature","geometry":{"type":"Point","coordinates":[-3.516861,39.572333]},"properties":{"id":"es-5361","source":"ES","brand":"REPSOL","address":"CR A-4, 106,9","municipality":"Madridejos","province":"TOLEDO","postalCode":"45710","schedule":"L-D: 07:00-23:00","fuels":{"gasoline95":1.795,"gasoline98":1.965,"diesel":1.949,"dieselRenewable":2.069},"extra":{"saleType":"P","margin":"D","reportingType":"OM","ideess":"5361","idMunicipio":"6847","idProvincia":"45","idCCAA":"07"}}},{"type":"Feature","geometry":{"type":"Point","coordinates":[-3.08125,39.594361]},"properties":{"id":"es-5367","source":"ES","brand":"PETRONOR","address":"CARRETERA NAVAHERMOSA -QUINTANAR DE LA ORDEN KM. 129,600","municipality":"Puebla de Almoradiel (La)","province":"TOLEDO","postalCode":"45840","schedule":"L-D: 24H","fuels":{"gasoline95":1.779,"gasoline95Premium":1.949,"diesel":1.939,"dieselPremium":2.049},"extra":{"saleType":"P","margin":"D","reportingType":"dm","ideess":"5367","idMunicipio":"6895","idProvincia":"45","idCCAA":"07"}}},{"type":"Feature","geometry":{"type":"Point","coordinates":[-3.886389,39.650833]},"properties":{"id":"es-5368","source":"ES","brand":"CEPSA","address":"CARRETERA N-401 KM. 103","municipality":"Orgaz","province":"TOLEDO","postalCode":"45450","schedule":"L-V: 06:00-22:00; S-D: 06:30-22:00","fuels":{"gasoline95":1.729,"gasoline95Premium":1.829,"diesel":1.849,"dieselPremium":1.929},"extra":{"saleType":"P","margin":"I","reportingType":"dm","ideess":"5368","idMunicipio":"6884","idProvincia":"45","idCCAA":"07"}}},{"type":"Feature","geometry":{"type":"Point","coordinates":[-3.517806,39.649417]},"properties":{"id":"es-5371","source":"ES","brand":"REPSOL","address":"AUTOVIA A-4 KM. 98","municipality":"Tembleque","province":"TOLEDO","postalCode":"45780","schedule":"L-D: 06:00-22:00","fuels":{"gasoline95":1.795,"gasoline95Premium":1.865,"gasoline98":1.965,"diesel":1.949,"dieselRenewable":2.069},"extra":{"saleType":"P","margin":"D","reportingType":"OM","ideess":"5371","idMunicipio":"6927","idProvincia":"45","idCCAA":"07"}}},{"type":"Feature","geometry":{"type":"Point","coordinates":[-3.970306,39.864972]},"properties":{"id":"es-5391","source":"ES","brand":"REPSOL","address":"CL JARAMA (POLG. INDUST.PAR,22), S.","municipality":"Toledo","province":"TOLEDO","postalCode":"45007","schedule":"L-D: 06:00-22:00","fuels":{"gasoline95":1.829,"gasoline98":1.999,"diesel":1.979,"dieselRenewable":2.099,"lpg":1.135},"extra":{"saleType":"P","margin":"D","reportingType":"OM","ideess":"5391","idMunicipio":"6929","idProvincia":"45","idCCAA":"07"}}},{"type":"Feature","geometry":{"type":"Point","coordinates":[-3.771167,39.685056]},"properties":{"id":"es-5403","source":"ES","brand":"MENCHERO VEGUE CARBURANTES S.L.","address":"PLAZA PRINCIPE DE ASTURIAS, 1","municipality":"Mora","province":"TOLEDO","postalCode":"45400","schedule":"L-D: 07:00-22:00","fuels":{"gasoline95":1.699,"diesel":1.849,"dieselPremium":1.959},"extra":{"saleType":"P","margin":"N","reportingType":"dm","ideess":"5403","idMunicipio":"6866","idProvincia":"45","idCCAA":"07"}}},{"type":"Feature","geometry":{"type":"Point","coordinates":[-3.612111,39.470056]},"properties":{"id":"es-5405","source":"ES","brand":"CEPSA","address":"CARRETERA CM-400 KM. 61","municipality":"Consuegra","province":"TOLEDO","postalCode":"45700","schedule":"L-D: 06:00-22:00","fuels":{"gasoline95":1.764,"diesel":1.929,"dieselPremium":2.024},"extra":{"saleType":"P","margin":"D","reportingType":"dm","ideess":"5405","idMunicipio":"6815","idProvincia":"45","idCCAA":"07"}}},{"type":"Feature","geometry":{"type":"Point","coordinates":[-3.950889,39.884583]},"properties":{"id":"es-5426","source":"ES","brand":"MOEVE","address":"CARRETERA TOLEDO-MOCEJON KM. 4,300","municipality":"Toledo","province":"TOLEDO","postalCode":"45008","schedule":"L-V: 07:00-21:00; S: 08:00-21:00; D: 08:30-15:00","fuels":{"gasoline95":1.814,"diesel":1.949,"dieselPremium":2.034,"adblue":1.1},"extra":{"saleType":"P","margin":"D","reportingType":"dm","ideess":"5426","idMunicipio":"6929","idProvincia":"45","idCCAA":"07"}}},{"type":"Feature","geometry":{"type":"Point","coordinates":[-3.175083,39.767778]},"properties":{"id":"es-5428","source":"ES","brand":"REPSOL","address":"CR N-301, 97","municipality":"Corral de Almaguer","province":"TOLEDO","postalCode":"45880","schedule":"L-S: 06:00-22:00; D: 07:00-22:00","fuels":{"gasoline95":1.789,"gasoline98":1.959,"diesel":1.985,"dieselPremium":2.075},"extra":{"saleType":"P","margin":"I","reportingType":"OM","ideess":"5428","idMunicipio":"6816","idProvincia":"45","idCCAA":"07"}}},{"type":"Feature","geometry":{"type":"Point","coordinates":[-3.506583,39.683]},"properties":{"id":"es-5431","source":"ES","brand":"REPSOL","address":"CARRETERA N-IV KM. 94","municipality":"Tembleque","province":"TOLEDO","postalCode":"45780","schedule":"L-D: 06:00-22:00","fuels":{"gasoline95":1.785,"gasoline98":1.955,"diesel":1.939,"dieselRenewable":2.059},"extra":{"saleType":"P","margin":"D","reportingType":"OM","ideess":"5431","idMunicipio":"6927","idProvincia":"45","idCCAA":"07"}}},{"type":"Feature","geometry":{"type":"Point","coordinates":[-3.594028,39.458389]},"properties":{"id":"es-5432","source":"ES","brand":"CEPSA","address":"CARRETERA CM-400 KM. 63,4","municipality":"Consuegra","province":"TOLEDO","postalCode":"45700","schedule":"L-D: 06:00-22:00","fuels":{"gasoline95":1.764,"diesel":1.929,"dieselPremium":2.024},"extra":{"saleType":"P","margin":"D","reportingType":"dm","ideess":"5432","idMunicipio":"6815","idProvincia":"45","idCCAA":"07"}}},{"type":"Feature","geometry":{"type":"Point","coordinates":[-3.08075,39.525528]},"properties":{"id":"es-5435","source":"ES","brand":"NTRA. SRA. DEL CARMEN - COOPERATIVA VINICOLA","address":"CARRETERA QUINTANAR-ALCAZAR KM. 7600","municipality":"Miguel Esteban","province":"TOLEDO","postalCode":"45830","schedule":"L-D: 24H","fuels":{"gasoline95":1.639,"diesel":1.739,"dieselB":1.384},"extra":{"saleType":"P","margin":"N","reportingType":"dm","ideess":"5435","idMunicipio":"6861","idProvincia":"45","idCCAA":"07"}}},{"type":"Feature","geometry":{"type":"Point","coordinates":[-3.620444,39.904444]},"properties":{"id":"es-5439","source":"ES","brand":"REPSOL","address":"CR C-9, 31 (C-9 km 31,4)","municipality":"Yepes","province":"TOLEDO","postalCode":"45313","schedule":"L-D: 06:00-22:00","fuels":{"gasoline95":1.771,"gasoline98":1.943,"diesel":1.91,"dieselRenewable":1.978},"extra":{"saleType":"P","margin":"D","reportingType":"dm","ideess":"5439","idMunicipio":"6962","idProvincia":"45","idCCAA":"07"}}},{"type":"Feature","geometry":{"type":"Point","coordinates":[-3.966722,39.676944]},"properties":{"id":"es-5442","source":"ES","brand":"PETROLEOS MARTIN CORPORATION","address":"CARRETERA N-401 KM. 94","municipality":"Sonseca","province":"TOLEDO","postalCode":"45100","schedule":"L-D: 24H","fuels":{"gasoline95":1.607,"gasoline98":1.758,"diesel":1.778,"dieselPremium":1.868,"dieselB":1.55,"adblue":0.86},"extra":{"saleType":"P","margin":"D","reportingType":"dm","ideess":"5442","idMunicipio":"6924","idProvincia":"45","idCCAA":"07"}}},{"type":"Feature","geometry":{"type":"Point","coordinates":[-3.523417,39.465944]},"properties":{"id":"es-5443","source":"ES","brand":"PETROPRIX.COM","address":"CALLE ANTIGUA CARRETERA N-IV KM 119, SN","municipality":"Madridejos","province":"TOLEDO","postalCode":"45710","schedule":"L-D: 24H","fuels":{"gasoline95":1.649,"diesel":1.769},"extra":{"saleType":"P","margin":"D","reportingType":"dm","ideess":"5443","idMunicipio":"6847","idProvincia":"45","idCCAA":"07"}}},{"type":"Feature","geometry":{"type":"Point","coordinates":[-3.799889,39.96475]},"properties":{"id":"es-5444","source":"ES","brand":"CARBURANTES AÑOVER","address":"CARRETERA CM-4001 KM. 23","municipality":"Añover de Tajo","province":"TOLEDO","postalCode":"45250","schedule":"L-V: 07:00-20:00; S: 07:00-14:00","fuels":{"gasoline95":1.699,"diesel":1.839},"extra":{"saleType":"P","margin":"I","reportingType":"dm","ideess":"5444","idMunicipio":"6775","idProvincia":"45","idCCAA":"07"}}},{"type":"Feature","geometry":{"type":"Point","coordinates":[-3.180194,39.97575]},"properties":{"id":"es-5446","source":"ES","brand":"REPSOL","address":"CARRETERA N-400 (TOLEDO-CUENCA) KM. 81,1","municipality":"Santa Cruz de la Zarza","province":"TOLEDO","postalCode":"45370","schedule":"L-V: 06:00-22:00; S-D: 07:00-14:00","fuels":{"gasoline95":1.779,"gasoline98":1.989,"diesel":1.919,"dieselB":1.599,"dieselRenewable":2.039,"adblue":1.099},"extra":{"saleType":"P","margin":"D","reportingType":"dm","ideess":"5446","idMunicipio":"6916","idProvincia":"45","idCCAA":"07"}}},{"type":"Feature","geometry":{"type":"Point","coordinates":[-3.867389,39.574111]},"properties":{"id":"es-5447","source":"ES","brand":"REPSOL","address":"CALLE REAL DE ABAJO, S/N","municipality":"Yébenes (Los)","province":"TOLEDO","postalCode":"45470","schedule":"L-D: 07:00-21:00","fuels":{"gasoline95":1.779,"gasoline98":1.949,"diesel":1.939,"dieselRenewable":2.059},"extra":{"saleType":"P","margin":"D","reportingType":"OM","ideess":"5447","idMunicipio":"6960","idProvincia":"45","idCCAA":"07"}}},{"type":"Feature","geometry":{"type":"Point","coordinates":[-3.922306,39.934694]},"properties":{"id":"es-5448","source":"ES","brand":"REPSOL","address":"AVENIDA DE CASTILLA LA MANCHA 54 (TO-413 km 33)","municipality":"Mocejón","province":"TOLEDO","postalCode":"45270","schedule":"L-S: 07:00-22:00; D: 08:00-22:00","fuels":{"gasoline95":1.819,"diesel":1.959,"dieselPremium":2.059},"extra":{"saleType":"P","margin":"D","reportingType":"dm","ideess":"5448","idMunicipio":"6862","idProvincia":"45","idCCAA":"07"}}},{"type":"Feature","geometry":{"type":"Point","coordinates":[-3.7085,39.418833]},"properties":{"id":"es-5449","source":"ES","brand":"REPSOL","address":"CR TO-233, 10,7","municipality":"Urda","province":"TOLEDO","postalCode":"45480","schedule":"L-S: 07:00-20:00","fuels":{"gasoline95":1.759,"diesel":1.899,"dieselB":1.679},"extra":{"saleType":"P","margin":"D","reportingType":"dm","ideess":"5449","idMunicipio":"6938","idProvincia":"45","idCCAA":"07"}}},{"type":"Feature","geometry":{"type":"Point","coordinates":[-3.34575,39.616333]},"properties":{"id":"es-5451","source":"ES","brand":"REPSOL","address":"CARRETERA TEMBLEQUE,13 KM. ","municipality":"Villacañas","province":"TOLEDO","postalCode":"45860","schedule":"L-V: 06:30-22:00; S-D: 07:00-22:00","fuels":{"gasoline95":1.805,"gasoline98":1.975,"diesel":1.979,"dieselB":1.62,"dieselRenewable":2.099},"extra":{"saleType":"P","margin":"D","reportingType":"OM","ideess":"5451","idMunicipio":"6946","idProvincia":"45","idCCAA":"07"}}},{"type":"Feature","geometry":{"type":"Point","coordinates":[-3.03575,39.586861]},"properties":{"id":"es-5459","source":"ES","brand":"REPSOL","address":"CR N-301, 122","municipality":"Quintanar de la Orden","province":"TOLEDO","postalCode":"45800","schedule":"L-D: 06:30-22:30","fuels":{"gasoline95":1.779,"gasoline98":1.949,"diesel":1.939,"dieselPremium":2.049,"lpg":1.139},"extra":{"saleType":"P","margin":"I","reportingType":"OM","ideess":"5459","idMunicipio":"6902","idProvincia":"45","idCCAA":"07"}}},{"type":"Feature","geometry":{"type":"Point","coordinates":[-3.477556,39.870194]},"properties":{"id":"es-5460","source":"ES","brand":"REPSOL","address":"AUTOVIA A-4 KM. 72,2","municipality":"Dosbarrios","province":"TOLEDO","postalCode":"45311","schedule":"L-D: 06:30-22:30","fuels":{"gasoline95":1.795,"gasoline98":1.965,"diesel":1.949,"dieselRenewable":2.069},"extra":{"saleType":"P","margin":"D","reportingType":"OM","ideess":"5460","idMunicipio":"6819","idProvincia":"45","idCCAA":"07"}}},{"type":"Feature","geometry":{"type":"Point","coordinates":[-3.477056,39.868861]},"properties":{"id":"es-5461","source":"ES","brand":"REPSOL","address":"AUTOVIA A-4 KM. 72","municipality":"Dosbarrios","province":"TOLEDO","postalCode":"45311","schedule":"L-D: 06:00-22:00","fuels":{"gasoline95":1.795,"gasoline98":1.965,"diesel":1.949,"dieselRenewable":2.069},"extra":{"saleType":"P","margin":"I","reportingType":"OM","ideess":"5461","idMunicipio":"6819","idProvincia":"45","idCCAA":"07"}}},{"type":"Feature","geometry":{"type":"Point","coordinates":[-3.018333,39.672028]},"properties":{"id":"es-5463","source":"ES","brand":"REPSOL","address":"CALLE MAYOR, 102","municipality":"Villanueva de Alcardete","province":"TOLEDO","postalCode":"45810","schedule":"L-D: 07:00-23:00","fuels":{"gasoline95":1.779,"diesel":1.939,"dieselRenewable":2.059},"extra":{"saleType":"P","margin":"D","reportingType":"OM","ideess":"5463","idMunicipio":"6952","idProvincia":"45","idCCAA":"07"}}},{"type":"Feature","geometry":{"type":"Point","coordinates":[-3.528806,39.478611]},"properties":{"id":"es-5464","source":"ES","brand":"CEPSA . LOHANA","address":"AUTOVIA ANTIGUA N-IV KM. 117,6","municipality":"Madridejos","province":"TOLEDO","postalCode":"45710","schedule":"L-D: 06:00-22:00","fuels":{"gasoline95":1.779,"diesel":1.919,"dieselPremium":2.089},"extra":{"saleType":"P","margin":"D","reportingType":"dm","ideess":"5464","idMunicipio":"6847","idProvincia":"45","idCCAA":"07"}}},{"type":"Feature","geometry":{"type":"Point","coordinates":[-3.370111,39.983472]},"properties":{"id":"es-5468","source":"ES","brand":"REPSOL","address":"CALLE CTRA. OCAÑA, 9","municipality":"Villarrubia de Santiago","province":"TOLEDO","postalCode":"45360","schedule":"L-D: 08:00-20:00","fuels":{"gasoline95":1.799,"diesel":1.929,"dieselB":1.599,"dieselRenewable":2.029},"extra":{"saleType":"P","margin":"D","reportingType":"dm","ideess":"5468","idMunicipio":"6955","idProvincia":"45","idCCAA":"07"}}},{"type":"Feature","geometry":{"type":"Point","coordinates":[-3.478472,39.778083]},"properties":{"id":"es-5474","source":"ES","brand":"MOEVE","address":"AUTOVIA N-IV KM. 83,300","municipality":"Guardia (La)","province":"TOLEDO","postalCode":"45760","schedule":"L-D: 24H","fuels":{"gasoline95":1.849,"gasoline98":1.969,"diesel":1.979,"dieselPremium":2.079,"adblue":1.2},"extra":{"saleType":"P","margin":"I","reportingType":"dm","ideess":"5474","idMunicipio":"6831","idProvincia":"45","idCCAA":"07"}}},{"type":"Feature","geometry":{"type":"Point","coordinates":[-3.985056,39.958806]},"properties":{"id":"es-5475","source":"ES","brand":"CEPSA","address":"CARRETERA MADRID-TOLEDO KM. 57,700","municipality":"Olías del Rey","province":"TOLEDO","postalCode":"45280","schedule":"L-V: 06:00-22:00; S-D: 07:00-23:00","fuels":{"gasoline95":1.804,"gasoline95Premium":1.889,"diesel":1.929,"dieselPremium":2.039,"adblue":1.099},"extra":{"saleType":"P","margin":"D","reportingType":"dm","ideess":"5475","idMunicipio":"6882","idProvincia":"45","idCCAA":"07"}}},{"type":"Feature","geometry":{"type":"Point","coordinates":[-3.983694,39.959556]},"properties":{"id":"es-5476","source":"ES","brand":"CEPSA","address":"AUTOVIA A-42 KM. 57,700","municipality":"Olías del Rey","province":"TOLEDO","postalCode":"45280","schedule":"L-V: 06:00-22:00; S-D: 07:00-23:00","fuels":{"gasoline95":1.804,"gasoline95Premium":1.889,"diesel":1.929,"dieselPremium":2.039},"extra":{"saleType":"P","margin":"I","reportingType":"dm","ideess":"5476","idMunicipio":"6882","idProvincia":"45","idCCAA":"07"}}},{"type":"Feature","geometry":{"type":"Point","coordinates":[-3.524,39.520694]},"properties":{"id":"es-5478","source":"ES","brand":"SANTA ANA","address":"AUTOVIA A-4 KM. 112,8","municipality":"Madridejos","province":"TOLEDO","postalCode":"45710","schedule":"L-D: 24H","fuels":{"gasoline95":1.795,"gasoline98":1.965,"diesel":1.949,"dieselRenewable":2.069},"extra":{"saleType":"P","margin":"D","reportingType":"dm","ideess":"5478","idMunicipio":"6847","idProvincia":"45","idCCAA":"07"}}},{"type":"Feature","geometry":{"type":"Point","coordinates":[-3.4795,39.765944]},"properties":{"id":"es-5483","source":"ES","brand":"REPSOL","address":"AUTOVIA A-4 KM. 84,700","municipality":"Guardia (La)","province":"TOLEDO","postalCode":"45760","schedule":"L-D: 24H","fuels":{"gasoline95":1.899,"gasoline98":2.019,"diesel":1.999,"dieselRenewable":2.129,"adblue":1.459},"extra":{"saleType":"P","margin":"I","reportingType":"dm","ideess":"5483","idMunicipio":"6831","idProvincia":"45","idCCAA":"07"}}},{"type":"Feature","geometry":{"type":"Point","coordinates":[-3.566889,39.976889]},"properties":{"id":"es-5491","source":"ES","brand":"GALP","address":"AUTOVIA N IV KM. 55,2","municipality":"Ontígola","province":"TOLEDO","postalCode":"45340","schedule":"L-D: 07:00-23:00","fuels":{"gasoline95":1.795,"gasoline98":1.935,"diesel":1.949,"dieselPremium":2.039,"adblue":0.899},"extra":{"saleType":"P","margin":"D","reportingType":"dm","ideess":"5491","idMunicipio":"6883","idProvincia":"45","idCCAA":"07"}}},{"type":"Feature","geometry":{"type":"Point","coordinates":[-3.567,39.978306]},"properties":{"id":"es-5492","source":"ES","brand":"GALP","address":"AUTOVIA N IV KM. 55,2","municipality":"Ontígola","province":"TOLEDO","postalCode":"45340","schedule":"L-D: 07:00-23:00","fuels":{"gasoline95":1.795,"gasoline98":1.935,"diesel":1.949,"dieselPremium":2.039,"adblue":0.899},"extra":{"saleType":"P","margin":"I","reportingType":"dm","ideess":"5492","idMunicipio":"6883","idProvincia":"45","idCCAA":"07"}}},{"type":"Feature","geometry":{"type":"Point","coordinates":[-3.517368,39.636299]},"properties":{"id":"es-5495","source":"ES","brand":"GALP","address":"Autovía N-IV km 99,500","municipality":"Tembleque","province":"TOLEDO","postalCode":"45780","schedule":"L-D: 06:00-22:00","fuels":{"gasoline95":1.794,"gasoline98":1.904,"diesel":1.934,"dieselPremium":1.984,"adblue":0.799},"extra":{"saleType":"P","margin":"N","reportingType":"OM","ideess":"5495","idMunicipio":"6927","idProvincia":"45","idCCAA":"07"}}},{"type":"Feature","geometry":{"type":"Point","coordinates":[-3.448667,39.940722]},"properties":{"id":"es-5497","source":"ES","brand":"V.O.","address":"CARRETERA CTRA.N-301 KM. 67","municipality":"Ocaña","province":"TOLEDO","postalCode":"45300","schedule":"L-D: 24H","fuels":{"gasoline95":1.667,"diesel":1.789},"extra":{"saleType":"P","margin":"D","reportingType":"dm","ideess":"5497","idMunicipio":"6881","idProvincia":"45","idCCAA":"07"}}},{"type":"Feature","geometry":{"type":"Point","coordinates":[-3.503528,39.955944]},"properties":{"id":"es-5499","source":"ES","brand":"MOEVE","address":"PZA. DE PILAREJO, 1","municipality":"Ocaña","province":"TOLEDO","postalCode":"45300","schedule":"L-D: 06:00-22:00","fuels":{"gasoline95":1.804,"gasoline95Premium":1.889,"diesel":1.979,"dieselPremium":2.044},"extra":{"saleType":"P","margin":"N","reportingType":"dm","ideess":"5499","idMunicipio":"6881","idProvincia":"45","idCCAA":"07"}}},{"type":"Feature","geometry":{"type":"Point","coordinates":[-3.489444,39.93425]},"properties":{"id":"es-5505","source":"ES","brand":"AVIA","address":"AUTOVIA A4 KM 64,500 SALIDA 62 KM. 64,500","municipality":"Ocaña","province":"TOLEDO","postalCode":"45300","schedule":"L-D: 06:00-22:00","fuels":{"gasoline95":1.669,"gasoline98":1.839,"diesel":1.849,"dieselPremium":1.849,"adblue":0.899},"extra":{"saleType":"P","margin":"N","reportingType":"dm","ideess":"5505","idMunicipio":"6881","idProvincia":"45","idCCAA":"07"}}},{"type":"Feature","geometry":{"type":"Point","coordinates":[-3.616278,39.216361]},"properties":{"id":"es-8355","source":"ES","brand":"AVIA","address":"CARRETERA CARRETERA DE FUENTE EL FRESNO KM 15 KM. 15","municipality":"Villarrubia de los Ojos","province":"CIUDAD REAL","postalCode":"13670","schedule":"L-D: 06:30-22:30","fuels":{"gasoline95":1.679,"diesel":1.819,"dieselPremium":1.859,"dieselB":1.479,"adblue":0.999},"extra":{"saleType":"P","margin":"I","reportingType":"dm","ideess":"8355","idMunicipio":"2040","idProvincia":"13","idCCAA":"07"}}},{"type":"Feature","geometry":{"type":"Point","coordinates":[-3.028167,39.166333]},"properties":{"id":"es-8793","source":"ES","brand":"SHELL","address":"C/ ZURBARAN. Nº 19","municipality":"Tomelloso","province":"CIUDAD REAL","postalCode":"13700","schedule":"L-D: 05:00-23:00","fuels":{"gasoline95":1.729,"diesel":1.954,"dieselPremium":2.034,"dieselB":1.459,"adblue":1.25},"extra":{"saleType":"P","margin":"N","reportingType":"OM","ideess":"8793","idMunicipio":"2026","idProvincia":"13","idCCAA":"07"}}},{"type":"Feature","geometry":{"type":"Point","coordinates":[-3.59675,39.211694]},"properties":{"id":"es-8897","source":"ES","brand":"EL RUBIAL SOC. COOP.","address":"CARRETERA CR-201 KM. 17","municipality":"Villarrubia de los Ojos","province":"CIUDAD REAL","postalCode":"13670","schedule":"L-D: 24H","fuels":{"gasoline95":1.612,"diesel":1.739,"dieselB":1.405,"adblue":0.58},"extra":{"saleType":"P","margin":"D","reportingType":"dm","ideess":"8897","idMunicipio":"2040","idProvincia":"13","idCCAA":"07"}}},{"type":"Feature","geometry":{"type":"Point","coordinates":[-3.113833,39.401056]},"properties":{"id":"es-8904","source":"ES","brand":"BODEGAS SIMBOLO, SDAD. COOP. DE C-LM NTRA. SRA. DE CRIPTANA","address":"CONCEPCION, 135 (CTRA. N-420)","municipality":"Campo de Criptana","province":"CIUDAD REAL","postalCode":"13610","schedule":"L-D: 24H","fuels":{"gasoline95":1.619,"diesel":1.789,"dieselB":1.459},"extra":{"saleType":"P","margin":"I","reportingType":"dm","ideess":"8904","idMunicipio":"1969","idProvincia":"13","idCCAA":"07"}}},{"type":"Feature","geometry":{"type":"Point","coordinates":[-3.134111,39.40075]},"properties":{"id":"es-8953","source":"ES","brand":"COMBUSTIBLES CRIPTANA,SL","address":"CARRETERA N-420 KM. 295","municipality":"Campo de Criptana","province":"CIUDAD REAL","postalCode":"13610","schedule":"L-D: 06:00-22:00","fuels":{"gasoline95":1.735,"diesel":1.925,"dieselB":1.45,"adblue":1.2},"extra":{"saleType":"P","margin":"D","reportingType":"dm","ideess":"8953","idMunicipio":"1969","idProvincia":"13","idCCAA":"07"}}},{"type":"Feature","geometry":{"type":"Point","coordinates":[-3.852333,39.167]},"properties":{"id":"es-9086","source":"ES","brand":"MONTES NORTE ENERGETICOS, S.L.","address":"AVENIDA FUNDADORES COOPERATIVA, 69","municipality":"Malagón","province":"CIUDAD REAL","postalCode":"13420","schedule":"L-D: 24H","fuels":{"gasoline95":1.589,"diesel":1.769,"dieselB":1.409,"adblue":0.669},"extra":{"saleType":"P","margin":"N","reportingType":"dm","ideess":"9086","idMunicipio":"1994","idProvincia":"13","idCCAA":"07"}}},{"type":"Feature","geometry":{"type":"Point","coordinates":[-3.352083,39.119944]},"properties":{"id":"es-9178","source":"ES","brand":"COOP. LOS LLANOS","address":"POZOS S/N","municipality":"Llanos del Caudillo","province":"CIUDAD REAL","postalCode":"13220","schedule":"L-V: 08:00-14:00 y 16:00-19:00; S: 08:00-13:00","fuels":{"dieselB":1.39},"extra":{"saleType":"P","margin":"D","reportingType":"dm","ideess":"9178","idMunicipio":"1992","idProvincia":"13","idCCAA":"07"}}},{"type":"Feature","geometry":{"type":"Point","coordinates":[-3.009972,39.172028]},"properties":{"id":"es-9181","source":"ES","brand":"SERTYMAN","address":"VEREDA SOCUELLAMOS, S/N","municipality":"Tomelloso","province":"CIUDAD REAL","postalCode":"13700","schedule":"L-D: 24H","fuels":{"gasoline95":1.649,"gasoline98":1.719,"diesel":1.799,"dieselPremium":1.919,"dieselB":1.439,"lpg":0.949,"adblue":0.599},"extra":{"saleType":"P","margin":"D","reportingType":"dm","ideess":"9181","idMunicipio":"2026","idProvincia":"13","idCCAA":"07"}}},{"type":"Feature","geometry":{"type":"Point","coordinates":[-3.987583,39.684278]},"properties":{"id":"es-9299","source":"ES","brand":"REPSOL","address":"CARRETERA CM-410 KM. 27","municipality":"Sonseca","province":"TOLEDO","postalCode":"45100","schedule":"L-S: 07:00-22:00; D: 08:00-22:00","fuels":{"gasoline95":1.819,"diesel":1.959,"dieselPremium":2.059},"extra":{"saleType":"P","margin":"I","reportingType":"dm","ideess":"9299","idMunicipio":"6924","idProvincia":"45","idCCAA":"07"}}},{"type":"Feature","geometry":{"type":"Point","coordinates":[-3.481917,39.794639]},"properties":{"id":"es-9463","source":"ES","brand":"BP LA GUARDIA","address":"CARRETERA N IV KM. 81,400","municipality":"Guardia (La)","province":"TOLEDO","postalCode":"45760","schedule":"L-D: 06:00-22:00","fuels":{"gasoline95":1.795,"gasoline98":1.935,"diesel":1.949,"dieselPremium":2.039,"adblue":0.925},"extra":{"saleType":"P","margin":"D","reportingType":"OM","ideess":"9463","idMunicipio":"6831","idProvincia":"45","idCCAA":"07"}}},{"type":"Feature","geometry":{"type":"Point","coordinates":[-3.821833,39.030361]},"properties":{"id":"es-9515","source":"ES","brand":"MONTES NORTE ENERGETICOS, S.L.","address":"CARRETERA CARRION A FERNANCABALLERO km 0.5","municipality":"Carrión de Calatrava","province":"CIUDAD REAL","postalCode":"13150","schedule":"L-D: 24H","fuels":{"gasoline95":1.589,"diesel":1.769,"dieselB":1.409},"extra":{"saleType":"P","margin":"D","reportingType":"dm","ideess":"9515","idMunicipio":"1972","idProvincia":"13","idCCAA":"07"}}},{"type":"Feature","geometry":{"type":"Point","coordinates":[-3.216639,39.400222]},"properties":{"id":"es-9622","source":"ES","brand":"CEPSA","address":"CTRA. N-420 km 286.6","municipality":"Alcázar de San Juan","province":"CIUDAD REAL","postalCode":"13600","schedule":"L-D: 06:00-22:00","fuels":{"gasoline95":1.754,"gasoline95Premium":1.829,"diesel":1.904,"dieselPremium":1.984},"extra":{"saleType":"P","margin":"I","reportingType":"OM","ideess":"9622","idMunicipio":"1945","idProvincia":"13","idCCAA":"07"}}},{"type":"Feature","geometry":{"type":"Point","coordinates":[-3.106778,39.81175]},"properties":{"id":"es-9684","source":"ES","brand":"GALP","address":"CARRETERA C-302 KM. 38,40","municipality":"Cabezamesada","province":"TOLEDO","postalCode":"45890","schedule":"L: 06:00-22:00","fuels":{"gasoline95":1.805,"diesel":1.999,"dieselPremium":2.049,"dieselB":1.269,"adblue":1.0},"extra":{"saleType":"P","margin":"D","reportingType":"dm","ideess":"9684","idMunicipio":"6788","idProvincia":"45","idCCAA":"07"}}},{"type":"Feature","geometry":{"type":"Point","coordinates":[-3.402389,39.352889]},"properties":{"id":"es-9687","source":"ES","brand":"CEPSA","address":"CARRETERA NACIONAL 420 KM. 269,1","municipality":"Herencia","province":"CIUDAD REAL","postalCode":"13640","schedule":"L-D: 24H","fuels":{"gasoline95Premium":1.849,"diesel":1.929,"dieselPremium":2.009,"adblue":0.82},"extra":{"saleType":"P","margin":"D","reportingType":"dm","ideess":"9687","idMunicipio":"1988","idProvincia":"13","idCCAA":"07"}}},{"type":"Feature","geometry":{"type":"Point","coordinates":[-3.399056,39.180472]},"properties":{"id":"es-9845","source":"ES","brand":"REPSOL","address":"AUTOVIA A-4 KM. 153,350","municipality":"Herencia","province":"CIUDAD REAL","postalCode":"13640","schedule":"L-D: 06:30-22:30","fuels":{"gasoline95":1.765,"gasoline98":1.935,"diesel":1.925,"dieselRenewable":2.045},"extra":{"saleType":"P","margin":"D","reportingType":"OM","ideess":"9845","idMunicipio":"1988","idProvincia":"13","idCCAA":"07"}}}]}