{"type":"FeatureCollection","features":[{"type":"Feature","geometry":{"type":"Point","coordinates":[-6.124639,40.51075]},"properties":{"id":"es-10025","source":"ES","brand":"SANTIAGO HERNANDEZ","address":"CTRA SALAMANCA - LA ALBERCA (CARRETERA km 75,2)","municipality":"Alberca (La)","province":"SALAMANCA","postalCode":"37624","schedule":"L-D: 07:00-22:00","fuels":{"gasoline95":1.799,"gasoline98":1.959,"diesel":1.949,"dieselPremium":2.029,"adblue":1.59},"extra":{"saleType":"P","margin":"D","reportingType":"dm","ideess":"10025","idMunicipio":"5338","idProvincia":"37","idCCAA":"08"}}},{"type":"Feature","geometry":{"type":"Point","coordinates":[-6.676333,40.173]},"properties":{"id":"es-10358","source":"ES","brand":"IBERDOEX","address":"CARRETERA COMARCAL 526 KM. 59","municipality":"Perales del Puerto","province":"CÁCERES","postalCode":"10896","schedule":"L-D: 07:00-22:00","fuels":{"gasoline95":1.779,"gasoline98":2.098,"diesel":1.939,"dieselB":1.659},"extra":{"saleType":"P","margin":"D","reportingType":"dm","ideess":"10358","idMunicipio":"1683","idProvincia":"10","idCCAA":"11"}}},{"type":"Feature","geometry":{"type":"Point","coordinates":[-6.786556,40.110139]},"properties":{"id":"es-10630","source":"ES","brand":"GALP","address":"CTRA. MORALEJA-CILLEROS km 12.1","municipality":"Cilleros","province":"CÁCERES","postalCode":"10895","schedule":"L-D: 07:00-23:00","fuels":{"gasoline95":1.779,"diesel":1.989,"dieselPremium":1.989,"dieselB":1.619},"extra":{"saleType":"P","margin":"I","reportingType":"dm","ideess":"10630","idMunicipio":"1606","idProvincia":"10","idCCAA":"11"}}},{"type":"Feature","geometry":{"type":"Point","coordinates":[-6.416667,40.701167]},"properties":{"id":"es-10681","source":"ES","brand":"NAKANOIL FUEL CARD S.L.","address":"CALLE EL MAJADAL POLIGONO INDUSTRIAL SANCTI-SPIRITUS, 38","municipality":"Sancti-Spíritus","province":"SALAMANCA","postalCode":"37470","schedule":"L-D: 24H","fuels":{"gasoline95":1.729,"diesel":1.859,"adblue":0.89},"extra":{"saleType":"P","margin":"N","reportingType":"dm","ideess":"10681","idMunicipio":"5603","idProvincia":"37","idCCAA":"08"}}},{"type":"Feature","geometry":{"type":"Point","coordinates":[-6.514472,40.616528]},"properties":{"id":"es-10776","source":"ES","brand":"RENACCIA","address":"CRTA. N-620 km 322","municipality":"Ciudad Rodrigo","province":"SALAMANCA","postalCode":"37500","schedule":"L-D: 24H","fuels":{"diesel":1.982,"adblue":0.799},"extra":{"saleType":"P","margin":"D","reportingType":"dm","ideess":"10776","idMunicipio":"5424","idProvincia":"37","idCCAA":"08"}}},{"type":"Feature","geometry":{"type":"Point","coordinates":[-6.38775,40.711833]},"properties":{"id":"es-10879","source":"ES","brand":"REPSOL","address":"AUTOVIA A-62 KM. 309","municipality":"Sancti-Spíritus","province":"SALAMANCA","postalCode":"37470","schedule":"L-D: 24H","fuels":{"gasoline95":1.785,"gasoline98":1.915,"diesel":1.915,"dieselPremium":1.975,"dieselB":1.649},"extra":{"saleType":"P","margin":"I","reportingType":"OM","ideess":"10879","idMunicipio":"5603","idProvincia":"37","idCCAA":"08"}}},{"type":"Feature","geometry":{"type":"Point","coordinates":[-6.050028,40.846833]},"properties":{"id":"es-11255","source":"ES","brand":"GALP","address":"AUTOVIA A62 KM. 275","municipality":"Aldehuela de la Bóveda","province":"SALAMANCA","postalCode":"37460","schedule":"L-D: 24H","fuels":{"gasoline95":1.819,"diesel":1.979,"dieselPremium":2.069,"adblue":0.799},"extra":{"saleType":"P","margin":"I","reportingType":"OM","ideess":"11255","idMunicipio":"5353","idProvincia":"37","idCCAA":"08"}}},{"type":"Feature","geometry":{"type":"Point","coordinates":[-6.186028,40.384861]},"properties":{"id":"es-11587","source":"ES","brand":"GALP","address":"CARRETERA EX-204 KM. 62","municipality":"Nuñomoral","province":"CÁCERES","postalCode":"10623","schedule":"L-S: 07:00-23:00; D: 08:00-23:00","fuels":{"gasoline95":1.709,"gasoline98":1.848,"diesel":1.899,"dieselB":1.638},"extra":{"saleType":"P","margin":"I","reportingType":"dm","ideess":"11587","idMunicipio":"1676","idProvincia":"10","idCCAA":"11"}}},{"type":"Feature","geometry":{"type":"Point","coordinates":[-6.818167,40.602611]},"properties":{"id":"es-11892","source":"ES","brand":"GALP","address":"CARRETERA N-620 KM. 351,0","municipality":"Fuentes de Oñoro","province":"SALAMANCA","postalCode":"37480","schedule":"L-D: 08:00-21:30","fuels":{"gasoline95":1.768,"gasoline98":1.908,"diesel":1.859},"extra":{"saleType":"P","margin":"D","reportingType":"dm","ideess":"11892","idMunicipio":"5455","idProvincia":"37","idCCAA":"08"}}},{"type":"Feature","geometry":{"type":"Point","coordinates":[-6.286972,40.772056]},"properties":{"id":"es-12109","source":"ES","brand":"MOEVE","address":"AUTOVIA A-62 KM. 297","municipality":"Martín de Yeltes","province":"SALAMANCA","postalCode":"37494","schedule":"L-D: 06:00-22:00","fuels":{"gasoline95":1.774,"gasoline95Premium":1.864,"diesel":1.944,"dieselPremium":2.024},"extra":{"saleType":"P","margin":"D","reportingType":"OM","ideess":"12109","idMunicipio":"5496","idProvincia":"37","idCCAA":"08"}}},{"type":"Feature","geometry":{"type":"Point","coordinates":[-6.650972,40.063778]},"properties":{"id":"es-12813","source":"ES","brand":"GRUPO CRIADO","address":"AVENIDA PUREZA CANELO, S/N","municipality":"Moraleja","province":"CÁCERES","postalCode":"10840","schedule":"L-D: 24H","fuels":{"gasoline95":1.759,"diesel":1.869,"adblue":0.72},"extra":{"saleType":"P","margin":"N","reportingType":"dm","ideess":"12813","idMunicipio":"1669","idProvincia":"10","idCCAA":"11"}}},{"type":"Feature","geometry":{"type":"Point","coordinates":[-6.518389,40.612861]},"properties":{"id":"es-13120","source":"ES","brand":"PGS","address":"CARRETERA SALAMANCA KM. 320","municipality":"Ciudad Rodrigo","province":"SALAMANCA","postalCode":"37500","schedule":"L-D: 24H","fuels":{"gasoline95":1.665,"diesel":1.835,"adblue":0.78},"extra":{"saleType":"P","margin":"D","reportingType":"dm","ideess":"13120","idMunicipio":"5424","idProvincia":"37","idCCAA":"08"}}},{"type":"Feature","geometry":{"type":"Point","coordinates":[-6.105722,40.012667]},"properties":{"id":"es-13968","source":"ES","brand":"SHELL","address":"CALLE BELGICA ESQUINA TRAVESÍA ADELARDO LOPEZ AYER, S/N","municipality":"Plasencia","province":"CÁCERES","postalCode":"10600","schedule":"L-D: 00:00-23:59","fuels":{"gasoline95":1.699,"diesel":1.859},"extra":{"saleType":"P","margin":"N","reportingType":"OM","ideess":"13968","idMunicipio":"1689","idProvincia":"10","idCCAA":"11"}}},{"type":"Feature","geometry":{"type":"Point","coordinates":[-6.10475,40.014778]},"properties":{"id":"es-14171","source":"ES","brand":"BP E.S. LAS CIGÜEÑAS","address":"CALLE DANIEL FAHRENHEIT, 2","municipality":"Plasencia","province":"CÁCERES","postalCode":"10600","schedule":"L-D: 24H","fuels":{"gasoline95":1.799,"gasoline98":1.959,"diesel":1.999,"dieselPremium":2.089,"adblue":0.999},"extra":{"saleType":"P","margin":"N","reportingType":"dm","ideess":"14171","idMunicipio":"1689","idProvincia":"10","idCCAA":"11"}}},{"type":"Feature","geometry":{"type":"Point","coordinates":[-6.278306,40.24775]},"properties":{"id":"es-14822","source":"ES","brand":"SOCIEDAD COOPERATIVA SAN MIGUEL ARCANGEL","address":"CALLE LAGUNA, 24","municipality":"Palomero","province":"CÁCERES","postalCode":"10411","schedule":"L-D: 24H","fuels":{"gasoline95":1.58,"diesel":1.74,"dieselB":1.33},"extra":{"saleType":"P","margin":"D","reportingType":"dm","ideess":"14822","idMunicipio":"1678","idProvincia":"10","idCCAA":"11"}}},{"type":"Feature","geometry":{"type":"Point","coordinates":[-6.171833,40.196889]},"properties":{"id":"es-14934","source":"ES","brand":"ACEITUNERA GRANADILLA","address":"PARAJE ARENAS, SN","municipality":"Guijo de Granadilla","province":"CÁCERES","postalCode":"10665","schedule":"L: 24H","fuels":{"gasoline95":1.579,"diesel":1.749},"extra":{"saleType":"P","margin":"D","reportingType":"dm","ideess":"14934","idMunicipio":"1631","idProvincia":"10","idCCAA":"11"}}},{"type":"Feature","geometry":{"type":"Point","coordinates":[-6.192194,40.240528]},"properties":{"id":"es-15308","source":"ES","brand":"GRANAOIL","address":"PASEO PASEO DEL CRUCE, 16","municipality":"Mohedas de Granadilla","province":"CÁCERES","postalCode":"10664","schedule":"L-D: 24H","fuels":{"gasoline95":1.589,"diesel":1.739,"dieselPremium":1.799,"dieselB":1.682},"extra":{"saleType":"P","margin":"D","reportingType":"dm","ideess":"15308","idMunicipio":"1665","idProvincia":"10","idCCAA":"11"}}},{"type":"Feature","geometry":{"type":"Point","coordinates":[-6.717472,40.043361]},"properties":{"id":"es-15382","source":"ES","brand":"COOPERATIVA VIRGEN DE FATIMA","address":"CALLE RONDA DE LA RIVERA, 15","municipality":"Moraleja","province":"CÁCERES","postalCode":"10848","schedule":"L-D: 24H","fuels":{"diesel":1.87},"extra":{"saleType":"P","margin":"N","reportingType":"dm","ideess":"15382","idMunicipio":"1669","idProvincia":"10","idCCAA":"11"}}},{"type":"Feature","geometry":{"type":"Point","coordinates":[-6.363306,40.093472]},"properties":{"id":"es-15765","source":"ES","brand":"E.S. LA CENTRAL","address":"CARRETERA POZUELO KM. 75","municipality":"Montehermoso","province":"CÁCERES","postalCode":"10810","schedule":"L-D: 24H","fuels":{"gasoline95":1.575,"diesel":1.749,"dieselB":1.289},"extra":{"saleType":"P","margin":"D","reportingType":"dm","ideess":"15765","idMunicipio":"1668","idProvincia":"10","idCCAA":"11"}}},{"type":"Feature","geometry":{"type":"Point","coordinates":[-6.287417,40.772472]},"properties":{"id":"es-15945","source":"ES","brand":"MOLGAS","address":"AUTOVIA AUTOVIA DE CASTILLA KM. 297","municipality":"Martín de Yeltes","province":"SALAMANCA","postalCode":"37494","schedule":"L-D: 00:00-23:59","fuels":{"lng":1.629},"extra":{"saleType":"P","margin":"D","reportingType":"dm","ideess":"15945","idMunicipio":"5496","idProvincia":"37","idCCAA":"08"}}},{"type":"Feature","geometry":{"type":"Point","coordinates":[-6.670861,40.049056]},"properties":{"id":"es-16254","source":"ES","brand":"E.S. DEHESA BOYAL","address":"CALLE VEGA DE LAS MARCELINAS, 0","municipality":"Moraleja","province":"CÁCERES","postalCode":"10840","schedule":"L-D: 24H","fuels":{"gasoline95":1.779,"diesel":1.949},"extra":{"saleType":"P","margin":"I","reportingType":"dm","ideess":"16254","idMunicipio":"1669","idProvincia":"10","idCCAA":"11"}}},{"type":"Feature","geometry":{"type":"Point","coordinates":[-6.6435,40.059917]},"properties":{"id":"es-16269","source":"ES","brand":"JTFUEL","address":"CALLE ARROYO DEL FRESNEDOSO, 0","municipality":"Moraleja","province":"CÁCERES","postalCode":"10840","schedule":"L-D: 24H","fuels":{"gasoline95":1.759,"diesel":1.869,"adblue":0.799},"extra":{"saleType":"P","margin":"D","reportingType":"dm","ideess":"16269","idMunicipio":"1669","idProvincia":"10","idCCAA":"11"}}},{"type":"Feature","geometry":{"type":"Point","coordinates":[-6.416278,40.697972]},"properties":{"id":"es-4958","source":"ES","brand":"SHELL","address":"N-620 km 309,2","municipality":"Sancti-Spíritus","province":"SALAMANCA","postalCode":"37470","schedule":"L-D: 24H","fuels":{"gasoline95":1.779,"gasoline98":1.919,"diesel":1.909,"dieselPremium":1.989,"dieselB":1.629,"adblue":1.39},"extra":{"saleType":"P","margin":"D","reportingType":"OM","ideess":"4958","idMunicipio":"5603","idProvincia":"37","idCCAA":"08"}}},{"type":"Feature","geometry":{"type":"Point","coordinates":[-6.078694,40.03725]},"properties":{"id":"es-5855","source":"ES","brand":"CARREFOUR","address":"CALLE C/ JULIAN BESTEIRO S/N, S/N","municipality":"Plasencia","province":"CÁCERES","postalCode":"10600","schedule":"L-D: 24H","fuels":{"gasoline95":1.779,"gasoline98":1.959,"diesel":1.999,"dieselPremium":2.039},"extra":{"saleType":"P","margin":"N","reportingType":"dm","ideess":"5855","idMunicipio":"1689","idProvincia":"10","idCCAA":"11"}}},{"type":"Feature","geometry":{"type":"Point","coordinates":[-6.874639,40.214444]},"properties":{"id":"es-5858","source":"ES","brand":"MEROIL","address":"CARRETERA EX205 KM. 16,800","municipality":"Valverde del Fresno","province":"CÁCERES","postalCode":"10890","schedule":"L: 07:00-22:00","fuels":{"gasoline95":1.759,"diesel":1.919,"dieselB":1.589},"extra":{"saleType":"P","margin":"D","reportingType":"dm","ideess":"5858","idMunicipio":"1747","idProvincia":"10","idCCAA":"11"}}},{"type":"Feature","geometry":{"type":"Point","coordinates":[-6.17725,40.192694]},"properties":{"id":"es-5887","source":"ES","brand":"CAMPSA","address":"CARRETERA CCL KM. 1","municipality":"Ahigal","province":"CÁCERES","postalCode":"10650","schedule":"L: 07:00-22:00","fuels":{"gasoline95":1.789,"diesel":1.969,"dieselB":1.689,"dieselRenewable":2.079},"extra":{"saleType":"P","margin":"I","reportingType":"dm","ideess":"5887","idMunicipio":"1548","idProvincia":"10","idCCAA":"11"}}},{"type":"Feature","geometry":{"type":"Point","coordinates":[-6.661222,40.07325]},"properties":{"id":"es-5890","source":"ES","brand":"REPSOL","address":"CARRETERA C-526 KM. 46,1","municipality":"Moraleja","province":"CÁCERES","postalCode":"10840","schedule":"L: 06:30-21:30","fuels":{"gasoline95":1.749,"diesel":2.015,"dieselPremium":2.075,"dieselB":1.619},"extra":{"saleType":"P","margin":"I","reportingType":"OM","ideess":"5890","idMunicipio":"1669","idProvincia":"10","idCCAA":"11"}}},{"type":"Feature","geometry":{"type":"Point","coordinates":[-6.328778,40.081833]},"properties":{"id":"es-5901","source":"ES","brand":"GASÓLEOS MONTEHERMOSO","address":"CARRETERA CC 370 KM. 23","municipality":"Montehermoso","province":"CÁCERES","postalCode":"10810","schedule":"L-D: 24H","fuels":{"gasoline95":1.595,"diesel":1.779,"dieselPremium":1.819,"dieselB":1.459},"extra":{"saleType":"P","margin":"D","reportingType":"dm","ideess":"5901","idMunicipio":"1668","idProvincia":"10","idCCAA":"11"}}},{"type":"Feature","geometry":{"type":"Point","coordinates":[-6.038528,40.232306]},"properties":{"id":"es-5905","source":"ES","brand":"CAMPSA","address":"CARRETERA 513 KM. 96,8","municipality":"Zarza de Granadilla","province":"CÁCERES","postalCode":"10710","schedule":"L: 07:00-22:00","fuels":{"gasoline95":1.789,"diesel":1.969,"dieselB":1.689,"dieselRenewable":2.079},"extra":{"saleType":"P","margin":"I","reportingType":"dm","ideess":"5905","idMunicipio":"1758","idProvincia":"10","idCCAA":"11"}}},{"type":"Feature","geometry":{"type":"Point","coordinates":[-6.075472,40.032083]},"properties":{"id":"es-5951","source":"ES","brand":"REPSOL","address":"CARRETERA N-110 KM. 403,200","municipality":"Plasencia","province":"CÁCERES","postalCode":"10600","schedule":"L-D: 06:00-22:00","fuels":{"gasoline95":1.785,"gasoline98":1.955,"diesel":2.015,"dieselPremium":2.075},"extra":{"saleType":"P","margin":"I","reportingType":"OM","ideess":"5951","idMunicipio":"1689","idProvincia":"10","idCCAA":"11"}}},{"type":"Feature","geometry":{"type":"Point","coordinates":[-6.707528,40.590889]},"properties":{"id":"es-6112","source":"ES","brand":"MOEVE","address":"CARRETERA N-620 KM. 341","municipality":"Espeja","province":"SALAMANCA","postalCode":"37497","schedule":"L-D: 06:00-22:00","fuels":{"gasoline95":1.774,"gasoline98":1.894,"diesel":1.944,"dieselPremium":2.024},"extra":{"saleType":"P","margin":"I","reportingType":"OM","ideess":"6112","idMunicipio":"5442","idProvincia":"37","idCCAA":"08"}}},{"type":"Feature","geometry":{"type":"Point","coordinates":[-6.249889,40.789167]},"properties":{"id":"es-6116","source":"ES","brand":"CEPSA","address":"CARRETERA NACIONAL620 KM. 291,6","municipality":"Fuente de San Esteban (La)","province":"SALAMANCA","postalCode":"37200","schedule":"L: 07:30-22:00","fuels":{"gasoline95":1.784,"gasoline98":1.884,"diesel":1.944,"dieselPremium":2.024,"dieselB":1.684},"extra":{"saleType":"P","margin":"I","reportingType":"dm","ideess":"6116","idMunicipio":"5450","idProvincia":"37","idCCAA":"08"}}},{"type":"Feature","geometry":{"type":"Point","coordinates":[-6.824389,40.605917]},"properties":{"id":"es-6117","source":"ES","brand":"E.S. FRES - BP","address":"CARRETERA N-620 KM. 351,500","municipality":"Fuentes de Oñoro","province":"SALAMANCA","postalCode":"37481","schedule":"L-D: 24H","fuels":{"gasoline95":1.768,"gasoline98":1.908,"diesel":1.859,"dieselPremium":2.009},"extra":{"saleType":"P","margin":"D","reportingType":"dm","ideess":"6117","idMunicipio":"5455","idProvincia":"37","idCCAA":"08"}}},{"type":"Feature","geometry":{"type":"Point","coordinates":[-6.824722,40.605528]},"properties":{"id":"es-6118","source":"ES","brand":"E.S. FRES - BP","address":"CARRETERA N-620 KM. 351,500","municipality":"Fuentes de Oñoro","province":"SALAMANCA","postalCode":"37481","schedule":"L-D: 24H","fuels":{"gasoline95":1.768,"diesel":1.859,"dieselPremium":2.009},"extra":{"saleType":"P","margin":"I","reportingType":"dm","ideess":"6118","idMunicipio":"5455","idProvincia":"37","idCCAA":"08"}}},{"type":"Feature","geometry":{"type":"Point","coordinates":[-6.792333,40.591639]},"properties":{"id":"es-6120","source":"ES","brand":"MOEVE","address":"CARRETERA N-620 KM. 348","municipality":"Fuentes de Oñoro","province":"SALAMANCA","postalCode":"37480","schedule":"L-D: 24H","fuels":{"gasoline95":1.774,"gasoline98":1.894,"diesel":1.944,"dieselPremium":2.024},"extra":{"saleType":"P","margin":"D","reportingType":"OM","ideess":"6120","idMunicipio":"5455","idProvincia":"37","idCCAA":"08"}}},{"type":"Feature","geometry":{"type":"Point","coordinates":[-6.437528,40.664167]},"properties":{"id":"es-6164","source":"ES","brand":"REPSOL","address":"CARRETERA N-620 KM. 313,3","municipality":"Ciudad Rodrigo","province":"SALAMANCA","postalCode":"37593","schedule":"L-D: 24H","fuels":{"gasoline95":1.779,"diesel":1.925,"dieselPremium":1.985,"dieselB":1.635,"lpg":1.165},"extra":{"saleType":"P","margin":"D","reportingType":"OM","ideess":"6164","idMunicipio":"5424","idProvincia":"37","idCCAA":"08"}}},{"type":"Feature","geometry":{"type":"Point","coordinates":[-6.60825,40.386889]},"properties":{"id":"es-6223","source":"ES","brand":"REPSOL","address":"AVENIDA EXTREMADURA, 1","municipality":"Robleda","province":"SALAMANCA","postalCode":"37521","schedule":"L-S: 07:00-22:00; D: 08:00-22:00","fuels":{"gasoline95":1.769,"diesel":1.919,"dieselB":1.679},"extra":{"saleType":"P","margin":"D","reportingType":"dm","ideess":"6223","idMunicipio":"5579","idProvincia":"37","idCCAA":"08"}}},{"type":"Feature","geometry":{"type":"Point","coordinates":[-6.534917,40.601389]},"properties":{"id":"es-6303","source":"ES","brand":"CAMPSA","address":"AVENIDA PORTUGAL, 47","municipality":"Ciudad Rodrigo","province":"SALAMANCA","postalCode":"37500","schedule":"L-D: 06:30-23:30","fuels":{"gasoline95":1.759,"gasoline98":1.909,"diesel":1.919,"dieselPremium":1.979,"dieselB":1.659},"extra":{"saleType":"P","margin":"I","reportingType":"OM","ideess":"6303","idMunicipio":"5424","idProvincia":"37","idCCAA":"08"}}},{"type":"Feature","geometry":{"type":"Point","coordinates":[-6.528806,40.604111]},"properties":{"id":"es-6334","source":"ES","brand":"REPSOL","address":"AVENIDA SALAMANCA, S/N","municipality":"Ciudad Rodrigo","province":"SALAMANCA","postalCode":"37500","schedule":"L-D: 24H","fuels":{"gasoline95":1.759,"gasoline98":1.909,"diesel":1.919,"dieselRenewable":2.039},"extra":{"saleType":"P","margin":"I","reportingType":"OM","ideess":"6334","idMunicipio":"5424","idProvincia":"37","idCCAA":"08"}}},{"type":"Feature","geometry":{"type":"Point","coordinates":[-6.113917,40.659917]},"properties":{"id":"es-6349","source":"ES","brand":"REPSOL","address":"AVENIDA ABUSEJO, 5","municipality":"Tamames","province":"SALAMANCA","postalCode":"37600","schedule":"L-D: 07:00-23:00","fuels":{"gasoline95":1.799,"gasoline98":1.959,"diesel":1.949,"dieselB":1.689,"dieselRenewable":2.059,"adblue":1.289},"extra":{"saleType":"P","margin":"D","reportingType":"dm","ideess":"6349","idMunicipio":"5625","idProvincia":"37","idCCAA":"08"}}},{"type":"Feature","geometry":{"type":"Point","coordinates":[-6.555944,40.581583]},"properties":{"id":"es-6421","source":"ES","brand":"GALP","address":"CARRETERA N-620 KM. 327,407","municipality":"Ciudad Rodrigo","province":"SALAMANCA","postalCode":"37500","schedule":"L-V: 07:30-22:00; S-D: 08:00-21:00","fuels":{"gasoline95":1.758,"diesel":1.859,"adblue":0.799},"extra":{"saleType":"P","margin":"D","reportingType":"dm","ideess":"6421","idMunicipio":"5424","idProvincia":"37","idCCAA":"08"}}},{"type":"Feature","geometry":{"type":"Point","coordinates":[-6.349083,40.291556]},"properties":{"id":"es-7486","source":"ES","brand":"BP LAS HURDES","address":"CARRETERA CORIA - SALAMANCA KM. 41","municipality":"Pinofranqueado","province":"CÁCERES","postalCode":"10630","schedule":"L-D: 07:30-20:30","fuels":{"gasoline95":1.739,"diesel":1.939,"dieselPremium":2.049,"dieselB":1.709},"extra":{"saleType":"P","margin":"D","reportingType":"dm","ideess":"7486","idMunicipio":"1687","idProvincia":"10","idCCAA":"11"}}},{"type":"Feature","geometry":{"type":"Point","coordinates":[-6.651056,40.063417]},"properties":{"id":"es-7515","source":"ES","brand":"MOEVE","address":"CARRETERA EX-108 KM. 111,7","municipality":"Moraleja","province":"CÁCERES","postalCode":"10840","schedule":"L-D: 06:00-23:59","fuels":{"gasoline95":1.794,"gasoline95Premium":1.884,"diesel":1.984,"dieselPremium":2.094,"dieselB":1.714},"extra":{"saleType":"P","margin":"D","reportingType":"OM","ideess":"7515","idMunicipio":"1669","idProvincia":"10","idCCAA":"11"}}},{"type":"Feature","geometry":{"type":"Point","coordinates":[-6.4145,40.146139]},"properties":{"id":"es-7524","source":"ES","brand":"REPSOL","address":"CARRETERA COMARCAL 512 KM. 23,6","municipality":"Pozuelo de Zarzón","province":"CÁCERES","postalCode":"10813","schedule":"L-D: 08:00-21:00","fuels":{"gasoline95":1.749,"diesel":1.959},"extra":{"saleType":"P","margin":"D","reportingType":"OM","ideess":"7524","idMunicipio":"1693","idProvincia":"10","idCCAA":"11"}}},{"type":"Feature","geometry":{"type":"Point","coordinates":[-6.098167,40.021639]},"properties":{"id":"es-7528","source":"ES","brand":"REPSOL","address":"AVENIDA ESPAÑA, 44","municipality":"Plasencia","province":"CÁCERES","postalCode":"10600","schedule":"L: 06:00-22:00","fuels":{"gasoline95":1.819,"gasoline98":1.969,"diesel":2.039,"dieselPremium":2.099,"adblue":1.0},"extra":{"saleType":"P","margin":"D","reportingType":"dm","ideess":"7528","idMunicipio":"1689","idProvincia":"10","idCCAA":"11"}}},{"type":"Feature","geometry":{"type":"Point","coordinates":[-6.353056,40.086944]},"properties":{"id":"es-7541","source":"ES","brand":"REPSOL","address":"CARRETERA PLASENCIA KM. 26,300","municipality":"Montehermoso","province":"CÁCERES","postalCode":"10810","schedule":"L-D: 07:00-23:00","fuels":{"gasoline95":1.815,"gasoline98":2.016,"diesel":1.982,"dieselPremium":2.083,"dieselB":1.666,"adblue":1.2},"extra":{"saleType":"P","margin":"D","reportingType":"dm","ideess":"7541","idMunicipio":"1668","idProvincia":"10","idCCAA":"11"}}},{"type":"Feature","geometry":{"type":"Point","coordinates":[-6.091833,40.036444]},"properties":{"id":"es-7544","source":"ES","brand":"CEPSA","address":"AVENIDA SALAMANCA, S/N","municipality":"Plasencia","province":"CÁCERES","postalCode":"10600","schedule":"L-D: 06:00-23:00","fuels":{"gasoline95":1.794,"gasoline95Premium":1.884,"gasoline98":1.914,"diesel":2.014,"dieselPremium":2.124},"extra":{"saleType":"P","margin":"D","reportingType":"dm","ideess":"7544","idMunicipio":"1689","idProvincia":"10","idCCAA":"11"}}},{"type":"Feature","geometry":{"type":"Point","coordinates":[-6.043417,40.142556]},"properties":{"id":"es-7548","source":"ES","brand":"REPSOL","address":"AUTOVIA N-630 KM. 454,3","municipality":"Villar de Plasencia","province":"CÁCERES","postalCode":"10720","schedule":"L-D: 07:00-23:00","fuels":{"gasoline95":1.775,"gasoline98":1.905,"diesel":1.965,"dieselRenewable":2.085},"extra":{"saleType":"P","margin":"D","reportingType":"OM","ideess":"7548","idMunicipio":"1755","idProvincia":"10","idCCAA":"11"}}},{"type":"Feature","geometry":{"type":"Point","coordinates":[-6.103139,40.016306]},"properties":{"id":"es-7551","source":"ES","brand":"REPSOL","address":"AV MARTIN PALOMINO, S.N.","municipality":"Plasencia","province":"CÁCERES","postalCode":"10600","schedule":"L-D: 06:00-22:00","fuels":{"gasoline95":1.779,"gasoline98":1.949,"diesel":2.015,"dieselPremium":2.075,"lpg":1.175},"extra":{"saleType":"P","margin":"D","reportingType":"OM","ideess":"7551","idMunicipio":"1689","idProvincia":"10","idCCAA":"11"}}},{"type":"Feature","geometry":{"type":"Point","coordinates":[-6.292389,40.32575]},"properties":{"id":"es-7569","source":"ES","brand":"REPSOL","address":"AVENIDA GARCIA DE TAFALLA, 1","municipality":"Caminomorisco","province":"CÁCERES","postalCode":"10620","schedule":"L-D: 07:00-21:00","fuels":{"gasoline95":1.749,"diesel":1.969,"dieselPremium":2.079},"extra":{"saleType":"P","margin":"D","reportingType":"OM","ideess":"7569","idMunicipio":"1583","idProvincia":"10","idCCAA":"11"}}},{"type":"Feature","geometry":{"type":"Point","coordinates":[-6.596139,40.023833]},"properties":{"id":"es-7597","source":"ES","brand":"GALP","address":"CARRETERA EX-108 KM. 95,600","municipality":"Casas de Don Gómez","province":"CÁCERES","postalCode":"10818","schedule":"L-V: 06:00-22:00; S-D: 07:00-22:00","fuels":{"gasoline95":1.709,"diesel":1.869,"dieselPremium":1.889,"dieselB":1.48},"extra":{"saleType":"P","margin":"D","reportingType":"dm","ideess":"7597","idMunicipio":"1595","idProvincia":"10","idCCAA":"11"}}},{"type":"Feature","geometry":{"type":"Point","coordinates":[-6.05075,40.849972]},"properties":{"id":"es-8047","source":"ES","brand":"BERNAL","address":"A-62 km 275","municipality":"Aldehuela de la Bóveda","province":"SALAMANCA","postalCode":"37460","schedule":"L-D: 07:30-23:00","fuels":{"gasoline95":1.729,"diesel":1.849},"extra":{"saleType":"P","margin":"D","reportingType":"dm","ideess":"8047","idMunicipio":"5353","idProvincia":"37","idCCAA":"08"}}},{"type":"Feature","geometry":{"type":"Point","coordinates":[-6.259972,40.060667]},"properties":{"id":"es-8370","source":"ES","brand":"GALP","address":"CARRETERA EX-370 KM. 15,400","municipality":"Valdeobispo","province":"CÁCERES","postalCode":"10672","schedule":"L: 07:00-22:00","fuels":{"gasoline95":1.759,"diesel":1.959},"extra":{"saleType":"P","margin":"I","reportingType":"dm","ideess":"8370","idMunicipio":"1744","idProvincia":"10","idCCAA":"11"}}},{"type":"Feature","geometry":{"type":"Point","coordinates":[-6.710583,40.937472]},"properties":{"id":"es-8780","source":"ES","brand":"REPSOL","address":"CARRETERA ESTACION KM. 89","municipality":"Lumbrales","province":"SALAMANCA","postalCode":"37240","schedule":"L-V: 07:00-22:00; S-D: 08:00-22:00","fuels":{"gasoline95":1.769,"diesel":1.929,"dieselPremium":1.979,"dieselB":1.599},"extra":{"saleType":"P","margin":"N","reportingType":"dm","ideess":"8780","idMunicipio":"5487","idProvincia":"37","idCCAA":"08"}}},{"type":"Feature","geometry":{"type":"Point","coordinates":[-6.419139,40.6945]},"properties":{"id":"es-9669","source":"ES","brand":"ADS","address":"PARC LOS MIRADORES, 29","municipality":"Sancti-Spíritus","province":"SALAMANCA","postalCode":"37470","schedule":"L-D: 24H","fuels":{"diesel":1.974,"dieselRenewable":1.88,"adblue":0.926},"extra":{"saleType":"P","margin":"N","reportingType":"dm","ideess":"9669","idMunicipio":"5603","idProvincia":"37","idCCAA":"08"}}}]}