{"type":"FeatureCollection","features":[{"type":"Feature","geometry":{"type":"Point","coordinates":[-2.947833,35.281222]},"properties":{"id":"es-10279","source":"ES","brand":"SHELL ALFONSO XIII","address":"CALLE ALFONSO XIII, 84","municipality":"Melilla","province":"MELILLA","postalCode":"52001","schedule":"L-D: 07:00-23:00","fuels":{"gasoline95":1.464,"diesel":1.447,"dieselPremium":1.487},"extra":{"saleType":"P","margin":"N","reportingType":"OM","ideess":"10279","idMunicipio":"8111","idProvincia":"52","idCCAA":"19"}}},{"type":"Feature","geometry":{"type":"Point","coordinates":[-2.938972,35.281083]},"properties":{"id":"es-10280","source":"ES","brand":"SHELL CARLOS V","address":"CALLE MARQUEZ MONTEMAR, ESQ. CARLOS V, S/N","municipality":"Melilla","province":"MELILLA","postalCode":"52001","schedule":"L-S: 07:00-23:00","fuels":{"gasoline95":1.464,"diesel":1.447,"dieselPremium":1.487},"extra":{"saleType":"P","margin":"N","reportingType":"OM","ideess":"10280","idMunicipio":"8111","idProvincia":"52","idCCAA":"19"}}},{"type":"Feature","geometry":{"type":"Point","coordinates":[-2.94175,35.287306]},"properties":{"id":"es-10281","source":"ES","brand":"SHELL PUENTE TRIANA","address":"CALLE ACTOR TALLAVI, S/N","municipality":"Melilla","province":"MELILLA","postalCode":"52001","schedule":"L-S: 24H","fuels":{"gasoline95":1.464,"diesel":1.447,"dieselPremium":1.487},"extra":{"saleType":"P","margin":"N","reportingType":"OM","ideess":"10281","idMunicipio":"8111","idProvincia":"52","idCCAA":"19"}}},{"type":"Feature","geometry":{"type":"Point","coordinates":[-2.942194,35.286722]},"properties":{"id":"es-10324","source":"ES","brand":"SHELL","address":"GENERAL POLAVIEJA Nº 2","municipality":"Melilla","province":"MELILLA","postalCode":"52006","schedule":"L-S: 07:00-02:00","fuels":{"gasoline95":1.464,"diesel":1.447,"dieselPremium":1.487},"extra":{"saleType":"P","margin":"D","reportingType":"dm","ideess":"10324","idMunicipio":"8111","idProvincia":"52","idCCAA":"19"}}},{"type":"Feature","geometry":{"type":"Point","coordinates":[-2.946306,35.290472]},"properties":{"id":"es-10325","source":"ES","brand":"SHELL","address":"ALFEREZ PROVISIONALES S/N","municipality":"Melilla","province":"MELILLA","postalCode":"52001","schedule":"L-S: 07:00-23:00","fuels":{"gasoline95":1.464,"diesel":1.447,"dieselPremium":1.487},"extra":{"saleType":"P","margin":"D","reportingType":"dm","ideess":"10325","idMunicipio":"8111","idProvincia":"52","idCCAA":"19"}}},{"type":"Feature","geometry":{"type":"Point","coordinates":[-2.934639,35.292944]},"properties":{"id":"es-16331","source":"ES","brand":"BP MELILLA PUERTO","address":"AVENIDA DEL GENERAL MACIAS, 4","municipality":"Melilla","province":"MELILLA","postalCode":"52001","schedule":"L: 06:00-00:00","fuels":{"gasoline95":1.465,"diesel":1.435},"extra":{"saleType":"P","margin":"D","reportingType":"dm","ideess":"16331","idMunicipio":"8111","idProvincia":"52","idCCAA":"19"}}},{"type":"Feature","geometry":{"type":"Point","coordinates":[-2.943167,35.269694]},"properties":{"id":"es-2744","source":"ES","brand":"MOEVE","address":"PASEO DE LAS MARGARITAS, 21","municipality":"Melilla","province":"MELILLA","postalCode":"52006","schedule":"L-S: 07:00-23:00","fuels":{"gasoline95":1.465,"diesel":1.447,"dieselPremium":1.497},"extra":{"saleType":"P","margin":"D","reportingType":"dm","ideess":"2744","idMunicipio":"8111","idProvincia":"52","idCCAA":"19"}}},{"type":"Feature","geometry":{"type":"Point","coordinates":[-2.937222,35.275444]},"properties":{"id":"es-2746","source":"ES","brand":"BP POLIGONO","address":"CALLE GENERAL ASTILLEROS, 89","municipality":"Melilla","province":"MELILLA","postalCode":"52006","schedule":"L-S: 06:45-23:00","fuels":{"gasoline95":1.465,"diesel":1.435},"extra":{"saleType":"P","margin":"D","reportingType":"dm","ideess":"2746","idMunicipio":"8111","idProvincia":"52","idCCAA":"19"}}},{"type":"Feature","geometry":{"type":"Point","coordinates":[-2.936806,35.269556]},"properties":{"id":"es-2747","source":"ES","brand":"MOEVE","address":"CALLE ASTILLEROS, GENERAL, 99","municipality":"Melilla","province":"MELILLA","postalCode":"52006","schedule":"L-S: 07:00-23:30","fuels":{"gasoline95":1.465,"diesel":1.447,"dieselPremium":1.497},"extra":{"saleType":"P","margin":"I","reportingType":"dm","ideess":"2747","idMunicipio":"8111","idProvincia":"52","idCCAA":"19"}}},{"type":"Feature","geometry":{"type":"Point","coordinates":[-2.941833,35.286528]},"properties":{"id":"es-2748","source":"ES","brand":"BP PUENTE","address":"CALLE GENERAL POLAVIEJA, 1","municipality":"Melilla","province":"MELILLA","postalCode":"52006","schedule":"L-S: 07:00-00:00","fuels":{"gasoline95":1.465,"diesel":1.435},"extra":{"saleType":"P","margin":"N","reportingType":"dm","ideess":"2748","idMunicipio":"8111","idProvincia":"52","idCCAA":"19"}}},{"type":"Feature","geometry":{"type":"Point","coordinates":[-2.946139,35.296944]},"properties":{"id":"es-2749","source":"ES","brand":"BP","address":"CALLE GARCIA CABRELLES, 42","municipality":"Melilla","province":"MELILLA","postalCode":"52002","schedule":"L: 07:30-23:00","fuels":{"gasoline95":1.465,"diesel":1.435},"extra":{"saleType":"P","margin":"D","reportingType":"dm","ideess":"2749","idMunicipio":"8111","idProvincia":"52","idCCAA":"19"}}},{"type":"Feature","geometry":{"type":"Point","coordinates":[-2.948389,35.289972]},"properties":{"id":"es-8765","source":"ES","brand":"SHELL","address":"PLAZA MARTIN DE CORDOBA, 17","municipality":"Melilla","province":"MELILLA","postalCode":"52005","schedule":"L-S: 07:00-23:00","fuels":{"gasoline95":1.464,"diesel":1.447,"dieselPremium":1.487},"extra":{"saleType":"P","margin":"D","reportingType":"dm","ideess":"8765","idMunicipio":"8111","idProvincia":"52","idCCAA":"19"}}}]}