{"type":"FeatureCollection","features":[{"type":"Feature","geometry":{"type":"Point","coordinates":[-4.370833,40.058472]},"properties":{"id":"es-10068","source":"ES","brand":"MOEVE","address":"CARRETERA ANTIGUA NV KM. 74","municipality":"Maqueda","province":"TOLEDO","postalCode":"45515","schedule":"L-V: 06:30-22:30","fuels":{"gasoline95":1.819,"gasoline98":1.979,"diesel":1.949,"dieselPremium":2.069,"adblue":1.2},"extra":{"saleType":"P","margin":"I","reportingType":"dm","ideess":"10068","idMunicipio":"6851","idProvincia":"45","idCCAA":"07"}}},{"type":"Feature","geometry":{"type":"Point","coordinates":[-4.218972,40.12625]},"properties":{"id":"es-10070","source":"ES","brand":"NUBOIL","address":"CARRETERA MADRID-BADAJOZ N-V KM. 57,600","municipality":"Santa Cruz del Retamar","province":"TOLEDO","postalCode":"45513","schedule":"L-D: 24H","fuels":{"gasoline95":1.639,"diesel":1.739,"dieselPremium":1.739,"dieselB":0.955,"adblue":0.859},"extra":{"saleType":"P","margin":"I","reportingType":"dm","ideess":"10070","idMunicipio":"6917","idProvincia":"45","idCCAA":"07"}}},{"type":"Feature","geometry":{"type":"Point","coordinates":[-4.108528,40.91825]},"properties":{"id":"es-10572","source":"ES","brand":"SEMUTRANSA","address":"CARRETERA SAN RAFAEL N-603 KM. 87","municipality":"Segovia","province":"SEGOVIA","postalCode":"40006","schedule":"L-D: 24H","fuels":{"gasoline95":1.699,"diesel":1.789,"adblue":0.693},"extra":{"saleType":"P","margin":"I","reportingType":"dm","ideess":"10572","idMunicipio":"6020","idProvincia":"40","idCCAA":"08"}}},{"type":"Feature","geometry":{"type":"Point","coordinates":[-4.009833,40.583889]},"properties":{"id":"es-10606","source":"ES","brand":"BP  E.S LA POCILLA   GALAPAGAR","address":"CALLE GUADARRAMA, 70","municipality":"Galapagar","province":"MADRID","postalCode":"28260","schedule":"L-D: 24H","fuels":{"gasoline95":1.727,"gasoline98":1.844,"diesel":1.796,"dieselPremium":1.866,"lpg":1.044,"adblue":1.145},"extra":{"saleType":"P","margin":"N","reportingType":"dm","ideess":"10606","idMunicipio":"4336","idProvincia":"28","idCCAA":"13"}}},{"type":"Feature","geometry":{"type":"Point","coordinates":[-4.020139,40.629]},"properties":{"id":"es-10844","source":"ES","brand":"SHELL","address":"C/ ESCOFINA S/N","municipality":"Collado Villalba","province":"MADRID","postalCode":"28400","schedule":"L-D: 06:00-00:00","fuels":{"gasoline95":1.799,"gasoline98":1.939,"diesel":1.839,"dieselPremium":1.919,"lpg":0.899},"extra":{"saleType":"P","margin":"N","reportingType":"OM","ideess":"10844","idMunicipio":"4320","idProvincia":"28","idCCAA":"13"}}},{"type":"Feature","geometry":{"type":"Point","coordinates":[-4.015639,40.636528]},"properties":{"id":"es-10887","source":"ES","brand":"REPSOL","address":"AVENIDA JUAN CARLOS I, 46","municipality":"Collado Villalba","province":"MADRID","postalCode":"28400","schedule":"L: 07:00-23:00","fuels":{"gasoline95":1.826,"gasoline98":1.956,"diesel":1.936,"dieselRenewable":2.056},"extra":{"saleType":"P","margin":"D","reportingType":"OM","ideess":"10887","idMunicipio":"4320","idProvincia":"28","idCCAA":"13"}}},{"type":"Feature","geometry":{"type":"Point","coordinates":[-4.207917,40.776917]},"properties":{"id":"es-11283","source":"ES","brand":"SHELL","address":"CARRETERA 603 KM. 71,2","municipality":"Espinar (El)","province":"SEGOVIA","postalCode":"40440","schedule":"L-D: 06:00-00:00","fuels":{"gasoline95":1.789,"gasoline98":1.929,"diesel":1.859,"dieselPremium":1.939},"extra":{"saleType":"P","margin":"N","reportingType":"OM","ideess":"11283","idMunicipio":"5914","idProvincia":"40","idCCAA":"08"}}},{"type":"Feature","geometry":{"type":"Point","coordinates":[-4.040444,40.986139]},"properties":{"id":"es-11793","source":"ES","brand":"CEPSA  E.S. TORRECABALLEROS (LLORSOIL)","address":"CARRETERA N-110 KM. 182,650","municipality":"Torrecaballeros","province":"SEGOVIA","postalCode":"40160","schedule":"L-D: 07:30-22:00","fuels":{"gasoline95":1.705,"gasoline98":1.899,"diesel":1.775,"dieselPremium":1.879,"dieselB":1.529,"adblue":0.899},"extra":{"saleType":"P","margin":"D","reportingType":"dm","ideess":"11793","idMunicipio":"6029","idProvincia":"40","idCCAA":"08"}}},{"type":"Feature","geometry":{"type":"Point","coordinates":[-4.698028,40.643167]},"properties":{"id":"es-11809","source":"ES","brand":"ALCAMPO","address":"CALLE LOS MACEROS, SN","municipality":"Ávila","province":"ÁVILA","postalCode":"05002","schedule":"L-D: 24H","fuels":{"gasoline95":1.605,"gasoline98":1.745,"diesel":1.689,"dieselPremium":1.749},"extra":{"saleType":"P","margin":"N","reportingType":"dm","ideess":"11809","idMunicipio":"395","idProvincia":"05","idCCAA":"08"}}},{"type":"Feature","geometry":{"type":"Point","coordinates":[-4.909028,40.55325]},"properties":{"id":"es-12078","source":"ES","brand":"REPSOL","address":"CARRETERA N-502 KM. 21,200","municipality":"Solosancho","province":"ÁVILA","postalCode":"05130","schedule":"L-D: 07:00-23:00","fuels":{"gasoline95":1.786,"gasoline98":1.966,"diesel":1.936,"dieselPremium":2.056},"extra":{"saleType":"P","margin":"D","reportingType":"OM","ideess":"12078","idMunicipio":"602","idProvincia":"05","idCCAA":"08"}}},{"type":"Feature","geometry":{"type":"Point","coordinates":[-4.087889,40.667861]},"properties":{"id":"es-12079","source":"ES","brand":"SHELL","address":"CALLE LOS ESCORIALES, 5","municipality":"Guadarrama","province":"MADRID","postalCode":"28440","schedule":"L-D: 06:00-00:00","fuels":{"gasoline95":1.814,"gasoline98":1.954,"diesel":1.919,"dieselPremium":1.999},"extra":{"saleType":"P","margin":"N","reportingType":"OM","ideess":"12079","idMunicipio":"4343","idProvincia":"28","idCCAA":"13"}}},{"type":"Feature","geometry":{"type":"Point","coordinates":[-4.215333,40.183667]},"properties":{"id":"es-12094","source":"ES","brand":"MOEVE","address":"CARRETERA CM-5004 KM. 6","municipality":"Torre de Esteban Hambrán (La)","province":"TOLEDO","postalCode":"45920","schedule":"L-D: 07:00-21:00","fuels":{"gasoline95":1.749,"diesel":1.869,"dieselPremium":1.959,"dieselB":1.509,"lpg":1.059,"adblue":0.99},"extra":{"saleType":"P","margin":"N","reportingType":"dm","ideess":"12094","idMunicipio":"6931","idProvincia":"45","idCCAA":"07"}}},{"type":"Feature","geometry":{"type":"Point","coordinates":[-4.258778,40.721389]},"properties":{"id":"es-12348","source":"ES","brand":"CARLOS DIEZ SEGOVIA","address":"CALLE LOS LLANOS, 1","municipality":"Espinar (El)","province":"SEGOVIA","postalCode":"40400","schedule":"L-D: 24H","fuels":{"gasoline95":1.589,"diesel":1.719},"extra":{"saleType":"P","margin":"I","reportingType":"dm","ideess":"12348","idMunicipio":"5914","idProvincia":"40","idCCAA":"08"}}},{"type":"Feature","geometry":{"type":"Point","coordinates":[-4.088056,40.952278]},"properties":{"id":"es-12364","source":"ES","brand":"SHELL","address":"CARRETERA SG-V-6123 KM. 2","municipality":"San Cristóbal de Segovia","province":"SEGOVIA","postalCode":"40197","schedule":"L-D: 06:00-00:00","fuels":{"gasoline95":1.759,"gasoline98":1.899,"diesel":1.819,"dieselPremium":1.899,"adblue":1.25},"extra":{"saleType":"P","margin":"D","reportingType":"OM","ideess":"12364","idMunicipio":"6005","idProvincia":"40","idCCAA":"08"}}},{"type":"Feature","geometry":{"type":"Point","coordinates":[-4.936889,40.829389]},"properties":{"id":"es-12458","source":"ES","brand":"MOEVE","address":"AUTOVIA A 50 KM. 30,3","municipality":"Muñogrande","province":"ÁVILA","postalCode":"05309","schedule":"L-D: 24H","fuels":{"gasoline95":1.769,"gasoline98":1.919,"diesel":1.979,"dieselPremium":2.079},"extra":{"saleType":"P","margin":"D","reportingType":"OM","ideess":"12458","idMunicipio":"505","idProvincia":"05","idCCAA":"08"}}},{"type":"Feature","geometry":{"type":"Point","coordinates":[-4.391778,40.358472]},"properties":{"id":"es-12486","source":"ES","brand":"SUPECO","address":"AVENIDA DE MADRID, 34","municipality":"San Martín de Valdeiglesias","province":"MADRID","postalCode":"28680","schedule":"L-D: 24H","fuels":{"gasoline95":1.699,"diesel":1.779},"extra":{"saleType":"P","margin":"N","reportingType":"dm","ideess":"12486","idMunicipio":"4405","idProvincia":"28","idCCAA":"13"}}},{"type":"Feature","geometry":{"type":"Point","coordinates":[-4.376333,40.00575]},"properties":{"id":"es-12525","source":"ES","brand":"NUBOIL","address":"POLIGONO RIO GUADALQUIVIR, 20","municipality":"Alcabón","province":"TOLEDO","postalCode":"45523","schedule":"L-D: 24H","fuels":{"gasoline95":1.619,"diesel":1.719,"dieselPremium":1.719},"extra":{"saleType":"P","margin":"D","reportingType":"dm","ideess":"12525","idMunicipio":"6765","idProvincia":"45","idCCAA":"07"}}},{"type":"Feature","geometry":{"type":"Point","coordinates":[-4.660167,40.669944]},"properties":{"id":"es-12635","source":"ES","brand":"CARREFOUR","address":"AVENIDA PATRIMONIO DE LA HUMANIDAD, 4, 4","municipality":"Ávila","province":"ÁVILA","postalCode":"05004","schedule":"L-D: 24H","fuels":{"gasoline95":1.759,"diesel":1.879,"dieselPremium":1.919},"extra":{"saleType":"P","margin":"N","reportingType":"dm","ideess":"12635","idMunicipio":"395","idProvincia":"05","idCCAA":"08"}}},{"type":"Feature","geometry":{"type":"Point","coordinates":[-4.011194,40.437889]},"properties":{"id":"es-12796","source":"ES","brand":"BALLENOIL","address":"AVENIDA SIERRA DE GUADARRAMA, 10","municipality":"Villanueva de la Cañada","province":"MADRID","postalCode":"28691","schedule":"L-D: 24H","fuels":{"gasoline95":1.649,"diesel":1.759},"extra":{"saleType":"P","margin":"D","reportingType":"OM","ideess":"12796","idMunicipio":"4447","idProvincia":"28","idCCAA":"13"}}},{"type":"Feature","geometry":{"type":"Point","coordinates":[-4.679472,40.664167]},"properties":{"id":"es-12803","source":"ES","brand":"REPOSTAR","address":"CALLE RIO DUERO, 11","municipality":"Ávila","province":"ÁVILA","postalCode":"05004","schedule":"L-D: 24H","fuels":{"gasoline95":1.679,"diesel":1.779,"lpg":1.029,"adblue":0.829},"extra":{"saleType":"P","margin":"N","reportingType":"dm","ideess":"12803","idMunicipio":"395","idProvincia":"05","idCCAA":"08"}}},{"type":"Feature","geometry":{"type":"Point","coordinates":[-4.696222,40.641167]},"properties":{"id":"es-13011","source":"ES","brand":"SHELL","address":"CARRETERA N-403 ESQUINA C/DOCTOR CONSTANTINO BENITO KM. SN","municipality":"Ávila","province":"ÁVILA","postalCode":"05002","schedule":"L-D: 06:00-22:00","fuels":{"gasoline95":1.709,"diesel":1.739},"extra":{"saleType":"P","margin":"D","reportingType":"OM","ideess":"13011","idMunicipio":"395","idProvincia":"05","idCCAA":"08"}}},{"type":"Feature","geometry":{"type":"Point","coordinates":[-4.708444,40.413417]},"properties":{"id":"es-13018","source":"ES","brand":"AUTOSERVICIO","address":"CARRETERA SAN JUAN KM. 1","municipality":"Navaluenga","province":"ÁVILA","postalCode":"05100","schedule":"L-D: 07:30-23:00","fuels":{"gasoline95":1.759,"diesel":1.799},"extra":{"saleType":"P","margin":"D","reportingType":"dm","ideess":"13018","idMunicipio":"527","idProvincia":"05","idCCAA":"08"}}},{"type":"Feature","geometry":{"type":"Point","coordinates":[-4.015667,40.686417]},"properties":{"id":"es-13214","source":"ES","brand":"SHELL","address":"AVENIDA BUENOS AIRES, SN","municipality":"Collado Mediano","province":"MADRID","postalCode":"28450","schedule":"L-D: 06:00-00:00","fuels":{"gasoline95":1.809,"gasoline98":1.949,"diesel":1.884,"dieselPremium":1.964},"extra":{"saleType":"P","margin":"N","reportingType":"OM","ideess":"13214","idMunicipio":"4319","idProvincia":"28","idCCAA":"13"}}},{"type":"Feature","geometry":{"type":"Point","coordinates":[-4.019667,40.629583]},"properties":{"id":"es-13581","source":"ES","brand":"BALLENOIL","address":"CALLE ESCOFINA, 3","municipality":"Collado Villalba","province":"MADRID","postalCode":"28400","schedule":"L-D: 24H","fuels":{"gasoline95":1.719,"diesel":1.739},"extra":{"saleType":"P","margin":"N","reportingType":"OM","ideess":"13581","idMunicipio":"4320","idProvincia":"28","idCCAA":"13"}}},{"type":"Feature","geometry":{"type":"Point","coordinates":[-4.200139,40.95775]},"properties":{"id":"es-13607","source":"ES","brand":"LLORSOIL- E. S. VALVERDE","address":"CALLE FRESNO, 72","municipality":"Valverde del Majano","province":"SEGOVIA","postalCode":"40140","schedule":"L-D: 24H","fuels":{"gasoline95":1.705,"diesel":1.775,"adblue":0.798},"extra":{"saleType":"P","margin":"D","reportingType":"dm","ideess":"13607","idMunicipio":"6044","idProvincia":"40","idCCAA":"08"}}},{"type":"Feature","geometry":{"type":"Point","coordinates":[-4.966528,40.592361]},"properties":{"id":"es-13622","source":"ES","brand":"GASLOWCOST","address":"CARRETERA N110 KM. 280","municipality":"Torre (La)","province":"ÁVILA","postalCode":"05540","schedule":"L-D: 24H","fuels":{"gasoline95":1.639,"diesel":1.759,"dieselPremium":1.799},"extra":{"saleType":"P","margin":"D","reportingType":"dm","ideess":"13622","idMunicipio":"610","idProvincia":"05","idCCAA":"08"}}},{"type":"Feature","geometry":{"type":"Point","coordinates":[-4.215306,40.043472]},"properties":{"id":"es-13703","source":"ES","brand":"REPSOL","address":"CARRETERA TORRIJOS KM. 26","municipality":"Fuensalida","province":"TOLEDO","postalCode":"45510","schedule":"L-D: 24H","fuels":{"gasoline95":1.829,"gasoline98":1.919,"diesel":1.949,"dieselPremium":2.029},"extra":{"saleType":"P","margin":"D","reportingType":"dm","ideess":"13703","idMunicipio":"6826","idProvincia":"45","idCCAA":"07"}}},{"type":"Feature","geometry":{"type":"Point","coordinates":[-4.005028,40.633972]},"properties":{"id":"es-13791","source":"ES","brand":"PETROPRIX","address":"AVENIDA JUAN CARLOS I, 24","municipality":"Collado Villalba","province":"MADRID","postalCode":"28400","schedule":"L-D: 24H","fuels":{"gasoline95":1.719,"diesel":1.739},"extra":{"saleType":"P","margin":"D","reportingType":"dm","ideess":"13791","idMunicipio":"4320","idProvincia":"28","idCCAA":"13"}}},{"type":"Feature","geometry":{"type":"Point","coordinates":[-4.075694,40.651]},"properties":{"id":"es-13964","source":"ES","brand":"GC","address":"CARRETERA M527 KM. 2,8","municipality":"Guadarrama","province":"MADRID","postalCode":"28440","schedule":"L-V: 08:00-19:00; S: 08:00-13:00","fuels":{"diesel":1.72},"extra":{"saleType":"P","margin":"I","reportingType":"dm","ideess":"13964","idMunicipio":"4343","idProvincia":"28","idCCAA":"13"}}},{"type":"Feature","geometry":{"type":"Point","coordinates":[-4.003333,40.291333]},"properties":{"id":"es-14059","source":"ES","brand":"MAXPETROL","address":"CALLE CAMINO DE BASTOS, 6","municipality":"Navalcarnero","province":"MADRID","postalCode":"28600","schedule":"L-D: 24H","fuels":{"gasoline95":1.599,"diesel":1.709,"dieselPremium":1.749},"extra":{"saleType":"P","margin":"N","reportingType":"dm","ideess":"14059","idMunicipio":"4370","idProvincia":"28","idCCAA":"13"}}},{"type":"Feature","geometry":{"type":"Point","coordinates":[-4.3125,40.275528]},"properties":{"id":"es-14064","source":"ES","brand":"CASTROIL","address":"CALLE JUAN MARIA LEONET ZABALA, 19","municipality":"Villa del Prado","province":"MADRID","postalCode":"28630","schedule":"L-D: 24H","fuels":{"gasoline95":1.699,"diesel":1.829},"extra":{"saleType":"P","margin":"D","reportingType":"dm","ideess":"14064","idMunicipio":"4441","idProvincia":"28","idCCAA":"13"}}},{"type":"Feature","geometry":{"type":"Point","coordinates":[-4.685528,40.667694]},"properties":{"id":"es-14065","source":"ES","brand":"PETROPRIX","address":"CALLE RIO AREVALILLO, 23","municipality":"Ávila","province":"ÁVILA","postalCode":"05004","schedule":"L-D: 24H","fuels":{"gasoline95":1.669,"diesel":1.769},"extra":{"saleType":"P","margin":"I","reportingType":"dm","ideess":"14065","idMunicipio":"395","idProvincia":"05","idCCAA":"08"}}},{"type":"Feature","geometry":{"type":"Point","coordinates":[-4.027917,40.107444]},"properties":{"id":"es-14132","source":"ES","brand":"AGUDO GASOLEOS","address":"CARRETERA TO-4111-V KM. 26","municipality":"Chozas de Canales","province":"TOLEDO","postalCode":"45960","schedule":"L-D: 06:30-22:00","fuels":{"gasoline95":1.689,"diesel":1.809,"dieselPremium":1.869,"dieselB":1.469,"adblue":1.049},"extra":{"saleType":"P","margin":"I","reportingType":"dm","ideess":"14132","idMunicipio":"6810","idProvincia":"45","idCCAA":"07"}}},{"type":"Feature","geometry":{"type":"Point","coordinates":[-4.695694,40.413722]},"properties":{"id":"es-14145","source":"ES","brand":"GOEXPRESS","address":"CARRETERA MADRID KM. 8,000","municipality":"Navaluenga","province":"ÁVILA","postalCode":"05100","schedule":"L-D: 24H","fuels":{"gasoline95":1.729,"diesel":1.779},"extra":{"saleType":"P","margin":"D","reportingType":"dm","ideess":"14145","idMunicipio":"527","idProvincia":"05","idCCAA":"08"}}},{"type":"Feature","geometry":{"type":"Point","coordinates":[-4.01,40.295111]},"properties":{"id":"es-14193","source":"ES","brand":"BALLENOIL","address":"CALLE ZACARIAS (DE), 20","municipality":"Navalcarnero","province":"MADRID","postalCode":"28600","schedule":"L-D: 24H","fuels":{"gasoline95":1.619,"diesel":1.709},"extra":{"saleType":"P","margin":"N","reportingType":"OM","ideess":"14193","idMunicipio":"4370","idProvincia":"28","idCCAA":"13"}}},{"type":"Feature","geometry":{"type":"Point","coordinates":[-4.684944,40.668389]},"properties":{"id":"es-14222","source":"ES","brand":"DST","address":"CALLE RIO PISUERGA, 21","municipality":"Ávila","province":"ÁVILA","postalCode":"05004","schedule":"L-D: 24H","fuels":{"gasoline95":1.659,"diesel":1.759,"dieselPremium":1.819,"adblue":0.829},"extra":{"saleType":"P","margin":"N","reportingType":"dm","ideess":"14222","idMunicipio":"395","idProvincia":"05","idCCAA":"08"}}},{"type":"Feature","geometry":{"type":"Point","coordinates":[-4.730861,40.854861]},"properties":{"id":"es-14470","source":"ES","brand":"VALCARCE","address":"CARRETERA AV-804 KM. 21","municipality":"Hernansancho","province":"ÁVILA","postalCode":"05164","schedule":"L-V: 07:00-22:00; S-D: 08:00-22:00","fuels":{"gasoline95":1.809,"diesel":1.939,"dieselB":1.709,"adblue":0.799},"extra":{"saleType":"P","margin":"D","reportingType":"dm","ideess":"14470","idMunicipio":"461","idProvincia":"05","idCCAA":"08"}}},{"type":"Feature","geometry":{"type":"Point","coordinates":[-4.0045,40.637972]},"properties":{"id":"es-14588","source":"ES","brand":"PLENERGY","address":"CALLE CALLE POLÍGONO 5, 20","municipality":"Collado Villalba","province":"MADRID","postalCode":"28400","schedule":"L-D: 24H","fuels":{"gasoline95":1.719,"diesel":1.739},"extra":{"saleType":"P","margin":"D","reportingType":"dm","ideess":"14588","idMunicipio":"4320","idProvincia":"28","idCCAA":"13"}}},{"type":"Feature","geometry":{"type":"Point","coordinates":[-4.12825,40.600611]},"properties":{"id":"es-14589","source":"ES","brand":"PLENERGY","address":"CARRETERA GUADARRAMA KM. 57","municipality":"San Lorenzo de El Escorial","province":"MADRID","postalCode":"28200","schedule":"L-D: 24H","fuels":{"gasoline95":1.709,"diesel":1.779},"extra":{"saleType":"P","margin":"D","reportingType":"dm","ideess":"14589","idMunicipio":"4403","idProvincia":"28","idCCAA":"13"}}},{"type":"Feature","geometry":{"type":"Point","coordinates":[-4.094667,40.967833]},"properties":{"id":"es-14636","source":"ES","brand":"BALLENOIL","address":"CARRETERA SORIA KM. 40","municipality":"Lastrilla (La)","province":"SEGOVIA","postalCode":"40196","schedule":"L-D: 24H","fuels":{"gasoline95":1.729,"diesel":1.789,"dieselPremium":1.799},"extra":{"saleType":"P","margin":"D","reportingType":"OM","ideess":"14636","idMunicipio":"5945","idProvincia":"40","idCCAA":"08"}}},{"type":"Feature","geometry":{"type":"Point","coordinates":[-4.080472,40.666556]},"properties":{"id":"es-14807","source":"ES","brand":"PLENERGY","address":"PASEO MOLINO DEL REY, 39","municipality":"Guadarrama","province":"MADRID","postalCode":"28440","schedule":"L-D: 24H","fuels":{"gasoline95":1.729,"diesel":1.859},"extra":{"saleType":"P","margin":"D","reportingType":"dm","ideess":"14807","idMunicipio":"4343","idProvincia":"28","idCCAA":"13"}}},{"type":"Feature","geometry":{"type":"Point","coordinates":[-4.1135,40.931444]},"properties":{"id":"es-14832","source":"ES","brand":"BALLENOIL","address":"CALLE GUADARRAMA, 14","municipality":"Segovia","province":"SEGOVIA","postalCode":"40006","schedule":"L-D: 24H","fuels":{"gasoline95":1.719,"diesel":1.789,"dieselPremium":1.809},"extra":{"saleType":"P","margin":"D","reportingType":"OM","ideess":"14832","idMunicipio":"6020","idProvincia":"40","idCCAA":"08"}}},{"type":"Feature","geometry":{"type":"Point","coordinates":[-4.077667,40.922694]},"properties":{"id":"es-14878","source":"ES","brand":"GALP&GO","address":"CALLE LAS ESPIGAS, 191","municipality":"Palazuelos de Eresma","province":"SEGOVIA","postalCode":"40194","schedule":"L-D: 24H","fuels":{"gasoline95":1.749,"diesel":1.789,"dieselPremium":1.839},"extra":{"saleType":"P","margin":"N","reportingType":"OM","ideess":"14878","idMunicipio":"5984","idProvincia":"40","idCCAA":"08"}}},{"type":"Feature","geometry":{"type":"Point","coordinates":[-4.672806,40.649389]},"properties":{"id":"es-14892","source":"ES","brand":"BALLENOIL","address":"CALLE HORNOS CALEROS, S/N","municipality":"Ávila","province":"ÁVILA","postalCode":"05001","schedule":"L-D: 24H","fuels":{"gasoline95":1.679,"diesel":1.779,"dieselPremium":1.799},"extra":{"saleType":"P","margin":"D","reportingType":"OM","ideess":"14892","idMunicipio":"395","idProvincia":"05","idCCAA":"08"}}},{"type":"Feature","geometry":{"type":"Point","coordinates":[-4.679194,40.661083]},"properties":{"id":"es-14894","source":"ES","brand":"PLENERGY","address":"CALLE JORGE DE SANTAYANA, 2","municipality":"Ávila","province":"ÁVILA","postalCode":"05004","schedule":"L-D: 24H","fuels":{"gasoline95":1.679,"diesel":1.779},"extra":{"saleType":"P","margin":"D","reportingType":"dm","ideess":"14894","idMunicipio":"395","idProvincia":"05","idCCAA":"08"}}},{"type":"Feature","geometry":{"type":"Point","coordinates":[-4.015472,40.659972]},"properties":{"id":"es-14905","source":"ES","brand":"PLENERGY","address":"CALLE PUERTA DE ABAJO, 20","municipality":"Alpedrete","province":"MADRID","postalCode":"28430","schedule":"L-D: 24H","fuels":{"gasoline95":1.719,"diesel":1.739},"extra":{"saleType":"P","margin":"D","reportingType":"dm","ideess":"14905","idMunicipio":"4285","idProvincia":"28","idCCAA":"13"}}},{"type":"Feature","geometry":{"type":"Point","coordinates":[-4.674889,40.661806]},"properties":{"id":"es-15042","source":"ES","brand":"PETROPRIX","address":"AVENIDA JUAN CARLOS I, 17","municipality":"Ávila","province":"ÁVILA","postalCode":"05004","schedule":"L-D: 24H","fuels":{"gasoline95":1.679,"diesel":1.779},"extra":{"saleType":"P","margin":"D","reportingType":"dm","ideess":"15042","idMunicipio":"395","idProvincia":"05","idCCAA":"08"}}},{"type":"Feature","geometry":{"type":"Point","coordinates":[-4.012833,40.660694]},"properties":{"id":"es-15045","source":"ES","brand":"PETROPRIX","address":"CALLE PUERTA DE ABAJO, 57","municipality":"Alpedrete","province":"MADRID","postalCode":"28430","schedule":"L-D: 24H","fuels":{"gasoline95":1.719,"diesel":1.739},"extra":{"saleType":"P","margin":"N","reportingType":"dm","ideess":"15045","idMunicipio":"4285","idProvincia":"28","idCCAA":"13"}}},{"type":"Feature","geometry":{"type":"Point","coordinates":[-4.047944,40.608444]},"properties":{"id":"es-15177","source":"ES","brand":"PLENERGY","address":"CALLE ESTACION, 40","municipality":"Escorial (El)","province":"MADRID","postalCode":"28280","schedule":"L-D: 24H","fuels":{"gasoline95":1.709,"diesel":1.729},"extra":{"saleType":"P","margin":"D","reportingType":"dm","ideess":"15177","idMunicipio":"4329","idProvincia":"28","idCCAA":"13"}}},{"type":"Feature","geometry":{"type":"Point","coordinates":[-4.025306,40.625083]},"properties":{"id":"es-15188","source":"ES","brand":"BALLENOIL","address":"CALLE AZUELA, 73","municipality":"Collado Villalba","province":"MADRID","postalCode":"28400","schedule":"L-D: 24H","fuels":{"gasoline95":1.719,"diesel":1.739,"dieselPremium":1.759},"extra":{"saleType":"P","margin":"D","reportingType":"OM","ideess":"15188","idMunicipio":"4320","idProvincia":"28","idCCAA":"13"}}},{"type":"Feature","geometry":{"type":"Point","coordinates":[-4.024556,40.626083]},"properties":{"id":"es-15216","source":"ES","brand":"PLENERGY","address":"CALLE AZUELA, 62","municipality":"Collado Villalba","province":"MADRID","postalCode":"28400","schedule":"L-D: 24H","fuels":{"gasoline95":1.719,"diesel":1.739},"extra":{"saleType":"P","margin":"D","reportingType":"dm","ideess":"15216","idMunicipio":"4320","idProvincia":"28","idCCAA":"13"}}},{"type":"Feature","geometry":{"type":"Point","coordinates":[-4.006722,40.574417]},"properties":{"id":"es-15226","source":"ES","brand":"PLENERGY","address":"CALLE COLMENAREJO, 54","municipality":"Galapagar","province":"MADRID","postalCode":"28260","schedule":"L-D: 24H","fuels":{"gasoline95":1.719,"diesel":1.789},"extra":{"saleType":"P","margin":"D","reportingType":"dm","ideess":"15226","idMunicipio":"4336","idProvincia":"28","idCCAA":"13"}}},{"type":"Feature","geometry":{"type":"Point","coordinates":[-4.023417,40.621806]},"properties":{"id":"es-15356","source":"ES","brand":"REQUES - T9","address":"CALLE JUSTINA VELASCO MARTIN, 1","municipality":"Galapagar","province":"MADRID","postalCode":"28260","schedule":"L-D: 24H","fuels":{"gasoline95":1.719,"diesel":1.739},"extra":{"saleType":"P","margin":"D","reportingType":"dm","ideess":"15356","idMunicipio":"4336","idProvincia":"28","idCCAA":"13"}}},{"type":"Feature","geometry":{"type":"Point","coordinates":[-4.476194,40.262889]},"properties":{"id":"es-15428","source":"ES","brand":"GASOLEOS SIERRA OESTE,SL","address":"AVENIDA CLAUDIO SANCHEZ ALBORNOZ, 50","municipality":"Cenicientos","province":"MADRID","postalCode":"28650","schedule":"L-D: 07:00-22:00","fuels":{"gasoline95":1.795,"diesel":1.925},"extra":{"saleType":"P","margin":"D","reportingType":"dm","ideess":"15428","idMunicipio":"4312","idProvincia":"28","idCCAA":"13"}}},{"type":"Feature","geometry":{"type":"Point","coordinates":[-4.211778,40.045639]},"properties":{"id":"es-15518","source":"ES","brand":"STAR24H","address":"CARRETERA TORRIJOS KM. 8","municipality":"Fuensalida","province":"TOLEDO","postalCode":"45510","schedule":"L-D: 24H","fuels":{"gasoline95":1.639,"diesel":1.799},"extra":{"saleType":"P","margin":"I","reportingType":"dm","ideess":"15518","idMunicipio":"6826","idProvincia":"45","idCCAA":"07"}}},{"type":"Feature","geometry":{"type":"Point","coordinates":[-4.058111,40.910139]},"properties":{"id":"es-15552","source":"ES","brand":"PLENERGY","address":"CALLE LA GRANJA, 2","municipality":"Segovia","province":"SEGOVIA","postalCode":"40194","schedule":"L-D: 24H","fuels":{"gasoline95":1.719,"diesel":1.769},"extra":{"saleType":"P","margin":"D","reportingType":"dm","ideess":"15552","idMunicipio":"6020","idProvincia":"40","idCCAA":"08"}}},{"type":"Feature","geometry":{"type":"Point","coordinates":[-4.001194,40.433722]},"properties":{"id":"es-15557","source":"ES","brand":"ALCAMPO","address":"AVENIDA ESPAÑA, 1","municipality":"Villanueva de la Cañada","province":"MADRID","postalCode":"28691","schedule":"L-D: 24H","fuels":{"gasoline95":1.649,"diesel":1.779,"dieselPremium":1.819},"extra":{"saleType":"P","margin":"N","reportingType":"dm","ideess":"15557","idMunicipio":"4447","idProvincia":"28","idCCAA":"13"}}},{"type":"Feature","geometry":{"type":"Point","coordinates":[-4.115056,40.926556]},"properties":{"id":"es-15703","source":"ES","brand":"PLENERGY","address":"CALLE NAVACERRADA, 1","municipality":"Segovia","province":"SEGOVIA","postalCode":"40006","schedule":"L-D: 24H","fuels":{"gasoline95":1.719,"diesel":1.789},"extra":{"saleType":"P","margin":"D","reportingType":"dm","ideess":"15703","idMunicipio":"6020","idProvincia":"40","idCCAA":"08"}}},{"type":"Feature","geometry":{"type":"Point","coordinates":[-4.244139,40.560444]},"properties":{"id":"es-15829","source":"ES","brand":"EMACOIL 24-7","address":"CALLE CEBADAL, 27","municipality":"Santa María de la Alameda","province":"MADRID","postalCode":"28297","schedule":"L-D: 24H","fuels":{"gasoline95":1.705,"diesel":1.835},"extra":{"saleType":"P","margin":"D","reportingType":"dm","ideess":"15829","idMunicipio":"4407","idProvincia":"28","idCCAA":"13"}}},{"type":"Feature","geometry":{"type":"Point","coordinates":[-4.009444,40.575194]},"properties":{"id":"es-15859","source":"ES","brand":"BALLENOIL","address":"CALLE CARRETERA DE EL ESCORIAL, 94","municipality":"Galapagar","province":"MADRID","postalCode":"28260","schedule":"L-D: 24H","fuels":{"gasoline95":1.719,"diesel":1.789,"dieselPremium":1.809},"extra":{"saleType":"P","margin":"D","reportingType":"OM","ideess":"15859","idMunicipio":"4336","idProvincia":"28","idCCAA":"13"}}},{"type":"Feature","geometry":{"type":"Point","coordinates":[-4.241583,40.383361]},"properties":{"id":"es-16063","source":"ES","brand":"PLENERGY","address":"VÍA DE SANDRO PERTINI, 6","municipality":"Navas del Rey","province":"MADRID","postalCode":"28695","schedule":"L-D: 24H","fuels":{"gasoline95":1.689,"diesel":1.769},"extra":{"saleType":"P","margin":"D","reportingType":"dm","ideess":"16063","idMunicipio":"4372","idProvincia":"28","idCCAA":"13"}}},{"type":"Feature","geometry":{"type":"Point","coordinates":[-4.326278,40.362389]},"properties":{"id":"es-16260","source":"ES","brand":"BALLENOIL","address":"AVENIDA MARCIAL LLORENTE, 66","municipality":"Pelayos de la Presa","province":"MADRID","postalCode":"28696","schedule":"L-D: 24H","fuels":{"gasoline95":1.689,"gasoline95Premium":1.709,"diesel":1.769,"dieselPremium":1.789},"extra":{"saleType":"P","margin":"N","reportingType":"OM","ideess":"16260","idMunicipio":"4380","idProvincia":"28","idCCAA":"13"}}},{"type":"Feature","geometry":{"type":"Point","coordinates":[-4.010306,40.635806]},"properties":{"id":"es-2923","source":"ES","brand":"GALP","address":"CALLE MATADERO, CARREFOUR LOS VALLES, S/N","municipality":"Collado Villalba","province":"MADRID","postalCode":"28400","schedule":"L-D: 06:30-22:30","fuels":{"gasoline95":1.779,"gasoline98":1.889,"diesel":1.779,"dieselPremium":1.829,"adblue":0.799},"extra":{"saleType":"P","margin":"N","reportingType":"OM","ideess":"2923","idMunicipio":"4320","idProvincia":"28","idCCAA":"13"}}},{"type":"Feature","geometry":{"type":"Point","coordinates":[-4.088111,40.302222]},"properties":{"id":"es-2928","source":"ES","brand":"BP VILLAMANTA","address":"CARRETERA M-507 KM. 6,700","municipality":"Villamanta","province":"MADRID","postalCode":"28610","schedule":"L-D: 06:00-22:00","fuels":{"gasoline95":1.819,"gasoline98":1.959,"diesel":1.985,"dieselPremium":2.075},"extra":{"saleType":"P","margin":"N","reportingType":"OM","ideess":"2928","idMunicipio":"4445","idProvincia":"28","idCCAA":"13"}}},{"type":"Feature","geometry":{"type":"Point","coordinates":[-4.240833,40.383167]},"properties":{"id":"es-3091","source":"ES","brand":"GALP","address":"CARRETERA M-501 KM. 40,500","municipality":"Navas del Rey","province":"MADRID","postalCode":"28695","schedule":"L-V: 06:00-22:00; S-D: 07:00-22:00","fuels":{"gasoline95":1.739,"gasoline95Premium":1.789,"diesel":1.819,"dieselPremium":1.869},"extra":{"saleType":"P","margin":"I","reportingType":"OM","ideess":"3091","idMunicipio":"4372","idProvincia":"28","idCCAA":"13"}}},{"type":"Feature","geometry":{"type":"Point","coordinates":[-4.085111,40.669639]},"properties":{"id":"es-3095","source":"ES","brand":"BP GUADARRAMA","address":"CARRETERA N-VI KM. 48","municipality":"Guadarrama","province":"MADRID","postalCode":"28440","schedule":"L-D: 07:00-23:00","fuels":{"gasoline95":1.809,"gasoline98":1.949,"diesel":1.949,"dieselPremium":2.039},"extra":{"saleType":"P","margin":"N","reportingType":"OM","ideess":"3095","idMunicipio":"4343","idProvincia":"28","idCCAA":"13"}}},{"type":"Feature","geometry":{"type":"Point","coordinates":[-4.001639,40.576917]},"properties":{"id":"es-3099","source":"ES","brand":"BALLENOIL","address":"CL CRTA. DE TORRELODONES, 10","municipality":"Galapagar","province":"MADRID","postalCode":"28260","schedule":"L-D: 24H","fuels":{"gasoline95":1.719,"diesel":1.789,"dieselPremium":1.809},"extra":{"saleType":"P","margin":"D","reportingType":"OM","ideess":"3099","idMunicipio":"4336","idProvincia":"28","idCCAA":"13"}}},{"type":"Feature","geometry":{"type":"Point","coordinates":[-4.039111,40.642583]},"properties":{"id":"es-3139","source":"ES","brand":"MOEVE","address":"AUTOPISTA AP-6 (MRG.IZDO.) KM. 42,3","municipality":"Collado Villalba","province":"MADRID","postalCode":"28400","schedule":"L-D: 24H","fuels":{"gasoline95":1.819,"gasoline95Premium":1.929,"gasoline98":1.959,"diesel":1.959,"dieselPremium":2.049,"lpg":1.159},"extra":{"saleType":"P","margin":"I","reportingType":"OM","ideess":"3139","idMunicipio":"4320","idProvincia":"28","idCCAA":"13"}}},{"type":"Feature","geometry":{"type":"Point","coordinates":[-4.041111,40.645972]},"properties":{"id":"es-3156","source":"ES","brand":"ENI","address":"CARRETERA N-VI KM. 43,2","municipality":"Collado Villalba","province":"MADRID","postalCode":"28400","schedule":"L-D: 07:00-23:00","fuels":{"gasoline95":1.796,"gasoline98":1.946,"diesel":1.899,"dieselPremium":1.899,"lpg":1.064,"adblue":0.899},"extra":{"saleType":"P","margin":"I","reportingType":"OM","ideess":"3156","idMunicipio":"4320","idProvincia":"28","idCCAA":"13"}}},{"type":"Feature","geometry":{"type":"Point","coordinates":[-4.007472,40.648778]},"properties":{"id":"es-3167","source":"ES","brand":"REPSOL","address":"CARRETERA NAVACERRADA KM. 1,33","municipality":"Collado Villalba","province":"MADRID","postalCode":"28400","schedule":"L-D: 24H","fuels":{"gasoline95":1.82,"gasoline95Premium":1.89,"gasoline98":1.95,"diesel":1.936,"dieselRenewable":2.056},"extra":{"saleType":"P","margin":"I","reportingType":"OM","ideess":"3167","idMunicipio":"4320","idProvincia":"28","idCCAA":"13"}}},{"type":"Feature","geometry":{"type":"Point","coordinates":[-4.314778,40.365083]},"properties":{"id":"es-3168","source":"ES","brand":"REPSOL","address":"CR M-501, 48,2 (M-501 km 48,25)","municipality":"Pelayos de la Presa","province":"MADRID","postalCode":"28696","schedule":"L-D: 07:00-23:00","fuels":{"gasoline95":1.796,"gasoline98":1.976,"gasolineRenewable":1.916,"diesel":1.946,"dieselRenewable":2.066,"lpg":1.099},"extra":{"saleType":"P","margin":"D","reportingType":"OM","ideess":"3168","idMunicipio":"4380","idProvincia":"28","idCCAA":"13"}}},{"type":"Feature","geometry":{"type":"Point","coordinates":[-4.0115,40.326472]},"properties":{"id":"es-3174","source":"ES","brand":"REPSOL","address":"CARRETERA M600 KM. 45,800","municipality":"Navalcarnero","province":"MADRID","postalCode":"28600","schedule":"L-V: 06:00-22:00; S-D: 08:00-22:00","fuels":{"gasoline95":1.806,"gasoline98":1.986,"diesel":1.966,"dieselRenewable":2.086},"extra":{"saleType":"P","margin":"D","reportingType":"OM","ideess":"3174","idMunicipio":"4370","idProvincia":"28","idCCAA":"13"}}},{"type":"Feature","geometry":{"type":"Point","coordinates":[-4.004694,40.626056]},"properties":{"id":"es-3180","source":"ES","brand":"REPSOL","address":"CALLE REAL, 2","municipality":"Collado Villalba","province":"MADRID","postalCode":"28400","schedule":"L-D: 24H","fuels":{"gasoline95":1.836,"gasoline98":1.966,"diesel":1.95,"dieselRenewable":2.07},"extra":{"saleType":"P","margin":"D","reportingType":"OM","ideess":"3180","idMunicipio":"4320","idProvincia":"28","idCCAA":"13"}}},{"type":"Feature","geometry":{"type":"Point","coordinates":[-4.108222,40.633306]},"properties":{"id":"es-3182","source":"ES","brand":"REPSOL","address":"CARRETERA M-600 KM. 3","municipality":"San Lorenzo de El Escorial","province":"MADRID","postalCode":"28200","schedule":"L-D: 06:30-23:30","fuels":{"gasoline95":1.826,"gasoline98":1.956,"diesel":1.93,"dieselRenewable":2.05},"extra":{"saleType":"P","margin":"D","reportingType":"OM","ideess":"3182","idMunicipio":"4403","idProvincia":"28","idCCAA":"13"}}},{"type":"Feature","geometry":{"type":"Point","coordinates":[-4.106917,40.633]},"properties":{"id":"es-3183","source":"ES","brand":"REPSOL","address":"CR M-600, 3","municipality":"San Lorenzo de El Escorial","province":"MADRID","postalCode":"28200","schedule":"L-D: 06:30-23:00","fuels":{"gasoline95":1.826,"gasoline98":1.956,"diesel":1.93,"dieselRenewable":2.05},"extra":{"saleType":"P","margin":"I","reportingType":"OM","ideess":"3183","idMunicipio":"4403","idProvincia":"28","idCCAA":"13"}}},{"type":"Feature","geometry":{"type":"Point","coordinates":[-4.059806,40.499472]},"properties":{"id":"es-3205","source":"ES","brand":"REPSOL","address":"CALLE SAN JUAN, 38","municipality":"Valdemorillo","province":"MADRID","postalCode":"28210","schedule":"L-D: 06:00-23:00","fuels":{"gasoline95":1.83,"gasoline98":1.96,"diesel":1.97,"dieselRenewable":2.09,"lpg":1.069},"extra":{"saleType":"P","margin":"D","reportingType":"OM","ideess":"3205","idMunicipio":"4431","idProvincia":"28","idCCAA":"13"}}},{"type":"Feature","geometry":{"type":"Point","coordinates":[-4.129167,40.588222]},"properties":{"id":"es-4354","source":"ES","brand":"REPSOL","address":"AVENIDA FELIPE II, 9","municipality":"Escorial (El)","province":"MADRID","postalCode":"28280","schedule":"L-D: 07:00-23:00","fuels":{"gasoline95":1.816,"gasoline98":1.946,"diesel":1.946,"dieselRenewable":2.066},"extra":{"saleType":"P","margin":"D","reportingType":"OM","ideess":"4354","idMunicipio":"4329","idProvincia":"28","idCCAA":"13"}}},{"type":"Feature","geometry":{"type":"Point","coordinates":[-4.020472,40.721833]},"properties":{"id":"es-4363","source":"ES","brand":"MOEVE","address":"CARRETERA M601 KM. 10,3","municipality":"Navacerrada","province":"MADRID","postalCode":"28491","schedule":"L-D: 05:58-23:59","fuels":{"gasoline95":1.819,"gasoline95Premium":1.909,"diesel":1.959,"dieselPremium":2.049},"extra":{"saleType":"P","margin":"D","reportingType":"dm","ideess":"4363","idMunicipio":"4367","idProvincia":"28","idCCAA":"13"}}},{"type":"Feature","geometry":{"type":"Point","coordinates":[-4.019528,40.72125]},"properties":{"id":"es-4364","source":"ES","brand":"MOEVE","address":"CARRETERA M-601 KM. 10,3","municipality":"Navacerrada","province":"MADRID","postalCode":"28491","schedule":"L-V: 08:00-15:00 y 18:00-21:00; S-D: 07:00-15:00","fuels":{"gasoline95":1.819,"gasoline95Premium":1.909,"diesel":1.959,"dieselPremium":2.049},"extra":{"saleType":"P","margin":"I","reportingType":"dm","ideess":"4364","idMunicipio":"4367","idProvincia":"28","idCCAA":"13"}}},{"type":"Feature","geometry":{"type":"Point","coordinates":[-4.379833,40.242611]},"properties":{"id":"es-4377","source":"ES","brand":"NUBOIL","address":"CTRA-N-403-TOLEDO-AVILA km 62,5","municipality":"Almorox","province":"TOLEDO","postalCode":"45900","schedule":"L-D: 24H","fuels":{"gasoline95":1.639,"diesel":1.739,"adblue":0.859},"extra":{"saleType":"P","margin":"D","reportingType":"dm","ideess":"4377","idMunicipio":"6774","idProvincia":"45","idCCAA":"07"}}},{"type":"Feature","geometry":{"type":"Point","coordinates":[-4.379694,40.078722]},"properties":{"id":"es-4421","source":"ES","brand":"CARBUNOR","address":"N-403 km 42","municipality":"Maqueda","province":"TOLEDO","postalCode":"45515","schedule":"L: 06:00-00:00; V-D: 06:00-00:00","fuels":{"gasoline95":1.569,"diesel":1.599,"dieselPremium":1.639},"extra":{"saleType":"P","margin":"N","reportingType":"dm","ideess":"4421","idMunicipio":"6851","idProvincia":"45","idCCAA":"07"}}},{"type":"Feature","geometry":{"type":"Point","coordinates":[-4.018972,40.628194]},"properties":{"id":"es-4454","source":"ES","brand":"BP CARVISA","address":"CALLE ESCOFINA, 17","municipality":"Collado Villalba","province":"MADRID","postalCode":"28400","schedule":"L-D: 06:00-23:00","fuels":{"gasoline95":1.835,"gasoline98":1.975,"diesel":1.979,"dieselPremium":2.069},"extra":{"saleType":"P","margin":"N","reportingType":"OM","ideess":"4454","idMunicipio":"4320","idProvincia":"28","idCCAA":"13"}}},{"type":"Feature","geometry":{"type":"Point","coordinates":[-4.301667,40.279472]},"properties":{"id":"es-4476","source":"ES","brand":"GALP","address":"CARRETERA M-507 KM. 27,5","municipality":"Villa del Prado","province":"MADRID","postalCode":"28630","schedule":"L-D: 07:00-23:00","fuels":{"gasoline95":1.779,"gasoline95Premium":1.829,"diesel":1.949,"dieselPremium":1.999,"dieselB":1.709},"extra":{"saleType":"P","margin":"I","reportingType":"OM","ideess":"4476","idMunicipio":"4441","idProvincia":"28","idCCAA":"13"}}},{"type":"Feature","geometry":{"type":"Point","coordinates":[-4.006556,40.646167]},"properties":{"id":"es-4488","source":"ES","brand":"REPSOL","address":"CR M-601 1,0 (M-601 km 1,00)","municipality":"Collado Villalba","province":"MADRID","postalCode":"28400","schedule":"L-D: 07:00-22:00","fuels":{"gasoline95":1.82,"diesel":1.936,"dieselRenewable":2.056},"extra":{"saleType":"P","margin":"D","reportingType":"OM","ideess":"4488","idMunicipio":"4320","idProvincia":"28","idCCAA":"13"}}},{"type":"Feature","geometry":{"type":"Point","coordinates":[-4.038167,40.643667]},"properties":{"id":"es-4492","source":"ES","brand":"MOEVE","address":"AUTOPISTA AP-6 KM. 42,3","municipality":"San Lorenzo de El Escorial","province":"MADRID","postalCode":"28200","schedule":"L-D: 24H","fuels":{"gasoline95":1.819,"gasoline98":1.959,"diesel":1.959,"dieselPremium":2.049,"lpg":1.159},"extra":{"saleType":"P","margin":"D","reportingType":"OM","ideess":"4492","idMunicipio":"4403","idProvincia":"28","idCCAA":"13"}}},{"type":"Feature","geometry":{"type":"Point","coordinates":[-4.444139,40.300639]},"properties":{"id":"es-4522","source":"ES","brand":"REPSOL","address":"PLAZA FUENTE DE LOS ALAMOS, 12","municipality":"Cadalso de los Vidrios","province":"MADRID","postalCode":"28640","schedule":"L-V: 06:00-22:00; S-D: 07:00-22:00","fuels":{"gasoline95":1.799,"gasoline98":1.929,"diesel":1.939,"dieselRenewable":2.039,"adblue":0.997},"extra":{"saleType":"P","margin":"N","reportingType":"dm","ideess":"4522","idMunicipio":"4306","idProvincia":"28","idCCAA":"13"}}},{"type":"Feature","geometry":{"type":"Point","coordinates":[-4.379472,40.3575]},"properties":{"id":"es-4524","source":"ES","brand":"REPSOL","address":"CARRETERA M-501 KM. 54,1","municipality":"San Martín de Valdeiglesias","province":"MADRID","postalCode":"28680","schedule":"L-V: 06:00-22:00; S-D: 07:00-23:00","fuels":{"gasoline95":1.79,"gasoline95Premium":1.86,"gasoline98":1.92,"diesel":1.95,"dieselRenewable":2.07},"extra":{"saleType":"P","margin":"I","reportingType":"OM","ideess":"4524","idMunicipio":"4405","idProvincia":"28","idCCAA":"13"}}},{"type":"Feature","geometry":{"type":"Point","coordinates":[-4.067528,40.733111]},"properties":{"id":"es-4557","source":"ES","brand":"REPSOL","address":"CARRETERA M 622 (CARRETERA GUADARRAMA A LA FUENFRIA) KM. 7,200","municipality":"Cercedilla","province":"MADRID","postalCode":"28470","schedule":"L-S: 7:30-20:30; D: 8:30-20:00","fuels":{"gasoline95":1.82,"diesel":1.986},"extra":{"saleType":"P","margin":"D","reportingType":"OM","ideess":"4557","idMunicipio":"4313","idProvincia":"28","idCCAA":"13"}}},{"type":"Feature","geometry":{"type":"Point","coordinates":[-4.170167,40.382444]},"properties":{"id":"es-4573","source":"ES","brand":"REPSOL","address":"CR M-501, 34,1","municipality":"Colmenar del Arroyo","province":"MADRID","postalCode":"28213","schedule":"L-V: 06:00-22:00; S: 07:00-22:00; D: 07:00-17:30","fuels":{"gasoline95":1.8,"gasoline98":1.98,"diesel":1.95,"dieselRenewable":2.07},"extra":{"saleType":"P","margin":"D","reportingType":"OM","ideess":"4573","idMunicipio":"4322","idProvincia":"28","idCCAA":"13"}}},{"type":"Feature","geometry":{"type":"Point","coordinates":[-4.170417,40.381917]},"properties":{"id":"es-4574","source":"ES","brand":"REPSOL","address":"AUTOVIA M-501 KM. 34,1","municipality":"Colmenar del Arroyo","province":"MADRID","postalCode":"28213","schedule":"L-V: 06:00-22:00; S-D: 07:00-22:00","fuels":{"gasoline95":1.8,"diesel":1.95,"dieselRenewable":2.07},"extra":{"saleType":"P","margin":"I","reportingType":"OM","ideess":"4574","idMunicipio":"4322","idProvincia":"28","idCCAA":"13"}}},{"type":"Feature","geometry":{"type":"Point","coordinates":[-4.005556,40.287556]},"properties":{"id":"es-4602","source":"ES","brand":"GALP","address":"AVENIDA CONSTITUCION, 170","municipality":"Navalcarnero","province":"MADRID","postalCode":"28600","schedule":"L-D: 06:00-22:00","fuels":{"gasoline95":1.619,"gasoline95Premium":1.669,"diesel":1.729,"dieselPremium":1.779},"extra":{"saleType":"P","margin":"D","reportingType":"OM","ideess":"4602","idMunicipio":"4370","idProvincia":"28","idCCAA":"13"}}},{"type":"Feature","geometry":{"type":"Point","coordinates":[-4.015361,40.576056]},"properties":{"id":"es-4603","source":"ES","brand":"REPSOL","address":"CR M-505, 17,4","municipality":"Galapagar","province":"MADRID","postalCode":"28260","schedule":"L-D: 07:00-23:00","fuels":{"gasoline95":1.79,"gasoline98":1.92,"diesel":1.926,"dieselRenewable":2.046,"lpg":1.055},"extra":{"saleType":"P","margin":"I","reportingType":"OM","ideess":"4603","idMunicipio":"4336","idProvincia":"28","idCCAA":"13"}}},{"type":"Feature","geometry":{"type":"Point","coordinates":[-4.028694,40.626806]},"properties":{"id":"es-4607","source":"ES","brand":"REPSOL","address":"CR M-510, 1,8","municipality":"Galapagar","province":"MADRID","postalCode":"28260","schedule":"L-D: 06:00-22:00","fuels":{"gasoline95":1.836,"gasoline98":1.966,"diesel":1.95,"dieselRenewable":2.07,"lpg":1.055},"extra":{"saleType":"P","margin":"D","reportingType":"OM","ideess":"4607","idMunicipio":"4336","idProvincia":"28","idCCAA":"13"}}},{"type":"Feature","geometry":{"type":"Point","coordinates":[-4.02225,40.654778]},"properties":{"id":"es-4647","source":"ES","brand":"CEPSA","address":"CALLE PRIMAVERA, 94","municipality":"Alpedrete","province":"MADRID","postalCode":"28430","schedule":"L-D: 06:30-22:30","fuels":{"gasoline95":1.819,"gasoline95Premium":1.879,"diesel":1.959,"dieselPremium":2.049},"extra":{"saleType":"P","margin":"D","reportingType":"dm","ideess":"4647","idMunicipio":"4285","idProvincia":"28","idCCAA":"13"}}},{"type":"Feature","geometry":{"type":"Point","coordinates":[-4.084944,40.669194]},"properties":{"id":"es-4648","source":"ES","brand":"CEPSA","address":"PASEO MOLINO DEL REY, 4","municipality":"Guadarrama","province":"MADRID","postalCode":"28440","schedule":"L-D: 07:00-23:00","fuels":{"gasoline95":1.819,"gasoline95Premium":1.949,"diesel":1.959,"dieselPremium":2.049},"extra":{"saleType":"P","margin":"I","reportingType":"dm","ideess":"4648","idMunicipio":"4343","idProvincia":"28","idCCAA":"13"}}},{"type":"Feature","geometry":{"type":"Point","coordinates":[-4.127528,40.60175]},"properties":{"id":"es-4665","source":"ES","brand":"GALP","address":"C/Las Pozas, s/n - P.I. Matacuervos","municipality":"San Lorenzo de El Escorial","province":"MADRID","postalCode":"28200","schedule":"L-D: 06:00-22:00","fuels":{"gasoline95":1.759,"gasoline95Premium":1.809,"diesel":1.834,"dieselPremium":1.884},"extra":{"saleType":"P","margin":"N","reportingType":"OM","ideess":"4665","idMunicipio":"4403","idProvincia":"28","idCCAA":"13"}}},{"type":"Feature","geometry":{"type":"Point","coordinates":[-4.019111,40.338556]},"properties":{"id":"es-4672","source":"ES","brand":"GALP","address":"CARRETERA M-600 KM. 44","municipality":"Sevilla la Nueva","province":"MADRID","postalCode":"28609","schedule":"L-D: 07:00-23:00","fuels":{"gasoline95":1.669,"gasoline95Premium":1.719,"diesel":1.759,"dieselPremium":1.809},"extra":{"saleType":"P","margin":"D","reportingType":"OM","ideess":"4672","idMunicipio":"4412","idProvincia":"28","idCCAA":"13"}}},{"type":"Feature","geometry":{"type":"Point","coordinates":[-4.018306,40.338972]},"properties":{"id":"es-4673","source":"ES","brand":"GALP","address":"CARRETERA M-600 KM. 44","municipality":"Sevilla la Nueva","province":"MADRID","postalCode":"28609","schedule":"L-D: 07:00-23:00","fuels":{"gasoline95":1.669,"gasoline95Premium":1.719,"diesel":1.759,"dieselPremium":1.809},"extra":{"saleType":"P","margin":"I","reportingType":"OM","ideess":"4673","idMunicipio":"4412","idProvincia":"28","idCCAA":"13"}}},{"type":"Feature","geometry":{"type":"Point","coordinates":[-4.239417,40.498667]},"properties":{"id":"es-4691","source":"ES","brand":"BALLENOIL","address":"CARRETERA VALDEMAQUEDA KM. 0","municipality":"Robledo de Chavela","province":"MADRID","postalCode":"28294","schedule":"L-D: 24H","fuels":{"gasoline95":1.689,"gasoline95Premium":1.709,"diesel":1.769,"dieselPremium":1.789},"extra":{"saleType":"P","margin":"N","reportingType":"OM","ideess":"4691","idMunicipio":"4397","idProvincia":"28","idCCAA":"13"}}},{"type":"Feature","geometry":{"type":"Point","coordinates":[-4.093167,40.378722]},"properties":{"id":"es-4702","source":"ES","brand":"GALP","address":"CARRETERA M-501 KM. 27","municipality":"Villanueva de Perales","province":"MADRID","postalCode":"28609","schedule":"L-D: 24H","fuels":{"gasoline95":1.794,"gasoline95Premium":1.844,"diesel":1.934,"dieselPremium":1.984},"extra":{"saleType":"P","margin":"D","reportingType":"OM","ideess":"4702","idMunicipio":"4448","idProvincia":"28","idCCAA":"13"}}},{"type":"Feature","geometry":{"type":"Point","coordinates":[-4.092583,40.379556]},"properties":{"id":"es-4703","source":"ES","brand":"GALP","address":"CARRETERA M-501 KM. 26,800","municipality":"Villanueva de Perales","province":"MADRID","postalCode":"28609","schedule":"L-D: 06:00-22:00","fuels":{"gasoline95":1.794,"gasoline95Premium":1.844,"diesel":1.934,"dieselPremium":1.984},"extra":{"saleType":"P","margin":"I","reportingType":"OM","ideess":"4703","idMunicipio":"4448","idProvincia":"28","idCCAA":"13"}}},{"type":"Feature","geometry":{"type":"Point","coordinates":[-4.143778,40.591722]},"properties":{"id":"es-4721","source":"ES","brand":"MOEVE","address":"CALLE JUAN DE TOLEDO, 8","municipality":"San Lorenzo de El Escorial","province":"MADRID","postalCode":"28200","schedule":"L-D: 07:30-22:00","fuels":{"gasoline95":1.819,"diesel":1.95,"dieselPremium":2.049},"extra":{"saleType":"P","margin":"D","reportingType":"dm","ideess":"4721","idMunicipio":"4403","idProvincia":"28","idCCAA":"13"}}},{"type":"Feature","geometry":{"type":"Point","coordinates":[-4.109194,40.927194]},"properties":{"id":"es-4738","source":"ES","brand":"SHELL","address":"C.N.-603-MARGEN DERECHO km 93.60000","municipality":"Segovia","province":"SEGOVIA","postalCode":"40006","schedule":"L-D: 06:00-00:00","fuels":{"gasoline95":1.759,"gasoline98":1.899,"diesel":1.819,"dieselPremium":1.899,"lpg":1.029},"extra":{"saleType":"P","margin":"D","reportingType":"OM","ideess":"4738","idMunicipio":"6020","idProvincia":"40","idCCAA":"08"}}},{"type":"Feature","geometry":{"type":"Point","coordinates":[-4.102722,40.969556]},"properties":{"id":"es-4744","source":"ES","brand":"BALLENOIL","address":"CL-601 (VALLADOLID-SEGOVIA) km 105","municipality":"Lastrilla (La)","province":"SEGOVIA","postalCode":"40196","schedule":"L-D: 24H","fuels":{"gasoline95":1.729,"gasoline95Premium":1.739,"diesel":1.789,"dieselPremium":1.799},"extra":{"saleType":"P","margin":"D","reportingType":"OM","ideess":"4744","idMunicipio":"5945","idProvincia":"40","idCCAA":"08"}}},{"type":"Feature","geometry":{"type":"Point","coordinates":[-4.522417,40.036083]},"properties":{"id":"es-4775","source":"ES","brand":"SAN ROQUE ( LOW COST )","address":"CARRETERA TO-9311-V KM. 1","municipality":"Casar de Escalona (El)","province":"TOLEDO","postalCode":"45542","schedule":"L-D: 24H","fuels":{"gasoline95":1.619,"diesel":1.699},"extra":{"saleType":"P","margin":"D","reportingType":"dm","ideess":"4775","idMunicipio":"6801","idProvincia":"45","idCCAA":"07"}}},{"type":"Feature","geometry":{"type":"Point","coordinates":[-4.972861,40.854417]},"properties":{"id":"es-4905","source":"ES","brand":"HERMANOS CRUZ (REPOSTAR)","address":"N-50, AVILA-SALAMANCA km 147,8","municipality":"Crespos","province":"ÁVILA","postalCode":"05300","schedule":"L-D: 08:00-22:00","fuels":{"gasoline95":1.695,"diesel":1.79},"extra":{"saleType":"P","margin":"D","reportingType":"dm","ideess":"4905","idMunicipio":"437","idProvincia":"05","idCCAA":"08"}}},{"type":"Feature","geometry":{"type":"Point","coordinates":[-4.582111,40.450944]},"properties":{"id":"es-4907","source":"ES","brand":"MOEVE","address":"CARRETERA N-403 KM. 102","municipality":"Barraco (El)","province":"ÁVILA","postalCode":"05110","schedule":"L-V: 07:30-21:00; S-D: 08:00-21:00","fuels":{"gasoline95":1.899,"gasoline98":2.019,"diesel":1.969,"dieselPremium":2.029},"extra":{"saleType":"P","margin":"D","reportingType":"dm","ideess":"4907","idMunicipio":"397","idProvincia":"05","idCCAA":"08"}}},{"type":"Feature","geometry":{"type":"Point","coordinates":[-4.109694,40.927194]},"properties":{"id":"es-4922","source":"ES","brand":"SHELL","address":"C.N.-603-MARGEN IZQUIERDO km 93.60000","municipality":"Segovia","province":"SEGOVIA","postalCode":"40006","schedule":"L-D: 06:00-00:00","fuels":{"gasoline95":1.759,"gasoline98":1.899,"diesel":1.819,"dieselPremium":1.899},"extra":{"saleType":"P","margin":"I","reportingType":"OM","ideess":"4922","idMunicipio":"6020","idProvincia":"40","idCCAA":"08"}}},{"type":"Feature","geometry":{"type":"Point","coordinates":[-4.414056,40.949639]},"properties":{"id":"es-4951","source":"ES","brand":"AGROCOMERCIAL HIGUERA","address":"CTRA.DE SEGOVIA, S/N","municipality":"Sangarcía","province":"SEGOVIA","postalCode":"40134","schedule":"L-V: 08:00-20:00; S: 08:00-14:00; D: 09:00-14:00","fuels":{"gasoline95":1.739,"diesel":1.849,"dieselB":1.439},"extra":{"saleType":"P","margin":"N","reportingType":"dm","ideess":"4951","idMunicipio":"6011","idProvincia":"40","idCCAA":"08"}}},{"type":"Feature","geometry":{"type":"Point","coordinates":[-4.493583,40.409667]},"properties":{"id":"es-4972","source":"ES","brand":"Q8","address":"CARRETERA CTRA. N-403-A KM. KM 90","municipality":"Tiemblo (El)","province":"ÁVILA","postalCode":"05270","schedule":"L-D: 06:00-22:00","fuels":{"gasoline95":1.749,"gasoline98":1.819,"diesel":1.919},"extra":{"saleType":"P","margin":"N","reportingType":"dm","ideess":"4972","idMunicipio":"605","idProvincia":"05","idCCAA":"08"}}},{"type":"Feature","geometry":{"type":"Point","coordinates":[-4.614111,40.955639]},"properties":{"id":"es-4981","source":"ES","brand":"CEPSA","address":"AUTOVIA DEL NOROESTE KM. 111","municipality":"Adanero","province":"ÁVILA","postalCode":"05296","schedule":"L-D: 24H","fuels":{"gasoline95":1.769,"gasoline95Premium":1.899,"diesel":1.989,"dieselPremium":2.079},"extra":{"saleType":"P","margin":"D","reportingType":"OM","ideess":"4981","idMunicipio":"382","idProvincia":"05","idCCAA":"08"}}},{"type":"Feature","geometry":{"type":"Point","coordinates":[-4.614556,40.955111]},"properties":{"id":"es-4982","source":"ES","brand":"CEPSA","address":"AUTOVIA NOROESTE KM. 111","municipality":"Adanero","province":"ÁVILA","postalCode":"05296","schedule":"L-D: 24H","fuels":{"gasoline95":1.769,"gasoline95Premium":1.899,"gasoline98":1.919,"diesel":1.989,"dieselPremium":2.079},"extra":{"saleType":"P","margin":"I","reportingType":"OM","ideess":"4982","idMunicipio":"382","idProvincia":"05","idCCAA":"08"}}},{"type":"Feature","geometry":{"type":"Point","coordinates":[-4.703917,40.649111]},"properties":{"id":"es-4985","source":"ES","brand":"MOEVE","address":"CARRETERA BURGOHONDO KM. 1","municipality":"Ávila","province":"ÁVILA","postalCode":"05002","schedule":"L-D: 07:00-23:00","fuels":{"gasoline95":1.799,"gasoline95Premium":1.859,"diesel":1.969,"dieselPremium":2.059,"dieselB":1.819},"extra":{"saleType":"P","margin":"I","reportingType":"OM","ideess":"4985","idMunicipio":"395","idProvincia":"05","idCCAA":"08"}}},{"type":"Feature","geometry":{"type":"Point","coordinates":[-4.674306,40.662028]},"properties":{"id":"es-4986","source":"ES","brand":"MOEVE","address":"AVENIDA JUAN CARLOS I, 19","municipality":"Ávila","province":"ÁVILA","postalCode":"05004","schedule":"L-D: 07:00-23:00","fuels":{"gasoline95":1.739,"gasoline98":1.869,"diesel":1.929,"dieselPremium":2.019,"adblue":0.79},"extra":{"saleType":"P","margin":"D","reportingType":"dm","ideess":"4986","idMunicipio":"395","idProvincia":"05","idCCAA":"08"}}},{"type":"Feature","geometry":{"type":"Point","coordinates":[-4.758444,40.635333]},"properties":{"id":"es-4990","source":"ES","brand":"MOEVE","address":"CARRETERA SORIA PLASENCIA KM. 261,5","municipality":"Colilla (La)","province":"ÁVILA","postalCode":"05192","schedule":"L-D: 07:00-23:00","fuels":{"gasoline95":1.739,"gasoline98":1.869,"diesel":1.929,"dieselPremium":2.019,"dieselB":1.789,"adblue":0.79},"extra":{"saleType":"P","margin":"D","reportingType":"dm","ideess":"4990","idMunicipio":"433","idProvincia":"05","idCCAA":"08"}}},{"type":"Feature","geometry":{"type":"Point","coordinates":[-4.410556,40.58525]},"properties":{"id":"es-4994","source":"ES","brand":"CEPSA","address":"CL-505 km 63","municipality":"Navalperal de Pinares","province":"ÁVILA","postalCode":"05240","schedule":"L-D: 07:00-21:00","fuels":{"gasoline95":1.729,"gasoline95Premium":1.829,"diesel":1.859,"dieselPremium":1.949,"dieselB":1.499},"extra":{"saleType":"P","margin":"I","reportingType":"dm","ideess":"4994","idMunicipio":"525","idProvincia":"05","idCCAA":"08"}}},{"type":"Feature","geometry":{"type":"Point","coordinates":[-4.579417,40.293194]},"properties":{"id":"es-4998","source":"ES","brand":"MOEVE","address":"CALLE DOCTOR DIAZ PALACIOS, S,N","municipality":"Sotillo de la Adrada","province":"ÁVILA","postalCode":"05420","schedule":"L-D: 05:00-23:00","fuels":{"gasoline95":1.769,"gasoline98":1.86,"diesel":1.95,"dieselPremium":2.049},"extra":{"saleType":"P","margin":"I","reportingType":"dm","ideess":"4998","idMunicipio":"604","idProvincia":"05","idCCAA":"08"}}},{"type":"Feature","geometry":{"type":"Point","coordinates":[-4.467778,40.451778]},"properties":{"id":"es-5010","source":"ES","brand":"CEPSA","address":"AV-512 km 0,750","municipality":"Cebreros","province":"ÁVILA","postalCode":"05260","schedule":"L-D: 07:00-22:30","fuels":{"gasoline95":1.719,"gasoline98E10":1.859,"diesel":1.899,"dieselPremium":1.969},"extra":{"saleType":"P","margin":"I","reportingType":"dm","ideess":"5010","idMunicipio":"428","idProvincia":"05","idCCAA":"08"}}},{"type":"Feature","geometry":{"type":"Point","coordinates":[-4.639861,40.301472]},"properties":{"id":"es-5011","source":"ES","brand":"LA ADRADA","address":"CARRETERA IGLESUELA (LA) KM. 9","municipality":"Adrada (La)","province":"ÁVILA","postalCode":"05430","schedule":"L-D: 07:30-22:00","fuels":{"gasoline95":1.609,"gasoline98":1.667,"diesel":1.699},"extra":{"saleType":"P","margin":"N","reportingType":"dm","ideess":"5011","idMunicipio":"383","idProvincia":"05","idCCAA":"08"}}},{"type":"Feature","geometry":{"type":"Point","coordinates":[-4.572917,40.876056]},"properties":{"id":"es-5015","source":"ES","brand":"REPOSTAR","address":"N-VI km 101,3","municipality":"Sanchidrián","province":"ÁVILA","postalCode":"05290","schedule":"L-D: 24H","fuels":{"gasoline95":1.659,"diesel":1.759},"extra":{"saleType":"P","margin":"I","reportingType":"dm","ideess":"5015","idMunicipio":"583","idProvincia":"05","idCCAA":"08"}}},{"type":"Feature","geometry":{"type":"Point","coordinates":[-4.77475,40.411778]},"properties":{"id":"es-5051","source":"ES","brand":"REPSOL","address":"CR AV-902, 1,2 (AV-902 km 1,7)","municipality":"Burgohondo","province":"ÁVILA","postalCode":"05113","schedule":"L-D: 08:00-20:30","fuels":{"gasoline95":1.899,"diesel":1.979,"dieselPremium":2.039,"dieselB":1.729},"extra":{"saleType":"P","margin":"I","reportingType":"dm","ideess":"5051","idMunicipio":"413","idProvincia":"05","idCCAA":"08"}}},{"type":"Feature","geometry":{"type":"Point","coordinates":[-4.615028,40.886444]},"properties":{"id":"es-5052","source":"ES","brand":"REPSOL","address":"CARRETERA CL 507 KM 3.200 KM. 3200","municipality":"Blascosancho","province":"ÁVILA","postalCode":"05290","schedule":"L-V: 07:00-19:50; S: 08:00-14:00; D: 09:00-14:00","fuels":{"gasoline95":1.756,"diesel":1.94,"dieselRenewable":2.06},"extra":{"saleType":"P","margin":"I","reportingType":"OM","ideess":"5052","idMunicipio":"407","idProvincia":"05","idCCAA":"08"}}},{"type":"Feature","geometry":{"type":"Point","coordinates":[-4.702083,40.659639]},"properties":{"id":"es-5053","source":"ES","brand":"GALP","address":"AVENIDA MADRID, 68","municipality":"Ávila","province":"ÁVILA","postalCode":"05001","schedule":"L-D: 06:00-22:00","fuels":{"gasoline95":1.714,"gasoline98":1.854,"diesel":1.799,"dieselPremium":1.849},"extra":{"saleType":"P","margin":"N","reportingType":"OM","ideess":"5053","idMunicipio":"395","idProvincia":"05","idCCAA":"08"}}},{"type":"Feature","geometry":{"type":"Point","coordinates":[-4.641667,40.30375]},"properties":{"id":"es-5060","source":"ES","brand":"REPSOL","address":"AVENIDA DE MADRID, 60","municipality":"Adrada (La)","province":"ÁVILA","postalCode":"05430","schedule":"L-D: 07:00-22:00","fuels":{"gasoline95":1.755,"gasoline98":1.845,"diesel":1.907,"dieselPremium":1.985,"dieselB":1.475,"adblue":1.265},"extra":{"saleType":"P","margin":"D","reportingType":"dm","ideess":"5060","idMunicipio":"383","idProvincia":"05","idCCAA":"08"}}},{"type":"Feature","geometry":{"type":"Point","coordinates":[-4.685583,40.667472]},"properties":{"id":"es-5062","source":"ES","brand":"BP - AVILA","address":"PG POLIG. INDUST. HERVENCIAS II, S.","municipality":"Ávila","province":"ÁVILA","postalCode":"05004","schedule":"L: 07:00-23:00","fuels":{"gasoline95":1.799,"diesel":1.899,"dieselPremium":1.979,"adblue":1.289},"extra":{"saleType":"P","margin":"D","reportingType":"dm","ideess":"5062","idMunicipio":"395","idProvincia":"05","idCCAA":"08"}}},{"type":"Feature","geometry":{"type":"Point","coordinates":[-4.886667,40.227139]},"properties":{"id":"es-5068","source":"ES","brand":"REPSOL","address":"CR C-501 106,3","municipality":"Pedro Bernardo","province":"ÁVILA","postalCode":"05470","schedule":"L-D: 07:00-22:00","fuels":{"gasoline95":1.809,"gasoline98":2.019,"diesel":1.969,"dieselRenewable":2.079},"extra":{"saleType":"P","margin":"D","reportingType":"dm","ideess":"5068","idMunicipio":"546","idProvincia":"05","idCCAA":"08"}}},{"type":"Feature","geometry":{"type":"Point","coordinates":[-4.692167,40.657889]},"properties":{"id":"es-5072","source":"ES","brand":"REPSOL","address":"AVENIDA MADRID, 4","municipality":"Ávila","province":"ÁVILA","postalCode":"05001","schedule":"L-J: 07:00-23:00; V: 07:00-01:00; S: 05:00-01:00; D: 05:00-23:00","fuels":{"gasoline95":1.79,"gasoline98":1.92,"diesel":1.95,"dieselRenewable":2.07},"extra":{"saleType":"P","margin":"N","reportingType":"OM","ideess":"5072","idMunicipio":"395","idProvincia":"05","idCCAA":"08"}}},{"type":"Feature","geometry":{"type":"Point","coordinates":[-4.333028,40.595167]},"properties":{"id":"es-5073","source":"ES","brand":"REPSOL","address":"POLIGONO AVDA PARALELA, ","municipality":"Navas del Marqués (Las)","province":"ÁVILA","postalCode":"05230","schedule":"L-V: 06:00-22:00; S-D: 07:00-22:00","fuels":{"gasoline95":1.79,"gasoline98":1.97,"diesel":1.97,"dieselRenewable":2.09},"extra":{"saleType":"P","margin":"D","reportingType":"OM","ideess":"5073","idMunicipio":"532","idProvincia":"05","idCCAA":"08"}}},{"type":"Feature","geometry":{"type":"Point","coordinates":[-4.658639,40.998222]},"properties":{"id":"es-5075","source":"ES","brand":"REPSOL","address":"AUTOVIA A-6 KM. 117","municipality":"Orbita","province":"ÁVILA","postalCode":"05296","schedule":"L-D: 07:00-23:00","fuels":{"gasoline95":1.76,"gasoline98":1.94,"diesel":1.96,"dieselPremium":2.08},"extra":{"saleType":"P","margin":"I","reportingType":"OM","ideess":"5075","idMunicipio":"538","idProvincia":"05","idCCAA":"08"}}},{"type":"Feature","geometry":{"type":"Point","coordinates":[-4.198056,40.322167]},"properties":{"id":"es-520","source":"ES","brand":"GALP","address":"CARRETERA M-507 KM. 16,8","municipality":"Aldea del Fresno","province":"MADRID","postalCode":"28620","schedule":"L-D: 06:00-22:00","fuels":{"gasoline95":1.799,"gasoline95Premium":1.849,"diesel":1.969,"dieselPremium":2.019},"extra":{"saleType":"P","margin":"I","reportingType":"OM","ideess":"520","idMunicipio":"4283","idProvincia":"28","idCCAA":"13"}}},{"type":"Feature","geometry":{"type":"Point","coordinates":[-4.820333,40.010556]},"properties":{"id":"es-5351","source":"ES","brand":"REPSOL","address":"CARRETERA COMARCAL 5100 KM. 5,300","municipality":"Pepino","province":"TOLEDO","postalCode":"45638","schedule":"L-D: 06:00-22:00","fuels":{"gasoline95":1.8,"gasoline98":1.98,"diesel":1.96,"dieselRenewable":2.08},"extra":{"saleType":"P","margin":"I","reportingType":"OM","ideess":"5351","idMunicipio":"6892","idProvincia":"45","idCCAA":"07"}}},{"type":"Feature","geometry":{"type":"Point","coordinates":[-4.136,40.184528]},"properties":{"id":"es-5364","source":"ES","brand":"REPSOL","address":"A-5 km 47,7","municipality":"Casarrubios del Monte","province":"TOLEDO","postalCode":"45950","schedule":"L-D: 24H","fuels":{"gasoline95":1.748,"gasoline98":1.938,"diesel":1.868,"dieselPremium":1.958,"adblue":0.889},"extra":{"saleType":"P","margin":"D","reportingType":"dm","ideess":"5364","idMunicipio":"6802","idProvincia":"45","idCCAA":"07"}}},{"type":"Feature","geometry":{"type":"Point","coordinates":[-4.562,40.01675]},"properties":{"id":"es-5374","source":"ES","brand":"REPSOL","address":"AUTOVIA A5 KM. 91,00","municipality":"Cerralbos (Los)","province":"TOLEDO","postalCode":"45552","schedule":"L-D: 07:00-22:00","fuels":{"gasoline95":1.806,"gasoline98":1.956,"diesel":1.946,"dieselB":1.596,"dieselRenewable":2.066},"extra":{"saleType":"P","margin":"D","reportingType":"OM","ideess":"5374","idMunicipio":"6808","idProvincia":"45","idCCAA":"07"}}},{"type":"Feature","geometry":{"type":"Point","coordinates":[-4.486778,40.022278]},"properties":{"id":"es-5378","source":"ES","brand":"MOEVE","address":"AUTOVIA NACIONAL V KM. 85,100","municipality":"Santa Olalla","province":"TOLEDO","postalCode":"45530","schedule":"L-D: 06:00-23:59","fuels":{"gasoline95":1.809,"gasoline95Premium":1.909,"diesel":1.959,"dieselPremium":2.039},"extra":{"saleType":"P","margin":"D","reportingType":"OM","ideess":"5378","idMunicipio":"6918","idProvincia":"45","idCCAA":"07"}}},{"type":"Feature","geometry":{"type":"Point","coordinates":[-4.189056,40.242528]},"properties":{"id":"es-5395","source":"ES","brand":"REPSOL","address":"CARRETERA CM-610 KM. 6,700","municipality":"Méntrida","province":"TOLEDO","postalCode":"45930","schedule":"L-D: 24H","fuels":{"gasoline95":1.829,"gasoline98":1.969,"diesel":1.969,"dieselRenewable":2.079,"lpg":1.089},"extra":{"saleType":"P","margin":"I","reportingType":"dm","ideess":"5395","idMunicipio":"6859","idProvincia":"45","idCCAA":"07"}}},{"type":"Feature","geometry":{"type":"Point","coordinates":[-4.689222,40.153167]},"properties":{"id":"es-5409","source":"ES","brand":"R M","address":"CARRETERA C 5001 KM. 26,6","municipality":"Real de San Vicente (El)","province":"TOLEDO","postalCode":"45640","schedule":"L: 07:00-22:00","fuels":{"gasoline95":1.739,"diesel":1.859},"extra":{"saleType":"P","margin":"I","reportingType":"dm","ideess":"5409","idMunicipio":"6904","idProvincia":"45","idCCAA":"07"}}},{"type":"Feature","geometry":{"type":"Point","coordinates":[-4.505278,40.020917]},"properties":{"id":"es-5417","source":"ES","brand":"MOEVE","address":"AUTOVIA EXTREMADRUA KM. 87","municipality":"Otero","province":"TOLEDO","postalCode":"45543","schedule":"L-D: 06:00-22:00","fuels":{"gasoline95":1.759,"gasoline95Premium":1.859,"diesel":1.939,"dieselPremium":2.009},"extra":{"saleType":"P","margin":"I","reportingType":"dm","ideess":"5417","idMunicipio":"6886","idProvincia":"45","idCCAA":"07"}}},{"type":"Feature","geometry":{"type":"Point","coordinates":[-4.117694,40.087167]},"properties":{"id":"es-5445","source":"ES","brand":"AGUDO GASOLEOS","address":"CALLE REAL, 92","municipality":"Camarena","province":"TOLEDO","postalCode":"45180","schedule":"L-D: 24H","fuels":{"gasoline95":1.689,"gasoline98":1.859,"diesel":1.809,"dieselPremium":1.869,"dieselB":1.469,"adblue":1.049},"extra":{"saleType":"P","margin":"I","reportingType":"dm","ideess":"5445","idMunicipio":"6792","idProvincia":"45","idCCAA":"07"}}},{"type":"Feature","geometry":{"type":"Point","coordinates":[-4.09,40.208389]},"properties":{"id":"es-5450","source":"ES","brand":"REPSOL","address":"AVENIDA MADRID, 25","municipality":"Valmojado","province":"TOLEDO","postalCode":"45940","schedule":"L-D: 06:30-22:30","fuels":{"gasoline95":1.769,"gasoline98":1.969,"diesel":1.879,"dieselRenewable":1.999},"extra":{"saleType":"P","margin":"D","reportingType":"dm","ideess":"5450","idMunicipio":"6940","idProvincia":"45","idCCAA":"07"}}},{"type":"Feature","geometry":{"type":"Point","coordinates":[-4.402306,40.148528]},"properties":{"id":"es-5466","source":"ES","brand":"MOEVE","address":"CARRETERA N-403 KM. 51,2","municipality":"Escalona","province":"TOLEDO","postalCode":"45910","schedule":"L-D: 07:00-23:00","fuels":{"gasoline95":1.799,"gasoline95Premium":1.899,"diesel":1.939,"dieselPremium":2.039,"dieselB":1.629},"extra":{"saleType":"P","margin":"D","reportingType":"OM","ideess":"5466","idMunicipio":"6821","idProvincia":"45","idCCAA":"07"}}},{"type":"Feature","geometry":{"type":"Point","coordinates":[-4.111833,40.1585]},"properties":{"id":"es-5485","source":"ES","brand":"FARRUCO S.A.","address":"CM-4003 km P.K.32,4","municipality":"Ventas de Retamosa (Las)","province":"TOLEDO","postalCode":"45183","schedule":"L-D: 24H","fuels":{"gasoline95":1.637,"diesel":1.717,"dieselPremium":1.757,"lpg":1.009,"adblue":0.869},"extra":{"saleType":"P","margin":"N","reportingType":"dm","ideess":"5485","idMunicipio":"6943","idProvincia":"45","idCCAA":"07"}}},{"type":"Feature","geometry":{"type":"Point","coordinates":[-4.197611,40.057278]},"properties":{"id":"es-5487","source":"ES","brand":"FARRUCO S.A.","address":"TO-4421-V km P.K.10,2","municipality":"Fuensalida","province":"TOLEDO","postalCode":"45510","schedule":"L: 24H","fuels":{"gasoline95":1.617,"gasoline98":1.657,"diesel":1.697,"dieselPremium":1.737,"adblue":0.879},"extra":{"saleType":"P","margin":"N","reportingType":"dm","ideess":"5487","idMunicipio":"6826","idProvincia":"45","idCCAA":"07"}}},{"type":"Feature","geometry":{"type":"Point","coordinates":[-4.346194,40.033]},"properties":{"id":"es-5498","source":"ES","brand":"FARRUCO S.A.","address":"CN-403 km P.K. 36,7","municipality":"Santo Domingo-Caudilla","province":"TOLEDO","postalCode":"45526","schedule":"L-D: 24H","fuels":{"gasoline95":1.557,"gasoline98":1.597,"diesel":1.687,"dieselPremium":1.727},"extra":{"saleType":"P","margin":"N","reportingType":"dm","ideess":"5498","idMunicipio":"6919","idProvincia":"45","idCCAA":"07"}}},{"type":"Feature","geometry":{"type":"Point","coordinates":[-4.424944,40.025861]},"properties":{"id":"es-5502","source":"ES","brand":"FARRUCO S.A.","address":"SAN ROQUE, 3","municipality":"Santa Olalla","province":"TOLEDO","postalCode":"45530","schedule":"L-D: 24H","fuels":{"gasoline95":1.657,"gasoline98":1.697,"diesel":1.757,"dieselPremium":1.797,"lpg":1.019,"adblue":0.879},"extra":{"saleType":"P","margin":"N","reportingType":"dm","ideess":"5502","idMunicipio":"6918","idProvincia":"45","idCCAA":"07"}}},{"type":"Feature","geometry":{"type":"Point","coordinates":[-4.398806,40.158694]},"properties":{"id":"es-5503","source":"ES","brand":"FARRUCO S.A.","address":"CN-403 km P.K. 52","municipality":"Escalona","province":"TOLEDO","postalCode":"45910","schedule":"L-D: 24H","fuels":{"gasoline95":1.657,"gasoline98":1.697,"diesel":1.757,"dieselPremium":1.797,"lpg":1.019,"adblue":0.879},"extra":{"saleType":"P","margin":"N","reportingType":"dm","ideess":"5503","idMunicipio":"6821","idProvincia":"45","idCCAA":"07"}}},{"type":"Feature","geometry":{"type":"Point","coordinates":[-4.210917,40.049306]},"properties":{"id":"es-5504","source":"ES","brand":"FARRUCO S.A.","address":"CALLE RAMON Y CAJAL, 46","municipality":"Fuensalida","province":"TOLEDO","postalCode":"45510","schedule":"L-D: 24H","fuels":{"gasoline95":1.627,"diesel":1.707},"extra":{"saleType":"P","margin":"N","reportingType":"dm","ideess":"5504","idMunicipio":"6826","idProvincia":"45","idCCAA":"07"}}},{"type":"Feature","geometry":{"type":"Point","coordinates":[-4.823306,40.454028]},"properties":{"id":"es-5529","source":"ES","brand":"REPSOL","address":"CARRETERA BARCO KM. 34","municipality":"Navarredondilla","province":"ÁVILA","postalCode":"05120","schedule":"L-D: 08:00-20:00","fuels":{"gasoline95":1.899,"diesel":1.979,"dieselPremium":2.039},"extra":{"saleType":"P","margin":"D","reportingType":"dm","ideess":"5529","idMunicipio":"530","idProvincia":"05","idCCAA":"08"}}},{"type":"Feature","geometry":{"type":"Point","coordinates":[-4.646944,40.478194]},"properties":{"id":"es-5533","source":"ES","brand":"REPSOL","address":"CALLE REAL DE ARRIBA, 71","municipality":"Barraco (El)","province":"ÁVILA","postalCode":"05110","schedule":"L-D: 08:00-21:00","fuels":{"gasoline95":1.899,"diesel":1.979,"dieselPremium":2.039},"extra":{"saleType":"P","margin":"I","reportingType":"dm","ideess":"5533","idMunicipio":"397","idProvincia":"05","idCCAA":"08"}}},{"type":"Feature","geometry":{"type":"Point","coordinates":[-4.629861,40.843028]},"properties":{"id":"es-5973","source":"ES","brand":"BP","address":"CARRETERA N-403 AVILA - VALLADOLID KM. 22,500","municipality":"Velayos","province":"ÁVILA","postalCode":"05292","schedule":"L: 07:00-21:30","fuels":{"gasoline95":1.789,"gasoline98":1.929,"diesel":1.949,"dieselPremium":2.039},"extra":{"saleType":"P","margin":"D","reportingType":"dm","ideess":"5973","idMunicipio":"616","idProvincia":"05","idCCAA":"08"}}},{"type":"Feature","geometry":{"type":"Point","coordinates":[-4.711639,40.661972]},"properties":{"id":"es-5974","source":"ES","brand":"BP CUATRO POSTES","address":"CARRETERA SALAMANCA KM. 23","municipality":"Ávila","province":"ÁVILA","postalCode":"05002","schedule":"L-D: 07:00-23:00","fuels":{"gasoline95":1.789,"gasoline98":1.929,"diesel":1.949,"dieselPremium":2.039,"adblue":0.9},"extra":{"saleType":"P","margin":"N","reportingType":"dm","ideess":"5974","idMunicipio":"395","idProvincia":"05","idCCAA":"08"}}},{"type":"Feature","geometry":{"type":"Point","coordinates":[-4.873083,40.803111]},"properties":{"id":"es-5980","source":"ES","brand":"PETRONOR","address":"CALLE CALZADA, S/N","municipality":"San Pedro del Arroyo","province":"ÁVILA","postalCode":"05350","schedule":"L-S: 07:00-23:00; D: 08:00-22:00","fuels":{"gasoline95":1.779,"diesel":1.919,"dieselPremium":1.979,"dieselB":1.529,"adblue":1.049},"extra":{"saleType":"P","margin":"D","reportingType":"dm","ideess":"5980","idMunicipio":"581","idProvincia":"05","idCCAA":"08"}}},{"type":"Feature","geometry":{"type":"Point","coordinates":[-4.873278,40.802917]},"properties":{"id":"es-5981","source":"ES","brand":"PETRONOR","address":"CALLE CALZADA, S/N","municipality":"San Pedro del Arroyo","province":"ÁVILA","postalCode":"05350","schedule":"L-S: 07:00-23:00; D: 08:00-22:00","fuels":{"gasoline95":1.779,"diesel":1.919,"dieselPremium":1.979,"dieselB":1.529,"adblue":1.049},"extra":{"saleType":"P","margin":"I","reportingType":"dm","ideess":"5981","idMunicipio":"581","idProvincia":"05","idCCAA":"08"}}},{"type":"Feature","geometry":{"type":"Point","coordinates":[-4.671528,40.648472]},"properties":{"id":"es-5996","source":"ES","brand":"CAMPSA","address":"CALLE HORNOS CALEROS, S/N","municipality":"Ávila","province":"ÁVILA","postalCode":"05003","schedule":"L-D: 07:00-23:00","fuels":{"gasoline95":1.779,"gasoline98":1.889,"diesel":1.919,"dieselPremium":1.979,"lpg":1.079,"adblue":1.049},"extra":{"saleType":"P","margin":"D","reportingType":"dm","ideess":"5996","idMunicipio":"395","idProvincia":"05","idCCAA":"08"}}},{"type":"Feature","geometry":{"type":"Point","coordinates":[-4.660111,40.667694]},"properties":{"id":"es-6060","source":"ES","brand":"REPSOL","address":"AVENIDA JUAN CARLOS I, S/N","municipality":"Ávila","province":"ÁVILA","postalCode":"05004","schedule":"L: 07:00-23:00","fuels":{"gasoline95":1.829,"gasoline98":1.929,"diesel":1.929,"dieselRenewable":2.019,"adblue":0.959},"extra":{"saleType":"P","margin":"I","reportingType":"dm","ideess":"6060","idMunicipio":"395","idProvincia":"05","idCCAA":"08"}}},{"type":"Feature","geometry":{"type":"Point","coordinates":[-4.427083,40.497806]},"properties":{"id":"es-6063","source":"ES","brand":"BP","address":"CARRETERA CEBREROS KM. 6,18","municipality":"Hoyo de Pinares (El)","province":"ÁVILA","postalCode":"05250","schedule":"L-D: 24H","fuels":{"gasoline95":1.719,"gasoline98":1.861,"diesel":1.929,"dieselPremium":2.019},"extra":{"saleType":"P","margin":"I","reportingType":"dm","ideess":"6063","idMunicipio":"469","idProvincia":"05","idCCAA":"08"}}},{"type":"Feature","geometry":{"type":"Point","coordinates":[-4.673333,40.661806]},"properties":{"id":"es-6065","source":"ES","brand":"MOEVE","address":"AVENIDA JUAN CARLOS I, 4","municipality":"Ávila","province":"ÁVILA","postalCode":"05004","schedule":"L-D: 07:00-23:00","fuels":{"gasoline95":1.739,"gasoline95Premium":1.799,"diesel":1.929,"dieselPremium":2.019},"extra":{"saleType":"P","margin":"I","reportingType":"dm","ideess":"6065","idMunicipio":"395","idProvincia":"05","idCCAA":"08"}}},{"type":"Feature","geometry":{"type":"Point","coordinates":[-4.112028,40.922639]},"properties":{"id":"es-6082","source":"ES","brand":"CARREFOUR","address":"POLIGONO POLÍGONO INDUSTRIAL EL CERRO, LUZ DE CASTILLA, S/N","municipality":"Segovia","province":"SEGOVIA","postalCode":"40006","schedule":"L-D: 24H","fuels":{"gasoline95":1.769,"gasoline98":1.979,"diesel":1.899,"dieselPremium":1.939},"extra":{"saleType":"P","margin":"N","reportingType":"dm","ideess":"6082","idMunicipio":"6020","idProvincia":"40","idCCAA":"08"}}},{"type":"Feature","geometry":{"type":"Point","coordinates":[-4.098417,40.965917]},"properties":{"id":"es-6097","source":"ES","brand":"Q8","address":"CARRETERA N-110 A SORIA KM 189 PARKING SUPERMERCADO KM. 110","municipality":"Lastrilla (La)","province":"SEGOVIA","postalCode":"40196","schedule":"L-V: 07:00-22:00; S-D: 08:00-22:00","fuels":{"gasoline95":1.779,"gasoline98":1.839,"diesel":1.859,"dieselPremium":1.929},"extra":{"saleType":"P","margin":"N","reportingType":"dm","ideess":"6097","idMunicipio":"5945","idProvincia":"40","idCCAA":"08"}}},{"type":"Feature","geometry":{"type":"Point","coordinates":[-4.51725,40.837444]},"properties":{"id":"es-6113","source":"ES","brand":"MOEVE","address":"CARRETERA N-6 MADRID CORUÑA KM. 94,600","municipality":"Labajos","province":"SEGOVIA","postalCode":"40146","schedule":"L-D: 06:00-22:00","fuels":{"gasoline95":1.796,"diesel":1.97,"dieselPremium":2.048,"dieselB":1.854,"adblue":0.94},"extra":{"saleType":"P","margin":"I","reportingType":"dm","ideess":"6113","idMunicipio":"5940","idProvincia":"40","idCCAA":"08"}}},{"type":"Feature","geometry":{"type":"Point","coordinates":[-4.11125,40.937778]},"properties":{"id":"es-6136","source":"ES","brand":"BALLENOIL","address":"AVDA. JUAN CARLOS I, 19 (N-603 km 94,5)","municipality":"Segovia","province":"SEGOVIA","postalCode":"40005","schedule":"L-D: 24H","fuels":{"gasoline95":1.719,"gasoline95Premium":1.739,"diesel":1.789,"dieselPremium":1.809},"extra":{"saleType":"P","margin":"D","reportingType":"OM","ideess":"6136","idMunicipio":"6020","idProvincia":"40","idCCAA":"08"}}},{"type":"Feature","geometry":{"type":"Point","coordinates":[-4.108611,40.932944]},"properties":{"id":"es-6138","source":"ES","brand":"CEPSA","address":"CALLE CARRETERA SAN RAFAEL, 5","municipality":"Segovia","province":"SEGOVIA","postalCode":"40005","schedule":"L-D: 06:00-22:00","fuels":{"gasoline95":1.769,"gasoline95Premium":1.859,"diesel":1.926,"dieselPremium":2.006},"extra":{"saleType":"P","margin":"D","reportingType":"dm","ideess":"6138","idMunicipio":"6020","idProvincia":"40","idCCAA":"08"}}},{"type":"Feature","geometry":{"type":"Point","coordinates":[-4.39875,40.770722]},"properties":{"id":"es-6146","source":"ES","brand":"BP AP6 VILLACASTIN SUR","address":"AUTOPISTA AP-6 KM. 80","municipality":"Villacastín","province":"SEGOVIA","postalCode":"40150","schedule":"L-D: 24H","fuels":{"gasoline95":1.799,"gasoline98":1.939,"diesel":1.999,"dieselPremium":2.089,"adblue":0.925},"extra":{"saleType":"P","margin":"I","reportingType":"OM","ideess":"6146","idMunicipio":"6048","idProvincia":"40","idCCAA":"08"}}},{"type":"Feature","geometry":{"type":"Point","coordinates":[-4.397611,40.771972]},"properties":{"id":"es-6147","source":"ES","brand":"BP AP6 VILLACASTIN NORTE","address":"AUTOPISTA AP-6 KM. 80","municipality":"Villacastín","province":"SEGOVIA","postalCode":"40150","schedule":"L-D: 24H","fuels":{"gasoline95":1.799,"gasoline98":1.939,"diesel":1.999,"dieselPremium":2.089,"dieselRenewable":2.089,"adblue":0.925},"extra":{"saleType":"P","margin":"D","reportingType":"OM","ideess":"6147","idMunicipio":"6048","idProvincia":"40","idCCAA":"08"}}},{"type":"Feature","geometry":{"type":"Point","coordinates":[-4.599694,40.99525]},"properties":{"id":"es-6167","source":"ES","brand":"REPSOL","address":"CARRETERA N-601 KM. 116,3","municipality":"Martín Muñoz de las Posadas","province":"SEGOVIA","postalCode":"40446","schedule":"L-S: 07:00-22:00; D: 08:00-22:00","fuels":{"gasoline95":1.749,"gasoline98":1.929,"diesel":1.899,"dieselB":1.559,"dieselRenewable":2.019},"extra":{"saleType":"P","margin":"I","reportingType":"dm","ideess":"6167","idMunicipio":"5952","idProvincia":"40","idCCAA":"08"}}},{"type":"Feature","geometry":{"type":"Point","coordinates":[-4.460889,40.7975]},"properties":{"id":"es-6177","source":"ES","brand":"GALP","address":"AUTOPISTA A6 KM. 0","municipality":"Villacastín","province":"SEGOVIA","postalCode":"40150","schedule":"L-D: 24H","fuels":{"gasoline95":1.694,"gasoline98":1.834,"diesel":1.874,"dieselPremium":1.964,"dieselB":1.529,"adblue":0.799},"extra":{"saleType":"P","margin":"D","reportingType":"OM","ideess":"6177","idMunicipio":"6048","idProvincia":"40","idCCAA":"08"}}},{"type":"Feature","geometry":{"type":"Point","coordinates":[-4.234611,40.717417]},"properties":{"id":"es-6186","source":"ES","brand":"REPSOL","address":"PASEO DE LAS PEÑITAS, 104","municipality":"Espinar (El)","province":"SEGOVIA","postalCode":"40400","schedule":"L-V: 06:00-22:00; S-D: 07:00-22:00","fuels":{"gasoline95":1.846,"diesel":1.99,"dieselRenewable":2.11},"extra":{"saleType":"P","margin":"D","reportingType":"OM","ideess":"6186","idMunicipio":"5914","idProvincia":"40","idCCAA":"08"}}},{"type":"Feature","geometry":{"type":"Point","coordinates":[-4.148778,40.998861]},"properties":{"id":"es-6188","source":"ES","brand":"REPSOL","address":"CARRETERA CL-601 KM. 100,800","municipality":"Valseca","province":"SEGOVIA","postalCode":"40390","schedule":"L-D: 07:00-23:00","fuels":{"gasoline95":1.84,"gasoline98":2.01,"diesel":1.98,"dieselPremium":2.05},"extra":{"saleType":"P","margin":"I","reportingType":"OM","ideess":"6188","idMunicipio":"6042","idProvincia":"40","idCCAA":"08"}}},{"type":"Feature","geometry":{"type":"Point","coordinates":[-4.105694,40.941472]},"properties":{"id":"es-6204","source":"ES","brand":"REPSOL","address":"CALLE LOS DORADORES, 6","municipality":"Segovia","province":"SEGOVIA","postalCode":"40004","schedule":"L-V: 07:00-23:00; S-D: 08:00-22:00","fuels":{"gasoline95":1.82,"gasoline98":2.0,"diesel":1.96,"dieselRenewable":2.08},"extra":{"saleType":"P","margin":"I","reportingType":"OM","ideess":"6204","idMunicipio":"6020","idProvincia":"40","idCCAA":"08"}}},{"type":"Feature","geometry":{"type":"Point","coordinates":[-4.112417,40.936222]},"properties":{"id":"es-6244","source":"ES","brand":"REPSOL","address":"CL PLAZA PUERTA MADRID S.N.","municipality":"Segovia","province":"SEGOVIA","postalCode":"40006","schedule":"L-V: 07:30-18:30; S: 09:00-15:30","fuels":{"gasoline95":1.81,"diesel":1.966},"extra":{"saleType":"P","margin":"D","reportingType":"OM","ideess":"6244","idMunicipio":"6020","idProvincia":"40","idCCAA":"08"}}},{"type":"Feature","geometry":{"type":"Point","coordinates":[-4.115778,40.948194]},"properties":{"id":"es-6249","source":"ES","brand":"REPSOL","address":"AVENIDA PADRE CLARET (DEL), 8","municipality":"Segovia","province":"SEGOVIA","postalCode":"40001","schedule":"L-V: 07:30-22:00; S-D: 08:00-22:00","fuels":{"gasoline95":1.82,"gasoline98":2.0,"diesel":1.96,"dieselPremium":2.06},"extra":{"saleType":"P","margin":"D","reportingType":"dm","ideess":"6249","idMunicipio":"6020","idProvincia":"40","idCCAA":"08"}}},{"type":"Feature","geometry":{"type":"Point","coordinates":[-4.263944,40.986333]},"properties":{"id":"es-6253","source":"ES","brand":"CAMPSA","address":"CARRETERA C L 605 DE SEGOVIA A ZAMORA KM. 14","municipality":"Garcillán","province":"SEGOVIA","postalCode":"40120","schedule":"L: 07:00-23:00","fuels":{"gasoline95":1.819,"gasoline98":1.999,"diesel":1.966,"dieselB":1.549,"dieselRenewable":2.076},"extra":{"saleType":"P","margin":"I","reportingType":"dm","ideess":"6253","idMunicipio":"5930","idProvincia":"40","idCCAA":"08"}}},{"type":"Feature","geometry":{"type":"Point","coordinates":[-4.020333,40.904472]},"properties":{"id":"es-6265","source":"ES","brand":"REPSOL","address":"CR CL-601, 120,1  I","municipality":"San Ildefonso","province":"SEGOVIA","postalCode":"40100","schedule":"L: 07:00-23:00","fuels":{"gasoline95":1.819,"gasoline98":1.999,"diesel":1.966,"dieselRenewable":2.076},"extra":{"saleType":"P","margin":"I","reportingType":"dm","ideess":"6265","idMunicipio":"6006","idProvincia":"40","idCCAA":"08"}}},{"type":"Feature","geometry":{"type":"Point","coordinates":[-4.122944,40.946111]},"properties":{"id":"es-6309","source":"ES","brand":"REPSOL","address":"PASEO EZEQUIEL GONZALEZ, 28","municipality":"Segovia","province":"SEGOVIA","postalCode":"40002","schedule":"L-D: 24H","fuels":{"gasoline95":1.819,"gasoline98":1.999,"diesel":1.966,"dieselRenewable":2.076},"extra":{"saleType":"P","margin":"D","reportingType":"dm","ideess":"6309","idMunicipio":"6020","idProvincia":"40","idCCAA":"08"}}},{"type":"Feature","geometry":{"type":"Point","coordinates":[-4.398917,40.777556]},"properties":{"id":"es-6315","source":"ES","brand":"E.S. VILLACASTIN, S.L.","address":"CARRETERA N-VI KM. 82","municipality":"Villacastín","province":"SEGOVIA","postalCode":"40150","schedule":"L-D: 06:00-23:00","fuels":{"gasoline95":1.713,"gasoline98":1.793,"diesel":1.873,"dieselPremium":1.953,"dieselB":1.538},"extra":{"saleType":"P","margin":"I","reportingType":"dm","ideess":"6315","idMunicipio":"6048","idProvincia":"40","idCCAA":"08"}}},{"type":"Feature","geometry":{"type":"Point","coordinates":[-4.298139,40.749194]},"properties":{"id":"es-6393","source":"ES","brand":"BP","address":"CARRETERA N-VI KM. 72","municipality":"Navas de San Antonio","province":"SEGOVIA","postalCode":"40408","schedule":"L-D: 07:00-23:00","fuels":{"gasoline95":1.713,"gasoline98":1.793,"diesel":1.873,"dieselPremium":1.953},"extra":{"saleType":"P","margin":"D","reportingType":"dm","ideess":"6393","idMunicipio":"5976","idProvincia":"40","idCCAA":"08"}}},{"type":"Feature","geometry":{"type":"Point","coordinates":[-4.462889,40.7975]},"properties":{"id":"es-6401","source":"ES","brand":"GALP","address":"AUTOPISTA A6 KM. 0","municipality":"Villacastín","province":"SEGOVIA","postalCode":"40150","schedule":"L-D: 06:00-22:00","fuels":{"gasoline95":1.694,"gasoline98":1.834,"diesel":1.874,"dieselPremium":1.964,"dieselB":1.529,"adblue":0.799},"extra":{"saleType":"P","margin":"I","reportingType":"OM","ideess":"6401","idMunicipio":"6048","idProvincia":"40","idCCAA":"08"}}},{"type":"Feature","geometry":{"type":"Point","coordinates":[-4.188389,40.713472]},"properties":{"id":"es-6423","source":"ES","brand":"GASOLINERA EL ESPINAR DE SAN RAFAEL","address":"AVDA. ALTO DEL LEÓN, Nº 3","municipality":"Espinar (El)","province":"SEGOVIA","postalCode":"40410","schedule":"L-D: 06:00-22:00","fuels":{"gasoline95":1.749,"diesel":1.769},"extra":{"saleType":"P","margin":"N","reportingType":"OM","ideess":"6423","idMunicipio":"5914","idProvincia":"40","idCCAA":"08"}}},{"type":"Feature","geometry":{"type":"Point","coordinates":[-4.663,40.750389]},"properties":{"id":"es-8065","source":"ES","brand":"MINGORRIA","address":"N-403 km 148,5","municipality":"Mingorría","province":"ÁVILA","postalCode":"05280","schedule":"L-V: 08:00-14:00","fuels":{"gasoline95":1.799,"diesel":1.899,"dieselB":1.39},"extra":{"saleType":"P","margin":"D","reportingType":"dm","ideess":"8065","idMunicipio":"495","idProvincia":"05","idCCAA":"08"}}},{"type":"Feature","geometry":{"type":"Point","coordinates":[-4.10975,40.543472]},"properties":{"id":"es-8461","source":"ES","brand":"SHELL","address":"CARRETERA M-600 KM. 14","municipality":"Valdemorillo","province":"MADRID","postalCode":"28210","schedule":"L-D: 06:00-00:00","fuels":{"gasoline95":1.809,"gasoline98":1.949,"diesel":1.884,"dieselPremium":1.964},"extra":{"saleType":"P","margin":"N","reportingType":"OM","ideess":"8461","idMunicipio":"4431","idProvincia":"28","idCCAA":"13"}}},{"type":"Feature","geometry":{"type":"Point","coordinates":[-4.014944,40.468806]},"properties":{"id":"es-8464","source":"ES","brand":"SHELL","address":"CARRETERA M-600 KM. 28","municipality":"Villanueva de la Cañada","province":"MADRID","postalCode":"28691","schedule":"L-D: 24H","fuels":{"gasoline95":1.818,"gasoline98":1.958,"diesel":1.894,"dieselPremium":1.974,"lpg":1.029,"adblue":1.25},"extra":{"saleType":"P","margin":"I","reportingType":"OM","ideess":"8464","idMunicipio":"4447","idProvincia":"28","idCCAA":"13"}}},{"type":"Feature","geometry":{"type":"Point","coordinates":[-4.075417,40.223417]},"properties":{"id":"es-8537","source":"ES","brand":"SHELL","address":"CARRETERA N-V KM. 40","municipality":"Casarrubios del Monte","province":"TOLEDO","postalCode":"45950","schedule":"L-D: 24H","fuels":{"gasoline95":1.804,"gasoline98":1.944,"diesel":1.909,"dieselPremium":1.989,"lpg":0.999,"adblue":1.25},"extra":{"saleType":"P","margin":"D","reportingType":"OM","ideess":"8537","idMunicipio":"6802","idProvincia":"45","idCCAA":"07"}}},{"type":"Feature","geometry":{"type":"Point","coordinates":[-4.015306,40.467944]},"properties":{"id":"es-8578","source":"ES","brand":"SHELL","address":"CARRETERA M-600 KM. 28","municipality":"Villanueva de la Cañada","province":"MADRID","postalCode":"28691","schedule":"L-D: 06:00-22:00","fuels":{"gasoline95":1.818,"gasoline98":1.958,"diesel":1.894,"dieselPremium":1.974,"adblue":1.25},"extra":{"saleType":"P","margin":"D","reportingType":"OM","ideess":"8578","idMunicipio":"4447","idProvincia":"28","idCCAA":"13"}}},{"type":"Feature","geometry":{"type":"Point","coordinates":[-4.042028,40.190611]},"properties":{"id":"es-8816","source":"ES","brand":"PETROCASARRUBIOS","address":"PASEO ERMITA, 5","municipality":"Casarrubios del Monte","province":"TOLEDO","postalCode":"45950","schedule":"L-D: 24H","fuels":{"diesel":1.46,"dieselB":1.2},"extra":{"saleType":"P","margin":"N","reportingType":"dm","ideess":"8816","idMunicipio":"6802","idProvincia":"45","idCCAA":"07"}}},{"type":"Feature","geometry":{"type":"Point","coordinates":[-4.057528,40.244667]},"properties":{"id":"es-8905","source":"ES","brand":"SHELL","address":"AUTOPISTA A-5 KM. 37,5","municipality":"Casarrubios del Monte","province":"TOLEDO","postalCode":"45950","schedule":"L-V: 06:00-00:00; S: 07:00-23:00; D: 07:00-00:00","fuels":{"gasoline95":1.769,"gasoline98":1.899,"diesel":1.899,"dieselPremium":1.999},"extra":{"saleType":"P","margin":"I","reportingType":"dm","ideess":"8905","idMunicipio":"6802","idProvincia":"45","idCCAA":"07"}}},{"type":"Feature","geometry":{"type":"Point","coordinates":[-4.969306,40.930639]},"properties":{"id":"es-9328","source":"ES","brand":"SAN JUAN DE LA CRUZ","address":"SALVADIOS-ALDEASECA km 10","municipality":"Fontiveros","province":"ÁVILA","postalCode":"05310","schedule":"L-S: 08:00-15:00 y 17:00-20:00","fuels":{"gasoline95":1.698,"diesel":1.778,"dieselPremium":1.822},"extra":{"saleType":"P","margin":"I","reportingType":"dm","ideess":"9328","idMunicipio":"444","idProvincia":"05","idCCAA":"08"}}}]}