{"type":"FeatureCollection","features":[{"type":"Feature","geometry":{"type":"Point","coordinates":[-13.562444,29.050417]},"properties":{"id":"es-11870","source":"ES","brand":"CEPSA","address":"CARRETERA ARRECIFE-HARIA KM. 9,3","municipality":"Teguise","province":"PALMAS (LAS)","postalCode":"35509","schedule":"L-D: 07:30-22:30","fuels":{"gasoline95":1.469,"gasoline98":1.599,"diesel":1.499,"dieselPremium":1.599},"extra":{"saleType":"P","margin":"D","reportingType":"dm","ideess":"11870","idMunicipio":"5256","idProvincia":"35","idCCAA":"05"}}},{"type":"Feature","geometry":{"type":"Point","coordinates":[-13.489611,29.060167]},"properties":{"id":"es-12848","source":"ES","brand":"CEPSA","address":"CALLE PARAJE DE VEGA VIEJA CTRA. LZ 1 P.K. 12,5, S/N","municipality":"Teguise","province":"PALMAS (LAS)","postalCode":"35544","schedule":"L-D: 07:00-23:00","fuels":{"gasoline95":1.469,"gasoline98":1.599,"diesel":1.499,"dieselPremium":1.599},"extra":{"saleType":"P","margin":"D","reportingType":"dm","ideess":"12848","idMunicipio":"5256","idProvincia":"35","idCCAA":"05"}}},{"type":"Feature","geometry":{"type":"Point","coordinates":[-13.564889,29.056778]},"properties":{"id":"es-7641","source":"ES","brand":"CEPSA","address":"CARRETERA TEGUISE-MOZAGA KM. 0","municipality":"Teguise","province":"PALMAS (LAS)","postalCode":"35530","schedule":"L-D: 06:30-22:30","fuels":{"gasoline95":1.469,"gasoline98":1.599,"diesel":1.499,"dieselPremium":1.599},"extra":{"saleType":"P","margin":"I","reportingType":"dm","ideess":"7641","idMunicipio":"5256","idProvincia":"35","idCCAA":"05"}}},{"type":"Feature","geometry":{"type":"Point","coordinates":[-13.497667,29.148889]},"properties":{"id":"es-7648","source":"ES","brand":"TGAS HARÍA","address":"CALLE CRUZ DE FERRER, 10","municipality":"Haría","province":"PALMAS (LAS)","postalCode":"35520","schedule":"L-V: 07:00-18:00; S-D: 07:30-18:00","fuels":{"gasoline95":1.499,"gasoline98":1.599,"diesel":1.56,"lpg":0.879},"extra":{"saleType":"P","margin":"D","reportingType":"dm","ideess":"7648","idMunicipio":"5243","idProvincia":"35","idCCAA":"05"}}},{"type":"Feature","geometry":{"type":"Point","coordinates":[-13.67075,29.065028]},"properties":{"id":"es-7655","source":"ES","brand":"MOEVE TINAJO","address":"AVENIDA LAS VEGAS, 9","municipality":"Tinajo","province":"PALMAS (LAS)","postalCode":"35550","schedule":"L-V: 06:00-22:00; S: 06:30-22:30; D: 08:00-15:30","fuels":{"gasoline95":1.469,"gasoline98":1.599,"diesel":1.499,"dieselPremium":1.599,"adblue":1.5},"extra":{"saleType":"P","margin":"N","reportingType":"dm","ideess":"7655","idMunicipio":"5261","idProvincia":"35","idCCAA":"05"}}},{"type":"Feature","geometry":{"type":"Point","coordinates":[-13.503861,29.000444]},"properties":{"id":"es-7741","source":"ES","brand":"DISA TEGUISE GOLF","address":"AVENIDA CAMPO DE GOLF, S/N","municipality":"Teguise","province":"PALMAS (LAS)","postalCode":"35000","schedule":"L-D: 06:00-22:00","fuels":{"gasoline95":1.489,"gasoline98":1.559,"diesel":1.539,"dieselPremium":1.619},"extra":{"saleType":"P","margin":"D","reportingType":"OM","ideess":"7741","idMunicipio":"5256","idProvincia":"35","idCCAA":"05"}}},{"type":"Feature","geometry":{"type":"Point","coordinates":[-13.464861,29.131722]},"properties":{"id":"es-7743","source":"ES","brand":"PCAN ARRIETA","address":"CARRETERA GENERAL DEL NORTE KM. 16,1","municipality":"Haría","province":"PALMAS (LAS)","postalCode":"35542","schedule":"L-D: 24H","fuels":{"gasoline95":1.449,"gasoline98":1.569,"diesel":1.449},"extra":{"saleType":"P","margin":"D","reportingType":"dm","ideess":"7743","idMunicipio":"5243","idProvincia":"35","idCCAA":"05"}}},{"type":"Feature","geometry":{"type":"Point","coordinates":[-13.614111,29.012472]},"properties":{"id":"es-7908","source":"ES","brand":"DISA","address":"GC-740 a Tinajo km 7,7","municipality":"San Bartolomé","province":"PALMAS (LAS)","postalCode":"35550","schedule":"L-D: 24H","fuels":{"gasoline95":1.484,"gasoline98":1.599,"diesel":1.499,"dieselPremium":1.599},"extra":{"saleType":"P","margin":"N","reportingType":"dm","ideess":"7908","idMunicipio":"5251","idProvincia":"35","idCCAA":"05"}}}]}