{"type":"FeatureCollection","features":[{"type":"Feature","geometry":{"type":"Point","coordinates":[4.259028,39.8585]},"properties":{"id":"es-13028","source":"ES","brand":"EROSKI","address":"AVENIDA TALAIOT, 1","municipality":"Sant Lluís","province":"BALEARS (ILLES)","postalCode":"07710","schedule":"L-D: 24H","fuels":{"gasoline95":1.709,"diesel":1.789},"extra":{"saleType":"P","margin":"D","reportingType":"dm","ideess":"13028","idMunicipio":"848","idProvincia":"07","idCCAA":"04"}}},{"type":"Feature","geometry":{"type":"Point","coordinates":[4.246694,39.884917]},"properties":{"id":"es-13150","source":"ES","brand":"AUTONETOIL","address":"CARRER ARTRUXT, 7","municipality":"Mahón","province":"BALEARS (ILLES)","postalCode":"07714","schedule":"L-D: 24H","fuels":{"gasoline95":1.709,"diesel":1.829,"dieselPremium":1.859},"extra":{"saleType":"P","margin":"D","reportingType":"dm","ideess":"13150","idMunicipio":"829","idProvincia":"07","idCCAA":"04"}}},{"type":"Feature","geometry":{"type":"Point","coordinates":[4.081806,39.987722]},"properties":{"id":"es-13267","source":"ES","brand":"CARBURANTS LOW COST","address":"CALLE B, 35","municipality":"Mercadal (Es)","province":"BALEARS (ILLES)","postalCode":"07740","schedule":"L-D: 24H","fuels":{"gasoline95Premium":1.809,"dieselPremium":1.929},"extra":{"saleType":"P","margin":"D","reportingType":"dm","ideess":"13267","idMunicipio":"832","idProvincia":"07","idCCAA":"04"}}},{"type":"Feature","geometry":{"type":"Point","coordinates":[4.240472,39.883917]},"properties":{"id":"es-13465","source":"ES","brand":"GMOIL","address":"CALLE BAJOLI ( POLIGONO INDUSTRIAL ARTRUIX ), 39","municipality":"Mahón","province":"BALEARS (ILLES)","postalCode":"07714","schedule":"L-D: 24H","fuels":{"gasoline95":1.709,"diesel":1.789},"extra":{"saleType":"P","margin":"D","reportingType":"dm","ideess":"13465","idMunicipio":"829","idProvincia":"07","idCCAA":"04"}}},{"type":"Feature","geometry":{"type":"Point","coordinates":[4.249,39.888806]},"properties":{"id":"es-13493","source":"ES","brand":"GALP","address":"AVENIDA CAP DE CAVALLERIA, 14","municipality":"Mahón","province":"BALEARS (ILLES)","postalCode":"07714","schedule":"L-D: 24H","fuels":{"gasoline95":1.869,"diesel":1.949},"extra":{"saleType":"P","margin":"D","reportingType":"dm","ideess":"13493","idMunicipio":"829","idProvincia":"07","idCCAA":"04"}}},{"type":"Feature","geometry":{"type":"Point","coordinates":[4.227833,39.863861]},"properties":{"id":"es-16363","source":"ES","brand":"MOEVE","address":"CARRETERA AEROPUERTO (ZONA AIRE) KM. 5","municipality":"Mahón","province":"BALEARS (ILLES)","postalCode":"07712","schedule":"L-D: 24H","fuels":{"diesel":1.999,"dieselB":1.999},"extra":{"saleType":"P","margin":"D","reportingType":"dm","ideess":"16363","idMunicipio":"829","idProvincia":"07","idCCAA":"04"}}},{"type":"Feature","geometry":{"type":"Point","coordinates":[4.248833,39.889389]},"properties":{"id":"es-16388","source":"ES","brand":"PLENERGY","address":"RONDA RONDA DE MAÓ, 4","municipality":"Mahón","province":"BALEARS (ILLES)","postalCode":"07714","schedule":"L-D: 24H","fuels":{"gasoline95":1.759,"diesel":1.829},"extra":{"saleType":"P","margin":"D","reportingType":"dm","ideess":"16388","idMunicipio":"829","idProvincia":"07","idCCAA":"04"}}},{"type":"Feature","geometry":{"type":"Point","coordinates":[4.259056,39.852722]},"properties":{"id":"es-2580","source":"ES","brand":"BP SAN LUIS","address":"AVENIDA DE SA PAU, 6","municipality":"Sant Lluís","province":"BALEARS (ILLES)","postalCode":"07710","schedule":"L-D: 24H","fuels":{"gasoline95":1.859,"diesel":1.989,"dieselPremium":2.099},"extra":{"saleType":"P","margin":"N","reportingType":"dm","ideess":"2580","idMunicipio":"848","idProvincia":"07","idCCAA":"04"}}},{"type":"Feature","geometry":{"type":"Point","coordinates":[4.186722,39.908333]},"properties":{"id":"es-2590","source":"ES","brand":"MOEVE","address":"CARRETERA ME721 KM. 7,200","municipality":"Alaior","province":"BALEARS (ILLES)","postalCode":"07730","schedule":"L: 07:00-21:00","fuels":{"gasoline95":1.999,"diesel":2.039},"extra":{"saleType":"P","margin":"D","reportingType":"dm","ideess":"2590","idMunicipio":"794","idProvincia":"07","idCCAA":"04"}}},{"type":"Feature","geometry":{"type":"Point","coordinates":[4.186722,39.908361]},"properties":{"id":"es-2591","source":"ES","brand":"MOEVE","address":"CARRETERA COMARCAL 721 KM. 7200","municipality":"Alaior","province":"BALEARS (ILLES)","postalCode":"07730","schedule":"L-D: 06:00-23:00","fuels":{"gasoline95":1.999,"diesel":2.039},"extra":{"saleType":"P","margin":"I","reportingType":"dm","ideess":"2591","idMunicipio":"794","idProvincia":"07","idCCAA":"04"}}},{"type":"Feature","geometry":{"type":"Point","coordinates":[4.259389,39.881972]},"properties":{"id":"es-2598","source":"ES","brand":"CEPSA","address":"AVENIDA JOSE ANSELMO CLAVE, S/N","municipality":"Mahón","province":"BALEARS (ILLES)","postalCode":"07703","schedule":"L-D: 24H","fuels":{"gasoline95":1.879,"diesel":1.979},"extra":{"saleType":"P","margin":"D","reportingType":"dm","ideess":"2598","idMunicipio":"829","idProvincia":"07","idCCAA":"04"}}},{"type":"Feature","geometry":{"type":"Point","coordinates":[4.020917,39.98775]},"properties":{"id":"es-2605","source":"ES","brand":"MOEVE","address":"CALLE DELS TEULERS, 2","municipality":"Ferreries","province":"BALEARS (ILLES)","postalCode":"07750","schedule":"L-D: 07:00-22:00","fuels":{"gasoline95":1.999,"diesel":2.039},"extra":{"saleType":"P","margin":"D","reportingType":"dm","ideess":"2605","idMunicipio":"819","idProvincia":"07","idCCAA":"04"}}},{"type":"Feature","geometry":{"type":"Point","coordinates":[4.227833,39.863861]},"properties":{"id":"es-2633","source":"ES","brand":"MOEVE","address":"CARRETERA AEROPUERTO KM. 5","municipality":"Mahón","province":"BALEARS (ILLES)","postalCode":"07701","schedule":"L-D: 07:00-22:00","fuels":{"gasoline95":2.099,"diesel":2.099},"extra":{"saleType":"P","margin":"D","reportingType":"dm","ideess":"2633","idMunicipio":"829","idProvincia":"07","idCCAA":"04"}}},{"type":"Feature","geometry":{"type":"Point","coordinates":[4.195611,39.977556]},"properties":{"id":"es-2645","source":"ES","brand":"GALP","address":"CARRETERA MAHÓN - FORNELLS KM. 12,6","municipality":"Mercadal (Es)","province":"BALEARS (ILLES)","postalCode":"07740","schedule":"L-D: 24H","fuels":{"gasoline95":1.949,"diesel":2.009},"extra":{"saleType":"P","margin":"D","reportingType":"dm","ideess":"2645","idMunicipio":"832","idProvincia":"07","idCCAA":"04"}}},{"type":"Feature","geometry":{"type":"Point","coordinates":[4.071667,39.984639]},"properties":{"id":"es-2666","source":"ES","brand":"BP","address":"CARRETERA CTRA DE MAO A CIUTADELLA ME-1 KM. 23","municipality":"Mercadal (Es)","province":"BALEARS (ILLES)","postalCode":"07740","schedule":"L-S: 07:00-21:00; D: 08:00-21:00","fuels":{"gasoline95":1.909,"diesel":2.029,"dieselPremium":2.119,"dieselB":1.729},"extra":{"saleType":"P","margin":"I","reportingType":"dm","ideess":"2666","idMunicipio":"832","idProvincia":"07","idCCAA":"04"}}},{"type":"Feature","geometry":{"type":"Point","coordinates":[4.136528,39.931667]},"properties":{"id":"es-2669","source":"ES","brand":"MOEVE","address":"CALLE BALMES, 55","municipality":"Alaior","province":"BALEARS (ILLES)","postalCode":"07730","schedule":"L: 07:00-22:00","fuels":{"gasoline95":1.839,"diesel":1.949},"extra":{"saleType":"P","margin":"D","reportingType":"dm","ideess":"2669","idMunicipio":"794","idProvincia":"07","idCCAA":"04"}}},{"type":"Feature","geometry":{"type":"Point","coordinates":[4.271639,39.884278]},"properties":{"id":"es-2670","source":"ES","brand":"CEPSA","address":"ROTONDA PLAZA ABU UMAR, 1","municipality":"Mahón","province":"BALEARS (ILLES)","postalCode":"07702","schedule":"L-D: 06:30-22:30","fuels":{"gasoline95":1.879,"diesel":1.979},"extra":{"saleType":"P","margin":"I","reportingType":"dm","ideess":"2670","idMunicipio":"829","idProvincia":"07","idCCAA":"04"}}},{"type":"Feature","geometry":{"type":"Point","coordinates":[4.242861,39.889583]},"properties":{"id":"es-2737","source":"ES","brand":"REPSOL","address":"CR ME-1 , 1,50","municipality":"Mahón","province":"BALEARS (ILLES)","postalCode":"07703","schedule":"L-D: 00:00-02:00 y 06:00-23:59","fuels":{"gasoline95":1.87,"diesel":2.01,"lpg":1.139},"extra":{"saleType":"P","margin":"D","reportingType":"OM","ideess":"2737","idMunicipio":"829","idProvincia":"07","idCCAA":"04"}}}]}