{"type":"FeatureCollection","features":[{"type":"Feature","geometry":{"type":"Point","coordinates":[-1.883028,43.302722]},"properties":{"id":"es-10101","source":"ES","brand":"ALCAMPO","address":"CALLE ASTIGARRAKO, 4","municipality":"Oiartzun","province":"GIPUZKOA","postalCode":"20180","schedule":"L-S: 06:00-23:00; D: 08:00-22:00","fuels":{"gasoline95":1.587,"gasoline98":1.675,"diesel":1.687,"dieselPremium":1.787},"extra":{"saleType":"P","margin":"N","reportingType":"dm","ideess":"10101","idMunicipio":"3191","idProvincia":"20","idCCAA":"16"}}},{"type":"Feature","geometry":{"type":"Point","coordinates":[-1.752694,43.335806]},"properties":{"id":"es-102","source":"ES","brand":"BIDASOIL","address":"CARRETERA N-121 A KM. 76,4","municipality":"Irun","province":"GIPUZKOA","postalCode":"20305","schedule":"L-V: 06:00-22:00; S-D: 07:00-22:00","fuels":{"gasoline95":1.699,"diesel":1.839,"dieselPremium":1.899,"adblue":0.799},"extra":{"saleType":"P","margin":"D","reportingType":"dm","ideess":"102","idMunicipio":"3176","idProvincia":"20","idCCAA":"16"}}},{"type":"Feature","geometry":{"type":"Point","coordinates":[-1.943667,43.321667]},"properties":{"id":"es-103","source":"ES","brand":"REPSOL","address":"AVENIDA SAN PEDRO, 3","municipality":"Donostia-San Sebastián","province":"GIPUZKOA","postalCode":"20017","schedule":"L-D: 06:30-22:30","fuels":{"gasoline95":1.789,"gasoline98":1.919,"diesel":1.939,"dieselPremium":1.999},"extra":{"saleType":"P","margin":"D","reportingType":"dm","ideess":"103","idMunicipio":"3157","idProvincia":"20","idCCAA":"16"}}},{"type":"Feature","geometry":{"type":"Point","coordinates":[-1.504944,43.291361]},"properties":{"id":"es-10683","source":"ES","brand":"JOSENEA  AVIA","address":"CAMINO LANDIBAR, 14","municipality":"Urdazubi/Urdax","province":"NAVARRA","postalCode":"31712","schedule":"L-D: 08:00-20:00","fuels":{"gasoline95":1.749,"gasoline98":1.909,"diesel":1.859,"dieselPremium":1.899,"lpg":0.999,"adblue":0.799},"extra":{"saleType":"P","margin":"D","reportingType":"dm","ideess":"10683","idMunicipio":"4848","idProvincia":"31","idCCAA":"15"}}},{"type":"Feature","geometry":{"type":"Point","coordinates":[-1.768694,43.337278]},"properties":{"id":"es-10746","source":"ES","brand":"GACELA","address":"CALLE ANTXOTXIPI, 10    ZAISA III, 10","municipality":"Irun","province":"GIPUZKOA","postalCode":"20305","schedule":"L-D: 24H","fuels":{"diesel":1.885},"extra":{"saleType":"P","margin":"D","reportingType":"dm","ideess":"10746","idMunicipio":"3176","idProvincia":"20","idCCAA":"16"}}},{"type":"Feature","geometry":{"type":"Point","coordinates":[-1.687444,43.309361]},"properties":{"id":"es-10778","source":"ES","brand":"AVIA","address":"BARRIO IBARDIN, S/N","municipality":"Bera/Vera de Bidasoa","province":"NAVARRA","postalCode":"31780","schedule":"L-D: 08:00-19:30","fuels":{"gasoline95":1.739,"gasoline98":1.839,"diesel":1.859,"dieselPremium":1.919,"adblue":0.825},"extra":{"saleType":"P","margin":"D","reportingType":"dm","ideess":"10778","idMunicipio":"4655","idProvincia":"31","idCCAA":"15"}}},{"type":"Feature","geometry":{"type":"Point","coordinates":[-1.764556,43.339056]},"properties":{"id":"es-10891","source":"ES","brand":"REPSOL","address":"CL ANTXOTXIPI , 15","municipality":"Irun","province":"GIPUZKOA","postalCode":"20305","schedule":"L-D: 24H","fuels":{"gasoline95":1.795,"gasoline98":1.915,"diesel":1.919,"dieselB":1.745,"dieselRenewable":2.039},"extra":{"saleType":"P","margin":"D","reportingType":"OM","ideess":"10891","idMunicipio":"3176","idProvincia":"20","idCCAA":"16"}}},{"type":"Feature","geometry":{"type":"Point","coordinates":[-1.2705,43.11725]},"properties":{"id":"es-11106","source":"ES","brand":"LUZAIDE","address":"POLIGONO POL. IND 1- PARCELA 105, 105","municipality":"Luzaide/Valcarlos","province":"NAVARRA","postalCode":"31660","schedule":"L-D: 08:15-19:15","fuels":{"gasoline95":1.826,"gasoline98":1.924,"diesel":1.881,"dieselPremium":1.931},"extra":{"saleType":"P","margin":"D","reportingType":"dm","ideess":"11106","idMunicipio":"4769","idProvincia":"31","idCCAA":"15"}}},{"type":"Feature","geometry":{"type":"Point","coordinates":[-1.69775,43.248778]},"properties":{"id":"es-11115","source":"ES","brand":"AVIA","address":"CALLE ALBISTUR, 57","municipality":"Lesaka","province":"NAVARRA","postalCode":"31770","schedule":"L-D: 24H","fuels":{"gasoline95":1.739,"diesel":1.889,"dieselB":1.639},"extra":{"saleType":"P","margin":"D","reportingType":"dm","ideess":"11115","idMunicipio":"4761","idProvincia":"31","idCCAA":"15"}}},{"type":"Feature","geometry":{"type":"Point","coordinates":[-1.692167,43.279444]},"properties":{"id":"es-11145","source":"ES","brand":"NEUMATICOS BIDASOA","address":"ZIOBI,6. POL. INDUSTRIAL ALKAIAGA","municipality":"Lesaka","province":"NAVARRA","postalCode":"31770","schedule":"L-V: 08:00-20:00; S: 08:00-14:00","fuels":{"diesel":1.689},"extra":{"saleType":"P","margin":"D","reportingType":"dm","ideess":"11145","idMunicipio":"4761","idProvincia":"31","idCCAA":"15"}}},{"type":"Feature","geometry":{"type":"Point","coordinates":[-1.453556,43.060278]},"properties":{"id":"es-11146","source":"ES","brand":"AVIA","address":"CRTA N-135 KM 18,5 QUINTO REAL","municipality":"Esteribar","province":"NAVARRA","postalCode":"31638","schedule":"M-D: 09:00-20:00","fuels":{"gasoline95":1.719,"diesel":1.779},"extra":{"saleType":"P","margin":"D","reportingType":"dm","ideess":"11146","idMunicipio":"4700","idProvincia":"31","idCCAA":"15"}}},{"type":"Feature","geometry":{"type":"Point","coordinates":[-1.680583,43.136083]},"properties":{"id":"es-1115","source":"ES","brand":"AVIA","address":"CARRETERA COMARCAL NA-170 km 31,1","municipality":"Doneztebe/Santesteban","province":"NAVARRA","postalCode":"31740","schedule":"L-D: 07:00-22:00","fuels":{"gasoline95":1.639,"diesel":1.789,"dieselB":1.479,"adblue":0.779},"extra":{"saleType":"P","margin":"N","reportingType":"dm","ideess":"1115","idMunicipio":"4688","idProvincia":"31","idCCAA":"15"}}},{"type":"Feature","geometry":{"type":"Point","coordinates":[-1.949639,43.304556]},"properties":{"id":"es-11154","source":"ES","brand":"AVIA","address":"VIAL MARTUTENE-INCHAURRONDO km 5,5","municipality":"Donostia-San Sebastián","province":"GIPUZKOA","postalCode":"20012","schedule":"L-D: 24H","fuels":{"gasoline95":1.659,"gasoline98":1.819,"diesel":1.749,"dieselPremium":1.869,"adblue":0.899},"extra":{"saleType":"P","margin":"D","reportingType":"dm","ideess":"11154","idMunicipio":"3157","idProvincia":"20","idCCAA":"16"}}},{"type":"Feature","geometry":{"type":"Point","coordinates":[-1.681202,43.2545]},"properties":{"id":"es-11194","source":"ES","brand":"TRANSPORTES BIDASOA","address":"CARRETERA LESAKA-OIARTZUN km 0.1","municipality":"Lesaka","province":"NAVARRA","postalCode":"31770","schedule":"L-D: 24H","fuels":{"diesel":1.906},"extra":{"saleType":"P","margin":"I","reportingType":"dm","ideess":"11194","idMunicipio":"4761","idProvincia":"31","idCCAA":"15"}}},{"type":"Feature","geometry":{"type":"Point","coordinates":[-1.710056,43.278278]},"properties":{"id":"es-1136","source":"ES","brand":"REPSOL","address":"CARRETERA NA-121 A KM. 77,39","municipality":"Bera/Vera de Bidasoa","province":"NAVARRA","postalCode":"31780","schedule":"L-D: 06:00-22:00","fuels":{"gasoline95":1.759,"diesel":1.905,"dieselB":1.655},"extra":{"saleType":"P","margin":"I","reportingType":"OM","ideess":"1136","idMunicipio":"4655","idProvincia":"31","idCCAA":"15"}}},{"type":"Feature","geometry":{"type":"Point","coordinates":[-1.708583,43.278111]},"properties":{"id":"es-1137","source":"ES","brand":"REPSOL","address":"CARRETERA NA-121A KM. 77,3","municipality":"Bera/Vera de Bidasoa","province":"NAVARRA","postalCode":"31780","schedule":"L-D: 24H","fuels":{"gasoline95":1.759,"diesel":1.905,"dieselB":1.655,"dieselRenewable":2.025},"extra":{"saleType":"P","margin":"D","reportingType":"OM","ideess":"1137","idMunicipio":"4655","idProvincia":"31","idCCAA":"15"}}},{"type":"Feature","geometry":{"type":"Point","coordinates":[-1.870861,43.327306]},"properties":{"id":"es-11537","source":"ES","brand":"GALP","address":"CARRETERA GI 2638 KM. 3,300","municipality":"Lezo","province":"GIPUZKOA","postalCode":"20100","schedule":"L-D: 24H","fuels":{"diesel":1.839},"extra":{"saleType":"P","margin":"I","reportingType":"OM","ideess":"11537","idMunicipio":"3186","idProvincia":"20","idCCAA":"16"}}},{"type":"Feature","geometry":{"type":"Point","coordinates":[-1.753694,43.338528]},"properties":{"id":"es-116","source":"ES","brand":"REPSOL","address":"CALLE COMETE SAREA, 1","municipality":"Irun","province":"GIPUZKOA","postalCode":"20305","schedule":"L-D: 24H","fuels":{"gasoline95":1.799,"diesel":1.875,"dieselB":1.739,"adblue":1.249},"extra":{"saleType":"P","margin":"N","reportingType":"dm","ideess":"116","idMunicipio":"3176","idProvincia":"20","idCCAA":"16"}}},{"type":"Feature","geometry":{"type":"Point","coordinates":[-1.861306,43.317417]},"properties":{"id":"es-11763","source":"ES","brand":"GEXA","address":"CALLE ARAÑABURU 3-D, 3","municipality":"Oiartzun","province":"GIPUZKOA","postalCode":"20180","schedule":"L-D: 24H","fuels":{"diesel":1.825,"adblue":0.986},"extra":{"saleType":"P","margin":"N","reportingType":"dm","ideess":"11763","idMunicipio":"3191","idProvincia":"20","idCCAA":"16"}}},{"type":"Feature","geometry":{"type":"Point","coordinates":[-1.572778,43.140028]},"properties":{"id":"es-11843","source":"ES","brand":"NAFAR MENDI","address":"CARRETERA NA-121B KM. 45","municipality":"Baztan","province":"NAVARRA","postalCode":"31794","schedule":"L-D: 06:00-22:00","fuels":{"gasoline95":1.659,"gasoline98":1.799,"diesel":1.769,"dieselPremium":1.779},"extra":{"saleType":"P","margin":"D","reportingType":"dm","ideess":"11843","idMunicipio":"4651","idProvincia":"31","idCCAA":"15"}}},{"type":"Feature","geometry":{"type":"Point","coordinates":[-1.505806,43.290556]},"properties":{"id":"es-11852","source":"ES","brand":"REPSOL","address":"CARRETERA N-121 KM. 79,5","municipality":"Urdazubi/Urdax","province":"NAVARRA","postalCode":"31712","schedule":"L-V: 09:00-18:00; S-D: 10:00-19:00","fuels":{"gasoline95":1.805,"gasoline98":1.925,"diesel":1.879,"dieselPremium":1.969,"lpg":1.159},"extra":{"saleType":"P","margin":"D","reportingType":"OM","ideess":"11852","idMunicipio":"4848","idProvincia":"31","idCCAA":"15"}}},{"type":"Feature","geometry":{"type":"Point","coordinates":[-1.505806,43.289583]},"properties":{"id":"es-11857","source":"ES","brand":"CEPSA","address":"BARRIO DANTXARINEA, 2","municipality":"Urdazubi/Urdax","province":"NAVARRA","postalCode":"31711","schedule":"L-D: 08:00-19:00","fuels":{"gasoline95":1.749,"gasoline98":1.909,"diesel":1.859,"dieselPremium":1.959},"extra":{"saleType":"P","margin":"D","reportingType":"dm","ideess":"11857","idMunicipio":"4848","idProvincia":"31","idCCAA":"15"}}},{"type":"Feature","geometry":{"type":"Point","coordinates":[-1.611139,43.137472]},"properties":{"id":"es-1193","source":"ES","brand":"ZONA AUTO MUGAIRE AVIA","address":"CR N-121, 48","municipality":"Baztan","province":"NAVARRA","postalCode":"31720","schedule":"L-D: 24H","fuels":{"gasoline95":1.699,"diesel":1.799,"dieselB":1.419,"adblue":0.799},"extra":{"saleType":"P","margin":"D","reportingType":"dm","ideess":"1193","idMunicipio":"4651","idProvincia":"31","idCCAA":"15"}}},{"type":"Feature","geometry":{"type":"Point","coordinates":[-1.512361,43.148639]},"properties":{"id":"es-1194","source":"ES","brand":"CAMPSA","address":"CR N-121B, 59 (N-121B km 58)","municipality":"Baztan","province":"NAVARRA","postalCode":"31700","schedule":"L-D: 06:00-22:00","fuels":{"gasoline95":1.765,"diesel":1.935,"dieselPremium":2.045,"dieselB":1.615},"extra":{"saleType":"P","margin":"D","reportingType":"OM","ideess":"1194","idMunicipio":"4651","idProvincia":"31","idCCAA":"15"}}},{"type":"Feature","geometry":{"type":"Point","coordinates":[-1.271333,43.116889]},"properties":{"id":"es-11981","source":"ES","brand":"ASLE","address":"BARRIO PEKOTXETA, S/N","municipality":"Luzaide/Valcarlos","province":"NAVARRA","postalCode":"31669","schedule":"L: 08:00-19:30","fuels":{"gasoline95":1.826,"gasoline98":1.924,"diesel":1.881,"dieselPremium":1.931,"lpg":1.069,"adblue":0.899},"extra":{"saleType":"P","margin":"I","reportingType":"dm","ideess":"11981","idMunicipio":"4769","idProvincia":"31","idCCAA":"15"}}},{"type":"Feature","geometry":{"type":"Point","coordinates":[-1.687167,43.270833]},"properties":{"id":"es-1201","source":"ES","brand":"PETRONOR","address":"CR N-121, 75","municipality":"Bera/Vera de Bidasoa","province":"NAVARRA","postalCode":"31780","schedule":"L-S: 07:00-22:00; D: 08:00-14:00","fuels":{"gasoline95":1.759,"diesel":1.895,"dieselPremium":2.005,"dieselB":1.645},"extra":{"saleType":"P","margin":"I","reportingType":"OM","ideess":"1201","idMunicipio":"4655","idProvincia":"31","idCCAA":"15"}}},{"type":"Feature","geometry":{"type":"Point","coordinates":[-1.955944,43.058806]},"properties":{"id":"es-1203","source":"ES","brand":"MOEVE","address":"AUTOVIA A-15 (MRG.DCHO.) KM. 134,4","municipality":"Larraun","province":"NAVARRA","postalCode":"31877","schedule":"L-D: 24H","fuels":{"gasoline95":1.794,"gasoline95Premium":1.894,"diesel":1.904,"dieselPremium":2.004},"extra":{"saleType":"P","margin":"D","reportingType":"OM","ideess":"1203","idMunicipio":"4751","idProvincia":"31","idCCAA":"15"}}},{"type":"Feature","geometry":{"type":"Point","coordinates":[-1.957306,43.059111]},"properties":{"id":"es-1204","source":"ES","brand":"MOEVE","address":"AUTOVIA A-15 (MRG.IZDO.) KM. 134,5","municipality":"Larraun","province":"NAVARRA","postalCode":"31877","schedule":"L-D: 24H","fuels":{"gasoline95":1.794,"gasoline95Premium":1.894,"diesel":1.904,"dieselPremium":2.004},"extra":{"saleType":"P","margin":"I","reportingType":"OM","ideess":"1204","idMunicipio":"4751","idProvincia":"31","idCCAA":"15"}}},{"type":"Feature","geometry":{"type":"Point","coordinates":[-1.982444,43.279778]},"properties":{"id":"es-12045","source":"ES","brand":"REPSOL","address":"AUTOPISTA AP-8 KM. 22","municipality":"Hernani","province":"GIPUZKOA","postalCode":"20120","schedule":"L-D: 24H","fuels":{"gasoline95":1.799,"gasoline98":1.919,"diesel":1.969,"dieselB":1.735,"dieselRenewable":2.089,"lpg":1.165},"extra":{"saleType":"P","margin":"D","reportingType":"OM","ideess":"12045","idMunicipio":"3170","idProvincia":"20","idCCAA":"16"}}},{"type":"Feature","geometry":{"type":"Point","coordinates":[-1.98425,43.278472]},"properties":{"id":"es-12046","source":"ES","brand":"REPSOL","address":"AUTOPISTA AP-8 KM. 22","municipality":"Hernani","province":"GIPUZKOA","postalCode":"20120","schedule":"L-D: 24H","fuels":{"gasoline95":1.799,"gasoline98":1.919,"diesel":1.969,"dieselB":1.729,"dieselRenewable":2.089,"lpg":1.175,"cng":1.594,"lng":1.569},"extra":{"saleType":"P","margin":"I","reportingType":"OM","ideess":"12046","idMunicipio":"3170","idProvincia":"20","idCCAA":"16"}}},{"type":"Feature","geometry":{"type":"Point","coordinates":[-1.75275,43.3365]},"properties":{"id":"es-12122","source":"ES","brand":"ZABALETA","address":"CALLE COMETE SAREA (ZAISA II), 7","municipality":"Irun","province":"GIPUZKOA","postalCode":"20305","schedule":"L-V: 24H; S: 06:00-22:00; D: 14:30-00:00","fuels":{"diesel":1.854},"extra":{"saleType":"P","margin":"N","reportingType":"dm","ideess":"12122","idMunicipio":"3176","idProvincia":"20","idCCAA":"16"}}},{"type":"Feature","geometry":{"type":"Point","coordinates":[-1.505667,43.287444]},"properties":{"id":"es-1216","source":"ES","brand":"CEPSA","address":"CARRETERA N-121B KM. 79,500","municipality":"Urdazubi/Urdax","province":"NAVARRA","postalCode":"31711","schedule":"L-D: 09:00-14:00","fuels":{"gasoline95":1.749,"diesel":1.859},"extra":{"saleType":"P","margin":"D","reportingType":"dm","ideess":"1216","idMunicipio":"4848","idProvincia":"31","idCCAA":"15"}}},{"type":"Feature","geometry":{"type":"Point","coordinates":[-1.983694,43.033417]},"properties":{"id":"es-1218","source":"ES","brand":"REPSOL","address":"CALLE ORELLA, S/N","municipality":"Araitz","province":"NAVARRA","postalCode":"31891","schedule":"L-D: 08:00-13:00 y 16:00-21:00","fuels":{"gasoline95":1.759,"diesel":1.889,"dieselRenewable":2.009},"extra":{"saleType":"P","margin":"D","reportingType":"OM","ideess":"1218","idMunicipio":"4619","idProvincia":"31","idCCAA":"15"}}},{"type":"Feature","geometry":{"type":"Point","coordinates":[-1.760472,43.342111]},"properties":{"id":"es-122","source":"ES","brand":"REPSOL","address":"PASEO ENDARLAZA, S/N","municipality":"Irun","province":"GIPUZKOA","postalCode":"20305","schedule":"L-D: 24H","fuels":{"gasoline95":1.799,"gasoline98":1.929,"diesel":1.939,"dieselPremium":1.999,"adblue":1.249},"extra":{"saleType":"P","margin":"D","reportingType":"dm","ideess":"122","idMunicipio":"3176","idProvincia":"20","idCCAA":"16"}}},{"type":"Feature","geometry":{"type":"Point","coordinates":[-1.854333,43.319444]},"properties":{"id":"es-12271","source":"ES","brand":"FUEL TRUCK","address":"CALLE ARAÑABURU, 7","municipality":"Oiartzun","province":"GIPUZKOA","postalCode":"20180","schedule":"L-D: 24H","fuels":{"diesel":1.899,"adblue":0.999},"extra":{"saleType":"P","margin":"N","reportingType":"dm","ideess":"12271","idMunicipio":"3191","idProvincia":"20","idCCAA":"16"}}},{"type":"Feature","geometry":{"type":"Point","coordinates":[-1.283028,43.109083]},"properties":{"id":"es-1229","source":"ES","brand":"ZONA AUTO LUAIDE AVIA","address":"CR C-135 66","municipality":"Luzaide/Valcarlos","province":"NAVARRA","postalCode":"31660","schedule":"L-D: 08:00-20:00","fuels":{"gasoline95":1.826,"diesel":1.881,"dieselPremium":1.931,"adblue":0.799},"extra":{"saleType":"P","margin":"D","reportingType":"dm","ideess":"1229","idMunicipio":"4769","idProvincia":"31","idCCAA":"15"}}},{"type":"Feature","geometry":{"type":"Point","coordinates":[-1.922278,43.084972]},"properties":{"id":"es-1238","source":"ES","brand":"CAMPSA","address":"CARRETERA CTRA. NA170 KM.1.98 KM. 1","municipality":"Leitza","province":"NAVARRA","postalCode":"31880","schedule":"L-S: 06:00-22:00; D: 08:00-14:00","fuels":{"gasoline95":1.779,"diesel":1.889,"dieselPremium":1.989},"extra":{"saleType":"P","margin":"D","reportingType":"dm","ideess":"1238","idMunicipio":"4756","idProvincia":"31","idCCAA":"15"}}},{"type":"Feature","geometry":{"type":"Point","coordinates":[-1.700278,43.278083]},"properties":{"id":"es-12389","source":"ES","brand":"BP","address":"POLIGONO ZALAIN, 5","municipality":"Bera/Vera de Bidasoa","province":"NAVARRA","postalCode":"31780","schedule":"L-D: 24H","fuels":{"gasoline95":1.749,"diesel":1.899,"dieselRenewable":1.989,"adblue":1.135},"extra":{"saleType":"P","margin":"N","reportingType":"dm","ideess":"12389","idMunicipio":"4655","idProvincia":"31","idCCAA":"15"}}},{"type":"Feature","geometry":{"type":"Point","coordinates":[-1.670167,43.155889]},"properties":{"id":"es-1239","source":"ES","brand":"E.S. KONTXA S.L.","address":"CARRETERA NACIONAL 121-A KM. 48,5","municipality":"Doneztebe/Santesteban","province":"NAVARRA","postalCode":"31740","schedule":"L-S: 07:00-21:00; D: 08:00-15:00","fuels":{"gasoline95":1.599,"diesel":1.699,"dieselB":1.399,"adblue":0.67},"extra":{"saleType":"P","margin":"N","reportingType":"dm","ideess":"1239","idMunicipio":"4688","idProvincia":"31","idCCAA":"15"}}},{"type":"Feature","geometry":{"type":"Point","coordinates":[-1.684056,43.309306]},"properties":{"id":"es-12477","source":"ES","brand":"NAFAROIL","address":"BARRIO IBARDIN, 19","municipality":"Bera/Vera de Bidasoa","province":"NAVARRA","postalCode":"31780","schedule":"L-D: 08:15-19:15","fuels":{"gasoline95":1.739,"gasoline98":1.839,"diesel":1.859,"dieselPremium":1.919},"extra":{"saleType":"P","margin":"D","reportingType":"dm","ideess":"12477","idMunicipio":"4655","idProvincia":"31","idCCAA":"15"}}},{"type":"Feature","geometry":{"type":"Point","coordinates":[-1.827139,43.328889]},"properties":{"id":"es-125","source":"ES","brand":"MOEVE","address":"AVENIDA ELIZATXO (N-I KM 480,5), 64","municipality":"Irun","province":"GIPUZKOA","postalCode":"20305","schedule":"L-D: 24H","fuels":{"gasoline95":1.814,"gasoline95Premium":1.914,"gasoline98":1.954,"diesel":1.974,"dieselPremium":2.074,"lpg":1.089},"extra":{"saleType":"P","margin":"D","reportingType":"OM","ideess":"125","idMunicipio":"3176","idProvincia":"20","idCCAA":"16"}}},{"type":"Feature","geometry":{"type":"Point","coordinates":[-1.827556,43.329333]},"properties":{"id":"es-126","source":"ES","brand":"MOEVE","address":"AVENIDA ELIZATXO (N-I KM 480,5), 64","municipality":"Irun","province":"GIPUZKOA","postalCode":"20305","schedule":"L-D: 24H","fuels":{"gasoline95":1.814,"gasoline95Premium":1.914,"gasoline98":1.954,"diesel":1.974,"dieselPremium":2.074,"lpg":1.089},"extra":{"saleType":"P","margin":"I","reportingType":"OM","ideess":"126","idMunicipio":"3176","idProvincia":"20","idCCAA":"16"}}},{"type":"Feature","geometry":{"type":"Point","coordinates":[-1.879444,43.312222]},"properties":{"id":"es-127","source":"ES","brand":"REPSOL","address":"CARRETERA N-1 KM. 469,1","municipality":"Oiartzun","province":"GIPUZKOA","postalCode":"20180","schedule":"L-V: 06:00-22:00; S: 09:00-21:00","fuels":{"gasoline95":1.809,"gasoline98":1.979,"diesel":1.969,"dieselPremium":2.039},"extra":{"saleType":"P","margin":"D","reportingType":"OM","ideess":"127","idMunicipio":"3191","idProvincia":"20","idCCAA":"16"}}},{"type":"Feature","geometry":{"type":"Point","coordinates":[-1.879528,43.312139]},"properties":{"id":"es-128","source":"ES","brand":"REPSOL","address":"CR N-1, 469,1","municipality":"Oiartzun","province":"GIPUZKOA","postalCode":"20180","schedule":"L-D: 06:00-22:00","fuels":{"gasoline95":1.809,"gasoline98":1.979,"diesel":1.969,"dieselRenewable":2.089,"lpg":1.159,"cng":1.609},"extra":{"saleType":"P","margin":"I","reportingType":"OM","ideess":"128","idMunicipio":"3191","idProvincia":"20","idCCAA":"16"}}},{"type":"Feature","geometry":{"type":"Point","coordinates":[-1.787028,43.347278]},"properties":{"id":"es-134","source":"ES","brand":"REPSOL","address":"AVENIDA IPARRALDE, 42","municipality":"Irun","province":"GIPUZKOA","postalCode":"20304","schedule":"L-D: 24H","fuels":{"gasoline95":1.805,"gasoline98":1.925,"diesel":1.965,"dieselRenewable":2.085},"extra":{"saleType":"P","margin":"D","reportingType":"OM","ideess":"134","idMunicipio":"3176","idProvincia":"20","idCCAA":"16"}}},{"type":"Feature","geometry":{"type":"Point","coordinates":[-1.83675,43.325722]},"properties":{"id":"es-13489","source":"ES","brand":"IDS","address":"CALLE MAZUOLA, 4","municipality":"Irun","province":"GIPUZKOA","postalCode":"20305","schedule":"L-D: 24H","fuels":{"diesel":1.88,"dieselB":1.662,"adblue":1.195},"extra":{"saleType":"P","margin":"D","reportingType":"dm","ideess":"13489","idMunicipio":"3176","idProvincia":"20","idCCAA":"16"}}},{"type":"Feature","geometry":{"type":"Point","coordinates":[-1.787361,43.347222]},"properties":{"id":"es-135","source":"ES","brand":"REPSOL","address":"CL AVENIDA DE IPARRALDE , 43","municipality":"Irun","province":"GIPUZKOA","postalCode":"20304","schedule":"L-D: 06:00-22:00","fuels":{"gasoline95":1.805,"diesel":1.965},"extra":{"saleType":"P","margin":"I","reportingType":"OM","ideess":"135","idMunicipio":"3176","idProvincia":"20","idCCAA":"16"}}},{"type":"Feature","geometry":{"type":"Point","coordinates":[-1.700306,43.276611]},"properties":{"id":"es-13548","source":"ES","brand":"NOIL","address":"POLIGONO POLIGONO INDUSTRIAL ZALAIN, S-P PARCELA 3/104/2, 104","municipality":"Bera/Vera de Bidasoa","province":"NAVARRA","postalCode":"31780","schedule":"L-D: 24H","fuels":{"gasoline95":1.666,"diesel":1.838,"dieselB":1.499,"adblue":0.811},"extra":{"saleType":"P","margin":"D","reportingType":"dm","ideess":"13548","idMunicipio":"4655","idProvincia":"31","idCCAA":"15"}}},{"type":"Feature","geometry":{"type":"Point","coordinates":[-1.700889,43.276444]},"properties":{"id":"es-13651","source":"ES","brand":"PETROMIRALLES BERA","address":"CALLE ZALAIN, 18","municipality":"Bera/Vera de Bidasoa","province":"NAVARRA","postalCode":"31780","schedule":"L-D: 24H","fuels":{"gasoline95":1.719,"diesel":1.869,"dieselB":1.659,"adblue":0.789},"extra":{"saleType":"P","margin":"D","reportingType":"dm","ideess":"13651","idMunicipio":"4655","idProvincia":"31","idCCAA":"15"}}},{"type":"Feature","geometry":{"type":"Point","coordinates":[-1.817028,43.333889]},"properties":{"id":"es-137","source":"ES","brand":"PETRONOR","address":"CL AVENIDA DE LTXUMBORRO, S.N.","municipality":"Irun","province":"GIPUZKOA","postalCode":"20305","schedule":"L-D: 06:00-22:00","fuels":{"gasoline95":1.825,"diesel":1.979,"dieselPremium":2.039},"extra":{"saleType":"P","margin":"I","reportingType":"OM","ideess":"137","idMunicipio":"3176","idProvincia":"20","idCCAA":"16"}}},{"type":"Feature","geometry":{"type":"Point","coordinates":[-1.999944,43.234944]},"properties":{"id":"es-14276","source":"ES","brand":"SHELL","address":"POLIGONO INDUSTRIAL BARRIO ERGOYEN, S/N","municipality":"Urnieta","province":"GIPUZKOA","postalCode":"20130","schedule":"L-D: 24H","fuels":{"gasoline95":1.789,"diesel":1.974,"dieselB":1.714,"dieselRenewable":2.079,"adblue":1.39},"extra":{"saleType":"P","margin":"D","reportingType":"OM","ideess":"14276","idMunicipio":"3203","idProvincia":"20","idCCAA":"16"}}},{"type":"Feature","geometry":{"type":"Point","coordinates":[-1.76425,43.339]},"properties":{"id":"es-14309","source":"ES","brand":"HAM","address":"CALLE ANTXOTXIPI KALEA, 4","municipality":"Irun","province":"GIPUZKOA","postalCode":"20305","schedule":"L-D: 24H","fuels":{"cng":1.574,"lng":1.529,"bioCng":1.554,"bioLng":1.499},"extra":{"saleType":"P","margin":"D","reportingType":"dm","ideess":"14309","idMunicipio":"3176","idProvincia":"20","idCCAA":"16"}}},{"type":"Feature","geometry":{"type":"Point","coordinates":[-1.852222,43.316611]},"properties":{"id":"es-145","source":"ES","brand":"MOEVE","address":"AUTOPISTA AP-8 (MRG.IZDO.) KM. 8,3","municipality":"Oiartzun","province":"GIPUZKOA","postalCode":"20180","schedule":"L-D: 24H","fuels":{"gasoline95Premium":1.914,"gasoline98":1.954,"diesel":1.974,"dieselPremium":2.074},"extra":{"saleType":"P","margin":"I","reportingType":"OM","ideess":"145","idMunicipio":"3191","idProvincia":"20","idCCAA":"16"}}},{"type":"Feature","geometry":{"type":"Point","coordinates":[-1.899194,43.295417]},"properties":{"id":"es-14507","source":"ES","brand":"UREPEL","address":"PASEO EGIBURUBERRI, 6","municipality":"Errenteria","province":"GIPUZKOA","postalCode":"20100","schedule":"L-D: 24H","fuels":{"gasoline95":1.639,"diesel":1.739,"adblue":0.799},"extra":{"saleType":"P","margin":"N","reportingType":"dm","ideess":"14507","idMunicipio":"3162","idProvincia":"20","idCCAA":"16"}}},{"type":"Feature","geometry":{"type":"Point","coordinates":[-1.844528,43.317611]},"properties":{"id":"es-146","source":"ES","brand":"MOEVE","address":"AUTOPISTA AP-8 (MRG.DCHO.) KM. 8,3","municipality":"Oiartzun","province":"GIPUZKOA","postalCode":"20180","schedule":"L-D: 24H","fuels":{"gasoline95Premium":1.914,"gasoline98":1.954,"diesel":1.974,"dieselPremium":2.074},"extra":{"saleType":"P","margin":"D","reportingType":"OM","ideess":"146","idMunicipio":"3191","idProvincia":"20","idCCAA":"16"}}},{"type":"Feature","geometry":{"type":"Point","coordinates":[-1.834722,43.322583]},"properties":{"id":"es-147","source":"ES","brand":"ALCAMPO IRUN","address":"PARQUE COMERCIAL TXINGUDI, ZONA ARASO.B. VENTAS, 80","municipality":"Irun","province":"GIPUZKOA","postalCode":"20305","schedule":"L-D: 06:00-00:00","fuels":{"gasoline95":1.587,"gasoline98":1.675,"diesel":1.687,"dieselPremium":1.787},"extra":{"saleType":"P","margin":"N","reportingType":"dm","ideess":"147","idMunicipio":"3176","idProvincia":"20","idCCAA":"16"}}},{"type":"Feature","geometry":{"type":"Point","coordinates":[-1.951278,43.282583]},"properties":{"id":"es-14946","source":"ES","brand":"FUEL TRUCK","address":"CAMINO DONOSTIA IBILBIDEA, 60","municipality":"Astigarraga","province":"GIPUZKOA","postalCode":"20115","schedule":"L-V: 06:30-22:00; S-D: 09:00-21:00","fuels":{"gasoline95":1.679,"diesel":1.779,"adblue":0.999},"extra":{"saleType":"P","margin":"N","reportingType":"dm","ideess":"14946","idMunicipio":"3144","idProvincia":"20","idCCAA":"16"}}},{"type":"Feature","geometry":{"type":"Point","coordinates":[-1.752944,43.337167]},"properties":{"id":"es-14986","source":"ES","brand":"VALCARCE","address":"CALLE COMETE SAREA, 5","municipality":"Irun","province":"GIPUZKOA","postalCode":"20305","schedule":"L-D: 00:00-23:59","fuels":{"diesel":1.909,"adblue":0.799},"extra":{"saleType":"P","margin":"D","reportingType":"dm","ideess":"14986","idMunicipio":"3176","idProvincia":"20","idCCAA":"16"}}},{"type":"Feature","geometry":{"type":"Point","coordinates":[-1.763778,43.339417]},"properties":{"id":"es-14987","source":"ES","brand":"VALCARCE","address":"CALLE ANTXOTXIPI, 4","municipality":"Irun","province":"GIPUZKOA","postalCode":"20305","schedule":"L-D: 24H","fuels":{"diesel":1.909,"adblue":0.799},"extra":{"saleType":"P","margin":"D","reportingType":"dm","ideess":"14987","idMunicipio":"3176","idProvincia":"20","idCCAA":"16"}}},{"type":"Feature","geometry":{"type":"Point","coordinates":[-1.7645,43.337861]},"properties":{"id":"es-15405","source":"ES","brand":"TRANSPORTES ZUMALABE, S.L.","address":"CALLE ANTXOTXIPI, Nº 13 - ZAISA III, 13","municipality":"Irun","province":"GIPUZKOA","postalCode":"20305","schedule":"L-D: 08:00-22:00","fuels":{"diesel":1.859},"extra":{"saleType":"P","margin":"I","reportingType":"dm","ideess":"15405","idMunicipio":"3176","idProvincia":"20","idCCAA":"16"}}},{"type":"Feature","geometry":{"type":"Point","coordinates":[-1.756528,43.340861]},"properties":{"id":"es-15412","source":"ES","brand":"NEUMATICOS Y SERVICIOS BEHOBIA, S.A.","address":"CALLE EUROPA, Nº 18, 18","municipality":"Irun","province":"GIPUZKOA","postalCode":"20305","schedule":"L-D: 08:00-22:00","fuels":{"diesel":1.859},"extra":{"saleType":"P","margin":"D","reportingType":"dm","ideess":"15412","idMunicipio":"3176","idProvincia":"20","idCCAA":"16"}}},{"type":"Feature","geometry":{"type":"Point","coordinates":[-1.505778,43.284083]},"properties":{"id":"es-15519","source":"ES","brand":"ES LANDIBAR","address":"CALLE LANDIBAR 10, POLIGONO 2, PARCELA 21, 10","municipality":"Urdazubi/Urdax","province":"NAVARRA","postalCode":"31711","schedule":"L-D: 08:00-19:30","fuels":{"gasoline95":1.739,"gasoline98":1.899,"diesel":1.849},"extra":{"saleType":"P","margin":"I","reportingType":"dm","ideess":"15519","idMunicipio":"4848","idProvincia":"31","idCCAA":"15"}}},{"type":"Feature","geometry":{"type":"Point","coordinates":[-1.951361,43.302139]},"properties":{"id":"es-15598","source":"ES","brand":"EUSKADILOWCOST","address":"PASEO UBARBURU, 6","municipality":"Donostia-San Sebastián","province":"GIPUZKOA","postalCode":"20014","schedule":"L-D: 24H","fuels":{"gasoline95":1.627,"diesel":1.727,"dieselPremium":1.747,"adblue":0.727},"extra":{"saleType":"P","margin":"N","reportingType":"dm","ideess":"15598","idMunicipio":"3157","idProvincia":"20","idCCAA":"16"}}},{"type":"Feature","geometry":{"type":"Point","coordinates":[-1.998806,43.235528]},"properties":{"id":"es-16131","source":"ES","brand":"MLC","address":"CALLE BO. ERGOYEN, 21","municipality":"Urnieta","province":"GIPUZKOA","postalCode":"20130","schedule":"L: 24H","fuels":{"gasoline95":1.799,"gasoline98":1.839,"diesel":1.859,"dieselPremium":1.909,"dieselB":1.559,"dieselRenewable":2.049,"lpg":0.999,"adblue":0.899},"extra":{"saleType":"P","margin":"D","reportingType":"dm","ideess":"16131","idMunicipio":"3203","idProvincia":"20","idCCAA":"16"}}},{"type":"Feature","geometry":{"type":"Point","coordinates":[-1.951722,43.302194]},"properties":{"id":"es-16376","source":"ES","brand":"PLENERGY","address":"PASEO UBARBURU, 4","municipality":"Donostia-San Sebastián","province":"GIPUZKOA","postalCode":"20014","schedule":"L-D: 24H","fuels":{"gasoline95":1.617,"diesel":1.717},"extra":{"saleType":"P","margin":"D","reportingType":"dm","ideess":"16376","idMunicipio":"3157","idProvincia":"20","idCCAA":"16"}}},{"type":"Feature","geometry":{"type":"Point","coordinates":[-1.970639,43.325889]},"properties":{"id":"es-17","source":"ES","brand":"AVIA","address":"AVDA.DE NAVARRA 5","municipality":"Donostia-San Sebastián","province":"GIPUZKOA","postalCode":"20013","schedule":"L-D: 07:00-21:50","fuels":{"gasoline95":1.789,"gasoline98":1.929,"diesel":1.939,"dieselPremium":1.999},"extra":{"saleType":"P","margin":"N","reportingType":"dm","ideess":"17","idMunicipio":"3157","idProvincia":"20","idCCAA":"16"}}},{"type":"Feature","geometry":{"type":"Point","coordinates":[-1.78225,43.339306]},"properties":{"id":"es-19","source":"ES","brand":"BP IRUN","address":"AVENIDA NAVARRA, 18","municipality":"Irun","province":"GIPUZKOA","postalCode":"20304","schedule":"L-D: 06:00-22:00","fuels":{"gasoline95":1.769,"gasoline98":1.909,"diesel":1.929,"dieselPremium":2.019},"extra":{"saleType":"P","margin":"N","reportingType":"OM","ideess":"19","idMunicipio":"3176","idProvincia":"20","idCCAA":"16"}}},{"type":"Feature","geometry":{"type":"Point","coordinates":[-1.916778,43.281972]},"properties":{"id":"es-2","source":"ES","brand":"ONROAD 24","address":"CARRETERA GI-2132 ASTIGARRAGA-OIARTZUN KM. 10","municipality":"Astigarraga","province":"GIPUZKOA","postalCode":"20115","schedule":"L-V: 06:00-22:00; S: 07:00-22:00; D: 08:00-22:00","fuels":{"gasoline95":1.669,"diesel":1.749,"adblue":0.999},"extra":{"saleType":"P","margin":"N","reportingType":"dm","ideess":"2","idMunicipio":"3144","idProvincia":"20","idCCAA":"16"}}},{"type":"Feature","geometry":{"type":"Point","coordinates":[-1.968278,43.266944]},"properties":{"id":"es-20","source":"ES","brand":"AVIA","address":"BARRIO AKARREGI, 23","municipality":"Hernani","province":"GIPUZKOA","postalCode":"20120","schedule":"L-V: 06:30-21:30; S-D: 08:00-21:00","fuels":{"gasoline95":1.769,"gasoline98":1.899,"diesel":1.899,"dieselPremium":1.969,"dieselB":1.659,"adblue":0.999},"extra":{"saleType":"P","margin":"N","reportingType":"dm","ideess":"20","idMunicipio":"3170","idProvincia":"20","idCCAA":"16"}}},{"type":"Feature","geometry":{"type":"Point","coordinates":[-1.794389,43.356444]},"properties":{"id":"es-28","source":"ES","brand":"GALP","address":"CALLE GABARRARI, 22","municipality":"Hondarribia","province":"GIPUZKOA","postalCode":"20280","schedule":"L-D: 07:00-23:00","fuels":{"gasoline95":1.819,"gasoline98":1.959,"diesel":1.919,"dieselPremium":1.969},"extra":{"saleType":"P","margin":"N","reportingType":"OM","ideess":"28","idMunicipio":"3172","idProvincia":"20","idCCAA":"16"}}},{"type":"Feature","geometry":{"type":"Point","coordinates":[-1.819028,43.330917]},"properties":{"id":"es-29","source":"ES","brand":"GALP","address":"AVENIDA LETXUMBORRO, 81","municipality":"Irun","province":"GIPUZKOA","postalCode":"20305","schedule":"L-S: 08:00-22:00; D: 10:00-15:00","fuels":{"gasoline95":1.744,"diesel":1.914,"dieselPremium":1.964,"adblue":0.799},"extra":{"saleType":"P","margin":"N","reportingType":"OM","ideess":"29","idMunicipio":"3176","idProvincia":"20","idCCAA":"16"}}},{"type":"Feature","geometry":{"type":"Point","coordinates":[-1.943889,43.311194]},"properties":{"id":"es-35","source":"ES","brand":"EROSKI","address":"CALLE GARBERA BIDEA, 2","municipality":"Donostia-San Sebastián","province":"GIPUZKOA","postalCode":"20015","schedule":"L-D: 24H","fuels":{"gasoline95":1.597,"diesel":1.697,"dieselPremium":1.797},"extra":{"saleType":"P","margin":"N","reportingType":"dm","ideess":"35","idMunicipio":"3157","idProvincia":"20","idCCAA":"16"}}},{"type":"Feature","geometry":{"type":"Point","coordinates":[-1.876417,43.314639]},"properties":{"id":"es-40","source":"ES","brand":"CARREFOUR","address":"CARRETERA MADRID-IRUN KM. 469","municipality":"Oiartzun","province":"GIPUZKOA","postalCode":"20180","schedule":"L-S: 07:45-21:30; D: 09:00-15:00","fuels":{"gasoline95":1.739,"gasoline98":1.949,"diesel":1.869,"dieselPremium":1.909},"extra":{"saleType":"P","margin":"N","reportingType":"dm","ideess":"40","idMunicipio":"3191","idProvincia":"20","idCCAA":"16"}}},{"type":"Feature","geometry":{"type":"Point","coordinates":[-1.975111,43.325194]},"properties":{"id":"es-57","source":"ES","brand":"PETRONOR","address":"CL AVENIDA DE LA ZURRIOLA, 32","municipality":"Donostia-San Sebastián","province":"GIPUZKOA","postalCode":"20002","schedule":"L-D: 07:00-22:00","fuels":{"gasoline95":1.789,"gasoline98":1.959,"diesel":1.945,"dieselPremium":2.055},"extra":{"saleType":"P","margin":"D","reportingType":"OM","ideess":"57","idMunicipio":"3157","idProvincia":"20","idCCAA":"16"}}},{"type":"Feature","geometry":{"type":"Point","coordinates":[-1.96625,43.297083]},"properties":{"id":"es-6","source":"ES","brand":"CEPSA","address":"PASEO DR. BEGIRISTAIN, 75","municipality":"Donostia-San Sebastián","province":"GIPUZKOA","postalCode":"20014","schedule":"L-D: 24H","fuels":{"gasoline95":1.814,"gasoline98":1.954,"diesel":1.974,"dieselPremium":2.074},"extra":{"saleType":"P","margin":"I","reportingType":"OM","ideess":"6","idMunicipio":"3157","idProvincia":"20","idCCAA":"16"}}},{"type":"Feature","geometry":{"type":"Point","coordinates":[-1.871833,43.296222]},"properties":{"id":"es-60","source":"ES","brand":"REPSOL","address":"CALLE ARANEDER BIDEA, 1","municipality":"Oiartzun","province":"GIPUZKOA","postalCode":"20180","schedule":"L-D: 06:30-21:30","fuels":{"gasoline95":1.815,"gasoline98":1.935,"diesel":1.975,"dieselPremium":2.035},"extra":{"saleType":"P","margin":"I","reportingType":"OM","ideess":"60","idMunicipio":"3191","idProvincia":"20","idCCAA":"16"}}},{"type":"Feature","geometry":{"type":"Point","coordinates":[-1.754111,43.341111]},"properties":{"id":"es-62","source":"ES","brand":"REPSOL","address":"CALLE TERMINAL DE ZAISA-BEHOBIA, S/N (CTRA. NAC.1), 484","municipality":"Irun","province":"GIPUZKOA","postalCode":"20305","schedule":"L-D: 24H","fuels":{"gasoline95":1.799,"diesel":1.875,"dieselPremium":1.999,"dieselB":1.739,"adblue":1.249},"extra":{"saleType":"P","margin":"D","reportingType":"dm","ideess":"62","idMunicipio":"3176","idProvincia":"20","idCCAA":"16"}}},{"type":"Feature","geometry":{"type":"Point","coordinates":[-1.905194,43.316139]},"properties":{"id":"es-72","source":"ES","brand":"GALP","address":"AVENIDA NAVARRA, 81","municipality":"Errenteria","province":"GIPUZKOA","postalCode":"20100","schedule":"L-D: 07:00-23:00","fuels":{"gasoline95":1.659,"gasoline95Premium":1.709,"diesel":1.759,"dieselPremium":1.809},"extra":{"saleType":"P","margin":"D","reportingType":"OM","ideess":"72","idMunicipio":"3162","idProvincia":"20","idCCAA":"16"}}},{"type":"Feature","geometry":{"type":"Point","coordinates":[-1.870444,43.326944]},"properties":{"id":"es-73","source":"ES","brand":"GALP","address":"CARRETERA GI 2638 KM. 3,3","municipality":"Lezo","province":"GIPUZKOA","postalCode":"20100","schedule":"L-V: 07:00-22:00; S: 08:00-21:00; D: 09:00-16:00","fuels":{"gasoline95":1.689,"diesel":1.839,"dieselRenewable":1.929,"adblue":0.799},"extra":{"saleType":"P","margin":"N","reportingType":"OM","ideess":"73","idMunicipio":"3186","idProvincia":"20","idCCAA":"16"}}},{"type":"Feature","geometry":{"type":"Point","coordinates":[-1.984056,43.285972]},"properties":{"id":"es-79","source":"ES","brand":"REPSOL","address":"PASEO DEL DOCTOR BEGUIRISTAIN, 271","municipality":"Donostia-San Sebastián","province":"GIPUZKOA","postalCode":"20014","schedule":"L-D: 24H","fuels":{"gasoline95":1.799,"gasoline95Premium":1.869,"gasoline98":1.919,"diesel":1.975,"dieselRenewable":2.095,"lpg":1.175},"extra":{"saleType":"P","margin":"D","reportingType":"OM","ideess":"79","idMunicipio":"3157","idProvincia":"20","idCCAA":"16"}}},{"type":"Feature","geometry":{"type":"Point","coordinates":[-1.966806,43.295972]},"properties":{"id":"es-8101","source":"ES","brand":"CEPSA","address":"PASEO DR. BEGIRISTAIN, 66","municipality":"Donostia-San Sebastián","province":"GIPUZKOA","postalCode":"20014","schedule":"L-D: 00:00-23:59","fuels":{"gasoline95":1.814,"gasoline98":1.954,"diesel":1.974,"dieselPremium":2.074},"extra":{"saleType":"P","margin":"D","reportingType":"OM","ideess":"8101","idMunicipio":"3157","idProvincia":"20","idCCAA":"16"}}},{"type":"Feature","geometry":{"type":"Point","coordinates":[-1.631611,43.129972]},"properties":{"id":"es-8250","source":"ES","brand":"REPSOL","address":"CARRETERA N-121A KM. 44,5","municipality":"Bertizarana","province":"NAVARRA","postalCode":"31792","schedule":"L-D: 06:00-22:00","fuels":{"gasoline95":1.765,"gasoline98":1.935,"diesel":1.929,"dieselPremium":2.029,"dieselB":1.615},"extra":{"saleType":"P","margin":"I","reportingType":"OM","ideess":"8250","idMunicipio":"4660","idProvincia":"31","idCCAA":"15"}}},{"type":"Feature","geometry":{"type":"Point","coordinates":[-1.668083,43.152556]},"properties":{"id":"es-8271","source":"ES","brand":"MOEVE","address":"CARRETERA N-121-A KM. 55","municipality":"Doneztebe/Santesteban","province":"NAVARRA","postalCode":"31740","schedule":"L-D: 24H","fuels":{"gasoline95":1.794,"gasoline95Premium":1.894,"diesel":1.904,"dieselPremium":2.004,"dieselB":1.674},"extra":{"saleType":"P","margin":"D","reportingType":"OM","ideess":"8271","idMunicipio":"4688","idProvincia":"31","idCCAA":"15"}}},{"type":"Feature","geometry":{"type":"Point","coordinates":[-1.630722,43.130444]},"properties":{"id":"es-8344","source":"ES","brand":"REPSOL","address":"CARRETERA N-121A KM. 44,5","municipality":"Bertizarana","province":"NAVARRA","postalCode":"31792","schedule":"L-D: 06:00-22:00","fuels":{"gasoline95":1.765,"gasoline98":1.935,"diesel":1.929,"dieselPremium":2.029,"dieselB":1.615},"extra":{"saleType":"P","margin":"D","reportingType":"OM","ideess":"8344","idMunicipio":"4660","idProvincia":"31","idCCAA":"15"}}},{"type":"Feature","geometry":{"type":"Point","coordinates":[-1.886167,43.000028]},"properties":{"id":"es-8489","source":"ES","brand":"SHELL","address":"AUTOVIA A-15 KM. 124,488","municipality":"Larraun","province":"NAVARRA","postalCode":"31878","schedule":"L-D: 24H","fuels":{"gasoline95":1.799,"diesel":1.899,"dieselPremium":1.979,"adblue":1.25},"extra":{"saleType":"P","margin":"N","reportingType":"OM","ideess":"8489","idMunicipio":"4751","idProvincia":"31","idCCAA":"15"}}},{"type":"Feature","geometry":{"type":"Point","coordinates":[-1.661786,43.000778]},"properties":{"id":"es-8933","source":"ES","brand":"ALPE","address":"POLIGONO INDUSTRIAL ELORDI C/A 4","municipality":"Ultzama","province":"NAVARRA","postalCode":"31797","schedule":"L-V: 09:00-19:00","fuels":{"gasoline95":1.679,"diesel":1.779},"extra":{"saleType":"P","margin":"D","reportingType":"dm","ideess":"8933","idMunicipio":"4845","idProvincia":"31","idCCAA":"15"}}},{"type":"Feature","geometry":{"type":"Point","coordinates":[-1.796417,43.336611]},"properties":{"id":"es-8988","source":"ES","brand":"ELIZATXO-REPSOL","address":"AVENIDA ELIZATXO, 8","municipality":"Irun","province":"GIPUZKOA","postalCode":"20303","schedule":"L: 06:00-23:59","fuels":{"gasoline95":1.809,"gasoline98":1.979,"diesel":1.909,"dieselPremium":1.959},"extra":{"saleType":"P","margin":"N","reportingType":"dm","ideess":"8988","idMunicipio":"3176","idProvincia":"20","idCCAA":"16"}}},{"type":"Feature","geometry":{"type":"Point","coordinates":[-1.981472,43.309028]},"properties":{"id":"es-93","source":"ES","brand":"REPSOL","address":"PASEO ERRONDO, 7","municipality":"Donostia-San Sebastián","province":"GIPUZKOA","postalCode":"20010","schedule":"L-V: 06:00-22:00; S-D: 07:00-22:00","fuels":{"gasoline95":1.795,"gasoline98":1.915,"diesel":1.949,"dieselPremium":2.009},"extra":{"saleType":"P","margin":"D","reportingType":"OM","ideess":"93","idMunicipio":"3157","idProvincia":"20","idCCAA":"16"}}},{"type":"Feature","geometry":{"type":"Point","coordinates":[-1.879944,43.323611]},"properties":{"id":"es-9512","source":"ES","brand":"MERKAOIL","address":"IPINTZA KALEA 47","municipality":"Lezo","province":"GIPUZKOA","postalCode":"20100","schedule":"L-D: 24H","fuels":{"gasoline95":1.599,"diesel":1.699,"dieselPremium":1.899,"adblue":0.99},"extra":{"saleType":"P","margin":"D","reportingType":"dm","ideess":"9512","idMunicipio":"3186","idProvincia":"20","idCCAA":"16"}}},{"type":"Feature","geometry":{"type":"Point","coordinates":[-1.642167,43.235944]},"properties":{"id":"es-9544","source":"ES","brand":"AN ENERGÉTICOS - ETXALAR","address":"BO BEOLALDEA S/N","municipality":"Etxalar","province":"NAVARRA","postalCode":"31760","schedule":"L-D: 24H","fuels":{"gasoline95":1.589,"diesel":1.769},"extra":{"saleType":"P","margin":"N","reportingType":"dm","ideess":"9544","idMunicipio":"4702","idProvincia":"31","idCCAA":"15"}}},{"type":"Feature","geometry":{"type":"Point","coordinates":[-1.489222,43.180167]},"properties":{"id":"es-9568","source":"ES","brand":"AN ENERGETICOS","address":"BARRIO ORDOKI","municipality":"Baztan","province":"NAVARRA","postalCode":"31713","schedule":"L-D: 24H","fuels":{"gasoline95":1.619,"diesel":1.779,"dieselB":1.445},"extra":{"saleType":"P","margin":"N","reportingType":"dm","ideess":"9568","idMunicipio":"4651","idProvincia":"31","idCCAA":"15"}}},{"type":"Feature","geometry":{"type":"Point","coordinates":[-1.808528,43.347556]},"properties":{"id":"es-98","source":"ES","brand":"EASYGAS","address":"CARRETERA GI-636 KM. 13","municipality":"Hondarribia","province":"GIPUZKOA","postalCode":"20280","schedule":"L-D: 24H","fuels":{"gasoline95":1.679,"diesel":1.819,"dieselPremium":1.819,"adblue":0.949},"extra":{"saleType":"P","margin":"I","reportingType":"dm","ideess":"98","idMunicipio":"3172","idProvincia":"20","idCCAA":"16"}}},{"type":"Feature","geometry":{"type":"Point","coordinates":[-1.806944,43.347167]},"properties":{"id":"es-99","source":"ES","brand":"EASYGAS","address":"CARRETERA GI-636 KM. 13","municipality":"Hondarribia","province":"GIPUZKOA","postalCode":"20280","schedule":"L-D: 06:00-22:00","fuels":{"gasoline95":1.679,"diesel":1.819,"dieselPremium":1.819},"extra":{"saleType":"P","margin":"D","reportingType":"dm","ideess":"99","idMunicipio":"3172","idProvincia":"20","idCCAA":"16"}}}]}