{"type":"FeatureCollection","features":[{"type":"Feature","geometry":{"type":"Point","coordinates":[-7.662222,42.914667]},"properties":{"id":"es-10152","source":"ES","brand":"CEPSA","address":"CTRA. LOUSADA  - A VEIGA km 0,100","municipality":"Guntín","province":"LUGO","postalCode":"27210","schedule":"L: 07:00-23:00","fuels":{"gasoline95":1.719,"diesel":1.859,"dieselPremium":1.929,"dieselB":1.699},"extra":{"saleType":"P","margin":"I","reportingType":"dm","ideess":"10152","idMunicipio":"4232","idProvincia":"27","idCCAA":"12"}}},{"type":"Feature","geometry":{"type":"Point","coordinates":[-7.714583,42.077917]},"properties":{"id":"es-10617","source":"ES","brand":"CEPSA- ANTELA E.S.","address":"VÍA PISTA ENLACE AUTOVIA RIAS BAIXAS, S/N","municipality":"Xinzo de Limia","province":"OURENSE","postalCode":"32630","schedule":"L-D: 24H","fuels":{"gasoline95":1.819,"diesel":1.959,"dieselPremium":2.049},"extra":{"saleType":"P","margin":"D","reportingType":"dm","ideess":"10617","idMunicipio":"4961","idProvincia":"32","idCCAA":"12"}}},{"type":"Feature","geometry":{"type":"Point","coordinates":[-7.629167,42.818889]},"properties":{"id":"es-10724","source":"ES","brand":"CAXIGO S COOP GALEGA","address":"LG ALTO DO VALIÑO","municipality":"Portomarín","province":"LUGO","postalCode":"27170","schedule":"L-V: 10:00-14:00 y 15:30-19:30","fuels":{"gasoline95":1.717,"diesel":1.799,"dieselB":1.652},"extra":{"saleType":"P","margin":"D","reportingType":"dm","ideess":"10724","idMunicipio":"4256","idProvincia":"27","idCCAA":"12"}}},{"type":"Feature","geometry":{"type":"Point","coordinates":[-7.180722,42.032111]},"properties":{"id":"es-10883","source":"ES","brand":"REPSOL","address":"CARRETERA N-525 KM. 136,7","municipality":"Gudiña (A)","province":"OURENSE","postalCode":"32547","schedule":"L-D: 24H","fuels":{"gasoline95":1.82,"gasoline98":1.95,"diesel":1.96,"dieselPremium":2.03},"extra":{"saleType":"P","margin":"I","reportingType":"OM","ideess":"10883","idMunicipio":"4904","idProvincia":"32","idCCAA":"12"}}},{"type":"Feature","geometry":{"type":"Point","coordinates":[-7.838278,42.793889]},"properties":{"id":"es-11168","source":"ES","brand":"7345","address":"AVENIDA DE LA CORUÑA,, 19","municipality":"Monterroso","province":"LUGO","postalCode":"27560","schedule":"L-D: 07:00-00:00","fuels":{"gasoline95":1.789,"diesel":1.919,"dieselB":1.679,"adblue":1.3},"extra":{"saleType":"P","margin":"I","reportingType":"dm","ideess":"11168","idMunicipio":"4240","idProvincia":"27","idCCAA":"12"}}},{"type":"Feature","geometry":{"type":"Point","coordinates":[-7.888083,42.423056]},"properties":{"id":"es-11397","source":"ES","brand":"GALP","address":"POLIGONO N525, 245","municipality":"Vilamarín","province":"OURENSE","postalCode":"32102","schedule":"L-D: 07:00-23:00","fuels":{"gasoline95":1.719,"gasoline98":1.839,"diesel":1.869,"dieselPremium":1.939},"extra":{"saleType":"P","margin":"D","reportingType":"dm","ideess":"11397","idMunicipio":"4955","idProvincia":"32","idCCAA":"12"}}},{"type":"Feature","geometry":{"type":"Point","coordinates":[-7.877278,42.32075]},"properties":{"id":"es-11529","source":"ES","brand":"CARREFOUR","address":"CALLE AIRA DE FONSILLON, S/N","municipality":"Ourense","province":"OURENSE","postalCode":"32005","schedule":"L-D: 24H","fuels":{"gasoline95":1.729,"gasoline98":1.879,"diesel":1.879,"dieselPremium":1.919},"extra":{"saleType":"P","margin":"N","reportingType":"dm","ideess":"11529","idMunicipio":"4922","idProvincia":"32","idCCAA":"12"}}},{"type":"Feature","geometry":{"type":"Point","coordinates":[-7.787361,42.62125]},"properties":{"id":"es-11907","source":"ES","brand":"AIRA OIL","address":"CARRETERA SOBREIRA KM. 2,5","municipality":"Chantada","province":"LUGO","postalCode":"27518","schedule":"L-D: 07:00-00:00","fuels":{"gasoline95":1.629,"diesel":1.699,"dieselB":1.399},"extra":{"saleType":"P","margin":"D","reportingType":"dm","ideess":"11907","idMunicipio":"4224","idProvincia":"27","idCCAA":"12"}}},{"type":"Feature","geometry":{"type":"Point","coordinates":[-7.454778,42.965417]},"properties":{"id":"es-11910","source":"ES","brand":"MOEVE","address":"AUTOVIA A-6 KM. 485","municipality":"Corgo (O)","province":"LUGO","postalCode":"27163","schedule":"L-D: 24H","fuels":{"gasoline95":1.799,"gasoline98":1.949,"diesel":1.969,"dieselPremium":2.049},"extra":{"saleType":"P","margin":"D","reportingType":"OM","ideess":"11910","idMunicipio":"4225","idProvincia":"27","idCCAA":"12"}}},{"type":"Feature","geometry":{"type":"Point","coordinates":[-7.457528,42.965306]},"properties":{"id":"es-11911","source":"ES","brand":"MOEVE","address":"AUTOVIA A-6 KM. 485","municipality":"Corgo (O)","province":"LUGO","postalCode":"27163","schedule":"L-D: 24H","fuels":{"gasoline95":1.799,"gasoline98":1.949,"diesel":1.969,"dieselPremium":2.049},"extra":{"saleType":"P","margin":"I","reportingType":"OM","ideess":"11911","idMunicipio":"4225","idProvincia":"27","idCCAA":"12"}}},{"type":"Feature","geometry":{"type":"Point","coordinates":[-7.182083,42.024889]},"properties":{"id":"es-12180","source":"ES","brand":"STAROIL","address":"AUTOVIA A52 KM. 132","municipality":"Gudiña (A)","province":"OURENSE","postalCode":"32540","schedule":"L-D: 24H","fuels":{"gasoline95":1.669,"diesel":1.768,"dieselPremium":1.799,"dieselB":1.499,"adblue":1.099},"extra":{"saleType":"P","margin":"D","reportingType":"dm","ideess":"12180","idMunicipio":"4904","idProvincia":"32","idCCAA":"12"}}},{"type":"Feature","geometry":{"type":"Point","coordinates":[-7.532833,42.492778]},"properties":{"id":"es-12872","source":"ES","brand":"GASOLEOS DE MONFORTE","address":"POLIGONO POLIGONO INDUSTRIAL REBOREDO, S/N","municipality":"Monforte de Lemos","province":"LUGO","postalCode":"27400","schedule":"L-V: 08:00-23:00; S: 08:00-14:00","fuels":{"gasoline95":1.69,"diesel":1.74,"lpg":1.05},"extra":{"saleType":"P","margin":"I","reportingType":"dm","ideess":"12872","idMunicipio":"4239","idProvincia":"27","idCCAA":"12"}}},{"type":"Feature","geometry":{"type":"Point","coordinates":[-7.811972,42.289972]},"properties":{"id":"es-13673","source":"ES","brand":"SUPERFUEL","address":"CALLE RICARDO MARTIN ESPERANZA, 1","municipality":"San Cibrao das Viñas","province":"OURENSE","postalCode":"32901","schedule":"L-D: 07:30-23:00","fuels":{"gasoline95":1.577,"diesel":1.687},"extra":{"saleType":"P","margin":"D","reportingType":"dm","ideess":"13673","idMunicipio":"4942","idProvincia":"32","idCCAA":"12"}}},{"type":"Feature","geometry":{"type":"Point","coordinates":[-7.096139,42.399083]},"properties":{"id":"es-13720","source":"ES","brand":"REPSOL","address":"RUA CIRCUNVALACIÓN, S/N","municipality":"Rúa (A)","province":"OURENSE","postalCode":"32350","schedule":"L-D: 07:00-23:00","fuels":{"gasoline95":1.776,"gasoline98":1.956,"diesel":1.96,"dieselPremium":2.03},"extra":{"saleType":"P","margin":"D","reportingType":"OM","ideess":"13720","idMunicipio":"4939","idProvincia":"32","idCCAA":"12"}}},{"type":"Feature","geometry":{"type":"Point","coordinates":[-7.941611,42.64675]},"properties":{"id":"es-14311","source":"ES","brand":"O RODO","address":"CARRETERA PO-533 KM. 16","municipality":"Rodeiro","province":"PONTEVEDRA","postalCode":"36530","schedule":"L: 08:00-00:00","fuels":{"gasoline95":1.599,"diesel":1.669,"dieselB":1.439,"adblue":0.899},"extra":{"saleType":"P","margin":"I","reportingType":"dm","ideess":"14311","idMunicipio":"5314","idProvincia":"36","idCCAA":"12"}}},{"type":"Feature","geometry":{"type":"Point","coordinates":[-7.524889,42.525528]},"properties":{"id":"es-14869","source":"ES","brand":"PLENERGY","address":"RUA POETA MANUEL MARÍA, 34","municipality":"Monforte de Lemos","province":"LUGO","postalCode":"27400","schedule":"L-D: 24H","fuels":{"gasoline95":1.679,"diesel":1.779},"extra":{"saleType":"P","margin":"D","reportingType":"dm","ideess":"14869","idMunicipio":"4239","idProvincia":"27","idCCAA":"12"}}},{"type":"Feature","geometry":{"type":"Point","coordinates":[-7.563778,42.961806]},"properties":{"id":"es-15102","source":"ES","brand":"VALCARCE","address":"LUGAR CARRETERA LU-612 PK 3.86 LG SOÑARIÑO, SAN PEDRO DE SOÑAR, 3,86","municipality":"Lugo","province":"LUGO","postalCode":"27180","schedule":"D: 24H","fuels":{"gasoline95":1.719,"gasoline98E10":1.899,"diesel":1.859,"dieselPremium":1.929},"extra":{"saleType":"P","margin":"D","reportingType":"dm","ideess":"15102","idMunicipio":"4236","idProvincia":"27","idCCAA":"12"}}},{"type":"Feature","geometry":{"type":"Point","coordinates":[-7.877944,42.326361]},"properties":{"id":"es-15195","source":"ES","brand":"PLENERGY","address":"RUA MARCELO MACIAS, 142","municipality":"Ourense","province":"OURENSE","postalCode":"32002","schedule":"L-D: 24H","fuels":{"gasoline95":1.619,"diesel":1.769},"extra":{"saleType":"P","margin":"D","reportingType":"dm","ideess":"15195","idMunicipio":"4922","idProvincia":"32","idCCAA":"12"}}},{"type":"Feature","geometry":{"type":"Point","coordinates":[-7.414833,42.782222]},"properties":{"id":"es-15559","source":"ES","brand":"PLENERGY","address":"RUA MATIAS LÓPEZ, 91","municipality":"Sarria","province":"LUGO","postalCode":"27600","schedule":"L-D: 24H","fuels":{"gasoline95":1.665,"diesel":1.769},"extra":{"saleType":"P","margin":"D","reportingType":"dm","ideess":"15559","idMunicipio":"4264","idProvincia":"27","idCCAA":"12"}}},{"type":"Feature","geometry":{"type":"Point","coordinates":[-7.810528,42.322806]},"properties":{"id":"es-15592","source":"ES","brand":"BALLENOIL","address":"POLIGONO PARQUE EMPRESARIAL PARCELA, S/N","municipality":"Pereiro de Aguiar (O)","province":"OURENSE","postalCode":"32792","schedule":"L-D: 24H","fuels":{"gasoline95":1.619,"diesel":1.747,"dieselPremium":1.767},"extra":{"saleType":"P","margin":"D","reportingType":"OM","ideess":"15592","idMunicipio":"4926","idProvincia":"32","idCCAA":"12"}}},{"type":"Feature","geometry":{"type":"Point","coordinates":[-7.824056,42.288444]},"properties":{"id":"es-15832","source":"ES","brand":"PLENERGY","address":"RUA RICARDO MARTIN ESPERANZA, S/N","municipality":"San Cibrao das Viñas","province":"OURENSE","postalCode":"32901","schedule":"L-D: 24H","fuels":{"gasoline95":1.619,"diesel":1.747},"extra":{"saleType":"P","margin":"D","reportingType":"dm","ideess":"15832","idMunicipio":"4942","idProvincia":"32","idCCAA":"12"}}},{"type":"Feature","geometry":{"type":"Point","coordinates":[-7.457722,42.965389]},"properties":{"id":"es-15947","source":"ES","brand":"MOLGAS","address":"AUTOPISTA A6 KM. 487","municipality":"Corgo (O)","province":"LUGO","postalCode":"27163","schedule":"L-D: 00:00-23:59","fuels":{"lng":1.549},"extra":{"saleType":"P","margin":"D","reportingType":"dm","ideess":"15947","idMunicipio":"4225","idProvincia":"27","idCCAA":"12"}}},{"type":"Feature","geometry":{"type":"Point","coordinates":[-7.770639,42.723917]},"properties":{"id":"es-15976","source":"ES","brand":"AIRA OIL TABOADA","address":"POLIGONO PARQUE EMPRESARIAL DE TABOADA S/N, S/N","municipality":"Taboada","province":"LUGO","postalCode":"27550","schedule":"L-D: 24H","fuels":{"gasoline95":1.629,"diesel":1.699,"dieselB":1.399},"extra":{"saleType":"P","margin":"N","reportingType":"dm","ideess":"15976","idMunicipio":"4267","idProvincia":"27","idCCAA":"12"}}},{"type":"Feature","geometry":{"type":"Point","coordinates":[-7.857056,42.313444]},"properties":{"id":"es-16061","source":"ES","brand":"PLENERGY","address":"RUA CANIZO, S/N","municipality":"Ourense","province":"OURENSE","postalCode":"32970","schedule":"L-D: 24H","fuels":{"gasoline95":1.619,"diesel":1.769},"extra":{"saleType":"P","margin":"D","reportingType":"dm","ideess":"16061","idMunicipio":"4922","idProvincia":"32","idCCAA":"12"}}},{"type":"Feature","geometry":{"type":"Point","coordinates":[-7.720722,42.077222]},"properties":{"id":"es-16340","source":"ES","brand":"PLENERGY","address":"VÍA PISTA DE MORGADE, S/N","municipality":"Xinzo de Limia","province":"OURENSE","postalCode":"32630","schedule":"L-D: 24H","fuels":{"gasoline95":1.679,"diesel":1.819},"extra":{"saleType":"P","margin":"D","reportingType":"dm","ideess":"16340","idMunicipio":"4961","idProvincia":"32","idCCAA":"12"}}},{"type":"Feature","geometry":{"type":"Point","coordinates":[-7.413111,42.801333]},"properties":{"id":"es-16415","source":"ES","brand":"PETROCASH BETOTE","address":"CARRETERA LUGO COMARCAL LU-546 KM. 21,20","municipality":"Sarria","province":"LUGO","postalCode":"27616","schedule":"L-D: 06:30-23:30","fuels":{"gasoline95":1.629,"gasoline98":1.759,"diesel":1.719,"dieselPremium":1.749,"adblue":0.799},"extra":{"saleType":"P","margin":"D","reportingType":"dm","ideess":"16415","idMunicipio":"4264","idProvincia":"27","idCCAA":"12"}}},{"type":"Feature","geometry":{"type":"Point","coordinates":[-7.853778,42.369833]},"properties":{"id":"es-256","source":"ES","brand":"E.S. O VISO","address":"CARRETERA N-525 KM. 242,400","municipality":"Ourense","province":"OURENSE","postalCode":"32001","schedule":"L-D: 07:00-23:00","fuels":{"gasoline95":1.699,"gasoline98":1.799,"diesel":1.798,"dieselPremium":1.899,"adblue":0.999},"extra":{"saleType":"P","margin":"D","reportingType":"dm","ideess":"256","idMunicipio":"4922","idProvincia":"32","idCCAA":"12"}}},{"type":"Feature","geometry":{"type":"Point","coordinates":[-7.861972,42.876194]},"properties":{"id":"es-264","source":"ES","brand":"ULTREYA","address":"CARRETERA N-547  LUGO-SANTIAGO KM. 35","municipality":"Palas de Rei","province":"LUGO","postalCode":"27200","schedule":"L-D: 07:00-23:00","fuels":{"gasoline95":1.719,"diesel":1.869,"dieselB":1.599,"adblue":0.89},"extra":{"saleType":"P","margin":"D","reportingType":"dm","ideess":"264","idMunicipio":"4247","idProvincia":"27","idCCAA":"12"}}},{"type":"Feature","geometry":{"type":"Point","coordinates":[-7.95325,42.649639]},"properties":{"id":"es-265","source":"ES","brand":"VALCARCE","address":"CARRETERA PO-533 A GAIOLA KM. ","municipality":"Rodeiro","province":"PONTEVEDRA","postalCode":"36530","schedule":"L-S: 07:00-23:00; D: 08:00-23:00","fuels":{"gasoline95":1.699,"diesel":1.769,"dieselPremium":1.829,"dieselB":1.495,"adblue":0.85},"extra":{"saleType":"P","margin":"D","reportingType":"dm","ideess":"265","idMunicipio":"5314","idProvincia":"36","idCCAA":"12"}}},{"type":"Feature","geometry":{"type":"Point","coordinates":[-7.865333,42.358056]},"properties":{"id":"es-269","source":"ES","brand":"CEPSA V21","address":"AVENIDA SANTIAGO, 132","municipality":"Ourense","province":"OURENSE","postalCode":"32001","schedule":"L-D: 24H","fuels":{"gasoline95":1.798,"gasoline98":1.928,"diesel":1.928,"dieselPremium":1.988},"extra":{"saleType":"P","margin":"D","reportingType":"dm","ideess":"269","idMunicipio":"4922","idProvincia":"32","idCCAA":"12"}}},{"type":"Feature","geometry":{"type":"Point","coordinates":[-7.846389,42.406667]},"properties":{"id":"es-278","source":"ES","brand":"LATEQUIN","address":"CARRETERA DE VILARCHAO km 1","municipality":"Coles","province":"OURENSE","postalCode":"32152","schedule":"L-S: 07:30-23:00; D: 08:00-23:00","fuels":{"gasoline95":1.698,"gasoline98":1.798,"diesel":1.798},"extra":{"saleType":"P","margin":"D","reportingType":"dm","ideess":"278","idMunicipio":"4898","idProvincia":"32","idCCAA":"12"}}},{"type":"Feature","geometry":{"type":"Point","coordinates":[-7.563444,42.761889]},"properties":{"id":"es-281","source":"ES","brand":"GALP","address":"CARRERA BECERREA-VENTAS DE NARON, S/N","municipality":"Paradela","province":"LUGO","postalCode":"27611","schedule":"L-D: 08:00-22:00","fuels":{"gasoline95":1.805,"gasoline98":1.925,"diesel":1.96,"dieselPremium":1.99,"dieselB":1.764},"extra":{"saleType":"P","margin":"I","reportingType":"dm","ideess":"281","idMunicipio":"4249","idProvincia":"27","idCCAA":"12"}}},{"type":"Feature","geometry":{"type":"Point","coordinates":[-7.735417,42.397361]},"properties":{"id":"es-285","source":"ES","brand":"ESTACION DE SERVICIO LUINTRA, S.L.","address":"CARRETERA PONTE DOS GOZOAS KM. 11,900","municipality":"Nogueira de Ramuín","province":"OURENSE","postalCode":"32160","schedule":"L-D: 09:00-20:00","fuels":{"gasoline95":1.78,"diesel":1.84},"extra":{"saleType":"P","margin":"I","reportingType":"dm","ideess":"285","idMunicipio":"4920","idProvincia":"32","idCCAA":"12"}}},{"type":"Feature","geometry":{"type":"Point","coordinates":[-7.618056,42.805139]},"properties":{"id":"es-294","source":"ES","brand":"CAMPA","address":"CARRETERA C-535 KM. 55,000","municipality":"Portomarín","province":"LUGO","postalCode":"27170","schedule":"L-S: 08:00-14:00 y 16:00-22:00","fuels":{"gasoline95":1.749,"gasoline98":1.889,"diesel":1.899,"dieselPremium":1.979,"dieselB":1.759},"extra":{"saleType":"P","margin":"I","reportingType":"dm","ideess":"294","idMunicipio":"4256","idProvincia":"27","idCCAA":"12"}}},{"type":"Feature","geometry":{"type":"Point","coordinates":[-7.812389,42.344972]},"properties":{"id":"es-302","source":"ES","brand":"J.L E HIJOS","address":"C-536 km 4,3","municipality":"Pereiro de Aguiar (O)","province":"OURENSE","postalCode":"32710","schedule":"L: 24H","fuels":{"gasoline95":1.619,"gasoline98":1.769,"diesel":1.739,"dieselPremium":1.799,"adblue":1.25},"extra":{"saleType":"P","margin":"N","reportingType":"dm","ideess":"302","idMunicipio":"4926","idProvincia":"32","idCCAA":"12"}}},{"type":"Feature","geometry":{"type":"Point","coordinates":[-7.118583,42.318278]},"properties":{"id":"es-303","source":"ES","brand":"PETROL LENTELLAIS","address":"CARRETERA LA GÜDIÑA-LALIN KM. 37,8","municipality":"Bolo (O)","province":"OURENSE","postalCode":"32373","schedule":"L-S: 07:00-23:00; D: 08:00-23:00","fuels":{"gasoline95":1.639,"diesel":1.779},"extra":{"saleType":"P","margin":"N","reportingType":"dm","ideess":"303","idMunicipio":"4886","idProvincia":"32","idCCAA":"12"}}},{"type":"Feature","geometry":{"type":"Point","coordinates":[-7.866528,42.339139]},"properties":{"id":"es-304","source":"ES","brand":"E. S. PEREZ RUMBAO S.A.","address":"PROGRESO 97","municipality":"Ourense","province":"OURENSE","postalCode":"32003","schedule":"L-D: 07:00-00:00","fuels":{"gasoline95":1.669,"gasoline98":1.769,"diesel":1.789,"dieselPremium":1.839},"extra":{"saleType":"P","margin":"N","reportingType":"dm","ideess":"304","idMunicipio":"4922","idProvincia":"32","idCCAA":"12"}}},{"type":"Feature","geometry":{"type":"Point","coordinates":[-7.806028,42.269806]},"properties":{"id":"es-310","source":"ES","brand":"OURENSANA DE PETROLEOS SL","address":"LG. PEREIRAS Nº 36 (CTRA. CUMIAL-SALGUEIROS)","municipality":"Taboadela","province":"OURENSE","postalCode":"32690","schedule":"L-D: 08:00-23:00","fuels":{"gasoline95":1.699,"gasoline98":1.799,"diesel":1.749},"extra":{"saleType":"P","margin":"N","reportingType":"dm","ideess":"310","idMunicipio":"4947","idProvincia":"32","idCCAA":"12"}}},{"type":"Feature","geometry":{"type":"Point","coordinates":[-7.862383,42.321219]},"properties":{"id":"es-311","source":"ES","brand":"ESTACION DE SERVICIO MARIÑAMANSA","address":"AVDA. DE ZAMORA 140","municipality":"Ourense","province":"OURENSE","postalCode":"32005","schedule":"L-D: 06:00-23:00","fuels":{"gasoline95":1.669,"gasoline98":1.769,"diesel":1.789,"dieselPremium":1.839,"adblue":1.059},"extra":{"saleType":"P","margin":"N","reportingType":"dm","ideess":"311","idMunicipio":"4922","idProvincia":"32","idCCAA":"12"}}},{"type":"Feature","geometry":{"type":"Point","coordinates":[-7.646778,42.27225]},"properties":{"id":"es-312","source":"ES","brand":"EESS MACEDA","address":"BAIXADA/BAJADA RÚA DAS FLORES,29,, 6193","municipality":"Maceda","province":"OURENSE","postalCode":"32700","schedule":"L: 06:00-12:00","fuels":{"gasoline95":1.779,"gasoline98":1.899,"diesel":1.899,"dieselPremium":1.989,"dieselB":1.649},"extra":{"saleType":"P","margin":"N","reportingType":"dm","ideess":"312","idMunicipio":"4911","idProvincia":"32","idCCAA":"12"}}},{"type":"Feature","geometry":{"type":"Point","coordinates":[-7.153056,42.851111]},"properties":{"id":"es-315","source":"ES","brand":"E.S.RUTANCARES S.L.","address":"AVDA. DE MADRID, 77","municipality":"Becerreá","province":"LUGO","postalCode":"27640","schedule":"L-D: 07:00-22:30","fuels":{"gasoline95":1.798,"gasoline98":1.859,"diesel":1.898,"dieselB":1.628},"extra":{"saleType":"P","margin":"N","reportingType":"dm","ideess":"315","idMunicipio":"4215","idProvincia":"27","idCCAA":"12"}}},{"type":"Feature","geometry":{"type":"Point","coordinates":[-7.46475,42.901972]},"properties":{"id":"es-318","source":"ES","brand":"LIBRE","address":"CTRA. C-546 PK km 8,2","municipality":"Corgo (O)","province":"LUGO","postalCode":"27163","schedule":"L-D: 07:00-22:00","fuels":{"gasoline95":1.666,"diesel":1.788,"dieselB":1.633},"extra":{"saleType":"P","margin":"I","reportingType":"dm","ideess":"318","idMunicipio":"4225","idProvincia":"27","idCCAA":"12"}}},{"type":"Feature","geometry":{"type":"Point","coordinates":[-7.983111,42.343389]},"properties":{"id":"es-323","source":"ES","brand":"REPSOL","address":"CARRETERA N-120 KM. 580","municipality":"Ourense","province":"OURENSE","postalCode":"32593","schedule":"L-D: 24H","fuels":{"gasoline95":1.749,"gasoline98":1.849,"diesel":1.899,"dieselPremium":1.929,"adblue":0.9},"extra":{"saleType":"P","margin":"I","reportingType":"dm","ideess":"323","idMunicipio":"4922","idProvincia":"32","idCCAA":"12"}}},{"type":"Feature","geometry":{"type":"Point","coordinates":[-7.973083,42.034389]},"properties":{"id":"es-324","source":"ES","brand":"REPSOL","address":"CALLE FAUSTINO SANTALICES, 58","municipality":"Bande","province":"OURENSE","postalCode":"32840","schedule":"L-D: 07:00-23:00","fuels":{"gasoline95":1.785,"gasoline98":1.896,"diesel":1.898,"dieselPremium":1.963,"dieselB":1.75},"extra":{"saleType":"P","margin":"I","reportingType":"dm","ideess":"324","idMunicipio":"4877","idProvincia":"32","idCCAA":"12"}}},{"type":"Feature","geometry":{"type":"Point","coordinates":[-7.101333,42.188778]},"properties":{"id":"es-331","source":"ES","brand":"REPSOL","address":"CARRETERA GUDIÑA-LALIN KM. 21","municipality":"Viana do Bolo","province":"OURENSE","postalCode":"32550","schedule":"L-V: 07:30-22:00; S: 08:00-22:00; D: 09:00-21:00","fuels":{"gasoline95":1.819,"diesel":1.959,"dieselB":1.599,"dieselRenewable":1.999},"extra":{"saleType":"P","margin":"I","reportingType":"dm","ideess":"331","idMunicipio":"4954","idProvincia":"32","idCCAA":"12"}}},{"type":"Feature","geometry":{"type":"Point","coordinates":[-7.842861,42.341611]},"properties":{"id":"es-332","source":"ES","brand":"REPSOL","address":"CR OR-536, 2  D","municipality":"Ourense","province":"OURENSE","postalCode":"32004","schedule":"L-D: 07:00-23:00","fuels":{"gasoline95":1.796,"gasoline98":1.926,"diesel":1.92,"dieselPremium":1.99},"extra":{"saleType":"P","margin":"D","reportingType":"OM","ideess":"332","idMunicipio":"4922","idProvincia":"32","idCCAA":"12"}}},{"type":"Feature","geometry":{"type":"Point","coordinates":[-7.106472,42.396056]},"properties":{"id":"es-333","source":"ES","brand":"PETROL A RUA","address":"CALLE CAMPO GRANDE, 59","municipality":"Rúa (A)","province":"OURENSE","postalCode":"32350","schedule":"L-D: 24H","fuels":{"gasoline95":1.639,"diesel":1.779},"extra":{"saleType":"P","margin":"I","reportingType":"dm","ideess":"333","idMunicipio":"4939","idProvincia":"32","idCCAA":"12"}}},{"type":"Feature","geometry":{"type":"Point","coordinates":[-7.260361,42.340417]},"properties":{"id":"es-334","source":"ES","brand":"REPSOL","address":"AVENIDA ORENSE, 20","municipality":"Pobra de Trives (A)","province":"OURENSE","postalCode":"32780","schedule":"L-V: 06:30-23:00; S-D: 08:00-23:00","fuels":{"gasoline95":1.776,"diesel":1.926,"dieselPremium":2.046,"dieselB":1.586},"extra":{"saleType":"P","margin":"I","reportingType":"OM","ideess":"334","idMunicipio":"4930","idProvincia":"32","idCCAA":"12"}}},{"type":"Feature","geometry":{"type":"Point","coordinates":[-7.864556,42.250722]},"properties":{"id":"es-337","source":"ES","brand":"REPSOL","address":"CARRETERA COMARCAL INFESTA-RANTE ENLACE KM. S/N","municipality":"San Cibrao das Viñas","province":"OURENSE","postalCode":"32910","schedule":"L-D: 24H","fuels":{"gasoline95":1.786,"gasoline98":1.916,"diesel":1.926,"dieselPremium":1.996},"extra":{"saleType":"P","margin":"D","reportingType":"OM","ideess":"337","idMunicipio":"4942","idProvincia":"32","idCCAA":"12"}}},{"type":"Feature","geometry":{"type":"Point","coordinates":[-7.864722,42.251056]},"properties":{"id":"es-340","source":"ES","brand":"REPSOL","address":"CR  A-52 ENLACE P.K. 217","municipality":"San Cibrao das Viñas","province":"OURENSE","postalCode":"32910","schedule":"L-D: 07:00-23:00","fuels":{"gasoline95":1.786,"gasoline98":1.916,"diesel":1.926,"dieselPremium":1.996},"extra":{"saleType":"P","margin":"I","reportingType":"OM","ideess":"340","idMunicipio":"4942","idProvincia":"32","idCCAA":"12"}}},{"type":"Feature","geometry":{"type":"Point","coordinates":[-7.665611,42.058583]},"properties":{"id":"es-341","source":"ES","brand":"REPSOL","address":"AUTOVIA RIAS BAIXAS KM. 188","municipality":"Trasmiras","province":"OURENSE","postalCode":"32694","schedule":"L-D: 07:00-23:59","fuels":{"gasoline95":1.776,"gasoline98":1.906,"diesel":1.916,"dieselPremium":2.036},"extra":{"saleType":"P","margin":"N","reportingType":"OM","ideess":"341","idMunicipio":"4950","idProvincia":"32","idCCAA":"12"}}},{"type":"Feature","geometry":{"type":"Point","coordinates":[-7.023444,42.249944]},"properties":{"id":"es-346","source":"ES","brand":"FINA","address":"CARRETERA DE COVELO KM. 12","municipality":"Veiga (A)","province":"OURENSE","postalCode":"32360","schedule":"L-S: 08:00-21:00","fuels":{"gasoline95":1.638,"diesel":1.778,"dieselB":1.599},"extra":{"saleType":"P","margin":"N","reportingType":"dm","ideess":"346","idMunicipio":"4951","idProvincia":"32","idCCAA":"12"}}},{"type":"Feature","geometry":{"type":"Point","coordinates":[-7.950611,42.127306]},"properties":{"id":"es-354","source":"ES","brand":"GALP","address":"Ctra. N-540 km 28,000","municipality":"Verea","province":"OURENSE","postalCode":"32813","schedule":"L-D: 07:00-23:00","fuels":{"gasoline95":1.759,"gasoline98":1.889,"diesel":1.889,"dieselPremium":1.959,"adblue":0.959},"extra":{"saleType":"P","margin":"D","reportingType":"dm","ideess":"354","idMunicipio":"4952","idProvincia":"32","idCCAA":"12"}}},{"type":"Feature","geometry":{"type":"Point","coordinates":[-7.894778,42.351306]},"properties":{"id":"es-355","source":"ES","brand":"REPSOL","address":"CALLE PENA DO VADO, 59","municipality":"Ourense","province":"OURENSE","postalCode":"32002","schedule":"L: 07:00-23:00","fuels":{"gasoline95":1.779,"gasoline98":1.909,"diesel":1.929,"dieselPremium":1.989,"lpg":1.049,"adblue":1.039},"extra":{"saleType":"P","margin":"N","reportingType":"dm","ideess":"355","idMunicipio":"4922","idProvincia":"32","idCCAA":"12"}}},{"type":"Feature","geometry":{"type":"Point","coordinates":[-7.877994,42.318052]},"properties":{"id":"es-365","source":"ES","brand":"GALP","address":"N-540 P.K. 0,700","municipality":"Barbadás","province":"OURENSE","postalCode":"32890","schedule":"L-D: 24H","fuels":{"gasoline95":1.624,"diesel":1.774,"dieselPremium":1.824},"extra":{"saleType":"P","margin":"D","reportingType":"OM","ideess":"365","idMunicipio":"4879","idProvincia":"32","idCCAA":"12"}}},{"type":"Feature","geometry":{"type":"Point","coordinates":[-7.877389,42.318111]},"properties":{"id":"es-366","source":"ES","brand":"GALP","address":"CARRETERA NACIONAL 540 KM. 0,70","municipality":"Barbadás","province":"OURENSE","postalCode":"32890","schedule":"L-D: 07:00-22:00","fuels":{"gasoline95":1.724,"gasoline95Premium":1.774,"diesel":1.874,"dieselPremium":1.924,"adblue":0.799},"extra":{"saleType":"P","margin":"I","reportingType":"OM","ideess":"366","idMunicipio":"4879","idProvincia":"32","idCCAA":"12"}}},{"type":"Feature","geometry":{"type":"Point","coordinates":[-7.441667,42.832778]},"properties":{"id":"es-429","source":"ES","brand":"PETROCASH SARRIA","address":"CARRETERA C-546 KM. 17","municipality":"Sarria","province":"LUGO","postalCode":"27614","schedule":"L: 07:00-23:00","fuels":{"gasoline95":1.629,"gasoline98":1.759,"diesel":1.719,"dieselPremium":1.749,"adblue":0.799},"extra":{"saleType":"P","margin":"D","reportingType":"dm","ideess":"429","idMunicipio":"4264","idProvincia":"27","idCCAA":"12"}}},{"type":"Feature","geometry":{"type":"Point","coordinates":[-7.414778,42.772417]},"properties":{"id":"es-431","source":"ES","brand":"MOEVE","address":"RUA BENIGNO QUIROGA, 92","municipality":"Sarria","province":"LUGO","postalCode":"27600","schedule":"L-D: 07:00-23:00","fuels":{"gasoline95":1.819,"gasoline98":1.939,"diesel":1.99,"dieselPremium":2.069,"dieselB":1.769,"adblue":1.05},"extra":{"saleType":"P","margin":"D","reportingType":"dm","ideess":"431","idMunicipio":"4264","idProvincia":"27","idCCAA":"12"}}},{"type":"Feature","geometry":{"type":"Point","coordinates":[-7.527194,42.526056]},"properties":{"id":"es-455","source":"ES","brand":"REPSOL","address":"CL CARRETERA DE CHANTADA, S.N.","municipality":"Monforte de Lemos","province":"LUGO","postalCode":"27400","schedule":"L-D: 24H","fuels":{"gasoline95":1.719,"gasoline98":1.765,"diesel":1.855,"dieselPremium":1.875,"dieselB":1.495,"lpg":1.16,"adblue":0.72},"extra":{"saleType":"P","margin":"I","reportingType":"dm","ideess":"455","idMunicipio":"4239","idProvincia":"27","idCCAA":"12"}}},{"type":"Feature","geometry":{"type":"Point","coordinates":[-7.898806,42.781972]},"properties":{"id":"es-492","source":"ES","brand":"REPSOL","address":"CR N-640 138,5","municipality":"Antas de Ulla","province":"LUGO","postalCode":"27570","schedule":"L-D: 07:00-23:00","fuels":{"gasoline95":1.776,"diesel":1.926,"dieselPremium":2.026,"dieselB":1.722},"extra":{"saleType":"P","margin":"I","reportingType":"OM","ideess":"492","idMunicipio":"4211","idProvincia":"27","idCCAA":"12"}}},{"type":"Feature","geometry":{"type":"Point","coordinates":[-7.8125,42.541278]},"properties":{"id":"es-496","source":"ES","brand":"REPSOL","address":"CARRETERA 540, KM65 KM. 0","municipality":"Carballedo","province":"LUGO","postalCode":"27520","schedule":"L-D: 07:00-23:00","fuels":{"gasoline95":1.8,"diesel":1.94,"dieselPremium":2.06,"dieselB":1.712},"extra":{"saleType":"P","margin":"I","reportingType":"OM","ideess":"496","idMunicipio":"4219","idProvincia":"27","idCCAA":"12"}}},{"type":"Feature","geometry":{"type":"Point","coordinates":[-7.770333,42.604167]},"properties":{"id":"es-525","source":"ES","brand":"AMMNSA, S.L.","address":"CARRETERA CTRA. DE OURENSE, S/N KM. 57,4","municipality":"Chantada","province":"LUGO","postalCode":"27500","schedule":"L-D: 24H","fuels":{"gasoline95":1.801,"gasoline98":1.981,"diesel":1.936,"dieselPremium":2.056,"dieselB":1.759,"adblue":1.2},"extra":{"saleType":"P","margin":"I","reportingType":"dm","ideess":"525","idMunicipio":"4224","idProvincia":"27","idCCAA":"12"}}},{"type":"Feature","geometry":{"type":"Point","coordinates":[-7.325722,42.732583]},"properties":{"id":"es-537","source":"ES","brand":"REPSOL","address":"AVENIDA COMPOSTELA, 1","municipality":"Samos","province":"LUGO","postalCode":"27620","schedule":"L: 08:00-22:30","fuels":{"gasoline95":1.776,"diesel":1.92,"dieselB":1.746},"extra":{"saleType":"P","margin":"D","reportingType":"OM","ideess":"537","idMunicipio":"4263","idProvincia":"27","idCCAA":"12"}}},{"type":"Feature","geometry":{"type":"Point","coordinates":[-7.63475,42.931694]},"properties":{"id":"es-544","source":"ES","brand":"REPSOL","address":"CARRETERA N-540 KM. 10,5","municipality":"Lugo","province":"LUGO","postalCode":"27165","schedule":"L-S: 07:00-23:00; D: 08:00-23:00","fuels":{"gasoline95":1.78,"gasoline98":1.96,"diesel":1.926,"dieselB":1.696,"dieselRenewable":2.046},"extra":{"saleType":"P","margin":"I","reportingType":"OM","ideess":"544","idMunicipio":"4236","idProvincia":"27","idCCAA":"12"}}},{"type":"Feature","geometry":{"type":"Point","coordinates":[-7.765444,42.712389]},"properties":{"id":"es-547","source":"ES","brand":"VALCARCE","address":"AVENIDA DE LUGO, 183","municipality":"Taboada","province":"LUGO","postalCode":"27550","schedule":"L-D: 07:00-23:00","fuels":{"gasoline95":1.739,"diesel":1.859,"dieselB":1.409,"adblue":0.9},"extra":{"saleType":"P","margin":"N","reportingType":"dm","ideess":"547","idMunicipio":"4267","idProvincia":"27","idCCAA":"12"}}},{"type":"Feature","geometry":{"type":"Point","coordinates":[-7.497306,42.968472]},"properties":{"id":"es-567","source":"ES","brand":"REPSOL","address":"CARRETERA NACIONAL VI KM. 493,7","municipality":"Lugo","province":"LUGO","postalCode":"27160","schedule":"L-D: 07:00-23:00","fuels":{"gasoline95":1.796,"diesel":1.936,"dieselRenewable":2.056},"extra":{"saleType":"P","margin":"I","reportingType":"OM","ideess":"567","idMunicipio":"4236","idProvincia":"27","idCCAA":"12"}}},{"type":"Feature","geometry":{"type":"Point","coordinates":[-7.766,42.612528]},"properties":{"id":"es-576","source":"ES","brand":"REPSOL","address":"AVENIDA LUGO (DE), 99","municipality":"Chantada","province":"LUGO","postalCode":"27500","schedule":"L-D: 07:00-23:00","fuels":{"gasoline95":1.8,"gasoline98":1.98,"diesel":1.936,"dieselPremium":2.056,"dieselB":1.746},"extra":{"saleType":"P","margin":"D","reportingType":"OM","ideess":"576","idMunicipio":"4224","idProvincia":"27","idCCAA":"12"}}},{"type":"Feature","geometry":{"type":"Point","coordinates":[-7.535639,42.988389]},"properties":{"id":"es-583","source":"ES","brand":"REPSOL","address":"CARRETERA N-6 KM. 498","municipality":"Lugo","province":"LUGO","postalCode":"27169","schedule":"L-D: 07:00-23:00","fuels":{"gasoline95":1.789,"diesel":1.929,"dieselPremium":1.979},"extra":{"saleType":"P","margin":"I","reportingType":"dm","ideess":"583","idMunicipio":"4236","idProvincia":"27","idCCAA":"12"}}},{"type":"Feature","geometry":{"type":"Point","coordinates":[-7.513056,42.51975]},"properties":{"id":"es-584","source":"ES","brand":"REPSOL","address":"AVENIDA GALICIA, 41","municipality":"Monforte de Lemos","province":"LUGO","postalCode":"27400","schedule":"L-D: 07:00-23:00","fuels":{"gasoline95":1.786,"gasoline98":1.966,"diesel":1.93,"dieselPremium":2.0},"extra":{"saleType":"P","margin":"D","reportingType":"OM","ideess":"584","idMunicipio":"4239","idProvincia":"27","idCCAA":"12"}}},{"type":"Feature","geometry":{"type":"Point","coordinates":[-7.254306,42.893083]},"properties":{"id":"es-590","source":"ES","brand":"CEPSA-E.S. ROCA","address":"CALLE EVARISTO CORREA CALDERON, 46","municipality":"Baralla","province":"LUGO","postalCode":"27696","schedule":"L-D: 07:00-23:00","fuels":{"gasoline95":1.819,"diesel":1.959,"dieselPremium":2.039,"dieselB":1.239},"extra":{"saleType":"P","margin":"D","reportingType":"dm","ideess":"590","idMunicipio":"4213","idProvincia":"27","idCCAA":"12"}}},{"type":"Feature","geometry":{"type":"Point","coordinates":[-7.44575,42.719778]},"properties":{"id":"es-594","source":"ES","brand":"CAMPSA","address":"CARRETERA C-546 KM. 33,7","municipality":"Sarria","province":"LUGO","postalCode":"27392","schedule":"L-D: 07:00-23:00","fuels":{"gasoline95":1.815,"diesel":1.95,"dieselPremium":2.029,"dieselB":1.769},"extra":{"saleType":"P","margin":"D","reportingType":"dm","ideess":"594","idMunicipio":"4264","idProvincia":"27","idCCAA":"12"}}},{"type":"Feature","geometry":{"type":"Point","coordinates":[-7.507361,42.529]},"properties":{"id":"es-601","source":"ES","brand":"REPSOL","address":"CALLE DOCTOR CASARES, SN","municipality":"Monforte de Lemos","province":"LUGO","postalCode":"27400","schedule":"L-D: 07:00-23:00","fuels":{"gasoline95":1.786,"gasoline98":1.966,"diesel":1.936,"dieselPremium":2.006},"extra":{"saleType":"P","margin":"D","reportingType":"OM","ideess":"601","idMunicipio":"4239","idProvincia":"27","idCCAA":"12"}}},{"type":"Feature","geometry":{"type":"Point","coordinates":[-7.397833,42.527806]},"properties":{"id":"es-608","source":"ES","brand":"REPSOL","address":"CARRETERA N-120 KM. 511","municipality":"Pobra do Brollón (A)","province":"LUGO","postalCode":"27330","schedule":"L-D: 07:00-23:00","fuels":{"gasoline95":1.776,"diesel":1.926,"dieselPremium":2.046,"dieselB":1.722},"extra":{"saleType":"P","margin":"D","reportingType":"OM","ideess":"608","idMunicipio":"4253","idProvincia":"27","idCCAA":"12"}}},{"type":"Feature","geometry":{"type":"Point","coordinates":[-7.587389,42.996806]},"properties":{"id":"es-611","source":"ES","brand":"REPSOL","address":"CARRETERA N-540 KM. 2","municipality":"Lugo","province":"LUGO","postalCode":"27297","schedule":"L-D: 07:00-23:00","fuels":{"gasoline95":1.789,"gasoline98":1.919,"diesel":1.929,"dieselPremium":1.979},"extra":{"saleType":"P","margin":"D","reportingType":"dm","ideess":"611","idMunicipio":"4236","idProvincia":"27","idCCAA":"12"}}},{"type":"Feature","geometry":{"type":"Point","coordinates":[-7.587194,42.997333]},"properties":{"id":"es-612","source":"ES","brand":"REPSOL","address":"CARRETERA N-540 KM. 2","municipality":"Lugo","province":"LUGO","postalCode":"27297","schedule":"L-D: 07:00-23:00","fuels":{"gasoline95":1.749,"diesel":1.849,"dieselPremium":1.909},"extra":{"saleType":"P","margin":"I","reportingType":"dm","ideess":"612","idMunicipio":"4236","idProvincia":"27","idCCAA":"12"}}},{"type":"Feature","geometry":{"type":"Point","coordinates":[-7.640694,42.584889]},"properties":{"id":"es-630","source":"ES","brand":"REPSOL","address":"CALLE PARDO BAZAN, 18","municipality":"Saviñao (O)","province":"LUGO","postalCode":"27540","schedule":"L-D: 07:00-23:00","fuels":{"gasoline95":1.83,"gasoline98":2.01,"diesel":1.93,"dieselPremium":2.0,"dieselB":1.722},"extra":{"saleType":"P","margin":"D","reportingType":"OM","ideess":"630","idMunicipio":"4265","idProvincia":"27","idCCAA":"12"}}},{"type":"Feature","geometry":{"type":"Point","coordinates":[-7.415222,42.782667]},"properties":{"id":"es-637","source":"ES","brand":"REPSOL","address":"CL MATIAS LOPEZ, 97","municipality":"Sarria","province":"LUGO","postalCode":"27600","schedule":"L-D: 07:00-23:00","fuels":{"gasoline95":1.776,"diesel":1.926,"dieselPremium":2.046},"extra":{"saleType":"P","margin":"I","reportingType":"OM","ideess":"637","idMunicipio":"4264","idProvincia":"27","idCCAA":"12"}}},{"type":"Feature","geometry":{"type":"Point","coordinates":[-7.628056,42.504861]},"properties":{"id":"es-638","source":"ES","brand":"PETRONOR","address":"LUGAR FERREIRA-ESPERELO, 89","municipality":"Pantón","province":"LUGO","postalCode":"27430","schedule":"L-D: 08:00-22:00","fuels":{"gasoline95":1.769,"gasoline98":1.879,"diesel":1.859},"extra":{"saleType":"P","margin":"I","reportingType":"dm","ideess":"638","idMunicipio":"4248","idProvincia":"27","idCCAA":"12"}}},{"type":"Feature","geometry":{"type":"Point","coordinates":[-7.393611,42.940306]},"properties":{"id":"es-654","source":"ES","brand":"REPSOL","address":"AUTOVIA A6 KM. 479","municipality":"Corgo (O)","province":"LUGO","postalCode":"27164","schedule":"L-D: 24H","fuels":{"gasoline95":1.809,"gasoline98":1.939,"diesel":1.929,"dieselPremium":1.979,"adblue":1.239},"extra":{"saleType":"P","margin":"D","reportingType":"dm","ideess":"654","idMunicipio":"4225","idProvincia":"27","idCCAA":"12"}}},{"type":"Feature","geometry":{"type":"Point","coordinates":[-7.497083,42.517667]},"properties":{"id":"es-659","source":"ES","brand":"MOEVE","address":"CARRETERA NAL. 120 KM. 520,8","municipality":"Monforte de Lemos","province":"LUGO","postalCode":"27400","schedule":"L-V: 06:00-22:00; S-D: 08:00-22:00","fuels":{"gasoline95":1.796,"gasoline98":1.917,"diesel":1.97,"dieselPremium":2.048},"extra":{"saleType":"P","margin":"I","reportingType":"dm","ideess":"659","idMunicipio":"4239","idProvincia":"27","idCCAA":"12"}}},{"type":"Feature","geometry":{"type":"Point","coordinates":[-7.816611,42.289722]},"properties":{"id":"es-703","source":"ES","brand":"STAROIL SAN CIBRAO","address":"CALLE RICARDO MARTÍN ESPERANZA, 12, 12","municipality":"San Cibrao das Viñas","province":"OURENSE","postalCode":"32911","schedule":"L-D: 24H","fuels":{"gasoline95":1.738,"gasoline98":1.799,"diesel":1.858,"dieselPremium":1.899,"adblue":1.099},"extra":{"saleType":"P","margin":"D","reportingType":"dm","ideess":"703","idMunicipio":"4942","idProvincia":"32","idCCAA":"12"}}},{"type":"Feature","geometry":{"type":"Point","coordinates":[-7.727083,42.075556]},"properties":{"id":"es-707","source":"ES","brand":"REPSOL","address":"CL A DEVESA, S.N.","municipality":"Xinzo de Limia","province":"OURENSE","postalCode":"32630","schedule":"L-D: 07:00-23:00","fuels":{"gasoline95":1.819,"gasoline98":1.999,"diesel":1.959,"dieselB":1.619,"dieselRenewable":2.049,"lpg":1.099,"adblue":0.89},"extra":{"saleType":"P","margin":"I","reportingType":"dm","ideess":"707","idMunicipio":"4961","idProvincia":"32","idCCAA":"12"}}},{"type":"Feature","geometry":{"type":"Point","coordinates":[-7.073194,42.408222]},"properties":{"id":"es-752","source":"ES","brand":"VALCARCE","address":"CARRETERA N-120 KM. 463","municipality":"Vilamartín de Valdeorras","province":"OURENSE","postalCode":"32340","schedule":"L-D: 06:30-10:30","fuels":{"gasoline95":1.749,"gasoline98":1.959,"diesel":1.899,"dieselPremium":1.959},"extra":{"saleType":"P","margin":"D","reportingType":"dm","ideess":"752","idMunicipio":"4956","idProvincia":"32","idCCAA":"12"}}},{"type":"Feature","geometry":{"type":"Point","coordinates":[-7.009194,42.038694]},"properties":{"id":"es-757","source":"ES","brand":"CEPSA","address":"LUGAR VILLAVIEJA, S/N","municipality":"Mezquita (A)","province":"OURENSE","postalCode":"32590","schedule":"L-D: 07:00-23:00","fuels":{"gasoline95":1.819,"gasoline98":1.959,"diesel":1.949,"adblue":0.95},"extra":{"saleType":"P","margin":"D","reportingType":"dm","ideess":"757","idMunicipio":"4916","idProvincia":"32","idCCAA":"12"}}},{"type":"Feature","geometry":{"type":"Point","coordinates":[-7.423694,42.371167]},"properties":{"id":"es-760","source":"ES","brand":"REPSOL","address":"CR OR-536, 46,9  I","municipality":"Castro Caldelas","province":"OURENSE","postalCode":"32760","schedule":"L-D: 07:00-23:00","fuels":{"gasoline95":1.785,"gasoline98":1.899,"diesel":1.909,"dieselB":1.575},"extra":{"saleType":"P","margin":"I","reportingType":"dm","ideess":"760","idMunicipio":"4894","idProvincia":"32","idCCAA":"12"}}},{"type":"Feature","geometry":{"type":"Point","coordinates":[-7.714833,42.059278]},"properties":{"id":"es-769","source":"ES","brand":"LIMIA OIL","address":"AVENIDA DE MADRID, 108","municipality":"Xinzo de Limia","province":"OURENSE","postalCode":"32630","schedule":"L-D: 07:00-23:59","fuels":{"gasoline95":1.749,"diesel":1.909},"extra":{"saleType":"P","margin":"I","reportingType":"dm","ideess":"769","idMunicipio":"4961","idProvincia":"32","idCCAA":"12"}}},{"type":"Feature","geometry":{"type":"Point","coordinates":[-7.676111,42.311667]},"properties":{"id":"es-771","source":"ES","brand":"E.S. ALTO DO COUSO","address":"LUGAR ALTO DO COUSO, S/N","municipality":"Maceda","province":"OURENSE","postalCode":"32700","schedule":"L-D: 08:00-20:00","fuels":{"gasoline95":1.749,"gasoline98":1.909,"diesel":1.849,"dieselPremium":1.909,"dieselB":1.599},"extra":{"saleType":"P","margin":"I","reportingType":"dm","ideess":"771","idMunicipio":"4911","idProvincia":"32","idCCAA":"12"}}},{"type":"Feature","geometry":{"type":"Point","coordinates":[-7.85175,42.383694]},"properties":{"id":"es-772","source":"ES","brand":"CEPSA","address":"N-525 km 254,3","municipality":"Coles","province":"OURENSE","postalCode":"32100","schedule":"L-D: 07:00-23:00","fuels":{"gasoline95":1.727,"gasoline98":1.847,"diesel":1.887,"dieselPremium":1.957},"extra":{"saleType":"P","margin":"I","reportingType":"dm","ideess":"772","idMunicipio":"4898","idProvincia":"32","idCCAA":"12"}}},{"type":"Feature","geometry":{"type":"Point","coordinates":[-7.98825,42.467583]},"properties":{"id":"es-776","source":"ES","brand":"REPSOL","address":"CARRETERA N-525, KM 261 KM. 261","municipality":"San Cristovo de Cea","province":"OURENSE","postalCode":"32130","schedule":"L-V: 07:00-23:00; S: 07:00-22:00","fuels":{"gasoline95":1.769,"gasoline98":1.869,"diesel":1.879,"dieselB":1.619,"dieselRenewable":2.039},"extra":{"saleType":"P","margin":"I","reportingType":"dm","ideess":"776","idMunicipio":"4943","idProvincia":"32","idCCAA":"12"}}},{"type":"Feature","geometry":{"type":"Point","coordinates":[-7.865306,42.332028]},"properties":{"id":"es-793","source":"ES","brand":"REPSOL","address":"PLAZA JARDIN DEL POSIO, S/N","municipality":"Ourense","province":"OURENSE","postalCode":"32005","schedule":"L-V: 07:00-22:00; S-D: 08:00-22:00","fuels":{"gasoline95":1.776,"diesel":1.926},"extra":{"saleType":"P","margin":"D","reportingType":"OM","ideess":"793","idMunicipio":"4922","idProvincia":"32","idCCAA":"12"}}},{"type":"Feature","geometry":{"type":"Point","coordinates":[-7.798278,42.442722]},"properties":{"id":"es-8026","source":"ES","brand":"E.S. PEROXA (A)","address":"LAMA GRANDE, Nº 2","municipality":"Peroxa (A)","province":"OURENSE","postalCode":"32150","schedule":"L-D: 07:00-23:00","fuels":{"gasoline95":1.699,"gasoline98":1.809,"diesel":1.799,"dieselPremium":1.899,"dieselB":1.659},"extra":{"saleType":"P","margin":"D","reportingType":"dm","ideess":"8026","idMunicipio":"4927","idProvincia":"32","idCCAA":"12"}}},{"type":"Feature","geometry":{"type":"Point","coordinates":[-7.608472,42.019583]},"properties":{"id":"es-806","source":"ES","brand":"REPSOL","address":"CARRETERA N-525 KM. 186,86","municipality":"Trasmiras","province":"OURENSE","postalCode":"32695","schedule":"L-D: 06:00-23:00","fuels":{"gasoline95":1.749,"gasoline98":1.919,"diesel":1.869,"dieselPremium":1.929,"dieselB":1.609,"dieselRenewable":1.959,"adblue":0.99},"extra":{"saleType":"P","margin":"I","reportingType":"dm","ideess":"806","idMunicipio":"4950","idProvincia":"32","idCCAA":"12"}}},{"type":"Feature","geometry":{"type":"Point","coordinates":[-7.844639,42.356944]},"properties":{"id":"es-809","source":"ES","brand":"REPSOL","address":"CALLE POBLADO VELLE, S/N","municipality":"Ourense","province":"OURENSE","postalCode":"32960","schedule":"L-D: 07:00-23:00","fuels":{"gasoline95":1.786,"gasoline98":1.966,"diesel":1.916,"dieselPremium":1.986},"extra":{"saleType":"P","margin":"D","reportingType":"OM","ideess":"809","idMunicipio":"4922","idProvincia":"32","idCCAA":"12"}}},{"type":"Feature","geometry":{"type":"Point","coordinates":[-7.790167,42.322889]},"properties":{"id":"es-811","source":"ES","brand":"REPSOL","address":"CARRETERA OU-536 KM. 7,9","municipality":"Pereiro de Aguiar (O)","province":"OURENSE","postalCode":"32792","schedule":"L-D: 06:00-23:00","fuels":{"gasoline95":1.8,"gasoline98":1.97,"diesel":1.926,"dieselB":1.606,"dieselRenewable":2.046},"extra":{"saleType":"P","margin":"D","reportingType":"OM","ideess":"811","idMunicipio":"4926","idProvincia":"32","idCCAA":"12"}}},{"type":"Feature","geometry":{"type":"Point","coordinates":[-7.794806,42.193667]},"properties":{"id":"es-815","source":"ES","brand":"GALP","address":"CARRETERA N-525 KM. 216,400","municipality":"Allariz","province":"OURENSE","postalCode":"32660","schedule":"L-D: 07:00-23:00","fuels":{"gasoline95":1.755,"gasoline98":1.875,"diesel":1.875,"dieselPremium":1.935},"extra":{"saleType":"P","margin":"D","reportingType":"dm","ideess":"815","idMunicipio":"4872","idProvincia":"32","idCCAA":"12"}}},{"type":"Feature","geometry":{"type":"Point","coordinates":[-7.925861,42.228556]},"properties":{"id":"es-817","source":"ES","brand":"CEPSA","address":"CARRETERA OU-540 KM. 15,4","municipality":"Merca (A)","province":"OURENSE","postalCode":"32830","schedule":"L-V: 07:00-23:00; S-D: 08:00-23:00","fuels":{"gasoline95":1.759,"gasoline98":1.879,"diesel":1.859,"dieselPremium":1.919,"dieselB":1.609,"adblue":0.899},"extra":{"saleType":"P","margin":"D","reportingType":"dm","ideess":"817","idMunicipio":"4915","idProvincia":"32","idCCAA":"12"}}},{"type":"Feature","geometry":{"type":"Point","coordinates":[-7.701028,42.886444]},"properties":{"id":"es-8184","source":"ES","brand":"E.S. GUNTIN","address":"CARRETERA GUNTIN CASCO URBANO KM. 18","municipality":"Guntín","province":"LUGO","postalCode":"27211","schedule":"L-D: 07:00-23:00","fuels":{"gasoline95":1.719,"diesel":1.869,"dieselPremium":1.899,"dieselB":1.58,"lpg":0.98,"adblue":0.97},"extra":{"saleType":"P","margin":"I","reportingType":"dm","ideess":"8184","idMunicipio":"4232","idProvincia":"27","idCCAA":"12"}}},{"type":"Feature","geometry":{"type":"Point","coordinates":[-7.865111,42.313028]},"properties":{"id":"es-819","source":"ES","brand":"REPSOL","address":"CALLE PONTE SEVILLA, 18","municipality":"San Cibrao das Viñas","province":"OURENSE","postalCode":"32911","schedule":"L-D: 06:00-23:00","fuels":{"gasoline95":1.779,"gasoline98":1.909,"diesel":1.929,"dieselRenewable":2.039,"lpg":1.049,"adblue":1.039},"extra":{"saleType":"P","margin":"N","reportingType":"dm","ideess":"819","idMunicipio":"4942","idProvincia":"32","idCCAA":"12"}}},{"type":"Feature","geometry":{"type":"Point","coordinates":[-7.438472,42.737972]},"properties":{"id":"es-8223","source":"ES","brand":"E.S. A VALIÑA","address":"CARRETERA C-546 KM. 30,12","municipality":"Sarria","province":"LUGO","postalCode":"27600","schedule":"L-D: 24H","fuels":{"diesel":1.839},"extra":{"saleType":"P","margin":"N","reportingType":"dm","ideess":"8223","idMunicipio":"4264","idProvincia":"27","idCCAA":"12"}}},{"type":"Feature","geometry":{"type":"Point","coordinates":[-7.866361,42.31325]},"properties":{"id":"es-827","source":"ES","brand":"REPSOL","address":"CARRETERA CARRETERA NACIONAL 525 KM. 234,3","municipality":"San Cibrao das Viñas","province":"OURENSE","postalCode":"32911","schedule":"L: 06:00-23:00","fuels":{"gasoline95":1.78,"gasoline98":1.91,"diesel":1.93,"dieselPremium":2.0},"extra":{"saleType":"P","margin":"I","reportingType":"OM","ideess":"827","idMunicipio":"4942","idProvincia":"32","idCCAA":"12"}}},{"type":"Feature","geometry":{"type":"Point","coordinates":[-7.505194,42.517556]},"properties":{"id":"es-8314","source":"ES","brand":"GALP","address":"CALLE BENITO VICETO, 50","municipality":"Monforte de Lemos","province":"LUGO","postalCode":"27400","schedule":"L-D: 07:00-22:00","fuels":{"gasoline95":1.774,"gasoline95Premium":1.824,"diesel":1.849,"dieselPremium":1.899,"adblue":0.799},"extra":{"saleType":"P","margin":"N","reportingType":"OM","ideess":"8314","idMunicipio":"4239","idProvincia":"27","idCCAA":"12"}}},{"type":"Feature","geometry":{"type":"Point","coordinates":[-7.732,42.072667]},"properties":{"id":"es-833","source":"ES","brand":"REPSOL","address":"CARRETERA CRTA. N-525, KM.199.4 KM. 199,4","municipality":"Xinzo de Limia","province":"OURENSE","postalCode":"32630","schedule":"L-D: 07:00-23:00","fuels":{"gasoline95":1.82,"gasoline95Premium":1.88,"gasoline98":2.0,"diesel":1.96,"dieselPremium":2.03,"dieselB":1.602},"extra":{"saleType":"P","margin":"I","reportingType":"OM","ideess":"833","idMunicipio":"4961","idProvincia":"32","idCCAA":"12"}}},{"type":"Feature","geometry":{"type":"Point","coordinates":[-7.949639,42.158778]},"properties":{"id":"es-835","source":"ES","brand":"REPSOL","address":"CARRETERA CRTRA DE ORENSE A PORTUGAL KM. 25,4","municipality":"Celanova","province":"OURENSE","postalCode":"32800","schedule":"L-D: 07:00-00:00","fuels":{"gasoline95":1.789,"gasoline98":1.916,"diesel":1.906,"dieselPremium":1.996,"dieselB":1.696},"extra":{"saleType":"P","margin":"D","reportingType":"dm","ideess":"835","idMunicipio":"4895","idProvincia":"32","idCCAA":"12"}}},{"type":"Feature","geometry":{"type":"Point","coordinates":[-7.878278,42.353194]},"properties":{"id":"es-839","source":"ES","brand":"E. S. O PINO","address":"CARRETERA N-120 KM. 571","municipality":"Ourense","province":"OURENSE","postalCode":"32001","schedule":"L-D: 07:00-23:00","fuels":{"gasoline95":1.699,"gasoline98":1.799,"diesel":1.798,"dieselPremium":1.899,"adblue":0.999},"extra":{"saleType":"P","margin":"D","reportingType":"dm","ideess":"839","idMunicipio":"4922","idProvincia":"32","idCCAA":"12"}}},{"type":"Feature","geometry":{"type":"Point","coordinates":[-7.873556,42.417111]},"properties":{"id":"es-845","source":"ES","brand":"REPSOL","address":"CARRETERA CARRETERA NACINAL KM. 249","municipality":"Coles","province":"OURENSE","postalCode":"32100","schedule":"L-V: 07:00-21:30; S-D: 07:30-15:00","fuels":{"gasoline95":1.759,"gasoline98":1.879,"diesel":1.869,"dieselPremium":1.939,"adblue":1.109},"extra":{"saleType":"P","margin":"D","reportingType":"dm","ideess":"845","idMunicipio":"4898","idProvincia":"32","idCCAA":"12"}}},{"type":"Feature","geometry":{"type":"Point","coordinates":[-7.148694,42.057028]},"properties":{"id":"es-849","source":"ES","brand":"REPSOL","address":"CARRETERA N-525 KM. 132,10","municipality":"Gudiña (A)","province":"OURENSE","postalCode":"32540","schedule":"L-D: 07:00-23:00","fuels":{"gasoline95":1.82,"gasoline98":1.95,"diesel":1.96,"dieselPremium":2.03,"dieselB":1.596},"extra":{"saleType":"P","margin":"D","reportingType":"OM","ideess":"849","idMunicipio":"4904","idProvincia":"32","idCCAA":"12"}}},{"type":"Feature","geometry":{"type":"Point","coordinates":[-7.022444,42.726556]},"properties":{"id":"es-9748","source":"ES","brand":"REPSOL","address":"CARRETERA NACIONAL VI KM. 433","municipality":"Pedrafita do Cebreiro","province":"LUGO","postalCode":"27670","schedule":"L-D: 07:00-23:00","fuels":{"gasoline95":1.83,"gasoline98":2.01,"diesel":1.936,"dieselB":1.686,"dieselRenewable":2.056},"extra":{"saleType":"P","margin":"D","reportingType":"OM","ideess":"9748","idMunicipio":"4252","idProvincia":"27","idCCAA":"12"}}},{"type":"Feature","geometry":{"type":"Point","coordinates":[-7.264722,42.474222]},"properties":{"id":"es-9974","source":"ES","brand":"REPSOL","address":"REAL, Nº 143","municipality":"Quiroga","province":"LUGO","postalCode":"27320","schedule":"L-D: 07:00-23:00","fuels":{"gasoline95":1.83,"gasoline98":2.0,"diesel":1.95,"dieselPremium":2.07},"extra":{"saleType":"P","margin":"D","reportingType":"OM","ideess":"9974","idMunicipio":"4257","idProvincia":"27","idCCAA":"12"}}}]}