{"type":"FeatureCollection","features":[{"type":"Feature","geometry":{"type":"Point","coordinates":[0.716278,40.878139]},"properties":{"id":"es-10023","source":"ES","brand":"ALAS","address":"POLIGONO PLA DE SOLANS, S/N","municipality":"Perelló (El)","province":"TARRAGONA","postalCode":"43519","schedule":"L-D: 07:00-13:00 y 15:00-21:00","fuels":{"gasoline95":1.589,"diesel":1.769,"dieselPremium":1.829,"dieselB":1.49},"extra":{"saleType":"P","margin":"N","reportingType":"dm","ideess":"10023","idMunicipio":"6447","idProvincia":"43","idCCAA":"09"}}},{"type":"Feature","geometry":{"type":"Point","coordinates":[0.856972,40.94925]},"properties":{"id":"es-10027","source":"ES","brand":"ALAS","address":"CR. CN-340 km 1121,8","municipality":"Vandellòs i l'Hospitalet de l'Infant","province":"TARRAGONA","postalCode":"43890","schedule":"L-D: 24H","fuels":{"gasoline95":1.559,"diesel":1.709,"dieselPremium":1.739,"adblue":0.6},"extra":{"saleType":"P","margin":"D","reportingType":"dm","ideess":"10027","idMunicipio":"6508","idProvincia":"43","idCCAA":"09"}}},{"type":"Feature","geometry":{"type":"Point","coordinates":[0.748389,40.897167]},"properties":{"id":"es-10029","source":"ES","brand":"ALAS","address":"CARRETERA CN-340 KM. 1110","municipality":"Ametlla de Mar (L')","province":"TARRAGONA","postalCode":"43860","schedule":"L-V: 06:00-00:00; S-D: 08:00-20:00","fuels":{"gasoline95":1.589,"diesel":1.769,"dieselPremium":1.829,"dieselB":1.49,"adblue":0.6},"extra":{"saleType":"P","margin":"D","reportingType":"dm","ideess":"10029","idMunicipio":"6356","idProvincia":"43","idCCAA":"09"}}},{"type":"Feature","geometry":{"type":"Point","coordinates":[0.465139,40.468889]},"properties":{"id":"es-10627","source":"ES","brand":"MOEVE","address":"CARRETERA N-340 KM. 1051","municipality":"Vinaròs","province":"CASTELLÓN / CASTELLÓ","postalCode":"12500","schedule":"L-D: 24H","fuels":{"gasoline95":1.809,"gasoline98":1.979,"diesel":1.994,"dieselPremium":2.089,"dieselB":1.744,"adblue":1.475},"extra":{"saleType":"P","margin":"D","reportingType":"dm","ideess":"10627","idMunicipio":"1936","idProvincia":"12","idCCAA":"10"}}},{"type":"Feature","geometry":{"type":"Point","coordinates":[0.149306,40.134694]},"properties":{"id":"es-10745","source":"ES","brand":"LA RIBERA DE CABANES","address":"CARRETERA NACIONAL 340 KM. 1000","municipality":"Cabanes","province":"CASTELLÓN / CASTELLÓ","postalCode":"12595","schedule":"L-D: 07:00-21:00","fuels":{"gasoline95":1.759,"gasoline98":1.879,"diesel":1.969,"dieselPremium":2.029},"extra":{"saleType":"P","margin":"N","reportingType":"dm","ideess":"10745","idMunicipio":"1836","idProvincia":"12","idCCAA":"10"}}},{"type":"Feature","geometry":{"type":"Point","coordinates":[0.908194,40.989056]},"properties":{"id":"es-10865","source":"ES","brand":"REPSOL","address":"CR N-340, 1128,2","municipality":"Vandellòs i l'Hospitalet de l'Infant","province":"TARRAGONA","postalCode":"43891","schedule":"L-D: 06:00-22:00","fuels":{"gasoline95":1.825,"gasoline98":1.945,"diesel":1.909,"dieselPremium":1.979},"extra":{"saleType":"P","margin":"I","reportingType":"OM","ideess":"10865","idMunicipio":"6508","idProvincia":"43","idCCAA":"09"}}},{"type":"Feature","geometry":{"type":"Point","coordinates":[0.722667,40.725806]},"properties":{"id":"es-11601","source":"ES","brand":"ARROSSAIRES","address":"CARRETERA DEL FARO DE BUDA T-340 KM. 8","municipality":"Deltebre","province":"TARRAGONA","postalCode":"43580","schedule":"L-D: 24H","fuels":{"gasoline95":1.524,"diesel":1.699},"extra":{"saleType":"P","margin":"D","reportingType":"dm","ideess":"11601","idMunicipio":"6396","idProvincia":"43","idCCAA":"09"}}},{"type":"Feature","geometry":{"type":"Point","coordinates":[0.008472,40.105333]},"properties":{"id":"es-11896","source":"ES","brand":"REPSOL","address":"AUTOVIA CV10 SALIDA 33 KM. 33","municipality":"Pobla Tornesa (la)","province":"CASTELLÓN / CASTELLÓ","postalCode":"12191","schedule":"L-D: 24H","fuels":{"gasoline95":1.859,"gasoline98":1.999,"diesel":1.989,"dieselPremium":2.089,"dieselB":1.659,"lpg":1.199,"adblue":0.999},"extra":{"saleType":"P","margin":"D","reportingType":"dm","ideess":"11896","idMunicipio":"1889","idProvincia":"12","idCCAA":"10"}}},{"type":"Feature","geometry":{"type":"Point","coordinates":[0.694833,40.795333]},"properties":{"id":"es-11923","source":"ES","brand":"AVIA","address":"CARRETERA TV-3401 KM. 1,210","municipality":"Ampolla (L')","province":"TARRAGONA","postalCode":"43895","schedule":"L-D: 06:00-22:00","fuels":{"gasoline95":1.659,"gasoline98":1.789,"diesel":1.819,"dieselPremium":1.879},"extra":{"saleType":"P","margin":"I","reportingType":"dm","ideess":"11923","idMunicipio":"6357","idProvincia":"43","idCCAA":"09"}}},{"type":"Feature","geometry":{"type":"Point","coordinates":[0.782583,40.894528]},"properties":{"id":"es-12017","source":"ES","brand":"JAYOMI SERVEIS","address":"POLIGONO CRTA.N340 PKM 1113, 3","municipality":"Ametlla de Mar (L')","province":"TARRAGONA","postalCode":"43860","schedule":"L-D: 08:00-00:00","fuels":{"diesel":1.7},"extra":{"saleType":"P","margin":"D","reportingType":"dm","ideess":"12017","idMunicipio":"6356","idProvincia":"43","idCCAA":"09"}}},{"type":"Feature","geometry":{"type":"Point","coordinates":[0.725472,40.720222]},"properties":{"id":"es-12142","source":"ES","brand":"ESCLATOIL","address":"AVENIDA GENERALITAT, S/N","municipality":"Deltebre","province":"TARRAGONA","postalCode":"43580","schedule":"L-D: 24H","fuels":{"gasoline95":1.579,"diesel":1.749},"extra":{"saleType":"P","margin":"N","reportingType":"dm","ideess":"12142","idMunicipio":"6396","idProvincia":"43","idCCAA":"09"}}},{"type":"Feature","geometry":{"type":"Point","coordinates":[0.392417,40.43425]},"properties":{"id":"es-12233","source":"ES","brand":"BENIHORT","address":"POLIGONO POLIGONO 22  PARCELA 77, 77","municipality":"Benicarló","province":"CASTELLÓN / CASTELLÓ","postalCode":"12580","schedule":"L-D: 24H","fuels":{"gasoline95":1.689,"gasoline98":1.759,"diesel":1.799,"dieselPremium":1.834,"dieselB":1.489},"extra":{"saleType":"P","margin":"D","reportingType":"dm","ideess":"12233","idMunicipio":"1830","idProvincia":"12","idCCAA":"10"}}},{"type":"Feature","geometry":{"type":"Point","coordinates":[0.033306,40.140833]},"properties":{"id":"es-12613","source":"ES","brand":"EESS DE CABANES 40 PIES","address":"AUTOVIA CV10 KM. 37,5","municipality":"Cabanes","province":"CASTELLÓN / CASTELLÓ","postalCode":"12180","schedule":"L-D: 06:00-22:00","fuels":{"gasoline95":1.859,"diesel":1.969,"dieselPremium":2.039,"dieselB":1.659,"adblue":0.999},"extra":{"saleType":"P","margin":"D","reportingType":"dm","ideess":"12613","idMunicipio":"1836","idProvincia":"12","idCCAA":"10"}}},{"type":"Feature","geometry":{"type":"Point","coordinates":[0.452861,40.455333]},"properties":{"id":"es-12824","source":"ES","brand":"GASEXPRESS VINAROZ","address":"CALLE DAURADORS, 8","municipality":"Vinaròs","province":"CASTELLÓN / CASTELLÓ","postalCode":"12500","schedule":"L-D: 24H","fuels":{"gasoline95":1.509,"diesel":1.679},"extra":{"saleType":"P","margin":"D","reportingType":"dm","ideess":"12824","idMunicipio":"1936","idProvincia":"12","idCCAA":"10"}}},{"type":"Feature","geometry":{"type":"Point","coordinates":[0.523333,40.789222]},"properties":{"id":"es-13035","source":"ES","brand":"TAMOIL","address":"AVENIDA GENERALITAT (DE LA), 10","municipality":"Tortosa","province":"TARRAGONA","postalCode":"43500","schedule":"L-D: 24H","fuels":{"gasoline95":1.599,"diesel":1.699,"adblue":0.899},"extra":{"saleType":"P","margin":"D","reportingType":"OM","ideess":"13035","idMunicipio":"6501","idProvincia":"43","idCCAA":"09"}}},{"type":"Feature","geometry":{"type":"Point","coordinates":[0.579111,40.698861]},"properties":{"id":"es-13094","source":"ES","brand":"BONAREA","address":"AVENIDA DE LA RAPITA, 226","municipality":"Amposta","province":"TARRAGONA","postalCode":"43870","schedule":"L-D: 24H","fuels":{"gasoline95":1.525,"diesel":1.702,"adblue":0.499},"extra":{"saleType":"P","margin":"N","reportingType":"dm","ideess":"13094","idMunicipio":"6358","idProvincia":"43","idCCAA":"09"}}},{"type":"Feature","geometry":{"type":"Point","coordinates":[0.019528,40.357667]},"properties":{"id":"es-13718","source":"ES","brand":"COOPNOSTRA","address":"CARRER SANT JOAN, 132","municipality":"Albocàsser","province":"CASTELLÓN / CASTELLÓ","postalCode":"12140","schedule":"L-D: 24H","fuels":{"gasoline95":1.709,"diesel":1.839,"dieselB":1.559},"extra":{"saleType":"P","margin":"D","reportingType":"dm","ideess":"13718","idMunicipio":"1807","idProvincia":"12","idCCAA":"10"}}},{"type":"Feature","geometry":{"type":"Point","coordinates":[0.724972,40.7235]},"properties":{"id":"es-13955","source":"ES","brand":"BONAREA","address":"AVENIDA GOLES DE L'EBRE, 7","municipality":"Deltebre","province":"TARRAGONA","postalCode":"43580","schedule":"L-D: 24H","fuels":{"gasoline95":1.525,"diesel":1.702,"adblue":0.499},"extra":{"saleType":"P","margin":"N","reportingType":"dm","ideess":"13955","idMunicipio":"6396","idProvincia":"43","idCCAA":"09"}}},{"type":"Feature","geometry":{"type":"Point","coordinates":[0.407472,40.393444]},"properties":{"id":"es-13976","source":"ES","brand":"VCC PEÑISCOLA","address":"CARRETERA DE PEÑISCOLA A BENICARLO ESQ. CAMI LA VOLTA KM. S/N","municipality":"Peñíscola","province":"CASTELLÓN / CASTELLÓ","postalCode":"12598","schedule":"L-D: 24H","fuels":{"gasoline95":1.737,"diesel":1.737,"adblue":0.777},"extra":{"saleType":"P","margin":"D","reportingType":"dm","ideess":"13976","idMunicipio":"1886","idProvincia":"12","idCCAA":"10"}}},{"type":"Feature","geometry":{"type":"Point","coordinates":[0.163472,40.865306]},"properties":{"id":"es-14298","source":"ES","brand":"GASOLEOS SERSUCO","address":"CARRETERA A2412 KM. 23","municipality":"Valderrobres","province":"TERUEL","postalCode":"44580","schedule":"L-D: 24H","fuels":{"gasoline95":1.598,"dieselPremium":1.785,"dieselB":1.436,"adblue":0.605},"extra":{"saleType":"P","margin":"D","reportingType":"dm","ideess":"14298","idMunicipio":"6744","idProvincia":"44","idCCAA":"02"}}},{"type":"Feature","geometry":{"type":"Point","coordinates":[0.443417,40.593139]},"properties":{"id":"es-14375","source":"ES","brand":"ESCLATOIL","address":"CALLE MAJOR, 212","municipality":"Ulldecona","province":"TARRAGONA","postalCode":"43550","schedule":"L-D: 24H","fuels":{"gasoline95":1.549,"diesel":1.749,"adblue":0.529},"extra":{"saleType":"P","margin":"D","reportingType":"dm","ideess":"14375","idMunicipio":"6502","idProvincia":"43","idCCAA":"09"}}},{"type":"Feature","geometry":{"type":"Point","coordinates":[0.509417,40.810472]},"properties":{"id":"es-14874","source":"ES","brand":"GALP&GO","address":"POLIGONO LA RAVALETA, PARCELA, 1","municipality":"Roquetes","province":"TARRAGONA","postalCode":"43529","schedule":"L-D: 24H","fuels":{"gasoline95":1.659,"diesel":1.799,"adblue":0.799},"extra":{"saleType":"P","margin":"N","reportingType":"OM","ideess":"14874","idMunicipio":"6477","idProvincia":"43","idCCAA":"09"}}},{"type":"Feature","geometry":{"type":"Point","coordinates":[0.436944,40.432583]},"properties":{"id":"es-14992","source":"ES","brand":"3GS COMBUSTIBLES","address":"CAMI CAMINO FOSA PASTOR, S/N","municipality":"Benicarló","province":"CASTELLÓN / CASTELLÓ","postalCode":"12530","schedule":"L: 24H","fuels":{"gasoline95":1.549,"diesel":1.699,"adblue":0.92},"extra":{"saleType":"P","margin":"D","reportingType":"dm","ideess":"14992","idMunicipio":"1830","idProvincia":"12","idCCAA":"10"}}},{"type":"Feature","geometry":{"type":"Point","coordinates":[0.595361,40.638333]},"properties":{"id":"es-15040","source":"ES","brand":"PETRORÀPITA","address":"POLIGONO INDUSTRIAL EL RAJOLAR, PARCEL·LA, 25","municipality":"Sant Carles de la Ràpita","province":"TARRAGONA","postalCode":"43540","schedule":"L-D: 24H","fuels":{"gasoline95":1.699,"diesel":1.829,"adblue":0.799},"extra":{"saleType":"P","margin":"N","reportingType":"dm","ideess":"15040","idMunicipio":"6481","idProvincia":"43","idCCAA":"09"}}},{"type":"Feature","geometry":{"type":"Point","coordinates":[0.150917,40.872528]},"properties":{"id":"es-1508","source":"ES","brand":"CEPSA","address":"AVENIDA CORTES DE ARAGON, 85","municipality":"Valderrobres","province":"TERUEL","postalCode":"44580","schedule":"L-D: 07:00-22:00","fuels":{"gasoline95":1.789,"gasoline98":1.919,"diesel":1.959,"dieselPremium":2.019},"extra":{"saleType":"P","margin":"D","reportingType":"dm","ideess":"1508","idMunicipio":"6744","idProvincia":"44","idCCAA":"02"}}},{"type":"Feature","geometry":{"type":"Point","coordinates":[0.393528,40.368278]},"properties":{"id":"es-15136","source":"ES","brand":"BONAREA","address":"LUGAR ESQUINA CARRETERA DE LA ESTACION (CV141) CON CARRETERA VIEJA DE BENICARLO (CV140), S/N","municipality":"Peñíscola","province":"CASTELLÓN / CASTELLÓ","postalCode":"12598","schedule":"L-D: 24H","fuels":{"gasoline95":1.527,"diesel":1.705,"adblue":0.499},"extra":{"saleType":"P","margin":"I","reportingType":"dm","ideess":"15136","idMunicipio":"1886","idProvincia":"12","idCCAA":"10"}}},{"type":"Feature","geometry":{"type":"Point","coordinates":[0.131694,40.091389]},"properties":{"id":"es-15274","source":"ES","brand":"VCC OROPESA","address":"AVENIDA LA PLANA, 12","municipality":"Oropesa del Mar/Orpesa","province":"CASTELLÓN / CASTELLÓ","postalCode":"12594","schedule":"L-D: 08:00-10:00","fuels":{"gasoline95":1.688,"diesel":1.888,"adblue":0.727},"extra":{"saleType":"P","margin":"D","reportingType":"dm","ideess":"15274","idMunicipio":"1883","idProvincia":"12","idCCAA":"10"}}},{"type":"Feature","geometry":{"type":"Point","coordinates":[0.558583,40.70225]},"properties":{"id":"es-15360","source":"ES","brand":"GASAMP","address":"CALLE ORLEANS, 2","municipality":"Amposta","province":"TARRAGONA","postalCode":"43870","schedule":"L-V: 07:00-21:00","fuels":{"gasoline95":1.562,"diesel":1.709,"adblue":0.699},"extra":{"saleType":"P","margin":"D","reportingType":"dm","ideess":"15360","idMunicipio":"6358","idProvincia":"43","idCCAA":"09"}}},{"type":"Feature","geometry":{"type":"Point","coordinates":[0.486639,40.542694]},"properties":{"id":"es-15409","source":"ES","brand":"ESCLATOIL","address":"AVENIDA DE CATALUNÑA, S/N","municipality":"Alcanar","province":"TARRAGONA","postalCode":"43530","schedule":"L-D: 24H","fuels":{"gasoline95":1.549,"diesel":1.749,"adblue":0.529},"extra":{"saleType":"P","margin":"D","reportingType":"dm","ideess":"15409","idMunicipio":"6346","idProvincia":"43","idCCAA":"09"}}},{"type":"Feature","geometry":{"type":"Point","coordinates":[0.582056,40.685083]},"properties":{"id":"es-15506","source":"ES","brand":"TRONOVA ENERGIA","address":"CALLE LOIRA, 38","municipality":"Amposta","province":"TARRAGONA","postalCode":"43870","schedule":"L: 24H","fuels":{"gasoline95":1.535,"diesel":1.673},"extra":{"saleType":"P","margin":"D","reportingType":"dm","ideess":"15506","idMunicipio":"6358","idProvincia":"43","idCCAA":"09"}}},{"type":"Feature","geometry":{"type":"Point","coordinates":[0.45,40.45675]},"properties":{"id":"es-15889","source":"ES","brand":"GM OIL","address":"CALLE DELS DAURADORS, 16","municipality":"Vinaròs","province":"CASTELLÓN / CASTELLÓ","postalCode":"12500","schedule":"L-D: 24H","fuels":{"gasoline95":1.509,"diesel":1.679},"extra":{"saleType":"P","margin":"D","reportingType":"dm","ideess":"15889","idMunicipio":"1936","idProvincia":"12","idCCAA":"10"}}},{"type":"Feature","geometry":{"type":"Point","coordinates":[0.473528,40.481444]},"properties":{"id":"es-15924","source":"ES","brand":"PLENERGY","address":"CARRETERA VALENCIA-BARCELONA KM. 60","municipality":"Vinaròs","province":"CASTELLÓN / CASTELLÓ","postalCode":"12500","schedule":"L-D: 24H","fuels":{"gasoline95":1.485,"diesel":1.659},"extra":{"saleType":"P","margin":"D","reportingType":"dm","ideess":"15924","idMunicipio":"1936","idProvincia":"12","idCCAA":"10"}}},{"type":"Feature","geometry":{"type":"Point","coordinates":[0.473333,40.481667]},"properties":{"id":"es-15927","source":"ES","brand":"PLENERGY","address":"CARRETERA VALENCIA - BARCELONA KM. 37","municipality":"Vinaròs","province":"CASTELLÓN / CASTELLÓ","postalCode":"12500","schedule":"L-D: 24H","fuels":{"gasoline95":1.485,"diesel":1.659},"extra":{"saleType":"P","margin":"D","reportingType":"dm","ideess":"15927","idMunicipio":"1936","idProvincia":"12","idCCAA":"10"}}},{"type":"Feature","geometry":{"type":"Point","coordinates":[0.581722,40.691722]},"properties":{"id":"es-15974","source":"ES","brand":"GM OIL","address":"CALLE RIN, 59","municipality":"Amposta","province":"TARRAGONA","postalCode":"43870","schedule":"L: 24H","fuels":{"gasoline95":1.529,"diesel":1.699},"extra":{"saleType":"P","margin":"D","reportingType":"dm","ideess":"15974","idMunicipio":"6358","idProvincia":"43","idCCAA":"09"}}},{"type":"Feature","geometry":{"type":"Point","coordinates":[0.893639,40.986306]},"properties":{"id":"es-16044","source":"ES","brand":"HAM","address":"AUTOPISTA AP7 KM. 283","municipality":"Vandellòs i l'Hospitalet de l'Infant","province":"TARRAGONA","postalCode":"43890","schedule":"L-D: 24H","fuels":{"cng":1.644,"lng":1.599,"bioCng":1.624,"bioLng":1.569},"extra":{"saleType":"P","margin":"D","reportingType":"dm","ideess":"16044","idMunicipio":"6508","idProvincia":"43","idCCAA":"09"}}},{"type":"Feature","geometry":{"type":"Point","coordinates":[0.628806,40.764306]},"properties":{"id":"es-16045","source":"ES","brand":"HAM","address":"AUTOPISTA AP7 KM. 317","municipality":"Aldea (L')","province":"TARRAGONA","postalCode":"43896","schedule":"L-D: 24H","fuels":{"cng":1.644,"lng":1.599,"bioCng":1.624,"bioLng":1.569},"extra":{"saleType":"P","margin":"D","reportingType":"dm","ideess":"16045","idMunicipio":"6348","idProvincia":"43","idCCAA":"09"}}},{"type":"Feature","geometry":{"type":"Point","coordinates":[0.797028,40.889861]},"properties":{"id":"es-16344","source":"ES","brand":"ESCLATOIL","address":"CARRETERA TV-3025, P2 KM. 0,7","municipality":"Ametlla de Mar (L')","province":"TARRAGONA","postalCode":"43860","schedule":"L-D: 24H","fuels":{"gasoline95":1.579,"diesel":1.749,"dieselPremium":1.799,"adblue":0.529},"extra":{"saleType":"P","margin":"D","reportingType":"dm","ideess":"16344","idMunicipio":"6356","idProvincia":"43","idCCAA":"09"}}},{"type":"Feature","geometry":{"type":"Point","coordinates":[0.138917,40.132222]},"properties":{"id":"es-16393","source":"ES","brand":"HAM","address":"AUTOPISTA AP7 KM. 404","municipality":"Cabanes","province":"CASTELLÓN / CASTELLÓ","postalCode":"12595","schedule":"L-D: 24H","fuels":{"lng":1.599,"bioLng":1.569},"extra":{"saleType":"P","margin":"D","reportingType":"dm","ideess":"16393","idMunicipio":"1836","idProvincia":"12","idCCAA":"10"}}},{"type":"Feature","geometry":{"type":"Point","coordinates":[0.4645,40.464056]},"properties":{"id":"es-16496","source":"ES","brand":"BONAREA","address":"CALLE SANTAELLA, 30","municipality":"Vinaròs","province":"CASTELLÓN / CASTELLÓ","postalCode":"12500","schedule":"L: 24H","fuels":{"gasoline95":1.527,"diesel":1.705,"adblue":0.499},"extra":{"saleType":"P","margin":"N","reportingType":"dm","ideess":"16496","idMunicipio":"1936","idProvincia":"12","idCCAA":"10"}}},{"type":"Feature","geometry":{"type":"Point","coordinates":[0.475167,40.483778]},"properties":{"id":"es-1939","source":"ES","brand":"FAMILY ENERGY","address":"CARRETERA N-340 KM. 1053","municipality":"Vinaròs","province":"CASTELLÓN / CASTELLÓ","postalCode":"12500","schedule":"L-D: 24H","fuels":{"gasoline95":1.485,"gasoline98":1.609,"diesel":1.659,"dieselPremium":1.729},"extra":{"saleType":"P","margin":"N","reportingType":"dm","ideess":"1939","idMunicipio":"1936","idProvincia":"12","idCCAA":"10"}}},{"type":"Feature","geometry":{"type":"Point","coordinates":[0.451944,40.455167]},"properties":{"id":"es-1954","source":"ES","brand":"CARREFOUR","address":"CARRETERA NACIONAL 340 A PLAN PARCIAL 1 KM. 1049","municipality":"Vinaròs","province":"CASTELLÓN / CASTELLÓ","postalCode":"12500","schedule":"L-D: 24H","fuels":{"gasoline95":1.639,"gasoline98":1.899,"diesel":1.799,"dieselPremium":1.839},"extra":{"saleType":"P","margin":"N","reportingType":"dm","ideess":"1954","idMunicipio":"1936","idProvincia":"12","idCCAA":"10"}}},{"type":"Feature","geometry":{"type":"Point","coordinates":[0.394667,40.410222]},"properties":{"id":"es-1962","source":"ES","brand":"FM","address":" CTRA NACIONAL 340 KM 133 - CENTRO COMERCIAL COSTA AZAHAR, ","municipality":"Benicarló","province":"CASTELLÓN / CASTELLÓ","postalCode":"12580","schedule":"L-D: 24H","fuels":{"gasoline95":1.649,"gasoline98":1.699,"diesel":1.709,"dieselPremium":1.799},"extra":{"saleType":"P","margin":"N","reportingType":"dm","ideess":"1962","idMunicipio":"1830","idProvincia":"12","idCCAA":"10"}}},{"type":"Feature","geometry":{"type":"Point","coordinates":[0.397111,40.361139]},"properties":{"id":"es-1965","source":"ES","brand":"REPSOL","address":"CALLE ESTACION, S/N","municipality":"Peñíscola","province":"CASTELLÓN / CASTELLÓ","postalCode":"12598","schedule":"L-D: 07:00-22:00","fuels":{"gasoline95":1.759,"diesel":1.959,"dieselPremium":2.039},"extra":{"saleType":"P","margin":"I","reportingType":"OM","ideess":"1965","idMunicipio":"1886","idProvincia":"12","idCCAA":"10"}}},{"type":"Feature","geometry":{"type":"Point","coordinates":[0.521667,40.795444]},"properties":{"id":"es-3059","source":"ES","brand":"SUPECO","address":"CARRETERA TORTOSA A LŽALDEA KM. 1","municipality":"Tortosa","province":"TARRAGONA","postalCode":"43500","schedule":"L-D: 24H","fuels":{"gasoline95":1.599,"gasoline98":1.869,"diesel":1.749,"dieselPremium":1.789},"extra":{"saleType":"P","margin":"N","reportingType":"dm","ideess":"3059","idMunicipio":"6501","idProvincia":"43","idCCAA":"09"}}},{"type":"Feature","geometry":{"type":"Point","coordinates":[0.516,40.819417]},"properties":{"id":"es-3060","source":"ES","brand":"ALCAMPO","address":"CARRETERA EIX DE L'EBRE KM. S/N","municipality":"Tortosa","province":"TARRAGONA","postalCode":"43500","schedule":"L-D: 08:30-21:30","fuels":{"gasoline95":1.599,"gasoline98":1.699,"diesel":1.749,"dieselPremium":1.799},"extra":{"saleType":"P","margin":"N","reportingType":"dm","ideess":"3060","idMunicipio":"6501","idProvincia":"43","idCCAA":"09"}}},{"type":"Feature","geometry":{"type":"Point","coordinates":[0.569917,40.76475]},"properties":{"id":"es-3227","source":"ES","brand":"PETROENERGY","address":"CARRETERA C-42 KM. 5","municipality":"Tortosa","province":"TARRAGONA","postalCode":"43500","schedule":"L-D: 24H","fuels":{"gasoline95":1.599,"diesel":1.699},"extra":{"saleType":"P","margin":"I","reportingType":"dm","ideess":"3227","idMunicipio":"6501","idProvincia":"43","idCCAA":"09"}}},{"type":"Feature","geometry":{"type":"Point","coordinates":[0.510194,40.807972]},"properties":{"id":"es-3228","source":"ES","brand":"MOEVE","address":"CARRETERA C/230 KM. 17400","municipality":"Tortosa","province":"TARRAGONA","postalCode":"43500","schedule":"L-D: 06:00-22:00","fuels":{"gasoline95":1.785,"gasoline98":1.915,"diesel":1.919,"dieselPremium":2.039,"dieselB":1.649},"extra":{"saleType":"P","margin":"D","reportingType":"dm","ideess":"3228","idMunicipio":"6501","idProvincia":"43","idCCAA":"09"}}},{"type":"Feature","geometry":{"type":"Point","coordinates":[0.523889,40.819333]},"properties":{"id":"es-3229","source":"ES","brand":"MOEVE","address":"RAMBLA FELIP PEDRELL, 164","municipality":"Tortosa","province":"TARRAGONA","postalCode":"43500","schedule":"L-D: 05:00-23:00","fuels":{"gasoline95":1.819,"gasoline95Premium":1.919,"diesel":1.939,"dieselPremium":2.039},"extra":{"saleType":"P","margin":"D","reportingType":"dm","ideess":"3229","idMunicipio":"6501","idProvincia":"43","idCCAA":"09"}}},{"type":"Feature","geometry":{"type":"Point","coordinates":[0.591778,40.706139]},"properties":{"id":"es-3235","source":"ES","brand":"REPSOL","address":"CR TV-3405, 0,5","municipality":"Amposta","province":"TARRAGONA","postalCode":"43870","schedule":"L-D: 06:00-22:00","fuels":{"gasoline95":1.789,"gasoline98":1.909,"diesel":1.909,"dieselB":1.609,"dieselRenewable":2.029,"lpg":1.185},"extra":{"saleType":"P","margin":"D","reportingType":"OM","ideess":"3235","idMunicipio":"6358","idProvincia":"43","idCCAA":"09"}}},{"type":"Feature","geometry":{"type":"Point","coordinates":[0.309417,40.934639]},"properties":{"id":"es-3237","source":"ES","brand":"REPSOL","address":"CARRETERA CARRETERA TA-330 KM. 16,5","municipality":"Horta de Sant Joan","province":"TARRAGONA","postalCode":"43596","schedule":"L-D: 07:00-20:00","fuels":{"gasoline95":1.769,"diesel":1.879,"dieselB":1.609,"dieselRenewable":1.999},"extra":{"saleType":"P","margin":"N","reportingType":"OM","ideess":"3237","idMunicipio":"6415","idProvincia":"43","idCCAA":"09"}}},{"type":"Feature","geometry":{"type":"Point","coordinates":[0.745222,40.715556]},"properties":{"id":"es-3250","source":"ES","brand":"REPSOL","address":"CALLE SANT JUAN BOSCO, 44","municipality":"Deltebre","province":"TARRAGONA","postalCode":"43580","schedule":"L: 06:00-22:00","fuels":{"gasoline95":1.779,"gasoline98":1.919,"diesel":1.889,"dieselPremium":1.999},"extra":{"saleType":"P","margin":"D","reportingType":"OM","ideess":"3250","idMunicipio":"6396","idProvincia":"43","idCCAA":"09"}}},{"type":"Feature","geometry":{"type":"Point","coordinates":[0.44275,40.587778]},"properties":{"id":"es-3266","source":"ES","brand":"PETRONOR","address":"CARRETERA T 331 KM. 17,50","municipality":"Ulldecona","province":"TARRAGONA","postalCode":"43550","schedule":"L-S: 08:00-15:00","fuels":{"gasoline95":1.769,"gasoline98":1.939,"diesel":1.879,"dieselRenewable":1.999},"extra":{"saleType":"P","margin":"D","reportingType":"OM","ideess":"3266","idMunicipio":"6502","idProvincia":"43","idCCAA":"09"}}},{"type":"Feature","geometry":{"type":"Point","coordinates":[0.519972,40.799972]},"properties":{"id":"es-3269","source":"ES","brand":"PETRONOR","address":"AVENIDA GENERALITAT, 152","municipality":"Tortosa","province":"TARRAGONA","postalCode":"43500","schedule":"L-D: 06:00-22:00","fuels":{"gasoline95":1.785,"gasoline98":1.905,"diesel":1.909,"dieselRenewable":2.029},"extra":{"saleType":"P","margin":"D","reportingType":"OM","ideess":"3269","idMunicipio":"6501","idProvincia":"43","idCCAA":"09"}}},{"type":"Feature","geometry":{"type":"Point","coordinates":[0.592694,40.621806]},"properties":{"id":"es-3270","source":"ES","brand":"REPSOL","address":"CL DELS FUNDADORS, 104","municipality":"Sant Carles de la Ràpita","province":"TARRAGONA","postalCode":"43540","schedule":"L-D: 06:00-22:00","fuels":{"gasoline95":1.809,"gasoline95Premium":1.879,"gasoline98":1.929,"diesel":1.929,"dieselRenewable":2.049},"extra":{"saleType":"P","margin":"D","reportingType":"OM","ideess":"3270","idMunicipio":"6481","idProvincia":"43","idCCAA":"09"}}},{"type":"Feature","geometry":{"type":"Point","coordinates":[0.725333,40.718556]},"properties":{"id":"es-3274","source":"ES","brand":"REPSOL","address":"AVENIDA GENERALITAT, 44","municipality":"Deltebre","province":"TARRAGONA","postalCode":"43580","schedule":"L: 06:00-22:00","fuels":{"gasoline95":1.779,"gasoline98":1.919,"diesel":1.889,"dieselPremium":1.999},"extra":{"saleType":"P","margin":"D","reportingType":"dm","ideess":"3274","idMunicipio":"6396","idProvincia":"43","idCCAA":"09"}}},{"type":"Feature","geometry":{"type":"Point","coordinates":[0.478056,40.547806]},"properties":{"id":"es-3277","source":"ES","brand":"PETRONOR","address":"RONDA REMEI (DEL), S/N","municipality":"Alcanar","province":"TARRAGONA","postalCode":"43530","schedule":"L-S: 08:00-15:00","fuels":{"gasoline95":1.769,"gasoline98":1.939,"diesel":1.879,"dieselB":1.655,"dieselRenewable":1.999},"extra":{"saleType":"P","margin":"D","reportingType":"OM","ideess":"3277","idMunicipio":"6346","idProvincia":"43","idCCAA":"09"}}},{"type":"Feature","geometry":{"type":"Point","coordinates":[0.798917,40.887472]},"properties":{"id":"es-3281","source":"ES","brand":"CEPSA","address":"CARRETERA TV-3025 KM. 0,425","municipality":"Ametlla de Mar (L')","province":"TARRAGONA","postalCode":"43860","schedule":"L-D: 06:30-22:00","fuels":{"gasoline95":1.794,"gasoline98":1.944,"diesel":1.959,"dieselPremium":2.039},"extra":{"saleType":"P","margin":"D","reportingType":"dm","ideess":"3281","idMunicipio":"6356","idProvincia":"43","idCCAA":"09"}}},{"type":"Feature","geometry":{"type":"Point","coordinates":[0.579861,40.705944]},"properties":{"id":"es-3283","source":"ES","brand":"REPSOL","address":"CL AVENIDA DE LA RAPITA, 141","municipality":"Amposta","province":"TARRAGONA","postalCode":"43870","schedule":"L: 08:00-13:30 y 16:30-20:00","fuels":{"gasoline95":1.789,"gasoline98":1.909,"diesel":1.909,"dieselPremium":2.019,"dieselB":1.144},"extra":{"saleType":"P","margin":"D","reportingType":"dm","ideess":"3283","idMunicipio":"6358","idProvincia":"43","idCCAA":"09"}}},{"type":"Feature","geometry":{"type":"Point","coordinates":[0.484917,40.905389]},"properties":{"id":"es-3284","source":"ES","brand":"REPSOL","address":"CARRETERA C-12 KM. 11","municipality":"Xerta","province":"TARRAGONA","postalCode":"43592","schedule":"L-V: 07:30-14:30","fuels":{"gasoline95":1.769,"diesel":1.899,"dieselPremium":2.009},"extra":{"saleType":"P","margin":"N","reportingType":"OM","ideess":"3284","idMunicipio":"6525","idProvincia":"43","idCCAA":"09"}}},{"type":"Feature","geometry":{"type":"Point","coordinates":[0.574722,40.716889]},"properties":{"id":"es-3285","source":"ES","brand":"QUALITY MONTSIÀ","address":"CALLE BAJADA GRAU, 1","municipality":"Amposta","province":"TARRAGONA","postalCode":"43870","schedule":"L-S: 07:00-21:00; D: 08:00-20:00","fuels":{"gasoline95":1.633,"diesel":1.736,"dieselPremium":1.799,"adblue":0.858},"extra":{"saleType":"P","margin":"N","reportingType":"dm","ideess":"3285","idMunicipio":"6358","idProvincia":"43","idCCAA":"09"}}},{"type":"Feature","geometry":{"type":"Point","coordinates":[0.747833,40.896611]},"properties":{"id":"es-3288","source":"ES","brand":"REPSOL","address":"CARRETERA N-340A KM. 1110,0","municipality":"Ametlla de Mar (L')","province":"TARRAGONA","postalCode":"43860","schedule":"L-V: 06:00-21:00; S-D: 08:00-21:00","fuels":{"gasoline95":1.775,"gasoline98":1.945,"diesel":1.899,"dieselRenewable":2.019},"extra":{"saleType":"P","margin":"D","reportingType":"dm","ideess":"3288","idMunicipio":"6356","idProvincia":"43","idCCAA":"09"}}},{"type":"Feature","geometry":{"type":"Point","coordinates":[0.513444,40.816361]},"properties":{"id":"es-3312","source":"ES","brand":"REPSOL","address":"CL PZA. CORONA DE ARAGON, S.N.","municipality":"Tortosa","province":"TARRAGONA","postalCode":"43500","schedule":"L-D: 24H","fuels":{"gasoline95":1.785,"gasoline98":1.905,"diesel":1.935,"dieselPremium":2.045,"dieselB":1.649},"extra":{"saleType":"P","margin":"D","reportingType":"dm","ideess":"3312","idMunicipio":"6501","idProvincia":"43","idCCAA":"09"}}},{"type":"Feature","geometry":{"type":"Point","coordinates":[0.855917,40.949722]},"properties":{"id":"es-3320","source":"ES","brand":"REPSOL","address":"CARRETERA Nº 340 KM. 1121,8","municipality":"Vandellòs i l'Hospitalet de l'Infant","province":"TARRAGONA","postalCode":"43890","schedule":"L-V: 06:00-20:00; S-D: 08:00-20:00","fuels":{"gasoline95":1.805,"gasoline98":1.925,"diesel":1.889},"extra":{"saleType":"P","margin":"D","reportingType":"OM","ideess":"3320","idMunicipio":"6508","idProvincia":"43","idCCAA":"09"}}},{"type":"Feature","geometry":{"type":"Point","coordinates":[0.522667,40.808083]},"properties":{"id":"es-3322","source":"ES","brand":"CAMPSA","address":"CALLE RONDA REUS, 25/27","municipality":"Tortosa","province":"TARRAGONA","postalCode":"43500","schedule":"L-D: 06:00-22:00","fuels":{"gasoline95":1.785,"gasoline98":1.905,"diesel":1.909,"dieselPremium":2.019},"extra":{"saleType":"P","margin":"D","reportingType":"dm","ideess":"3322","idMunicipio":"6501","idProvincia":"43","idCCAA":"09"}}},{"type":"Feature","geometry":{"type":"Point","coordinates":[0.284361,40.634667]},"properties":{"id":"es-3327","source":"ES","brand":"PETRONOR","address":"CALLE TARRAGONA, 33","municipality":"Sénia (La)","province":"TARRAGONA","postalCode":"43560","schedule":"L-D: 24H","fuels":{"gasoline95":1.769,"gasoline98":1.889,"diesel":1.879,"dieselB":1.645,"dieselRenewable":1.999},"extra":{"saleType":"P","margin":"D","reportingType":"OM","ideess":"3327","idMunicipio":"6492","idProvincia":"43","idCCAA":"09"}}},{"type":"Feature","geometry":{"type":"Point","coordinates":[0.671,40.787444]},"properties":{"id":"es-3332","source":"ES","brand":"PETROCAT DIRECTE","address":"CARRETERA N-340 KM. 1093,5","municipality":"Ampolla (L')","province":"TARRAGONA","postalCode":"43895","schedule":"L-D: 24H","fuels":{"gasoline95":1.535,"diesel":1.695},"extra":{"saleType":"P","margin":"D","reportingType":"OM","ideess":"3332","idMunicipio":"6357","idProvincia":"43","idCCAA":"09"}}},{"type":"Feature","geometry":{"type":"Point","coordinates":[0.61475,40.744194]},"properties":{"id":"es-3345","source":"ES","brand":"CEPSA","address":"CALLE MAJOR, 120","municipality":"Aldea (L')","province":"TARRAGONA","postalCode":"43896","schedule":"L-S: 07:00-20:00","fuels":{"gasoline95":1.809,"diesel":1.939,"dieselPremium":2.049,"dieselB":1.689},"extra":{"saleType":"P","margin":"D","reportingType":"dm","ideess":"3345","idMunicipio":"6348","idProvincia":"43","idCCAA":"09"}}},{"type":"Feature","geometry":{"type":"Point","coordinates":[0.582972,40.681222]},"properties":{"id":"es-3357","source":"ES","brand":"CEPSA","address":"CARRETERA N-340 KM. 1078,5","municipality":"Amposta","province":"TARRAGONA","postalCode":"43870","schedule":"L-V: 09:00-17:00","fuels":{"gasoline95":1.799,"gasoline95Premium":1.879,"diesel":1.929,"dieselPremium":2.009},"extra":{"saleType":"P","margin":"I","reportingType":"OM","ideess":"3357","idMunicipio":"6358","idProvincia":"43","idCCAA":"09"}}},{"type":"Feature","geometry":{"type":"Point","coordinates":[0.7115,40.837611]},"properties":{"id":"es-3365","source":"ES","brand":"GALP","address":"CARRETERA N-340 KM. 0","municipality":"Ampolla (L')","province":"TARRAGONA","postalCode":"43895","schedule":"L-D: 06:00-22:00","fuels":{"gasoline95":1.689,"gasoline98":1.799,"diesel":1.859,"dieselPremium":1.909,"adblue":0.799},"extra":{"saleType":"P","margin":"I","reportingType":"OM","ideess":"3365","idMunicipio":"6357","idProvincia":"43","idCCAA":"09"}}},{"type":"Feature","geometry":{"type":"Point","coordinates":[0.498556,40.959333]},"properties":{"id":"es-3370","source":"ES","brand":"TAMOIL","address":"CARRETERA CTRA. C-12 L'EIX DE L'EBRE KM. 36,7","municipality":"Benifallet","province":"TARRAGONA","postalCode":"43512","schedule":"L-D: 24H","fuels":{"gasoline95":1.599,"gasoline98":1.699,"diesel":1.749,"biodiesel":1.699,"adblue":0.899},"extra":{"saleType":"P","margin":"N","reportingType":"OM","ideess":"3370","idMunicipio":"6369","idProvincia":"43","idCCAA":"09"}}},{"type":"Feature","geometry":{"type":"Point","coordinates":[0.578556,40.625528]},"properties":{"id":"es-3371","source":"ES","brand":"GALP","address":"CTRA. N-340 km 1071,000","municipality":"Sant Carles de la Ràpita","province":"TARRAGONA","postalCode":"43540","schedule":"L-D: 24H","fuels":{"gasoline95":1.714,"diesel":1.834},"extra":{"saleType":"P","margin":"D","reportingType":"OM","ideess":"3371","idMunicipio":"6481","idProvincia":"43","idCCAA":"09"}}},{"type":"Feature","geometry":{"type":"Point","coordinates":[0.57925,40.62575]},"properties":{"id":"es-3372","source":"ES","brand":"GALP","address":"CARRETERA N-340 KM. 1071","municipality":"Sant Carles de la Ràpita","province":"TARRAGONA","postalCode":"43540","schedule":"L-D: 24H","fuels":{"gasoline95":1.769,"gasoline98":1.909,"diesel":1.894,"dieselPremium":1.944,"dieselB":1.589,"adblue":0.799},"extra":{"saleType":"P","margin":"I","reportingType":"OM","ideess":"3372","idMunicipio":"6481","idProvincia":"43","idCCAA":"09"}}},{"type":"Feature","geometry":{"type":"Point","coordinates":[0.471889,40.539583]},"properties":{"id":"es-3374","source":"ES","brand":"TAMOIL","address":"CARRETERA TV-3321 KM. 0,9","municipality":"Alcanar","province":"TARRAGONA","postalCode":"43530","schedule":"L-S: 07:00-21:00; D: 08:00-14:00","fuels":{"gasoline95":1.699,"gasoline98":1.799,"diesel":1.799,"dieselB":1.369,"biodiesel":1.699,"adblue":0.899},"extra":{"saleType":"P","margin":"N","reportingType":"OM","ideess":"3374","idMunicipio":"6346","idProvincia":"43","idCCAA":"09"}}},{"type":"Feature","geometry":{"type":"Point","coordinates":[0.626222,40.765028]},"properties":{"id":"es-3379","source":"ES","brand":"ENI","address":"AUTOPISTA AP-7 (MRG.DCHO.) KM. 317","municipality":"Aldea (L')","province":"TARRAGONA","postalCode":"43896","schedule":"L-D: 24H","fuels":{"gasoline95":1.829,"gasoline98":1.959,"diesel":1.969,"dieselPremium":2.069,"lpg":1.099,"adblue":0.999},"extra":{"saleType":"P","margin":"D","reportingType":"OM","ideess":"3379","idMunicipio":"6348","idProvincia":"43","idCCAA":"09"}}},{"type":"Feature","geometry":{"type":"Point","coordinates":[0.628861,40.764778]},"properties":{"id":"es-3380","source":"ES","brand":"ENI","address":"AUTOPISTA AP-7 (MRG.IZDO.) KM. 317","municipality":"Aldea (L')","province":"TARRAGONA","postalCode":"43896","schedule":"L-D: 24H","fuels":{"gasoline95":1.829,"gasoline98":1.959,"diesel":1.969,"dieselPremium":2.069,"lpg":1.099,"adblue":0.999},"extra":{"saleType":"P","margin":"I","reportingType":"OM","ideess":"3380","idMunicipio":"6348","idProvincia":"43","idCCAA":"09"}}},{"type":"Feature","geometry":{"type":"Point","coordinates":[0.64125,40.762278]},"properties":{"id":"es-3384","source":"ES","brand":"REPSOL","address":"N-340 km 1089,800","municipality":"Camarles","province":"TARRAGONA","postalCode":"43894","schedule":"L-D: 06:00-22:00","fuels":{"gasoline95":1.799,"gasoline98":1.979,"diesel":1.929,"dieselPremium":2.019,"adblue":0.999},"extra":{"saleType":"P","margin":"I","reportingType":"dm","ideess":"3384","idMunicipio":"6382","idProvincia":"43","idCCAA":"09"}}},{"type":"Feature","geometry":{"type":"Point","coordinates":[0.897139,40.985472]},"properties":{"id":"es-3388","source":"ES","brand":"ENI","address":"AUTOPISTA AP-7 (MRG.IZDO.) KM. 283","municipality":"Vandellòs i l'Hospitalet de l'Infant","province":"TARRAGONA","postalCode":"43890","schedule":"L-D: 24H","fuels":{"gasoline95":1.839,"gasoline98":1.969,"diesel":1.969,"dieselPremium":2.069,"lpg":1.099,"adblue":0.999},"extra":{"saleType":"P","margin":"I","reportingType":"OM","ideess":"3388","idMunicipio":"6508","idProvincia":"43","idCCAA":"09"}}},{"type":"Feature","geometry":{"type":"Point","coordinates":[0.893722,40.985694]},"properties":{"id":"es-3389","source":"ES","brand":"ENI","address":"AUTOPISTA AP-7 (MRG.DCHO.) KM. 283","municipality":"Vandellòs i l'Hospitalet de l'Infant","province":"TARRAGONA","postalCode":"43890","schedule":"L-D: 24H","fuels":{"gasoline95":1.839,"gasoline98":1.969,"diesel":1.969,"dieselPremium":2.069,"lpg":1.099,"adblue":0.999},"extra":{"saleType":"P","margin":"D","reportingType":"OM","ideess":"3389","idMunicipio":"6508","idProvincia":"43","idCCAA":"09"}}},{"type":"Feature","geometry":{"type":"Point","coordinates":[0.348917,40.604417]},"properties":{"id":"es-3461","source":"ES","brand":"REPSOL","address":"CL SALVADOR PONS, 30","municipality":"San Rafael del Río","province":"CASTELLÓN / CASTELLÓ","postalCode":"12510","schedule":"L-D: 24H","fuels":{"gasoline95":1.829,"gasoline98":1.999,"diesel":1.899,"dieselPremium":1.999,"dieselB":1.669,"dieselRenewable":1.999,"adblue":1.1},"extra":{"saleType":"P","margin":"D","reportingType":"dm","ideess":"3461","idMunicipio":"1896","idProvincia":"12","idCCAA":"10"}}},{"type":"Feature","geometry":{"type":"Point","coordinates":[0.01325,40.031889]},"properties":{"id":"es-3462","source":"ES","brand":"REPSOL","address":"CR N-340, 981,8","municipality":"Castellón de la Plana/Castelló de la Plana","province":"CASTELLÓN / CASTELLÓ","postalCode":"12004","schedule":"L-D: 06:00-22:00","fuels":{"gasoline95":1.789,"gasoline98":1.949,"diesel":1.945,"dieselRenewable":2.055},"extra":{"saleType":"P","margin":"D","reportingType":"OM","ideess":"3462","idMunicipio":"1842","idProvincia":"12","idCCAA":"10"}}},{"type":"Feature","geometry":{"type":"Point","coordinates":[0.13175,40.091611]},"properties":{"id":"es-3480","source":"ES","brand":"GALP","address":"Avda.de la Plana, 3-5","municipality":"Oropesa del Mar/Orpesa","province":"CASTELLÓN / CASTELLÓ","postalCode":"12594","schedule":"L-D: 06:00-22:00","fuels":{"gasoline95":1.744,"gasoline98":1.899,"dieselPremium":1.954,"dieselRenewable":2.004},"extra":{"saleType":"P","margin":"N","reportingType":"OM","ideess":"3480","idMunicipio":"1883","idProvincia":"12","idCCAA":"10"}}},{"type":"Feature","geometry":{"type":"Point","coordinates":[0.464083,40.46325]},"properties":{"id":"es-3489","source":"ES","brand":"PLENERGY","address":"AVENIDA CASTELLON, 30","municipality":"Vinaròs","province":"CASTELLÓN / CASTELLÓ","postalCode":"12500","schedule":"L-D: 24H","fuels":{"gasoline95":1.485,"diesel":1.659},"extra":{"saleType":"P","margin":"I","reportingType":"dm","ideess":"3489","idMunicipio":"1936","idProvincia":"12","idCCAA":"10"}}},{"type":"Feature","geometry":{"type":"Point","coordinates":[0.4175,40.422139]},"properties":{"id":"es-3527","source":"ES","brand":"REPSOL","address":"CARRETERA N-340 KM. 1043,8","municipality":"Benicarló","province":"CASTELLÓN / CASTELLÓ","postalCode":"12580","schedule":"L-D: 06:00-22:00","fuels":{"gasoline95":1.749,"gasoline98":1.919,"diesel":1.955,"dieselPremium":2.015},"extra":{"saleType":"P","margin":"I","reportingType":"OM","ideess":"3527","idMunicipio":"1830","idProvincia":"12","idCCAA":"10"}}},{"type":"Feature","geometry":{"type":"Point","coordinates":[0.179944,40.458194]},"properties":{"id":"es-3532","source":"ES","brand":"REPSOL","address":"AVENIDA CONSTITUCION, 50, 1","municipality":"Sant Mateu","province":"CASTELLÓN / CASTELLÓ","postalCode":"12170","schedule":"L-D: 07:00-21:00","fuels":{"gasoline95":1.889,"gasoline98":2.049,"diesel":1.939},"extra":{"saleType":"P","margin":"I","reportingType":"dm","ideess":"3532","idMunicipio":"1899","idProvincia":"12","idCCAA":"10"}}},{"type":"Feature","geometry":{"type":"Point","coordinates":[0.065333,40.057778]},"properties":{"id":"es-3548","source":"ES","brand":"BP MONTECASIM MD","address":"CARRETERA NACIONAL 340 KM. 988","municipality":"Benicasim/Benicàssim","province":"CASTELLÓN / CASTELLÓ","postalCode":"12560","schedule":"L-D: 06:00-22:00","fuels":{"gasoline95":1.779,"gasoline98":1.919,"diesel":1.925,"dieselPremium":2.015},"extra":{"saleType":"P","margin":"N","reportingType":"OM","ideess":"3548","idMunicipio":"1831","idProvincia":"12","idCCAA":"10"}}},{"type":"Feature","geometry":{"type":"Point","coordinates":[0.044556,40.186583]},"properties":{"id":"es-3559","source":"ES","brand":"REPSOL","address":"CARRETERA CV 10 KM. 46,70","municipality":"Benlloch","province":"CASTELLÓN / CASTELLÓ","postalCode":"12181","schedule":"L-D: 07:00-21:00","fuels":{"gasoline95":1.919,"diesel":1.979,"dieselB":1.509},"extra":{"saleType":"P","margin":"I","reportingType":"dm","ideess":"3559","idMunicipio":"1832","idProvincia":"12","idCCAA":"10"}}},{"type":"Feature","geometry":{"type":"Point","coordinates":[0.404639,40.413833]},"properties":{"id":"es-3595","source":"ES","brand":"REPSOL","address":"CARRETERA N 340 KM. 1042,2","municipality":"Benicarló","province":"CASTELLÓN / CASTELLÓ","postalCode":"12580","schedule":"L-S: 07:00-21:00; D: 07:00-14:00","fuels":{"gasoline95":1.749,"gasoline98":1.919,"diesel":1.955,"dieselRenewable":2.075,"lpg":1.185},"extra":{"saleType":"P","margin":"D","reportingType":"OM","ideess":"3595","idMunicipio":"1830","idProvincia":"12","idCCAA":"10"}}},{"type":"Feature","geometry":{"type":"Point","coordinates":[0.427056,40.4235]},"properties":{"id":"es-3600","source":"ES","brand":"BP","address":"CARRETERA N-340 KM. 1044,8","municipality":"Benicarló","province":"CASTELLÓN / CASTELLÓ","postalCode":"12580","schedule":"L-D: 06:00-22:00","fuels":{"gasoline95":1.749,"gasoline98":1.879,"diesel":1.969,"dieselPremium":2.059,"adblue":1.199},"extra":{"saleType":"P","margin":"D","reportingType":"dm","ideess":"3600","idMunicipio":"1830","idProvincia":"12","idCCAA":"10"}}},{"type":"Feature","geometry":{"type":"Point","coordinates":[0.201056,40.222083]},"properties":{"id":"es-3617","source":"ES","brand":"REPSOL","address":"N-340 km 1011,6","municipality":"Torreblanca","province":"CASTELLÓN / CASTELLÓ","postalCode":"12596","schedule":"L-D: 24H","fuels":{"gasoline95":1.775,"diesel":1.935,"dieselPremium":2.035,"dieselB":1.655,"adblue":1.1},"extra":{"saleType":"P","margin":"I","reportingType":"dm","ideess":"3617","idMunicipio":"1917","idProvincia":"12","idCCAA":"10"}}},{"type":"Feature","geometry":{"type":"Point","coordinates":[0.201167,40.221889]},"properties":{"id":"es-3619","source":"ES","brand":"REPSOL","address":"CARRETERA N-340 KM. 1011,6","municipality":"Torreblanca","province":"CASTELLÓN / CASTELLÓ","postalCode":"12596","schedule":"L-D: 06:00-22:00","fuels":{"gasoline95":1.775,"gasoline98":1.925,"diesel":1.935},"extra":{"saleType":"P","margin":"D","reportingType":"OM","ideess":"3619","idMunicipio":"1917","idProvincia":"12","idCCAA":"10"}}},{"type":"Feature","geometry":{"type":"Point","coordinates":[0.054167,40.0505]},"properties":{"id":"es-3627","source":"ES","brand":"REPSOL BENICASSIM","address":"CARRETERA N-340 KM. 987","municipality":"Benicasim/Benicàssim","province":"CASTELLÓN / CASTELLÓ","postalCode":"12560","schedule":"L-D: 06:00-22:00","fuels":{"gasoline95":1.779,"diesel":1.935,"dieselPremium":2.045},"extra":{"saleType":"P","margin":"I","reportingType":"OM","ideess":"3627","idMunicipio":"1831","idProvincia":"12","idCCAA":"10"}}},{"type":"Feature","geometry":{"type":"Point","coordinates":[0.3035,40.359972]},"properties":{"id":"es-3645","source":"ES","brand":"ES ZARAGOZA","address":"CARRETERA N-340 KM. 1031","municipality":"Santa Magdalena de Pulpis","province":"CASTELLÓN / CASTELLÓ","postalCode":"12597","schedule":"L-V: 08:00-16:00; S-D: 08:00-17:00","fuels":{"gasoline95":1.713,"gasoline98":1.848,"diesel":1.894,"dieselPremium":1.963,"dieselB":1.599},"extra":{"saleType":"P","margin":"D","reportingType":"dm","ideess":"3645","idMunicipio":"1900","idProvincia":"12","idCCAA":"10"}}},{"type":"Feature","geometry":{"type":"Point","coordinates":[0.226333,40.296944]},"properties":{"id":"es-3648","source":"ES","brand":"REPSOL","address":"CARRETERA NACIONAL 340 KM. 1021","municipality":"Alcalà de Xivert","province":"CASTELLÓN / CASTELLÓ","postalCode":"12570","schedule":"L-D: 24H","fuels":{"gasoline95":1.775,"gasoline95Premium":1.845,"diesel":1.935,"dieselPremium":2.045,"dieselB":1.639},"extra":{"saleType":"P","margin":"I","reportingType":"OM","ideess":"3648","idMunicipio":"1808","idProvincia":"12","idCCAA":"10"}}},{"type":"Feature","geometry":{"type":"Point","coordinates":[0.464278,40.468389]},"properties":{"id":"es-3654","source":"ES","brand":"MOEVE","address":"CARRETERA N 340 KM. 142,20","municipality":"Vinaròs","province":"CASTELLÓN / CASTELLÓ","postalCode":"12500","schedule":"L-D: 07:30-20:00","fuels":{"gasoline95":1.809,"diesel":1.994,"dieselPremium":2.089},"extra":{"saleType":"P","margin":"I","reportingType":"dm","ideess":"3654","idMunicipio":"1936","idProvincia":"12","idCCAA":"10"}}},{"type":"Feature","geometry":{"type":"Point","coordinates":[0.254639,40.514889]},"properties":{"id":"es-3662","source":"ES","brand":"E.S. BALMAPA","address":"CR N-232 20,4","municipality":"Jana (la)","province":"CASTELLÓN / CASTELLÓ","postalCode":"12340","schedule":"L-D: 24H","fuels":{"gasoline95":1.785,"gasoline98":1.945,"diesel":1.959,"dieselPremium":1.999,"dieselB":1.559,"adblue":0.899},"extra":{"saleType":"P","margin":"I","reportingType":"dm","ideess":"3662","idMunicipio":"1868","idProvincia":"12","idCCAA":"10"}}},{"type":"Feature","geometry":{"type":"Point","coordinates":[0.115194,40.307222]},"properties":{"id":"es-3677","source":"ES","brand":"REPSOL","address":"CR C-238, 45,7","municipality":"Coves de Vinromà (les)","province":"CASTELLÓN / CASTELLÓ","postalCode":"12185","schedule":"L-D: 07:00-21:00","fuels":{"gasoline95":1.749,"diesel":1.935,"dieselPremium":2.045,"dieselB":1.609},"extra":{"saleType":"P","margin":"D","reportingType":"OM","ideess":"3677","idMunicipio":"1855","idProvincia":"12","idCCAA":"10"}}},{"type":"Feature","geometry":{"type":"Point","coordinates":[0.406056,40.459222]},"properties":{"id":"es-3736","source":"ES","brand":"CEPSA","address":"AP-7 (MRG.DCHO.) km 358,2","municipality":"Benicarló","province":"CASTELLÓN / CASTELLÓ","postalCode":"12580","schedule":"L-D: 24H","fuels":{"gasoline95":1.789,"gasoline95Premium":1.879,"diesel":1.939,"dieselPremium":2.019,"lpg":1.169},"extra":{"saleType":"P","margin":"D","reportingType":"OM","ideess":"3736","idMunicipio":"1830","idProvincia":"12","idCCAA":"10"}}},{"type":"Feature","geometry":{"type":"Point","coordinates":[0.138722,40.131806]},"properties":{"id":"es-3737","source":"ES","brand":"ENI","address":"AUTOPISTA AP-7 (MRG.DCHO) KM. 404","municipality":"Cabanes","province":"CASTELLÓN / CASTELLÓ","postalCode":"12180","schedule":"L-D: 24H","fuels":{"gasoline95":1.839,"gasoline98":1.959,"diesel":1.969,"dieselPremium":2.069,"lpg":1.099,"adblue":0.999},"extra":{"saleType":"P","margin":"D","reportingType":"OM","ideess":"3737","idMunicipio":"1836","idProvincia":"12","idCCAA":"10"}}},{"type":"Feature","geometry":{"type":"Point","coordinates":[0.4065,40.458167]},"properties":{"id":"es-3745","source":"ES","brand":"CEPSA","address":"AUTOPISTA AP-7 (MRG.IZDO.) KM. 358,2","municipality":"Benicarló","province":"CASTELLÓN / CASTELLÓ","postalCode":"12580","schedule":"L-D: 24H","fuels":{"gasoline95":1.809,"gasoline95Premium":1.899,"diesel":1.949,"dieselPremium":2.029,"lpg":1.169},"extra":{"saleType":"P","margin":"I","reportingType":"OM","ideess":"3745","idMunicipio":"1830","idProvincia":"12","idCCAA":"10"}}},{"type":"Feature","geometry":{"type":"Point","coordinates":[0.141111,40.13325]},"properties":{"id":"es-3746","source":"ES","brand":"ENI","address":"AUTOPISTA AP-7 (MRG.IZDO) KM. 404","municipality":"Cabanes","province":"CASTELLÓN / CASTELLÓ","postalCode":"12180","schedule":"L-D: 24H","fuels":{"gasoline95":1.839,"gasoline98":1.959,"diesel":1.969,"dieselPremium":2.069,"lpg":1.099,"adblue":0.999},"extra":{"saleType":"P","margin":"I","reportingType":"OM","ideess":"3746","idMunicipio":"1836","idProvincia":"12","idCCAA":"10"}}},{"type":"Feature","geometry":{"type":"Point","coordinates":[0.721694,40.690806]},"properties":{"id":"es-8165","source":"ES","brand":"MONTSIA","address":"CARRETERA DIPUTACION KM. 2,45","municipality":"Sant Jaume d'Enveja","province":"TARRAGONA","postalCode":"43877","schedule":"L-D: 24H","fuels":{"diesel":1.702,"dieselB":1.412,"adblue":0.59},"extra":{"saleType":"P","margin":"D","reportingType":"dm","ideess":"8165","idMunicipio":"6483","idProvincia":"43","idCCAA":"09"}}},{"type":"Feature","geometry":{"type":"Point","coordinates":[0.507306,40.53325]},"properties":{"id":"es-8526","source":"ES","brand":"SHELL","address":"CARRETERA NACIONAL 340 SEC H KM. 1059","municipality":"Alcanar","province":"TARRAGONA","postalCode":"43530","schedule":"L-D: 06:00-22:00","fuels":{"gasoline95":1.699,"gasoline98":1.839,"diesel":1.819,"dieselPremium":1.899},"extra":{"saleType":"P","margin":"D","reportingType":"OM","ideess":"8526","idMunicipio":"6346","idProvincia":"43","idCCAA":"09"}}},{"type":"Feature","geometry":{"type":"Point","coordinates":[0.46525,40.683278]},"properties":{"id":"es-8955","source":"ES","brand":"COOP. LA GALERA","address":"CALLE COOPERATIVA, 12","municipality":"Galera (La)","province":"TARRAGONA","postalCode":"43515","schedule":"L-D: 24H","fuels":{"gasoline95Premium":1.557,"dieselPremium":1.766,"dieselB":1.412},"extra":{"saleType":"P","margin":"D","reportingType":"dm","ideess":"8955","idMunicipio":"6407","idProvincia":"43","idCCAA":"09"}}},{"type":"Feature","geometry":{"type":"Point","coordinates":[0.2445,40.256333]},"properties":{"id":"es-8967","source":"ES","brand":"CASTELL XIVERT","address":"CARRETERA CV-142 KM. 1,5","municipality":"Alcalà de Xivert","province":"CASTELLÓN / CASTELLÓ","postalCode":"12570","schedule":"L-D: 07:00-22:00","fuels":{"gasoline95":1.721,"diesel":1.883},"extra":{"saleType":"P","margin":"I","reportingType":"dm","ideess":"8967","idMunicipio":"1808","idProvincia":"12","idCCAA":"10"}}},{"type":"Feature","geometry":{"type":"Point","coordinates":[0.587722,40.703389]},"properties":{"id":"es-9014","source":"ES","brand":"MONTSIA","address":"CARRETERA TV-3408 KM. 0,8","municipality":"Amposta","province":"TARRAGONA","postalCode":"43870","schedule":"L: 24H","fuels":{"diesel":1.702,"dieselB":1.412,"adblue":0.59},"extra":{"saleType":"P","margin":"D","reportingType":"dm","ideess":"9014","idMunicipio":"6358","idProvincia":"43","idCCAA":"09"}}},{"type":"Feature","geometry":{"type":"Point","coordinates":[0.039917,40.156278]},"properties":{"id":"es-9018","source":"ES","brand":"COOPERATIVA CABANES","address":"CALLE CLARA CAMPOAMOR, 1","municipality":"Cabanes","province":"CASTELLÓN / CASTELLÓ","postalCode":"12180","schedule":"L-D: 24H","fuels":{"gasoline95":1.71,"diesel":1.82,"dieselB":1.51},"extra":{"saleType":"P","margin":"D","reportingType":"dm","ideess":"9018","idMunicipio":"1836","idProvincia":"12","idCCAA":"10"}}},{"type":"Feature","geometry":{"type":"Point","coordinates":[0.229361,40.309361]},"properties":{"id":"es-9027","source":"ES","brand":"COOP. SAN ISIDRO DE ALCALA","address":"C/ BARON DE ALCAHALI, S/N","municipality":"Alcalà de Xivert","province":"CASTELLÓN / CASTELLÓ","postalCode":"12570","schedule":"L-D: 24H","fuels":{"gasoline95":1.769,"diesel":1.955,"dieselB":1.669},"extra":{"saleType":"P","margin":"D","reportingType":"dm","ideess":"9027","idMunicipio":"1808","idProvincia":"12","idCCAA":"10"}}},{"type":"Feature","geometry":{"type":"Point","coordinates":[0.030164,40.207423]},"properties":{"id":"es-9028","source":"ES","brand":"COOP. LA UNION DE BENLLOCH","address":"C/ DEL MAR, 116","municipality":"Benlloch","province":"CASTELLÓN / CASTELLÓ","postalCode":"12181","schedule":"L-D: 24H","fuels":{"gasoline95":1.7,"diesel":1.82,"dieselB":1.5},"extra":{"saleType":"P","margin":"D","reportingType":"dm","ideess":"9028","idMunicipio":"1832","idProvincia":"12","idCCAA":"10"}}},{"type":"Feature","geometry":{"type":"Point","coordinates":[0.577806,40.683361]},"properties":{"id":"es-9114","source":"ES","brand":"-","address":"PARTIDA ORIOLA, 54","municipality":"Amposta","province":"TARRAGONA","postalCode":"43870","schedule":"L-J: 08:00-09:00","fuels":{"diesel":1.72},"extra":{"saleType":"P","margin":"N","reportingType":"dm","ideess":"9114","idMunicipio":"6358","idProvincia":"43","idCCAA":"09"}}},{"type":"Feature","geometry":{"type":"Point","coordinates":[0.374528,40.735972]},"properties":{"id":"es-9297","source":"ES","brand":"COOP. AGRICOLA SANT ISIDRE","address":"CTRA. TORTOSA, 5","municipality":"Mas de Barberans","province":"TARRAGONA","postalCode":"43514","schedule":"L-D: 24H","fuels":{"dieselPremium":1.747,"dieselB":1.272},"extra":{"saleType":"P","margin":"D","reportingType":"dm","ideess":"9297","idMunicipio":"6421","idProvincia":"43","idCCAA":"09"}}},{"type":"Feature","geometry":{"type":"Point","coordinates":[0.054083,40.880194]},"properties":{"id":"es-9408","source":"ES","brand":"SERAGAS","address":"PARTIDA OLIVARETS, 0","municipality":"Portellada (La)","province":"TERUEL","postalCode":"44589","schedule":"L-D: 24H","fuels":{"gasoline95":1.6,"diesel":1.7,"dieselB":1.3},"extra":{"saleType":"P","margin":"N","reportingType":"dm","ideess":"9408","idMunicipio":"6690","idProvincia":"44","idCCAA":"02"}}},{"type":"Feature","geometry":{"type":"Point","coordinates":[0.214778,40.931278]},"properties":{"id":"es-9555","source":"ES","brand":"COOP.CRETAS","address":"CARRERA CARRETERA  COMARCAL, S/N","municipality":"Cretas","province":"TERUEL","postalCode":"44623","schedule":"L-D: 24H","fuels":{"gasoline95":1.602,"dieselPremium":1.795,"dieselB":1.453},"extra":{"saleType":"P","margin":"D","reportingType":"dm","ideess":"9555","idMunicipio":"6600","idProvincia":"44","idCCAA":"02"}}},{"type":"Feature","geometry":{"type":"Point","coordinates":[0.042611,40.758778]},"properties":{"id":"es-9637","source":"ES","brand":"SAN FABIAN Y SAN SABASTIAN","address":"CARRETERA A-2413 KM. 1,825","municipality":"Peñarroya de Tastavins","province":"TERUEL","postalCode":"44586","schedule":"L-D: 24H","fuels":{"diesel":1.792,"dieselB":1.481},"extra":{"saleType":"P","margin":"I","reportingType":"dm","ideess":"9637","idMunicipio":"6683","idProvincia":"44","idCCAA":"02"}}},{"type":"Feature","geometry":{"type":"Point","coordinates":[0.663861,40.768167]},"properties":{"id":"es-9750","source":"ES","brand":"ARROSSAIRES","address":"CARRETERA LLIGALLO A CAMARLES KM. 1","municipality":"Camarles","province":"TARRAGONA","postalCode":"43894","schedule":"L-D: 24H","fuels":{"diesel":1.699,"dieselB":1.399},"extra":{"saleType":"P","margin":"D","reportingType":"dm","ideess":"9750","idMunicipio":"6382","idProvincia":"43","idCCAA":"09"}}},{"type":"Feature","geometry":{"type":"Point","coordinates":[0.705167,40.734639]},"properties":{"id":"es-9761","source":"ES","brand":"ARROSSAIRES","address":"CARRETERA CAMARLES A DELTEBRE KM. 6,5","municipality":"Deltebre","province":"TARRAGONA","postalCode":"43580","schedule":"L-D: 24H","fuels":{"diesel":1.699,"dieselB":1.399},"extra":{"saleType":"P","margin":"D","reportingType":"dm","ideess":"9761","idMunicipio":"6396","idProvincia":"43","idCCAA":"09"}}},{"type":"Feature","geometry":{"type":"Point","coordinates":[0.425917,40.410417]},"properties":{"id":"es-9848","source":"ES","brand":"CEEOIL","address":"AVDA. PAPA LUNA, 26","municipality":"Benicarló","province":"CASTELLÓN / CASTELLÓ","postalCode":"12580","schedule":"L-D: 07:00-23:00","fuels":{"gasoline95":1.724,"gasoline98":1.854,"diesel":1.924,"dieselPremium":1.994},"extra":{"saleType":"P","margin":"D","reportingType":"dm","ideess":"9848","idMunicipio":"1830","idProvincia":"12","idCCAA":"10"}}},{"type":"Feature","geometry":{"type":"Point","coordinates":[0.399111,40.435861]},"properties":{"id":"es-9868","source":"ES","brand":"EUROFUEL","address":"POL. IND. EL COLLET. PARC 511","municipality":"Benicarló","province":"CASTELLÓN / CASTELLÓ","postalCode":"12580","schedule":"L-D: 07:00-22:00","fuels":{"gasoline95":1.749,"gasoline98":1.889,"diesel":1.939,"dieselPremium":2.039},"extra":{"saleType":"P","margin":"D","reportingType":"dm","ideess":"9868","idMunicipio":"1830","idProvincia":"12","idCCAA":"10"}}}]}