{"type":"FeatureCollection","features":[{"type":"Feature","geometry":{"type":"Point","coordinates":[-0.444944,40.363028]},"properties":{"id":"es-10045","source":"ES","brand":"SIN ROTULO","address":"CTRA. VENTA EL AIRE km 1","municipality":"Mosqueruela","province":"TERUEL","postalCode":"44410","schedule":"L-V: 08:00-13:30 y 16:00-18:30; S: 08:00-14:00","fuels":{"gasoline95":1.699,"diesel":1.769},"extra":{"saleType":"P","margin":"D","reportingType":"dm","ideess":"10045","idMunicipio":"6667","idProvincia":"44","idCCAA":"02"}}},{"type":"Feature","geometry":{"type":"Point","coordinates":[-0.289667,40.2945]},"properties":{"id":"es-10104","source":"ES","brand":"REPSOL","address":"AVENIDA CASTELLON, S/N","municipality":"Vistabella del Maestrazgo","province":"CASTELLÓN / CASTELLÓ","postalCode":"12135","schedule":"L-D: 24H","fuels":{"gasoline95":1.919,"diesel":2.074},"extra":{"saleType":"P","margin":"D","reportingType":"dm","ideess":"10104","idMunicipio":"1937","idProvincia":"12","idCCAA":"10"}}},{"type":"Feature","geometry":{"type":"Point","coordinates":[-0.759833,40.247722]},"properties":{"id":"es-10907","source":"ES","brand":"BP","address":"AV. VALENCIA","municipality":"Mora de Rubielos","province":"TERUEL","postalCode":"44400","schedule":"L-D: 24H","fuels":{"gasoline95":1.769,"gasoline98":1.909,"diesel":1.929,"dieselPremium":2.029,"adblue":1.199},"extra":{"saleType":"P","margin":"D","reportingType":"dm","ideess":"10907","idMunicipio":"6665","idProvincia":"44","idCCAA":"02"}}},{"type":"Feature","geometry":{"type":"Point","coordinates":[-0.244611,40.836194]},"properties":{"id":"es-11017","source":"ES","brand":"COOP.SAN ANTONIO","address":"CARRETERA DE CALANDA KM. 6","municipality":"Mas de las Matas","province":"TERUEL","postalCode":"44564","schedule":"L-D: 24H","fuels":{"gasoline95":1.709,"diesel":1.889,"dieselB":1.499},"extra":{"saleType":"P","margin":"D","reportingType":"dm","ideess":"11017","idMunicipio":"6652","idProvincia":"44","idCCAA":"02"}}},{"type":"Feature","geometry":{"type":"Point","coordinates":[-0.277694,40.018861]},"properties":{"id":"es-11184","source":"ES","brand":"GASOELECTRIC LOW COST","address":"AVENIDA ONDA, 46","municipality":"Ribesalbes","province":"CASTELLÓN / CASTELLÓ","postalCode":"12210","schedule":"L-D: 24H","fuels":{"gasoline95":1.659,"diesel":1.819},"extra":{"saleType":"P","margin":"D","reportingType":"dm","ideess":"11184","idMunicipio":"1892","idProvincia":"12","idCCAA":"10"}}},{"type":"Feature","geometry":{"type":"Point","coordinates":[-0.190417,40.663583]},"properties":{"id":"es-11218","source":"ES","brand":"E.S.MIBECOSL","address":"CV-14 km 12,400","municipality":"Forcall","province":"CASTELLÓN / CASTELLÓ","postalCode":"12310","schedule":"L-D: 24H","fuels":{"gasoline95":1.789,"gasoline98":1.889,"diesel":1.959,"dieselB":1.559},"extra":{"saleType":"P","margin":"I","reportingType":"dm","ideess":"11218","idMunicipio":"1861","idProvincia":"12","idCCAA":"10"}}},{"type":"Feature","geometry":{"type":"Point","coordinates":[-0.939889,40.220056]},"properties":{"id":"es-11674","source":"ES","brand":"MOEVE","address":"AUTOVIA A-23 KM. 100","municipality":"Puebla de Valverde (La)","province":"TERUEL","postalCode":"44450","schedule":"L-D: 24H","fuels":{"gasoline95":1.774,"gasoline95Premium":1.869,"diesel":1.939,"dieselPremium":2.029},"extra":{"saleType":"P","margin":"I","reportingType":"OM","ideess":"11674","idMunicipio":"6694","idProvincia":"44","idCCAA":"02"}}},{"type":"Feature","geometry":{"type":"Point","coordinates":[-0.183278,40.070083]},"properties":{"id":"es-12198","source":"ES","brand":"L'AREA","address":"CARRETERA CV 190A KM. 3,5","municipality":"Alcora (l')","province":"CASTELLÓN / CASTELLÓ","postalCode":"12100","schedule":"L-D: 06:00-22:30","fuels":{"gasoline95":1.749,"gasoline98":1.919,"diesel":1.889,"adblue":0.849},"extra":{"saleType":"P","margin":"D","reportingType":"dm","ideess":"12198","idMunicipio":"1809","idProvincia":"12","idCCAA":"10"}}},{"type":"Feature","geometry":{"type":"Point","coordinates":[-0.0895,40.02425]},"properties":{"id":"es-12356","source":"ES","brand":"PAÑALON","address":"CARRETERA ZARAGOZA KM. 6,700","municipality":"Borriol","province":"CASTELLÓN / CASTELLÓ","postalCode":"12190","schedule":"L-V: 08:30-13:00 y 15:30-19:00","fuels":{"diesel":1.75,"adblue":0.9},"extra":{"saleType":"P","margin":"N","reportingType":"dm","ideess":"12356","idMunicipio":"1834","idProvincia":"12","idCCAA":"10"}}},{"type":"Feature","geometry":{"type":"Point","coordinates":[-0.166333,40.046944]},"properties":{"id":"es-12561","source":"ES","brand":"L'AREA","address":"CARRETERA CV16 PARCELA 142B KM. 10,5","municipality":"Alcora (l')","province":"CASTELLÓN / CASTELLÓ","postalCode":"12110","schedule":"L-D: 24H","fuels":{"gasoline95":1.749,"diesel":1.889,"adblue":0.849},"extra":{"saleType":"P","margin":"D","reportingType":"dm","ideess":"12561","idMunicipio":"1809","idProvincia":"12","idCCAA":"10"}}},{"type":"Feature","geometry":{"type":"Point","coordinates":[-0.028639,40.000722]},"properties":{"id":"es-12624","source":"ES","brand":"BP RONDA NORTE","address":"RONDA NORTE ESTE, 242","municipality":"Castellón de la Plana/Castelló de la Plana","province":"CASTELLÓN / CASTELLÓ","postalCode":"12004","schedule":"L-D: 24H","fuels":{"gasoline95":1.779,"gasoline98":1.919,"diesel":1.949,"dieselPremium":2.039,"adblue":1.125},"extra":{"saleType":"P","margin":"D","reportingType":"OM","ideess":"12624","idMunicipio":"1842","idProvincia":"12","idCCAA":"10"}}},{"type":"Feature","geometry":{"type":"Point","coordinates":[-0.198639,40.069556]},"properties":{"id":"es-12912","source":"ES","brand":"GIAL","address":"CARRETERA CV-190 KM. 1","municipality":"Alcora (l')","province":"CASTELLÓN / CASTELLÓ","postalCode":"12100","schedule":"L-D: 24H","fuels":{"gasoline95":1.689,"diesel":1.819},"extra":{"saleType":"P","margin":"D","reportingType":"dm","ideess":"12912","idMunicipio":"1809","idProvincia":"12","idCCAA":"10"}}},{"type":"Feature","geometry":{"type":"Point","coordinates":[-0.143778,40.977528]},"properties":{"id":"es-13021","source":"ES","brand":"SANICOOP","address":"CALLE MAYOR ALTA, 80","municipality":"Castelserás","province":"TERUEL","postalCode":"44630","schedule":"L-D: 24H","fuels":{"gasoline95":1.543,"diesel":1.705,"dieselB":1.337,"adblue":0.563},"extra":{"saleType":"P","margin":"D","reportingType":"dm","ideess":"13021","idMunicipio":"6591","idProvincia":"44","idCCAA":"02"}}},{"type":"Feature","geometry":{"type":"Point","coordinates":[-0.056333,40.00475]},"properties":{"id":"es-13227","source":"ES","brand":"BENCINAS MESTRETS","address":"CALLE CAMI DELS MESTRETS, 57","municipality":"Castellón de la Plana/Castelló de la Plana","province":"CASTELLÓN / CASTELLÓ","postalCode":"12000","schedule":"L-D: 24H","fuels":{"gasoline95":1.679,"gasoline98":1.879,"diesel":1.829,"dieselPremium":1.869,"lpg":1.129,"adblue":0.929},"extra":{"saleType":"P","margin":"D","reportingType":"dm","ideess":"13227","idMunicipio":"1842","idProvincia":"12","idCCAA":"10"}}},{"type":"Feature","geometry":{"type":"Point","coordinates":[-0.825333,40.063472]},"properties":{"id":"es-13506","source":"ES","brand":"REPSOL","address":"CARRETERA A-1514 KM. 10,5","municipality":"Manzanera","province":"TERUEL","postalCode":"44420","schedule":"L-D: 08:00-20:00","fuels":{"gasoline95":1.789,"diesel":1.939,"dieselPremium":2.029},"extra":{"saleType":"P","margin":"D","reportingType":"dm","ideess":"13506","idMunicipio":"6650","idProvincia":"44","idCCAA":"02"}}},{"type":"Feature","geometry":{"type":"Point","coordinates":[-0.837611,40.802472]},"properties":{"id":"es-1369","source":"ES","brand":"REPSOL","address":"CR N-420 653,1","municipality":"Utrillas","province":"TERUEL","postalCode":"44760","schedule":"L-S: 07:00-22:00; D: 08:00-22:00","fuels":{"gasoline95":1.779,"gasoline98":1.929,"diesel":1.919,"dieselB":1.569,"dieselRenewable":2.029,"adblue":0.89},"extra":{"saleType":"P","margin":"D","reportingType":"dm","ideess":"1369","idMunicipio":"6737","idProvincia":"44","idCCAA":"02"}}},{"type":"Feature","geometry":{"type":"Point","coordinates":[-0.230444,40.946639]},"properties":{"id":"es-1389","source":"ES","brand":"CEPSA","address":"CARRETERA N-211 KM. 227,4","municipality":"Calanda","province":"TERUEL","postalCode":"44570","schedule":"L-D: 07:00-21:00","fuels":{"gasoline95":1.769,"diesel":1.929,"dieselPremium":1.999,"dieselB":1.609},"extra":{"saleType":"P","margin":"D","reportingType":"dm","ideess":"1389","idMunicipio":"6574","idProvincia":"44","idCCAA":"02"}}},{"type":"Feature","geometry":{"type":"Point","coordinates":[-0.035556,40.788111]},"properties":{"id":"es-1392","source":"ES","brand":"REPSOL","address":"TRAVESÍA N232A, ","municipality":"Monroyo","province":"TERUEL","postalCode":"44652","schedule":"L-D: 24H","fuels":{"gasoline95":1.829,"gasoline98":1.989,"diesel":1.889,"dieselRenewable":1.989},"extra":{"saleType":"P","margin":"I","reportingType":"dm","ideess":"1392","idMunicipio":"6661","idProvincia":"44","idCCAA":"02"}}},{"type":"Feature","geometry":{"type":"Point","coordinates":[-0.201611,40.824694]},"properties":{"id":"es-1396","source":"ES","brand":"E.S. AGUAVIVA","address":"AVENIDA LA FUENTE,, S/N","municipality":"Aguaviva","province":"TERUEL","postalCode":"44566","schedule":"L-V: 07:00-21:00","fuels":{"gasoline95":1.769,"gasoline95Premium":1.819,"diesel":1.929,"dieselPremium":1.999},"extra":{"saleType":"P","margin":"N","reportingType":"dm","ideess":"1396","idMunicipio":"6529","idProvincia":"44","idCCAA":"02"}}},{"type":"Feature","geometry":{"type":"Point","coordinates":[-0.655917,40.19075]},"properties":{"id":"es-1404","source":"ES","brand":"REPSOL","address":"CR TE - 200, 16,4","municipality":"Rubielos de Mora","province":"TERUEL","postalCode":"44415","schedule":"L: 08:00-21:30","fuels":{"gasoline95":1.745,"diesel":1.885,"dieselPremium":2.005,"dieselB":1.629},"extra":{"saleType":"P","margin":"D","reportingType":"OM","ideess":"1404","idMunicipio":"6703","idProvincia":"44","idCCAA":"02"}}},{"type":"Feature","geometry":{"type":"Point","coordinates":[-0.823556,40.149639]},"properties":{"id":"es-1405","source":"ES","brand":"REPSOL","address":"CARRETERA N. 234 KM. 83","municipality":"Sarrión","province":"TERUEL","postalCode":"44460","schedule":"L-D: 24H","fuels":{"gasoline95":1.769,"gasoline98":1.889,"diesel":1.929,"dieselPremium":2.019,"dieselB":1.639,"lpg":1.175},"extra":{"saleType":"P","margin":"I","reportingType":"OM","ideess":"1405","idMunicipio":"6711","idProvincia":"44","idCCAA":"02"}}},{"type":"Feature","geometry":{"type":"Point","coordinates":[-0.798167,40.831417]},"properties":{"id":"es-1427","source":"ES","brand":"REPSOL","address":"CARRETERA NAC. 211, KM. 165,6 KM. ","municipality":"Montalbán","province":"TERUEL","postalCode":"44700","schedule":"L-D: 08:00-20:00","fuels":{"gasoline95":1.779,"diesel":1.949,"dieselRenewable":2.029},"extra":{"saleType":"P","margin":"D","reportingType":"dm","ideess":"1427","idMunicipio":"6662","idProvincia":"44","idCCAA":"02"}}},{"type":"Feature","geometry":{"type":"Point","coordinates":[-0.706083,40.365861]},"properties":{"id":"es-1442","source":"ES","brand":"GALP","address":"CARRETERA A-228 KM. 33,500","municipality":"Alcalá de la Selva","province":"TERUEL","postalCode":"44432","schedule":"L-D: 24H","fuels":{"gasoline95":1.749,"gasoline98":1.859,"diesel":1.889,"dieselPremium":1.959},"extra":{"saleType":"P","margin":"D","reportingType":"OM","ideess":"1442","idMunicipio":"6537","idProvincia":"44","idCCAA":"02"}}},{"type":"Feature","geometry":{"type":"Point","coordinates":[-0.24025,40.831472]},"properties":{"id":"es-1455","source":"ES","brand":"CAMPSA","address":"CALLE CL AGUAVIVA, 9","municipality":"Mas de las Matas","province":"TERUEL","postalCode":"44564","schedule":"L: 08:00-20:00","fuels":{"gasoline95":1.745,"diesel":1.889,"dieselB":1.595},"extra":{"saleType":"P","margin":"D","reportingType":"OM","ideess":"1455","idMunicipio":"6652","idProvincia":"44","idCCAA":"02"}}},{"type":"Feature","geometry":{"type":"Point","coordinates":[-0.377333,40.894278]},"properties":{"id":"es-1504","source":"ES","brand":"REPSOL","address":"CR N-211, 212,5","municipality":"Alcorisa","province":"TERUEL","postalCode":"44550","schedule":"L-D: 06:00-22:00","fuels":{"gasoline95":1.759,"gasoline98":1.929,"diesel":1.899,"dieselB":1.595,"dieselRenewable":2.019},"extra":{"saleType":"P","margin":"I","reportingType":"OM","ideess":"1504","idMunicipio":"6539","idProvincia":"44","idCCAA":"02"}}},{"type":"Feature","geometry":{"type":"Point","coordinates":[-0.447833,40.982278]},"properties":{"id":"es-1509","source":"ES","brand":"REPSOL","address":"AVENIDA ALBALATE, 7","municipality":"Andorra","province":"TERUEL","postalCode":"44500","schedule":"L-D: 06:00-22:00","fuels":{"gasoline95":1.827,"gasoline98":1.976,"diesel":1.88,"dieselB":1.602,"dieselRenewable":2.034},"extra":{"saleType":"P","margin":"D","reportingType":"dm","ideess":"1509","idMunicipio":"6549","idProvincia":"44","idCCAA":"02"}}},{"type":"Feature","geometry":{"type":"Point","coordinates":[-0.696056,40.680528]},"properties":{"id":"es-1525","source":"ES","brand":"REPSOL","address":"CR TE-820 70,8","municipality":"Aliaga","province":"TERUEL","postalCode":"44150","schedule":"L-V: 08:00-14:00 y 17:00-19:00; S: 09:00-14:00","fuels":{"gasoline95":1.779,"diesel":1.949},"extra":{"saleType":"P","margin":"D","reportingType":"dm","ideess":"1525","idMunicipio":"6541","idProvincia":"44","idCCAA":"02"}}},{"type":"Feature","geometry":{"type":"Point","coordinates":[-0.407417,40.508333]},"properties":{"id":"es-1532","source":"ES","brand":"PETRONOR","address":"CARRETERA IGLESUELA KM. S/N","municipality":"Cantavieja","province":"TERUEL","postalCode":"44140","schedule":"L-S: 08:00-21:00","fuels":{"gasoline95":1.745,"diesel":1.885,"dieselB":1.595},"extra":{"saleType":"P","margin":"I","reportingType":"OM","ideess":"1532","idMunicipio":"6580","idProvincia":"44","idCCAA":"02"}}},{"type":"Feature","geometry":{"type":"Point","coordinates":[-0.039639,40.000111]},"properties":{"id":"es-15985","source":"ES","brand":"PLENERGY","address":"AVENIDA BENICASIM, 24","municipality":"Castellón de la Plana/Castelló de la Plana","province":"CASTELLÓN / CASTELLÓ","postalCode":"12004","schedule":"L-D: 24H","fuels":{"gasoline95":1.699,"diesel":1.829},"extra":{"saleType":"P","margin":"D","reportingType":"dm","ideess":"15985","idMunicipio":"1842","idProvincia":"12","idCCAA":"10"}}},{"type":"Feature","geometry":{"type":"Point","coordinates":[-0.337667,40.639972]},"properties":{"id":"es-16148","source":"ES","brand":"FORESMA DESARROLLOS SL","address":"POLIGONO 13, 73","municipality":"Olocau del Rey","province":"CASTELLÓN / CASTELLÓ","postalCode":"12312","schedule":"L-D: 24H","fuels":{"gasoline95":1.748,"diesel":1.799},"extra":{"saleType":"P","margin":"I","reportingType":"dm","ideess":"16148","idMunicipio":"1881","idProvincia":"12","idCCAA":"10"}}},{"type":"Feature","geometry":{"type":"Point","coordinates":[-0.091472,40.018944]},"properties":{"id":"es-16346","source":"ES","brand":"GLOBAL HRV","address":"CARRETERA COMARCAL 238 KM. 12","municipality":"Borriol","province":"CASTELLÓN / CASTELLÓ","postalCode":"12190","schedule":"L-D: 24H","fuels":{"gasoline95":1.729,"diesel":1.839,"dieselB":1.595},"extra":{"saleType":"P","margin":"I","reportingType":"dm","ideess":"16346","idMunicipio":"1834","idProvincia":"12","idCCAA":"10"}}},{"type":"Feature","geometry":{"type":"Point","coordinates":[-0.740056,40.1115]},"properties":{"id":"es-1989","source":"ES","brand":"GALP","address":"N-234 km 75,000","municipality":"Albentosa","province":"TERUEL","postalCode":"44477","schedule":"L-V: 06:00-23:00; S-D: 06:00-22:00","fuels":{"gasoline95":1.799,"gasoline98":1.889,"diesel":1.889,"dieselPremium":1.979,"adblue":0.88},"extra":{"saleType":"P","margin":"N","reportingType":"dm","ideess":"1989","idMunicipio":"6535","idProvincia":"44","idCCAA":"02"}}},{"type":"Feature","geometry":{"type":"Point","coordinates":[-0.528583,40.064833]},"properties":{"id":"es-3486","source":"ES","brand":"CARLA","address":"CR CS-211, 18 (CS-211 km 18,2)","municipality":"Montanejos","province":"CASTELLÓN / CASTELLÓ","postalCode":"12448","schedule":"L-D: 24H","fuels":{"gasoline95":1.719,"diesel":1.879},"extra":{"saleType":"P","margin":"I","reportingType":"dm","ideess":"3486","idMunicipio":"1877","idProvincia":"12","idCCAA":"10"}}},{"type":"Feature","geometry":{"type":"Point","coordinates":[-0.125833,40.014278]},"properties":{"id":"es-3488","source":"ES","brand":"GALP","address":"CARRETERA C.V 16 KM. 4,1","municipality":"Borriol","province":"CASTELLÓN / CASTELLÓ","postalCode":"12190","schedule":"L-D: 06:00-22:00","fuels":{"gasoline95":1.714,"gasoline98":1.869,"diesel":1.884,"dieselPremium":1.934},"extra":{"saleType":"P","margin":"D","reportingType":"OM","ideess":"3488","idMunicipio":"1834","idProvincia":"12","idCCAA":"10"}}},{"type":"Feature","geometry":{"type":"Point","coordinates":[-0.073722,40.041778]},"properties":{"id":"es-3493","source":"ES","brand":"REPSOL","address":"AVENIDA ZARAGOZA S/N, S/N","municipality":"Borriol","province":"CASTELLÓN / CASTELLÓ","postalCode":"12190","schedule":"L-D: 06:00-22:00","fuels":{"gasoline95":1.749,"diesel":1.945,"dieselPremium":2.065},"extra":{"saleType":"P","margin":"I","reportingType":"OM","ideess":"3493","idMunicipio":"1834","idProvincia":"12","idCCAA":"10"}}},{"type":"Feature","geometry":{"type":"Point","coordinates":[-0.696306,40.016528]},"properties":{"id":"es-3506","source":"ES","brand":"MOEVE","address":"CARRETERA N-234A KM. 62,8","municipality":"Barracas","province":"CASTELLÓN / CASTELLÓ","postalCode":"12420","schedule":"L-D: 06:00-22:00","fuels":{"gasoline95":1.779,"gasoline98":1.929,"diesel":1.979,"dieselPremium":2.049},"extra":{"saleType":"P","margin":"D","reportingType":"OM","ideess":"3506","idMunicipio":"1825","idProvincia":"12","idCCAA":"10"}}},{"type":"Feature","geometry":{"type":"Point","coordinates":[-0.045389,40.192639]},"properties":{"id":"es-3563","source":"ES","brand":"REPSOL","address":"CV-15 km 11,4","municipality":"Vall d'Alba","province":"CASTELLÓN / CASTELLÓ","postalCode":"12194","schedule":"L-S: 07:00-22:00","fuels":{"gasoline95":1.859,"gasoline98":1.999,"diesel":1.989,"dieselB":1.659,"adblue":0.999},"extra":{"saleType":"P","margin":"I","reportingType":"dm","ideess":"3563","idMunicipio":"1921","idProvincia":"12","idCCAA":"10"}}},{"type":"Feature","geometry":{"type":"Point","coordinates":[-0.280583,40.135528]},"properties":{"id":"es-3587","source":"ES","brand":"LUCENA","address":"CARRETERA C-232 KM. 38,10","municipality":"Lucena del Cid","province":"CASTELLÓN / CASTELLÓ","postalCode":"12120","schedule":"L-V: 07:30-20:30; S: 08:00-20:00; D: 08:00-14:00","fuels":{"gasoline95":1.749,"gasoline98":1.929,"diesel":1.955,"dieselB":1.619},"extra":{"saleType":"P","margin":"D","reportingType":"OM","ideess":"3587","idMunicipio":"1871","idProvincia":"12","idCCAA":"10"}}},{"type":"Feature","geometry":{"type":"Point","coordinates":[-0.170611,40.219417]},"properties":{"id":"es-3596","source":"ES","brand":"COOPERATIVA ATZENETA","address":"AVENIDA MEANES (DE), 2","municipality":"Atzeneta del Maestrat","province":"CASTELLÓN / CASTELLÓ","postalCode":"12132","schedule":"L-D: 24H","fuels":{"gasoline95":1.729,"diesel":1.869,"dieselB":1.299},"extra":{"saleType":"P","margin":"D","reportingType":"dm","ideess":"3596","idMunicipio":"1822","idProvincia":"12","idCCAA":"10"}}},{"type":"Feature","geometry":{"type":"Point","coordinates":[-0.042889,40.003417]},"properties":{"id":"es-3612","source":"ES","brand":"REPSOL","address":"CR N-340, 976,7","municipality":"Castellón de la Plana/Castelló de la Plana","province":"CASTELLÓN / CASTELLÓ","postalCode":"12004","schedule":"L-D: 06:00-22:00","fuels":{"gasoline95":1.779,"gasoline98":1.909,"diesel":1.965,"dieselPremium":2.085},"extra":{"saleType":"P","margin":"D","reportingType":"OM","ideess":"3612","idMunicipio":"1842","idProvincia":"12","idCCAA":"10"}}},{"type":"Feature","geometry":{"type":"Point","coordinates":[-0.204972,40.07075]},"properties":{"id":"es-3618","source":"ES","brand":"REPSOL","address":"CARRETERA DE CASTELLON,   60  (C-232) KM. 23,7","municipality":"Alcora (l')","province":"CASTELLÓN / CASTELLÓ","postalCode":"12110","schedule":"L-S: 07:00-22:00; D: 07:00-15:00","fuels":{"gasoline95":1.759,"gasoline98":1.939,"diesel":1.955,"dieselPremium":2.075},"extra":{"saleType":"P","margin":"I","reportingType":"OM","ideess":"3618","idMunicipio":"1809","idProvincia":"12","idCCAA":"10"}}},{"type":"Feature","geometry":{"type":"Point","coordinates":[-0.094556,40.609611]},"properties":{"id":"es-3637","source":"ES","brand":"PETRONOR","address":"CARRETERA N-232 KM. 63,5","municipality":"Morella","province":"CASTELLÓN / CASTELLÓ","postalCode":"12300","schedule":"L-D: 07:00-22:00","fuels":{"gasoline95":1.819,"diesel":1.969,"dieselPremium":2.009},"extra":{"saleType":"P","margin":"D","reportingType":"dm","ideess":"3637","idMunicipio":"1878","idProvincia":"12","idCCAA":"10"}}},{"type":"Feature","geometry":{"type":"Point","coordinates":[-0.006333,40.342611]},"properties":{"id":"es-3674","source":"ES","brand":"REPSOL","address":"CR CS-800, 32,3","municipality":"Albocàsser","province":"CASTELLÓN / CASTELLÓ","postalCode":"12140","schedule":"L-S: 07:00-22:00; D: 08:00-22:00","fuels":{"gasoline95":1.819,"diesel":1.979,"dieselB":1.459},"extra":{"saleType":"P","margin":"D","reportingType":"dm","ideess":"3674","idMunicipio":"1807","idProvincia":"12","idCCAA":"10"}}},{"type":"Feature","geometry":{"type":"Point","coordinates":[-0.152139,40.040972]},"properties":{"id":"es-3698","source":"ES","brand":"REPSOL","address":"CR CV-16  P.K. 8","municipality":"Sant Joan de Moró","province":"CASTELLÓN / CASTELLÓ","postalCode":"12130","schedule":"L-J: 07:00-20:30; S-D: 08:00-14:00","fuels":{"gasoline95":1.749,"gasoline98":1.929,"diesel":1.959,"dieselPremium":2.079},"extra":{"saleType":"P","margin":"I","reportingType":"OM","ideess":"3698","idMunicipio":"1897","idProvincia":"12","idCCAA":"10"}}},{"type":"Feature","geometry":{"type":"Point","coordinates":[-0.251444,40.432028]},"properties":{"id":"es-8263","source":"ES","brand":"CEPSA","address":"AVINGUDA DE CASTELLO, 96","municipality":"Villafranca del Cid","province":"CASTELLÓN / CASTELLÓ","postalCode":"12150","schedule":"L: 08:00-14:00 y 15:00-21:00","fuels":{"gasoline95":1.789,"diesel":1.979,"dieselPremium":2.049},"extra":{"saleType":"P","margin":"I","reportingType":"dm","ideess":"8263","idMunicipio":"1931","idProvincia":"12","idCCAA":"10"}}},{"type":"Feature","geometry":{"type":"Point","coordinates":[-0.436361,40.973861]},"properties":{"id":"es-8303","source":"ES","brand":"GALP","address":"POLIGONO PG. INDUSTRIAL LA UMBRIA 33, 33","municipality":"Andorra","province":"TERUEL","postalCode":"44500","schedule":"L-D: 06:00-22:00","fuels":{"gasoline95":1.835,"gasoline98":1.98,"diesel":1.966,"dieselPremium":2.072,"dieselB":1.5,"adblue":0.8},"extra":{"saleType":"P","margin":"N","reportingType":"dm","ideess":"8303","idMunicipio":"6549","idProvincia":"44","idCCAA":"02"}}},{"type":"Feature","geometry":{"type":"Point","coordinates":[-0.033583,40.178306]},"properties":{"id":"es-9019","source":"ES","brand":"COOP. AGRARIA SAN ISIDRO DE VALL D'ALBA, COOP.V.","address":"AVENIDA VILAFRANCA, 66","municipality":"Vall d'Alba","province":"CASTELLÓN / CASTELLÓ","postalCode":"12194","schedule":"L-D: 24H","fuels":{"gasoline95":1.68,"diesel":1.83,"dieselB":1.53},"extra":{"saleType":"P","margin":"D","reportingType":"dm","ideess":"9019","idMunicipio":"1921","idProvincia":"12","idCCAA":"10"}}},{"type":"Feature","geometry":{"type":"Point","coordinates":[-0.051806,40.118417]},"properties":{"id":"es-9030","source":"ES","brand":"COOP. SAN ISIDRO DE VILAFAMES","address":"CARRER SAN MIGUEL, 87","municipality":"Vilafamés","province":"CASTELLÓN / CASTELLÓ","postalCode":"12192","schedule":"L-D: 24H","fuels":{"gasoline95":1.719,"diesel":1.864,"dieselB":1.483},"extra":{"saleType":"P","margin":"D","reportingType":"dm","ideess":"9030","idMunicipio":"1926","idProvincia":"12","idCCAA":"10"}}},{"type":"Feature","geometry":{"type":"Point","coordinates":[-0.141833,40.054028]},"properties":{"id":"es-9032","source":"ES","brand":"COOP.SAN JUAN DE SAN JUAN DE MORO","address":"PARTIDA RACHINA S/N","municipality":"Sant Joan de Moró","province":"CASTELLÓN / CASTELLÓ","postalCode":"12130","schedule":"L-D: 24H","fuels":{"gasoline95":1.699,"diesel":1.859,"dieselB":1.359},"extra":{"saleType":"P","margin":"D","reportingType":"dm","ideess":"9032","idMunicipio":"1897","idProvincia":"12","idCCAA":"10"}}},{"type":"Feature","geometry":{"type":"Point","coordinates":[-0.230722,40.944806]},"properties":{"id":"es-9116","source":"ES","brand":"LA CALANDINA","address":"ALCOLEA-TARRAGONA S/N","municipality":"Calanda","province":"TERUEL","postalCode":"44570","schedule":"L-D: 24H","fuels":{"gasoline95":1.649,"diesel":1.779,"dieselB":1.385},"extra":{"saleType":"P","margin":"D","reportingType":"dm","ideess":"9116","idMunicipio":"6574","idProvincia":"44","idCCAA":"02"}}},{"type":"Feature","geometry":{"type":"Point","coordinates":[-0.1395,40.379667]},"properties":{"id":"es-9338","source":"ES","brand":"CARCELLER ROYO S.L.","address":"CTRA. RAMAL A CULLA km 3,900","municipality":"Benasal","province":"CASTELLÓN / CASTELLÓ","postalCode":"12160","schedule":"L-S: 8:00 -21:00; D: 08:00-14:00 y 16:00-21:00","fuels":{"gasoline95":1.769,"gasoline98E10":1.899,"diesel":1.889,"dieselB":1.499},"extra":{"saleType":"P","margin":"D","reportingType":"dm","ideess":"9338","idMunicipio":"1829","idProvincia":"12","idCCAA":"10"}}}]}