{"type":"FeatureCollection","features":[{"type":"Feature","geometry":{"type":"Point","coordinates":[-0.78375,37.843194]},"properties":{"id":"es-10198","source":"ES","brand":"RHR","address":"PARAJE DE LOS PLAZAS S/N","municipality":"San Pedro del Pinatar","province":"MURCIA","postalCode":"30740","schedule":"L-D: 05:30-03:00","fuels":{"gasoline95":1.664,"diesel":1.797,"dieselPremium":1.827,"lpg":1.119},"extra":{"saleType":"P","margin":"D","reportingType":"dm","ideess":"10198","idMunicipio":"4591","idProvincia":"30","idCCAA":"14"}}},{"type":"Feature","geometry":{"type":"Point","coordinates":[-0.832167,37.809056]},"properties":{"id":"es-10497","source":"ES","brand":"IBESSA","address":"CARRETERA NACIONAL 332 KM. S/N","municipality":"San Javier","province":"MURCIA","postalCode":"30730","schedule":"L-D: 24H","fuels":{"gasoline95":1.599,"gasoline98":1.719,"diesel":1.729,"dieselPremium":1.759},"extra":{"saleType":"P","margin":"D","reportingType":"dm","ideess":"10497","idMunicipio":"4590","idProvincia":"30","idCCAA":"14"}}},{"type":"Feature","geometry":{"type":"Point","coordinates":[-0.895611,37.613056]},"properties":{"id":"es-10640","source":"ES","brand":"PETRONOR","address":"CR N-332, 7,2 (N-332 km 7,8)","municipality":"Unión (La)","province":"MURCIA","postalCode":"30360","schedule":"L-D: 06:30-21:30","fuels":{"gasoline95":1.789,"gasoline98":1.909,"diesel":1.895,"dieselRenewable":2.015},"extra":{"saleType":"P","margin":"I","reportingType":"OM","ideess":"10640","idMunicipio":"4597","idProvincia":"30","idCCAA":"14"}}},{"type":"Feature","geometry":{"type":"Point","coordinates":[-0.950472,37.623667]},"properties":{"id":"es-10767","source":"ES","brand":"CARREFOUR","address":"POLIGONO CABEZO BEAZA, C/ RIGA, S/N","municipality":"Cartagena","province":"MURCIA","postalCode":"30200","schedule":"L-S: 08:00-22:00; D: 09:00-22:00","fuels":{"gasoline95":1.769,"gasoline98":1.909,"diesel":1.869,"dieselPremium":1.909},"extra":{"saleType":"P","margin":"N","reportingType":"dm","ideess":"10767","idMunicipio":"4571","idProvincia":"30","idCCAA":"14"}}},{"type":"Feature","geometry":{"type":"Point","coordinates":[-0.715222,37.963194]},"properties":{"id":"es-10875","source":"ES","brand":"REPSOL","address":"CARRETERA CV-95 KM. 2","municipality":"Torrevieja","province":"ALICANTE","postalCode":"03186","schedule":"L-D: 07:00-00:00","fuels":{"gasoline95":1.825,"gasoline98":1.945,"diesel":1.919,"dieselRenewable":2.039,"lpg":1.159},"extra":{"saleType":"P","margin":"I","reportingType":"OM","ideess":"10875","idMunicipio":"272","idProvincia":"03","idCCAA":"10"}}},{"type":"Feature","geometry":{"type":"Point","coordinates":[-0.955028,37.6835]},"properties":{"id":"es-11060","source":"ES","brand":"REPSOL","address":"CALLE MARCONA, 21","municipality":"Cartagena","province":"MURCIA","postalCode":"30593","schedule":"L-D: 06:00-23:00","fuels":{"gasoline95":1.809,"gasoline98":2.009,"diesel":1.919,"dieselB":1.699,"dieselRenewable":2.039,"lpg":1.149,"adblue":1.199},"extra":{"saleType":"P","margin":"D","reportingType":"dm","ideess":"11060","idMunicipio":"4571","idProvincia":"30","idCCAA":"14"}}},{"type":"Feature","geometry":{"type":"Point","coordinates":[-0.718028,37.94325]},"properties":{"id":"es-11140","source":"ES","brand":"CEPSA","address":"CARRETERA N-332 KM. 52,1","municipality":"Orihuela","province":"ALICANTE","postalCode":"03189","schedule":"L-D: 06:00-22:00","fuels":{"gasoline95":1.819,"gasoline95Premium":1.899,"gasoline98":1.929,"diesel":1.959,"dieselPremium":2.039},"extra":{"saleType":"P","margin":"I","reportingType":"dm","ideess":"11140","idMunicipio":"235","idProvincia":"03","idCCAA":"10"}}},{"type":"Feature","geometry":{"type":"Point","coordinates":[-0.968028,37.684028]},"properties":{"id":"es-11149","source":"ES","brand":"CEPSA","address":"CARRETERA F-36 KM7,2 KM. 7,2","municipality":"Cartagena","province":"MURCIA","postalCode":"30593","schedule":"L-D: 07:00-23:00","fuels":{"gasoline95":1.799,"diesel":1.939,"dieselPremium":2.029,"dieselB":1.699,"lpg":1.069},"extra":{"saleType":"P","margin":"D","reportingType":"dm","ideess":"11149","idMunicipio":"4571","idProvincia":"30","idCCAA":"14"}}},{"type":"Feature","geometry":{"type":"Point","coordinates":[-0.707917,37.635167]},"properties":{"id":"es-11288","source":"ES","brand":"SHELL","address":"CTRA. CABO DE PALOS A LA MANGA km S/Nº","municipality":"Cartagena","province":"MURCIA","postalCode":"30370","schedule":"L-D: 07:00-23:00","fuels":{"gasoline95":1.739,"diesel":1.899,"dieselPremium":1.979},"extra":{"saleType":"P","margin":"I","reportingType":"OM","ideess":"11288","idMunicipio":"4571","idProvincia":"30","idCCAA":"14"}}},{"type":"Feature","geometry":{"type":"Point","coordinates":[-0.895583,37.738056]},"properties":{"id":"es-11467","source":"ES","brand":"SHELL","address":"CARRETERA DE TORREPACHECO A LOS ALCAZARES KM. 6,192","municipality":"Torre-Pacheco","province":"MURCIA","postalCode":"30700","schedule":"L-D: 07:00-23:00","fuels":{"gasoline95":1.699,"gasoline98":1.839,"diesel":1.799,"dieselPremium":1.879,"dieselB":1.589},"extra":{"saleType":"P","margin":"N","reportingType":"OM","ideess":"11467","idMunicipio":"4593","idProvincia":"30","idCCAA":"14"}}},{"type":"Feature","geometry":{"type":"Point","coordinates":[-0.997917,37.621028]},"properties":{"id":"es-11596","source":"ES","brand":"REPSOL","address":"AVENIDA JUAN CARLOS I, 2","municipality":"Cartagena","province":"MURCIA","postalCode":"30310","schedule":"L-D: 06:30-22:30","fuels":{"gasoline95":1.795,"gasoline95Premium":1.865,"gasoline98":1.915,"diesel":1.895,"dieselRenewable":2.015},"extra":{"saleType":"P","margin":"I","reportingType":"OM","ideess":"11596","idMunicipio":"4571","idProvincia":"30","idCCAA":"14"}}},{"type":"Feature","geometry":{"type":"Point","coordinates":[-0.735556,37.926694]},"properties":{"id":"es-11655","source":"ES","brand":"BP LA ZENIA","address":"URBANIZACIÓN VILLAMARTIN NORTE, S","municipality":"Orihuela","province":"ALICANTE","postalCode":"03300","schedule":"L-D: 07:00-23:00","fuels":{"gasoline95":1.825,"gasoline98":1.965,"diesel":1.909,"dieselPremium":1.999},"extra":{"saleType":"P","margin":"D","reportingType":"OM","ideess":"11655","idMunicipio":"235","idProvincia":"03","idCCAA":"10"}}},{"type":"Feature","geometry":{"type":"Point","coordinates":[-0.992778,37.748722]},"properties":{"id":"es-11808","source":"ES","brand":"CEPSA","address":"CARRETERA F-14 KM. 4","municipality":"Torre-Pacheco","province":"MURCIA","postalCode":"30708","schedule":"L-D: 06:30-22:30","fuels":{"gasoline95":1.789,"diesel":1.896,"dieselPremium":2.049,"dieselB":1.809,"adblue":0.8},"extra":{"saleType":"P","margin":"D","reportingType":"dm","ideess":"11808","idMunicipio":"4593","idProvincia":"30","idCCAA":"14"}}},{"type":"Feature","geometry":{"type":"Point","coordinates":[-0.900667,37.628111]},"properties":{"id":"es-11836","source":"ES","brand":"REPSOL","address":"CALLE MINA BUENA SUERTE-BOLA, 1","municipality":"Unión (La)","province":"MURCIA","postalCode":"30360","schedule":"L-D: 06:30-22:30","fuels":{"gasoline95":1.789,"gasoline98":1.919,"diesel":1.899,"dieselRenewable":2.019,"adblue":0.999},"extra":{"saleType":"P","margin":"D","reportingType":"dm","ideess":"11836","idMunicipio":"4597","idProvincia":"30","idCCAA":"14"}}},{"type":"Feature","geometry":{"type":"Point","coordinates":[-0.780167,37.991056]},"properties":{"id":"es-11916","source":"ES","brand":"ESTACION DE SERVICIO PETROBLUE","address":"POLIGONO LO QUILEZ, S/N","municipality":"San Miguel de Salinas","province":"ALICANTE","postalCode":"03193","schedule":"L-D: 06:00-22:00","fuels":{"gasoline95":1.719,"diesel":1.829,"dieselPremium":1.879},"extra":{"saleType":"P","margin":"N","reportingType":"dm","ideess":"11916","idMunicipio":"258","idProvincia":"03","idCCAA":"10"}}},{"type":"Feature","geometry":{"type":"Point","coordinates":[-0.793111,37.981583]},"properties":{"id":"es-11964","source":"ES","brand":"REPSOL","address":"RONDA OESTE, S/N","municipality":"San Miguel de Salinas","province":"ALICANTE","postalCode":"03193","schedule":"L-S: 06:00-22:00; D: 08:00-21:00","fuels":{"gasoline95":1.829,"gasoline98":1.949,"diesel":1.909,"dieselRenewable":2.019},"extra":{"saleType":"P","margin":"D","reportingType":"OM","ideess":"11964","idMunicipio":"258","idProvincia":"03","idCCAA":"10"}}},{"type":"Feature","geometry":{"type":"Point","coordinates":[-0.775833,37.844444]},"properties":{"id":"es-11974","source":"ES","brand":"REPSOL","address":"CALLE PUERTO (EL), SN","municipality":"San Pedro del Pinatar","province":"MURCIA","postalCode":"30740","schedule":"L-D: 06:00-22:00","fuels":{"gasoline95":1.809,"gasoline95Premium":1.869,"gasoline98":1.929,"diesel":1.939,"dieselRenewable":2.059},"extra":{"saleType":"P","margin":"I","reportingType":"OM","ideess":"11974","idMunicipio":"4591","idProvincia":"30","idCCAA":"14"}}},{"type":"Feature","geometry":{"type":"Point","coordinates":[-0.919667,37.650333]},"properties":{"id":"es-11975","source":"ES","brand":"REPSOL","address":"POLIGONO AVENIDA DEL CARBONO ESQUINA NITROGENO, 49","municipality":"Cartagena","province":"MURCIA","postalCode":"30369","schedule":"L: 06:00-22:00","fuels":{"gasoline95":1.799,"gasoline95Premium":1.799,"gasoline98":1.899,"diesel":1.909,"dieselB":1.699,"dieselRenewable":1.909,"lpg":1.099,"adblue":1.199},"extra":{"saleType":"P","margin":"N","reportingType":"dm","ideess":"11975","idMunicipio":"4571","idProvincia":"30","idCCAA":"14"}}},{"type":"Feature","geometry":{"type":"Point","coordinates":[-0.716139,37.946167]},"properties":{"id":"es-12024","source":"ES","brand":"EASYGAS","address":"CARRETERA NACIONAL 332 KM. 53,5","municipality":"Orihuela","province":"ALICANTE","postalCode":"03315","schedule":"L-D: 24H","fuels":{"gasoline95":1.629,"gasoline95Premium":1.629,"diesel":1.799,"dieselPremium":1.799},"extra":{"saleType":"P","margin":"I","reportingType":"dm","ideess":"12024","idMunicipio":"235","idProvincia":"03","idCCAA":"10"}}},{"type":"Feature","geometry":{"type":"Point","coordinates":[-0.674944,37.991361]},"properties":{"id":"es-12168","source":"ES","brand":"REPSOL","address":"AVENIDA CORTES VALENCIANAS, 60","municipality":"Torrevieja","province":"ALICANTE","postalCode":"03183","schedule":"L-D: 06:00-22:00","fuels":{"gasoline95":1.819,"gasoline98":1.979,"diesel":1.949,"dieselRenewable":2.069},"extra":{"saleType":"P","margin":"N","reportingType":"dm","ideess":"12168","idMunicipio":"272","idProvincia":"03","idCCAA":"10"}}},{"type":"Feature","geometry":{"type":"Point","coordinates":[-0.736278,37.930444]},"properties":{"id":"es-12307","source":"ES","brand":"ALCAMPO","address":"CALLE JADE, 1","municipality":"Orihuela","province":"ALICANTE","postalCode":"03189","schedule":"L-D: 24H","fuels":{"gasoline95":1.619,"diesel":1.765,"dieselPremium":1.785},"extra":{"saleType":"P","margin":"N","reportingType":"dm","ideess":"12307","idMunicipio":"235","idProvincia":"03","idCCAA":"10"}}},{"type":"Feature","geometry":{"type":"Point","coordinates":[-0.94225,37.643222]},"properties":{"id":"es-12386","source":"ES","brand":"CABEZO VENTURA","address":"CARRETERA F-37 KM. 7,700","municipality":"Cartagena","province":"MURCIA","postalCode":"30395","schedule":"L-D: 24H","fuels":{"gasoline95":1.699,"diesel":1.799,"dieselB":1.589,"lpg":0.999},"extra":{"saleType":"P","margin":"D","reportingType":"dm","ideess":"12386","idMunicipio":"4571","idProvincia":"30","idCCAA":"14"}}},{"type":"Feature","geometry":{"type":"Point","coordinates":[-0.984167,37.616861]},"properties":{"id":"es-12648","source":"ES","brand":"IBESSA","address":"CALLE BLAS DE OTERO, 2","municipality":"Cartagena","province":"MURCIA","postalCode":"30203","schedule":"L-D: 24H","fuels":{"gasoline95":1.655,"gasoline98":1.718,"diesel":1.735,"dieselPremium":1.765},"extra":{"saleType":"P","margin":"D","reportingType":"dm","ideess":"12648","idMunicipio":"4571","idProvincia":"30","idCCAA":"14"}}},{"type":"Feature","geometry":{"type":"Point","coordinates":[-0.786389,37.862111]},"properties":{"id":"es-12756","source":"ES","brand":"E.S.HORADADA","address":"CALLE MAYOR, 113","municipality":"Pilar de la Horadada","province":"ALICANTE","postalCode":"03190","schedule":"L-D: 24H","fuels":{"gasoline95":1.749,"diesel":1.829},"extra":{"saleType":"P","margin":"D","reportingType":"dm","ideess":"12756","idMunicipio":"242","idProvincia":"03","idCCAA":"10"}}},{"type":"Feature","geometry":{"type":"Point","coordinates":[-0.954639,37.623444]},"properties":{"id":"es-12861","source":"ES","brand":"ROYMAGA PETROLEOS,SL","address":"CALLE BUDAPEST, 129","municipality":"Cartagena","province":"MURCIA","postalCode":"30392","schedule":"L-D: 24H","fuels":{"gasoline95":1.679,"diesel":1.809,"dieselPremium":1.829,"adblue":1.1},"extra":{"saleType":"P","margin":"D","reportingType":"dm","ideess":"12861","idMunicipio":"4571","idProvincia":"30","idCCAA":"14"}}},{"type":"Feature","geometry":{"type":"Point","coordinates":[-0.97525,37.607306]},"properties":{"id":"es-12905","source":"ES","brand":"CARREFOUR","address":"PASEO ALFONSO XIII, S/N","municipality":"Cartagena","province":"MURCIA","postalCode":"30203","schedule":"L-S: 08:00-22:00; D: 09:00-21:00","fuels":{"gasoline95":1.769,"gasoline98":1.909,"diesel":1.869,"dieselPremium":1.909},"extra":{"saleType":"P","margin":"N","reportingType":"dm","ideess":"12905","idMunicipio":"4571","idProvincia":"30","idCCAA":"14"}}},{"type":"Feature","geometry":{"type":"Point","coordinates":[-0.674417,37.992278]},"properties":{"id":"es-12920","source":"ES","brand":"V2 GASOLINERAS","address":"AVENIDA CORTES VALENCIANAS, 74","municipality":"Torrevieja","province":"ALICANTE","postalCode":"03183","schedule":"L-D: 07:00-23:00","fuels":{"gasoline95":1.599,"diesel":1.699},"extra":{"saleType":"P","margin":"D","reportingType":"dm","ideess":"12920","idMunicipio":"272","idProvincia":"03","idCCAA":"10"}}},{"type":"Feature","geometry":{"type":"Point","coordinates":[-0.819,37.816917]},"properties":{"id":"es-13384","source":"ES","brand":"RHR","address":"AVENIDA PINATAR, 20","municipality":"San Javier","province":"MURCIA","postalCode":"30730","schedule":"L-D: 24H","fuels":{"gasoline95":1.669,"gasoline98":1.759,"diesel":1.789,"dieselPremium":1.819,"lpg":1.119,"adblue":1.199},"extra":{"saleType":"P","margin":"D","reportingType":"dm","ideess":"13384","idMunicipio":"4590","idProvincia":"30","idCCAA":"14"}}},{"type":"Feature","geometry":{"type":"Point","coordinates":[-0.680222,37.991056]},"properties":{"id":"es-13524","source":"ES","brand":"LA HITA - TORREVIEJA","address":"AVENIDA ROSA MAZÓN VALERO, SN","municipality":"Torrevieja","province":"ALICANTE","postalCode":"03181","schedule":"L-D: 24H","fuels":{"gasoline95":1.599,"diesel":1.699,"dieselPremium":1.699},"extra":{"saleType":"P","margin":"D","reportingType":"dm","ideess":"13524","idMunicipio":"272","idProvincia":"03","idCCAA":"10"}}},{"type":"Feature","geometry":{"type":"Point","coordinates":[-0.950611,37.628]},"properties":{"id":"es-13604","source":"ES","brand":"GMOIL","address":"CALLE VILMA-C.BEAZA, S/N","municipality":"Cartagena","province":"MURCIA","postalCode":"30393","schedule":"L-D: 24H","fuels":{"gasoline95":1.569,"diesel":1.679},"extra":{"saleType":"P","margin":"D","reportingType":"dm","ideess":"13604","idMunicipio":"4571","idProvincia":"30","idCCAA":"14"}}},{"type":"Feature","geometry":{"type":"Point","coordinates":[-0.673667,37.993528]},"properties":{"id":"es-13646","source":"ES","brand":"BALLENOIL","address":"AVENIDA DE LAS CORTES VALENCIANAS, SN","municipality":"Torrevieja","province":"ALICANTE","postalCode":"03183","schedule":"L-D: 24H","fuels":{"gasoline95":1.599,"diesel":1.699},"extra":{"saleType":"P","margin":"N","reportingType":"OM","ideess":"13646","idMunicipio":"272","idProvincia":"03","idCCAA":"10"}}},{"type":"Feature","geometry":{"type":"Point","coordinates":[-0.80925,37.823639]},"properties":{"id":"es-13662","source":"ES","brand":"LA HITA-PINATAR PARK","address":"CARRETERA SAN PEDRO DEL PINATAR A SAN JAVIER KM. SN","municipality":"San Pedro del Pinatar","province":"MURCIA","postalCode":"30740","schedule":"L-D: 24H","fuels":{"gasoline95":1.678,"gasoline95Premium":1.678,"diesel":1.778,"dieselPremium":1.778},"extra":{"saleType":"P","margin":"D","reportingType":"dm","ideess":"13662","idMunicipio":"4591","idProvincia":"30","idCCAA":"14"}}},{"type":"Feature","geometry":{"type":"Point","coordinates":[-0.705139,37.962167]},"properties":{"id":"es-13682","source":"ES","brand":"QUALITY OIL","address":"CALLE CLAUDIO TOLOMEO, 2","municipality":"Torrevieja","province":"ALICANTE","postalCode":"03185","schedule":"L-D: 24H","fuels":{"gasoline95":1.619,"diesel":1.765,"lpg":0.936},"extra":{"saleType":"P","margin":"D","reportingType":"dm","ideess":"13682","idMunicipio":"272","idProvincia":"03","idCCAA":"10"}}},{"type":"Feature","geometry":{"type":"Point","coordinates":[-0.754444,37.918]},"properties":{"id":"es-13918","source":"ES","brand":"BP LOMAS DE CABO ROIG","address":"CALLE CABO CREUS, 2","municipality":"Orihuela","province":"ALICANTE","postalCode":"03189","schedule":"L-D: 07:00-00:00","fuels":{"gasoline95":1.825,"gasoline98":1.965,"diesel":1.909,"dieselPremium":1.999},"extra":{"saleType":"P","margin":"D","reportingType":"OM","ideess":"13918","idMunicipio":"235","idProvincia":"03","idCCAA":"10"}}},{"type":"Feature","geometry":{"type":"Point","coordinates":[-0.843389,37.806083]},"properties":{"id":"es-14090","source":"ES","brand":"PLENERGY","address":"AVENIDA BALSICAS, DE, 47","municipality":"San Javier","province":"MURCIA","postalCode":"30730","schedule":"L-D: 24H","fuels":{"gasoline95":1.629,"diesel":1.729},"extra":{"saleType":"P","margin":"I","reportingType":"dm","ideess":"14090","idMunicipio":"4590","idProvincia":"30","idCCAA":"14"}}},{"type":"Feature","geometry":{"type":"Point","coordinates":[-0.838361,37.795028]},"properties":{"id":"es-14096","source":"ES","brand":"GASEXPRESS","address":"CALLE MALLORCA, 21","municipality":"San Javier","province":"MURCIA","postalCode":"30730","schedule":"L-D: 24H","fuels":{"gasoline95":1.629,"diesel":1.729},"extra":{"saleType":"P","margin":"D","reportingType":"dm","ideess":"14096","idMunicipio":"4590","idProvincia":"30","idCCAA":"14"}}},{"type":"Feature","geometry":{"type":"Point","coordinates":[-0.786972,37.844833]},"properties":{"id":"es-14155","source":"ES","brand":"RHR","address":"CALLE DOCTOR ARTERO GUIRAO, SN","municipality":"San Pedro del Pinatar","province":"MURCIA","postalCode":"30740","schedule":"L-D: 07:00-21:00","fuels":{"gasoline95":1.599,"diesel":1.764,"dieselPremium":1.794},"extra":{"saleType":"P","margin":"D","reportingType":"dm","ideess":"14155","idMunicipio":"4591","idProvincia":"30","idCCAA":"14"}}},{"type":"Feature","geometry":{"type":"Point","coordinates":[-0.862278,37.738889]},"properties":{"id":"es-14530","source":"ES","brand":"BP LOS ALCÁZARES","address":"AVENIDA TRECE DE OCTUBRE, 156","municipality":"Alcázares (Los)","province":"MURCIA","postalCode":"30710","schedule":"L-D: 06:00-23:00","fuels":{"gasoline95":1.795,"gasoline98":1.935,"diesel":1.919,"dieselPremium":2.009},"extra":{"saleType":"P","margin":"D","reportingType":"dm","ideess":"14530","idMunicipio":"4560","idProvincia":"30","idCCAA":"14"}}},{"type":"Feature","geometry":{"type":"Point","coordinates":[-0.966028,37.596417]},"properties":{"id":"es-14578","source":"ES","brand":"NATURGY LAS CUMBRES CARTAGENA","address":"AVENIDA AVENIDA PEDRO SÁNCHEZ MECA, S/N","municipality":"Cartagena","province":"MURCIA","postalCode":"30202","schedule":"L-D: 24H","fuels":{"cng":1.646},"extra":{"saleType":"P","margin":"D","reportingType":"dm","ideess":"14578","idMunicipio":"4571","idProvincia":"30","idCCAA":"14"}}},{"type":"Feature","geometry":{"type":"Point","coordinates":[-0.845722,37.760861]},"properties":{"id":"es-14640","source":"ES","brand":"GASEXPRESS","address":"AVENIDA LIBERTAD, S/N","municipality":"Alcázares (Los)","province":"MURCIA","postalCode":"30710","schedule":"L-D: 24H","fuels":{"gasoline95":1.619,"diesel":1.739},"extra":{"saleType":"P","margin":"D","reportingType":"dm","ideess":"14640","idMunicipio":"4560","idProvincia":"30","idCCAA":"14"}}},{"type":"Feature","geometry":{"type":"Point","coordinates":[-0.953333,37.746667]},"properties":{"id":"es-14774","source":"ES","brand":"LA HITA- EL MOLINO","address":"AVENIDA AVENIDA DE BALSICAS, 12","municipality":"Torre-Pacheco","province":"MURCIA","postalCode":"30700","schedule":"L-D: 24H","fuels":{"gasoline95":1.728,"gasoline95Premium":1.728,"diesel":1.848,"dieselPremium":1.848},"extra":{"saleType":"P","margin":"D","reportingType":"dm","ideess":"14774","idMunicipio":"4593","idProvincia":"30","idCCAA":"14"}}},{"type":"Feature","geometry":{"type":"Point","coordinates":[-0.687472,37.987361]},"properties":{"id":"es-14781","source":"ES","brand":"E.S. LAS SALINAS","address":"CARRETERA CV-905 KM. 10,1","municipality":"Torrevieja","province":"ALICANTE","postalCode":"03180","schedule":"L-D: 06:00-23:00","fuels":{"gasoline95":1.824,"gasoline98":1.934,"diesel":1.944,"dieselPremium":2.024,"lpg":1.139},"extra":{"saleType":"P","margin":"D","reportingType":"dm","ideess":"14781","idMunicipio":"272","idProvincia":"03","idCCAA":"10"}}},{"type":"Feature","geometry":{"type":"Point","coordinates":[-0.772417,37.865694]},"properties":{"id":"es-14831","source":"ES","brand":"E.S. LA TORRE","address":"AVENIDA DEL VELERO - ESQ. COMUNIDAD VALENCIANA, 110","municipality":"Pilar de la Horadada","province":"ALICANTE","postalCode":"03191","schedule":"L-D: 24H","fuels":{"gasoline95":1.729,"diesel":1.799},"extra":{"saleType":"P","margin":"D","reportingType":"dm","ideess":"14831","idMunicipio":"242","idProvincia":"03","idCCAA":"10"}}},{"type":"Feature","geometry":{"type":"Point","coordinates":[-0.749917,37.934333]},"properties":{"id":"es-14871","source":"ES","brand":"REPSOL","address":"CALLE CLAVO, 1","municipality":"Orihuela","province":"ALICANTE","postalCode":"03189","schedule":"L-D: 24H","fuels":{"gasoline95":1.859,"gasoline98":1.989,"diesel":1.969,"dieselRenewable":2.079,"lpg":1.139,"adblue":0.999},"extra":{"saleType":"P","margin":"D","reportingType":"dm","ideess":"14871","idMunicipio":"235","idProvincia":"03","idCCAA":"10"}}},{"type":"Feature","geometry":{"type":"Point","coordinates":[-0.766806,37.929333]},"properties":{"id":"es-14914","source":"ES","brand":"PLENERGY","address":"AVENIDA TIRO DE PICHON, 2","municipality":"Orihuela","province":"ALICANTE","postalCode":"03189","schedule":"L-D: 24H","fuels":{"gasoline95":1.639,"diesel":1.785},"extra":{"saleType":"P","margin":"D","reportingType":"dm","ideess":"14914","idMunicipio":"235","idProvincia":"03","idCCAA":"10"}}},{"type":"Feature","geometry":{"type":"Point","coordinates":[-0.912417,37.737889]},"properties":{"id":"es-14942","source":"ES","brand":"PETROPRIX","address":"CARRETERA RM-F30 KM. 2","municipality":"Torre-Pacheco","province":"MURCIA","postalCode":"30700","schedule":"L-D: 24H","fuels":{"gasoline95":1.679,"diesel":1.769},"extra":{"saleType":"P","margin":"N","reportingType":"dm","ideess":"14942","idMunicipio":"4593","idProvincia":"30","idCCAA":"14"}}},{"type":"Feature","geometry":{"type":"Point","coordinates":[-0.733417,37.923889]},"properties":{"id":"es-14990","source":"ES","brand":"GASEXPRESS","address":"CALLE CERVANTES-ZENIA II, 1","municipality":"Orihuela","province":"ALICANTE","postalCode":"03189","schedule":"L-D: 24H","fuels":{"gasoline95":1.619,"diesel":1.765},"extra":{"saleType":"P","margin":"D","reportingType":"dm","ideess":"14990","idMunicipio":"235","idProvincia":"03","idCCAA":"10"}}},{"type":"Feature","geometry":{"type":"Point","coordinates":[-0.886028,37.621861]},"properties":{"id":"es-15024","source":"ES","brand":"PLENERGY","address":"PLAZA DE LOS SANCHEZ, 2","municipality":"Unión (La)","province":"MURCIA","postalCode":"30360","schedule":"L-D: 24H","fuels":{"gasoline95":1.689,"diesel":1.795},"extra":{"saleType":"P","margin":"D","reportingType":"dm","ideess":"15024","idMunicipio":"4597","idProvincia":"30","idCCAA":"14"}}},{"type":"Feature","geometry":{"type":"Point","coordinates":[-0.847722,37.899]},"properties":{"id":"es-15058","source":"ES","brand":"ÁRTICO OIL","address":"CALLE APIO, 2","municipality":"Pilar de la Horadada","province":"ALICANTE","postalCode":"03190","schedule":"L-D: 24H","fuels":{"gasoline95":1.699,"diesel":1.819},"extra":{"saleType":"P","margin":"D","reportingType":"dm","ideess":"15058","idMunicipio":"242","idProvincia":"03","idCCAA":"10"}}},{"type":"Feature","geometry":{"type":"Point","coordinates":[-0.838444,37.797944]},"properties":{"id":"es-15111","source":"ES","brand":"PLENERGY","address":"CALLE ISLA GRACIOSA, 1","municipality":"San Javier","province":"MURCIA","postalCode":"30730","schedule":"L-D: 24H","fuels":{"gasoline95":1.629,"diesel":1.729},"extra":{"saleType":"P","margin":"D","reportingType":"dm","ideess":"15111","idMunicipio":"4590","idProvincia":"30","idCCAA":"14"}}},{"type":"Feature","geometry":{"type":"Point","coordinates":[-0.965083,37.624306]},"properties":{"id":"es-15139","source":"ES","brand":"PLENERGY","address":"AVENIDA TIDO DIDIO, 10","municipality":"Cartagena","province":"MURCIA","postalCode":"30392","schedule":"L-D: 24H","fuels":{"gasoline95":1.675,"diesel":1.755},"extra":{"saleType":"P","margin":"D","reportingType":"dm","ideess":"15139","idMunicipio":"4571","idProvincia":"30","idCCAA":"14"}}},{"type":"Feature","geometry":{"type":"Point","coordinates":[-0.680472,37.99125]},"properties":{"id":"es-15140","source":"ES","brand":"PLENERGY","address":"AVENIDA ROSA MAZÓN VALERO, S/N","municipality":"Torrevieja","province":"ALICANTE","postalCode":"03184","schedule":"L-D: 24H","fuels":{"gasoline95":1.599,"diesel":1.699},"extra":{"saleType":"P","margin":"D","reportingType":"dm","ideess":"15140","idMunicipio":"272","idProvincia":"03","idCCAA":"10"}}},{"type":"Feature","geometry":{"type":"Point","coordinates":[-0.721889,37.937139]},"properties":{"id":"es-15142","source":"ES","brand":"PLENERGY","address":"CALLE SANTA ALODIA, 4","municipality":"Orihuela","province":"ALICANTE","postalCode":"03189","schedule":"L-D: 24H","fuels":{"gasoline95":1.619,"diesel":1.765},"extra":{"saleType":"P","margin":"D","reportingType":"dm","ideess":"15142","idMunicipio":"235","idProvincia":"03","idCCAA":"10"}}},{"type":"Feature","geometry":{"type":"Point","coordinates":[-0.679556,37.992167]},"properties":{"id":"es-15153","source":"ES","brand":"GM OIL TORREVIEJA","address":"CALLE OBENQUE, 1","municipality":"Torrevieja","province":"ALICANTE","postalCode":"03183","schedule":"L-D: 24H","fuels":{"gasoline95":1.619,"diesel":1.719},"extra":{"saleType":"P","margin":"D","reportingType":"dm","ideess":"15153","idMunicipio":"272","idProvincia":"03","idCCAA":"10"}}},{"type":"Feature","geometry":{"type":"Point","coordinates":[-0.676806,37.987944]},"properties":{"id":"es-15163","source":"ES","brand":"PLENERGY","address":"CALLE JOVEN TRINIDAD,, 11","municipality":"Torrevieja","province":"ALICANTE","postalCode":"03183","schedule":"L-D: 24H","fuels":{"gasoline95":1.599,"diesel":1.699},"extra":{"saleType":"P","margin":"D","reportingType":"dm","ideess":"15163","idMunicipio":"272","idProvincia":"03","idCCAA":"10"}}},{"type":"Feature","geometry":{"type":"Point","coordinates":[-0.692278,37.998694]},"properties":{"id":"es-15175","source":"ES","brand":"PLENERGY","address":"CALLE JOSE LORCA GARCIA, 7","municipality":"Torrevieja","province":"ALICANTE","postalCode":"03184","schedule":"L-D: 24H","fuels":{"gasoline95":1.599,"diesel":1.699},"extra":{"saleType":"P","margin":"D","reportingType":"dm","ideess":"15175","idMunicipio":"272","idProvincia":"03","idCCAA":"10"}}},{"type":"Feature","geometry":{"type":"Point","coordinates":[-0.743222,37.968889]},"properties":{"id":"es-15189","source":"ES","brand":"BP CORONELITA","address":"AVENIDA DENIA, S/N","municipality":"Torrevieja","province":"ALICANTE","postalCode":"03186","schedule":"L-D: 24H","fuels":{"gasoline95":1.825,"gasoline98":1.965,"diesel":1.909,"dieselPremium":1.999},"extra":{"saleType":"P","margin":"N","reportingType":"dm","ideess":"15189","idMunicipio":"272","idProvincia":"03","idCCAA":"10"}}},{"type":"Feature","geometry":{"type":"Point","coordinates":[-0.801194,37.871667]},"properties":{"id":"es-15204","source":"ES","brand":"RHR","address":"CALLE CLARA CAMPOAMOR, 2","municipality":"Pilar de la Horadada","province":"ALICANTE","postalCode":"03190","schedule":"L-D: 06:00-22:00","fuels":{"gasoline95":1.685,"diesel":1.795,"dieselPremium":1.825,"lpg":1.119,"adblue":1.179},"extra":{"saleType":"P","margin":"N","reportingType":"dm","ideess":"15204","idMunicipio":"242","idProvincia":"03","idCCAA":"10"}}},{"type":"Feature","geometry":{"type":"Point","coordinates":[-0.982083,37.753222]},"properties":{"id":"es-15340","source":"ES","brand":"ATRANSCAR CTM","address":"AVENIDA LA ESTRELLA, 43","municipality":"Torre-Pacheco","province":"MURCIA","postalCode":"30700","schedule":"L: 24H","fuels":{"gasoline95":1.739,"diesel":1.859,"adblue":0.809},"extra":{"saleType":"P","margin":"N","reportingType":"dm","ideess":"15340","idMunicipio":"4593","idProvincia":"30","idCCAA":"14"}}},{"type":"Feature","geometry":{"type":"Point","coordinates":[-0.939444,37.738611]},"properties":{"id":"es-15500","source":"ES","brand":"LA HITA-MORRASTELAS","address":"CARRETERA LOS ALCAZARES, 152 KM. 0","municipality":"Torre-Pacheco","province":"MURCIA","postalCode":"30700","schedule":"L: 24H","fuels":{"gasoline95":1.679,"diesel":1.769},"extra":{"saleType":"P","margin":"D","reportingType":"dm","ideess":"15500","idMunicipio":"4593","idProvincia":"30","idCCAA":"14"}}},{"type":"Feature","geometry":{"type":"Point","coordinates":[-0.716306,37.949]},"properties":{"id":"es-15581","source":"ES","brand":"PLENERGY","address":"CALLE ESCORPIONES, 13","municipality":"Torrevieja","province":"ALICANTE","postalCode":"03185","schedule":"L-D: 24H","fuels":{"gasoline95":1.619,"diesel":1.765},"extra":{"saleType":"P","margin":"D","reportingType":"dm","ideess":"15581","idMunicipio":"272","idProvincia":"03","idCCAA":"10"}}},{"type":"Feature","geometry":{"type":"Point","coordinates":[-0.963361,37.817639]},"properties":{"id":"es-15682","source":"ES","brand":"JCC","address":"AVENIDA AVENIDA ROLDÁN, 1","municipality":"Torre-Pacheco","province":"MURCIA","postalCode":"30591","schedule":"L: 06:00-23:00","fuels":{"gasoline95":1.729,"gasoline98":1.849,"diesel":1.839,"dieselPremium":1.889,"lpg":1.049,"adblue":1.199},"extra":{"saleType":"P","margin":"D","reportingType":"dm","ideess":"15682","idMunicipio":"4593","idProvincia":"30","idCCAA":"14"}}},{"type":"Feature","geometry":{"type":"Point","coordinates":[-0.713694,37.951028]},"properties":{"id":"es-15780","source":"ES","brand":"PLENERGY","address":"URBANIZACIÓN LAS BARCAS, 2","municipality":"Torrevieja","province":"ALICANTE","postalCode":"03185","schedule":"L-D: 24H","fuels":{"gasoline95":1.609,"diesel":1.755},"extra":{"saleType":"P","margin":"D","reportingType":"dm","ideess":"15780","idMunicipio":"272","idProvincia":"03","idCCAA":"10"}}},{"type":"Feature","geometry":{"type":"Point","coordinates":[-0.828972,37.811083]},"properties":{"id":"es-16012","source":"ES","brand":"PLENERGY","address":"AVENIDA DE PINATAR, 50","municipality":"San Javier","province":"MURCIA","postalCode":"30730","schedule":"L-D: 24H","fuels":{"gasoline95":1.629,"diesel":1.729},"extra":{"saleType":"P","margin":"D","reportingType":"dm","ideess":"16012","idMunicipio":"4590","idProvincia":"30","idCCAA":"14"}}},{"type":"Feature","geometry":{"type":"Point","coordinates":[-0.824111,37.815361]},"properties":{"id":"es-16108","source":"ES","brand":"BALLENOIL","address":"AVENIDA EUROPA-VENTA DEL PINO, 10","municipality":"San Javier","province":"MURCIA","postalCode":"30730","schedule":"L-D: 24H","fuels":{"gasoline95":1.629,"diesel":1.729,"dieselPremium":1.749},"extra":{"saleType":"P","margin":"N","reportingType":"OM","ideess":"16108","idMunicipio":"4590","idProvincia":"30","idCCAA":"14"}}},{"type":"Feature","geometry":{"type":"Point","coordinates":[-0.911722,37.642222]},"properties":{"id":"es-16178","source":"ES","brand":"Mº MARIN","address":"CARRETERA RM F40 KM. 1","municipality":"Unión (La)","province":"MURCIA","postalCode":"30369","schedule":"L-D: 06:00-23:00","fuels":{"gasoline95":1.729,"diesel":1.839,"dieselPremium":1.869},"extra":{"saleType":"P","margin":"I","reportingType":"dm","ideess":"16178","idMunicipio":"4597","idProvincia":"30","idCCAA":"14"}}},{"type":"Feature","geometry":{"type":"Point","coordinates":[-0.866889,37.738333]},"properties":{"id":"es-16296","source":"ES","brand":"GASEXPRESS","address":"CALLE INFANTA LEONOR, 10","municipality":"Alcázares (Los)","province":"MURCIA","postalCode":"30710","schedule":"L-D: 24H","fuels":{"gasoline95":1.599,"diesel":1.729},"extra":{"saleType":"P","margin":"D","reportingType":"dm","ideess":"16296","idMunicipio":"4560","idProvincia":"30","idCCAA":"14"}}},{"type":"Feature","geometry":{"type":"Point","coordinates":[-0.860194,37.738472]},"properties":{"id":"es-16326","source":"ES","brand":"GLOBAL OIL","address":"AVENIDA 13 DE OCTUBRE, 95","municipality":"Alcázares (Los)","province":"MURCIA","postalCode":"30710","schedule":"L: 24H","fuels":{"gasoline95":1.599,"diesel":1.729},"extra":{"saleType":"P","margin":"D","reportingType":"dm","ideess":"16326","idMunicipio":"4560","idProvincia":"30","idCCAA":"14"}}},{"type":"Feature","geometry":{"type":"Point","coordinates":[-0.759889,37.894972]},"properties":{"id":"es-16400","source":"ES","brand":"PARA Y SIGUE","address":"CALLE GERARDO DIEGO-CMOR, 1","municipality":"Orihuela","province":"ALICANTE","postalCode":"03192","schedule":"L-D: 24H","fuels":{"gasoline95":1.779,"gasoline98":1.899,"diesel":1.899,"dieselPremium":1.969,"adblue":0.799},"extra":{"saleType":"P","margin":"D","reportingType":"dm","ideess":"16400","idMunicipio":"235","idProvincia":"03","idCCAA":"10"}}},{"type":"Feature","geometry":{"type":"Point","coordinates":[-0.961889,37.6215]},"properties":{"id":"es-16408","source":"ES","brand":"BALLENOIL","address":"AVENIDA DE LUXEMBURGO, 1008","municipality":"Cartagena","province":"MURCIA","postalCode":"30350","schedule":"L-D: 24H","fuels":{"gasoline95":1.675,"gasoline95Premium":1.695,"diesel":1.755,"dieselPremium":1.775},"extra":{"saleType":"P","margin":"N","reportingType":"OM","ideess":"16408","idMunicipio":"4571","idProvincia":"30","idCCAA":"14"}}},{"type":"Feature","geometry":{"type":"Point","coordinates":[-0.680111,37.984694]},"properties":{"id":"es-1944","source":"ES","brand":"CEPSA","address":"CALLE VIAL DE RONDA, S/N","municipality":"Torrevieja","province":"ALICANTE","postalCode":"03180","schedule":"L-D: 24H","fuels":{"gasoline95":1.859,"gasoline98":2.019,"diesel":1.959,"dieselPremium":2.059},"extra":{"saleType":"P","margin":"N","reportingType":"dm","ideess":"1944","idMunicipio":"272","idProvincia":"03","idCCAA":"10"}}},{"type":"Feature","geometry":{"type":"Point","coordinates":[-0.688194,37.992194]},"properties":{"id":"es-1949","source":"ES","brand":"CARREFOUR","address":"CARRETERA CREVILLENTE KM. 34,400","municipality":"Torrevieja","province":"ALICANTE","postalCode":"03180","schedule":"L-D: 24H","fuels":{"gasoline95":1.749,"gasoline98":1.919,"diesel":1.899,"dieselPremium":1.939},"extra":{"saleType":"P","margin":"N","reportingType":"dm","ideess":"1949","idMunicipio":"272","idProvincia":"03","idCCAA":"10"}}},{"type":"Feature","geometry":{"type":"Point","coordinates":[-0.743194,37.747639]},"properties":{"id":"es-2103","source":"ES","brand":"PALUSOIL","address":"CALLE GRAN VIA MANGA  EN  CARTAGENA, S/N","municipality":"Cartagena","province":"MURCIA","postalCode":"30370","schedule":"L-X: 08:30-18:00; J-D: 08:30-19:00","fuels":{"gasoline95":1.899},"extra":{"saleType":"P","margin":"N","reportingType":"dm","ideess":"2103","idMunicipio":"4571","idProvincia":"30","idCCAA":"14"}}},{"type":"Feature","geometry":{"type":"Point","coordinates":[-0.889806,37.654472]},"properties":{"id":"es-2115","source":"ES","brand":"ADRIDAN","address":"AUTOVIA LA MANGA - RM22 - SALIDA 0 KM. 0,222","municipality":"Cartagena","province":"MURCIA","postalCode":"30366","schedule":"L-D: 24H","fuels":{"gasoline95":1.689,"gasoline98":1.799,"diesel":1.799,"dieselPremium":1.839,"dieselB":1.469,"lpg":0.999,"adblue":0.959},"extra":{"saleType":"P","margin":"D","reportingType":"dm","ideess":"2115","idMunicipio":"4571","idProvincia":"30","idCCAA":"14"}}},{"type":"Feature","geometry":{"type":"Point","coordinates":[-0.968667,37.617389]},"properties":{"id":"es-2118","source":"ES","brand":"REPSOL","address":"POLIGONO CABEZO BAEZA-BERLIN E-2, S/N","municipality":"Cartagena","province":"MURCIA","postalCode":"30280","schedule":"L-D: 06:00-22:00","fuels":{"gasoline95":1.809,"gasoline98":1.929,"diesel":1.909,"dieselRenewable":2.029,"adblue":0.999},"extra":{"saleType":"P","margin":"D","reportingType":"dm","ideess":"2118","idMunicipio":"4571","idProvincia":"30","idCCAA":"14"}}},{"type":"Feature","geometry":{"type":"Point","coordinates":[-0.964778,37.691083]},"properties":{"id":"es-2120","source":"ES","brand":"ROYMAGA PETROLEOS","address":"CARRETERA MU-311 KM. 25,2","municipality":"Cartagena","province":"MURCIA","postalCode":"30593","schedule":"L-D: 24H","fuels":{"gasoline95":1.679,"diesel":1.809},"extra":{"saleType":"P","margin":"I","reportingType":"dm","ideess":"2120","idMunicipio":"4571","idProvincia":"30","idCCAA":"14"}}},{"type":"Feature","geometry":{"type":"Point","coordinates":[-0.805944,37.599]},"properties":{"id":"es-2128","source":"ES","brand":"REPSOL","address":"CALLE AC(,42)AT-ATAMARIA, S/N","municipality":"Cartagena","province":"MURCIA","postalCode":"30385","schedule":"L-D: 07:00-23:00","fuels":{"gasoline95":1.769,"gasoline95Premium":1.839,"gasoline98":1.889,"diesel":1.939,"dieselRenewable":2.059},"extra":{"saleType":"P","margin":"D","reportingType":"dm","ideess":"2128","idMunicipio":"4571","idProvincia":"30","idCCAA":"14"}}},{"type":"Feature","geometry":{"type":"Point","coordinates":[-0.964028,37.625222]},"properties":{"id":"es-2134","source":"ES","brand":"REPSOL","address":"AVENIDA TITO DIDIO - PL INDUSTRIA  EN  CARTAGENA, 10","municipality":"Cartagena","province":"MURCIA","postalCode":"30280","schedule":"L-D: 06:00-22:00","fuels":{"gasoline95":1.809,"gasoline95Premium":1.869,"gasoline98":1.929,"diesel":1.909,"dieselRenewable":2.029},"extra":{"saleType":"P","margin":"D","reportingType":"OM","ideess":"2134","idMunicipio":"4571","idProvincia":"30","idCCAA":"14"}}},{"type":"Feature","geometry":{"type":"Point","coordinates":[-0.906056,37.813]},"properties":{"id":"es-2153","source":"ES","brand":"BP SAN CAYETANO","address":"CARRETERA RM-19 KM. 20,5","municipality":"Torre-Pacheco","province":"MURCIA","postalCode":"30592","schedule":"L-D: 06:30-22:30","fuels":{"gasoline95":1.799,"gasoline98":1.939,"diesel":1.919,"dieselPremium":2.009,"adblue":1.125},"extra":{"saleType":"P","margin":"I","reportingType":"OM","ideess":"2153","idMunicipio":"4593","idProvincia":"30","idCCAA":"14"}}},{"type":"Feature","geometry":{"type":"Point","coordinates":[-0.984917,37.649472]},"properties":{"id":"es-2160","source":"ES","brand":"REPSOL","address":"CARRETERA CARRETERA LA PALMA KM. 11","municipality":"Cartagena","province":"MURCIA","postalCode":"30310","schedule":"L-D: 06:00-23:00","fuels":{"gasoline95":1.799,"gasoline98":1.919,"diesel":1.895,"dieselRenewable":2.015},"extra":{"saleType":"P","margin":"I","reportingType":"OM","ideess":"2160","idMunicipio":"4571","idProvincia":"30","idCCAA":"14"}}},{"type":"Feature","geometry":{"type":"Point","coordinates":[-0.991944,37.605944]},"properties":{"id":"es-2164","source":"ES","brand":"REPSOL","address":"CL PLAZA ESPAÑA, S.N.","municipality":"Cartagena","province":"MURCIA","postalCode":"30204","schedule":"L-D: 24H","fuels":{"gasoline95":1.799,"gasoline95Premium":1.859,"gasoline98":1.939,"diesel":1.919,"dieselPremium":2.029},"extra":{"saleType":"P","margin":"D","reportingType":"dm","ideess":"2164","idMunicipio":"4571","idProvincia":"30","idCCAA":"14"}}},{"type":"Feature","geometry":{"type":"Point","coordinates":[-0.86175,37.729333]},"properties":{"id":"es-2165","source":"ES","brand":"REPSOL","address":"CARRETERA CARTAGENA-ALICANTE KM. 23","municipality":"Alcázares (Los)","province":"MURCIA","postalCode":"30710","schedule":"L-D: 06:30-23:00","fuels":{"gasoline95":1.799,"gasoline98":1.939,"diesel":1.919,"dieselPremium":2.019,"dieselB":1.699},"extra":{"saleType":"P","margin":"I","reportingType":"dm","ideess":"2165","idMunicipio":"4560","idProvincia":"30","idCCAA":"14"}}},{"type":"Feature","geometry":{"type":"Point","coordinates":[-0.919778,37.718056]},"properties":{"id":"es-2166","source":"ES","brand":"REPSOL","address":"CARRETERA SAN JAVIER KM. 12,1","municipality":"Cartagena","province":"MURCIA","postalCode":"30395","schedule":"L-S: 06:00-22:00; D: 06:30-22:00","fuels":{"gasoline95":1.759,"diesel":1.879,"dieselB":1.149,"dieselRenewable":2.019},"extra":{"saleType":"P","margin":"I","reportingType":"dm","ideess":"2166","idMunicipio":"4571","idProvincia":"30","idCCAA":"14"}}},{"type":"Feature","geometry":{"type":"Point","coordinates":[-0.798944,37.830167]},"properties":{"id":"es-2199","source":"ES","brand":"CEPSA","address":"AVENIDA DOCTOR ARTERO GUIRAO, 219/225","municipality":"San Pedro del Pinatar","province":"MURCIA","postalCode":"30740","schedule":"L-D: 06:00-00:00","fuels":{"gasoline95":1.784,"gasoline95Premium":1.879,"gasoline98":1.914,"diesel":1.944,"dieselPremium":2.044},"extra":{"saleType":"P","margin":"D","reportingType":"dm","ideess":"2199","idMunicipio":"4591","idProvincia":"30","idCCAA":"14"}}},{"type":"Feature","geometry":{"type":"Point","coordinates":[-0.968417,37.595306]},"properties":{"id":"es-2207","source":"ES","brand":"MOEVE","address":"VÍA B-3, PENETRACION AL PUERTO, 1,4","municipality":"Cartagena","province":"MURCIA","postalCode":"30202","schedule":"L-D: 06:00-22:00","fuels":{"gasoline95":1.794,"diesel":1.909,"dieselPremium":1.979},"extra":{"saleType":"P","margin":"I","reportingType":"OM","ideess":"2207","idMunicipio":"4571","idProvincia":"30","idCCAA":"14"}}},{"type":"Feature","geometry":{"type":"Point","coordinates":[-0.782472,37.859833]},"properties":{"id":"es-3456","source":"ES","brand":"MOEVE","address":"CARRETERA A-353 KM. 35,5","municipality":"Pilar de la Horadada","province":"ALICANTE","postalCode":"03190","schedule":"L-D: 06:00-23:59","fuels":{"gasoline95":1.829,"gasoline95Premium":1.879,"gasoline98":1.914,"diesel":1.914,"dieselPremium":2.009},"extra":{"saleType":"P","margin":"D","reportingType":"OM","ideess":"3456","idMunicipio":"242","idProvincia":"03","idCCAA":"10"}}},{"type":"Feature","geometry":{"type":"Point","coordinates":[-0.687444,37.977278]},"properties":{"id":"es-3468","source":"ES","brand":"CEPSA","address":"AVENIDA DOCTOR GREGORIO MARAÑÓN, 14","municipality":"Torrevieja","province":"ALICANTE","postalCode":"03180","schedule":"L-D: 06:00-22:00","fuels":{"gasoline95":1.824,"gasoline95Premium":1.889,"gasoline98":1.924,"diesel":1.944,"dieselPremium":2.044},"extra":{"saleType":"P","margin":"I","reportingType":"dm","ideess":"3468","idMunicipio":"272","idProvincia":"03","idCCAA":"10"}}},{"type":"Feature","geometry":{"type":"Point","coordinates":[-0.799444,37.990083]},"properties":{"id":"es-3485","source":"ES","brand":"GLOBAL OIL","address":"CALLE CV-95, 17,4","municipality":"San Miguel de Salinas","province":"ALICANTE","postalCode":"03193","schedule":"L-S: 06:00-21:00; D: 07:00-15:00","fuels":{"gasoline95":1.696,"gasoline95Premium":1.749,"diesel":1.759,"dieselPremium":1.799,"lpg":0.889},"extra":{"saleType":"P","margin":"D","reportingType":"dm","ideess":"3485","idMunicipio":"258","idProvincia":"03","idCCAA":"10"}}},{"type":"Feature","geometry":{"type":"Point","coordinates":[-0.655833,37.996028]},"properties":{"id":"es-3524","source":"ES","brand":"REPSOL","address":"CL AVDA. ALFREDO NOBEL, 195","municipality":"Torrevieja","province":"ALICANTE","postalCode":"03180","schedule":"L-V: 07:00-21:00; S-D: 09:00-21:00","fuels":{"gasoline95":1.805,"gasoline95Premium":1.865,"gasoline98":1.975,"diesel":1.899,"dieselRenewable":2.019},"extra":{"saleType":"P","margin":"I","reportingType":"OM","ideess":"3524","idMunicipio":"272","idProvincia":"03","idCCAA":"10"}}},{"type":"Feature","geometry":{"type":"Point","coordinates":[-0.679278,37.983056]},"properties":{"id":"es-3551","source":"ES","brand":"BP OIL ESPAÑA","address":"CL APOLO 74","municipality":"Torrevieja","province":"ALICANTE","postalCode":"03182","schedule":"L-D: 06:30-23:00","fuels":{"gasoline95":1.819,"gasoline98":1.919,"diesel":1.909,"dieselPremium":2.009},"extra":{"saleType":"P","margin":"N","reportingType":"dm","ideess":"3551","idMunicipio":"272","idProvincia":"03","idCCAA":"10"}}},{"type":"Feature","geometry":{"type":"Point","coordinates":[-0.760833,37.902667]},"properties":{"id":"es-3582","source":"ES","brand":"CEPSA","address":"CARRETERA N-332 KM. 46","municipality":"Orihuela","province":"ALICANTE","postalCode":"03189","schedule":"L-D: 06:00-22:00","fuels":{"gasoline95":1.799,"gasoline95Premium":1.889,"gasoline98":1.959,"diesel":1.924,"dieselPremium":2.029},"extra":{"saleType":"P","margin":"D","reportingType":"dm","ideess":"3582","idMunicipio":"235","idProvincia":"03","idCCAA":"10"}}},{"type":"Feature","geometry":{"type":"Point","coordinates":[-0.800639,37.871167]},"properties":{"id":"es-3642","source":"ES","brand":"CEPSA","address":"CARRETERA A-353 KM. 33,5","municipality":"Pilar de la Horadada","province":"ALICANTE","postalCode":"03190","schedule":"L-D: 06:00-22:00","fuels":{"gasoline95":1.829,"diesel":1.929,"dieselPremium":2.024,"dieselB":1.754},"extra":{"saleType":"P","margin":"D","reportingType":"dm","ideess":"3642","idMunicipio":"242","idProvincia":"03","idCCAA":"10"}}},{"type":"Feature","geometry":{"type":"Point","coordinates":[-0.687333,37.988333]},"properties":{"id":"es-3688","source":"ES","brand":"REPSOL","address":"CARRETERA CV-905 KM. 10,1","municipality":"Torrevieja","province":"ALICANTE","postalCode":"03180","schedule":"L-D: 05:00-00:00","fuels":{"gasoline95":1.815,"gasoline98":1.935,"diesel":1.919,"dieselRenewable":2.039,"lpg":1.165},"extra":{"saleType":"P","margin":"D","reportingType":"OM","ideess":"3688","idMunicipio":"272","idProvincia":"03","idCCAA":"10"}}},{"type":"Feature","geometry":{"type":"Point","coordinates":[-0.761083,37.903583]},"properties":{"id":"es-3703","source":"ES","brand":"CEPSA","address":"CARRETERA N-332 KM. 47","municipality":"Orihuela","province":"ALICANTE","postalCode":"03189","schedule":"L-D: 06:00-00:00","fuels":{"gasoline95":1.799,"gasoline98":1.964,"diesel":1.929,"dieselPremium":2.024},"extra":{"saleType":"P","margin":"I","reportingType":"dm","ideess":"3703","idMunicipio":"235","idProvincia":"03","idCCAA":"10"}}},{"type":"Feature","geometry":{"type":"Point","coordinates":[-0.679611,37.984444]},"properties":{"id":"es-3730","source":"ES","brand":"CEPSA","address":"CALLE APOLO, 107","municipality":"Torrevieja","province":"ALICANTE","postalCode":"03182","schedule":"L-V: 07:00-19:00; S: 08:00-13:00","fuels":{"gasoline95":1.639,"gasoline98":1.899,"diesel":1.767},"extra":{"saleType":"P","margin":"N","reportingType":"dm","ideess":"3730","idMunicipio":"272","idProvincia":"03","idCCAA":"10"}}},{"type":"Feature","geometry":{"type":"Point","coordinates":[-0.848194,37.747028]},"properties":{"id":"es-4137","source":"ES","brand":"LO SOLA","address":"AVENIDA LIBERTAD (DE LA), 138","municipality":"Alcázares (Los)","province":"MURCIA","postalCode":"30710","schedule":"L-V: 06:00-00:00; S: 06:00-01:30; D: 06:00-00:00","fuels":{"gasoline95":1.739,"gasoline98":1.919,"diesel":1.859,"dieselPremium":1.998},"extra":{"saleType":"P","margin":"D","reportingType":"dm","ideess":"4137","idMunicipio":"4560","idProvincia":"30","idCCAA":"14"}}},{"type":"Feature","geometry":{"type":"Point","coordinates":[-0.95375,37.667056]},"properties":{"id":"es-4144","source":"ES","brand":"ROYMAGA PETROLEOS S.L.","address":"AVDA. SAN JAVIER, S/N","municipality":"Cartagena","province":"MURCIA","postalCode":"30395","schedule":"L-S: 06:00-22:00; D: 07:00-22:00","fuels":{"gasoline95":1.679,"gasoline98":1.779,"diesel":1.809,"dieselPremium":1.829,"dieselB":1.559},"extra":{"saleType":"P","margin":"I","reportingType":"dm","ideess":"4144","idMunicipio":"4571","idProvincia":"30","idCCAA":"14"}}},{"type":"Feature","geometry":{"type":"Point","coordinates":[-0.963833,37.749528]},"properties":{"id":"es-4147","source":"ES","brand":"LA HITA-EL PASICO","address":"VEREDA DE ORIHUELA, S/N","municipality":"Torre-Pacheco","province":"MURCIA","postalCode":"30700","schedule":"L-D: 24H","fuels":{"gasoline95":1.758,"gasoline95Premium":1.788,"diesel":1.898,"dieselPremium":1.928,"dieselB":1.688,"lpg":1.054,"adblue":0.998},"extra":{"saleType":"P","margin":"N","reportingType":"dm","ideess":"4147","idMunicipio":"4593","idProvincia":"30","idCCAA":"14"}}},{"type":"Feature","geometry":{"type":"Point","coordinates":[-0.813917,37.824889]},"properties":{"id":"es-4151","source":"ES","brand":"CARREFOUR","address":"CARRETERA CTRA.N-332 KM. 34","municipality":"San Javier","province":"MURCIA","postalCode":"30730","schedule":"L-S: 08:00-22:00; D: 09:00-22:00","fuels":{"gasoline95":1.759,"gasoline98":1.939,"diesel":1.869,"dieselPremium":1.909},"extra":{"saleType":"P","margin":"N","reportingType":"dm","ideess":"4151","idMunicipio":"4590","idProvincia":"30","idCCAA":"14"}}},{"type":"Feature","geometry":{"type":"Point","coordinates":[-0.984056,37.616694]},"properties":{"id":"es-4166","source":"ES","brand":"REPSOL","address":"CL ANGEL BRUNA-RONDA NORTE, S.N.","municipality":"Cartagena","province":"MURCIA","postalCode":"30204","schedule":"L-D: 07:00-23:00","fuels":{"gasoline95":1.815,"gasoline98":1.935,"diesel":1.915,"dieselRenewable":2.025,"lpg":1.139},"extra":{"saleType":"P","margin":"D","reportingType":"OM","ideess":"4166","idMunicipio":"4571","idProvincia":"30","idCCAA":"14"}}},{"type":"Feature","geometry":{"type":"Point","coordinates":[-0.967972,37.604944]},"properties":{"id":"es-4184","source":"ES","brand":"GASOLINERA CARTAGENA","address":"N-332 km 1,15","municipality":"Cartagena","province":"MURCIA","postalCode":"30310","schedule":"L-D: 07:00-21:00","fuels":{"gasoline95":1.654,"diesel":1.744},"extra":{"saleType":"P","margin":"N","reportingType":"OM","ideess":"4184","idMunicipio":"4571","idProvincia":"30","idCCAA":"14"}}},{"type":"Feature","geometry":{"type":"Point","coordinates":[-0.719889,37.627306]},"properties":{"id":"es-4185","source":"ES","brand":"BP MANGAUTO","address":"CR AUTOV. CARTAG-LA MANGA 19.2","municipality":"Cartagena","province":"MURCIA","postalCode":"30370","schedule":"L-D: 07:00-23:00","fuels":{"gasoline95":1.799,"gasoline98":1.939,"diesel":1.929,"dieselPremium":2.019},"extra":{"saleType":"P","margin":"I","reportingType":"dm","ideess":"4185","idMunicipio":"4571","idProvincia":"30","idCCAA":"14"}}},{"type":"Feature","geometry":{"type":"Point","coordinates":[-0.988333,37.620194]},"properties":{"id":"es-4199","source":"ES","brand":"REPSOL","address":"CALLE PROLONG. JUAN FERNANDEZ, 43","municipality":"Cartagena","province":"MURCIA","postalCode":"30300","schedule":"L-D: 24H","fuels":{"gasoline95":1.815,"gasoline95Premium":1.875,"diesel":1.905,"dieselRenewable":2.025},"extra":{"saleType":"P","margin":"D","reportingType":"OM","ideess":"4199","idMunicipio":"4571","idProvincia":"30","idCCAA":"14"}}},{"type":"Feature","geometry":{"type":"Point","coordinates":[-0.930417,37.61]},"properties":{"id":"es-4201","source":"ES","brand":"BLANCO","address":"CARRETERA N-332A KM. 4,5","municipality":"Cartagena","province":"MURCIA","postalCode":"30380","schedule":"L: 07:00-22:00","fuels":{"gasoline95":1.659,"diesel":1.729,"dieselPremium":1.899},"extra":{"saleType":"P","margin":"I","reportingType":"dm","ideess":"4201","idMunicipio":"4571","idProvincia":"30","idCCAA":"14"}}},{"type":"Feature","geometry":{"type":"Point","coordinates":[-0.876667,37.622083]},"properties":{"id":"es-4202","source":"ES","brand":"REPSOL","address":"AVENIDA MEDITERRANEO, 4","municipality":"Unión (La)","province":"MURCIA","postalCode":"30360","schedule":"L-D: 06:30-00:00","fuels":{"gasoline95":1.789,"gasoline95Premium":1.839,"diesel":1.899,"dieselRenewable":2.019},"extra":{"saleType":"P","margin":"D","reportingType":"dm","ideess":"4202","idMunicipio":"4597","idProvincia":"30","idCCAA":"14"}}},{"type":"Feature","geometry":{"type":"Point","coordinates":[-0.877,37.621722]},"properties":{"id":"es-4203","source":"ES","brand":"REPSOL","address":"AVENIDA MEDITERRANEO, 4","municipality":"Unión (La)","province":"MURCIA","postalCode":"30360","schedule":"L-D: 24H","fuels":{"gasoline95":1.789,"gasoline98":1.919,"diesel":1.899,"dieselPremium":2.019},"extra":{"saleType":"P","margin":"I","reportingType":"dm","ideess":"4203","idMunicipio":"4597","idProvincia":"30","idCCAA":"14"}}},{"type":"Feature","geometry":{"type":"Point","coordinates":[-0.971861,37.607639]},"properties":{"id":"es-4204","source":"ES","brand":"REPSOL","address":"CALLE PASEO ALFONSO XIII, SN","municipality":"Cartagena","province":"MURCIA","postalCode":"30203","schedule":"L-D: 06:00-23:00","fuels":{"gasoline95":1.809,"gasoline95Premium":1.869,"gasoline98":1.929,"diesel":1.909,"dieselRenewable":2.029,"lpg":1.149},"extra":{"saleType":"P","margin":"D","reportingType":"OM","ideess":"4204","idMunicipio":"4571","idProvincia":"30","idCCAA":"14"}}},{"type":"Feature","geometry":{"type":"Point","coordinates":[-0.730861,37.6735]},"properties":{"id":"es-4214","source":"ES","brand":"REPSOL","address":"AVENIDA GRAN VIA, SN","municipality":"San Javier","province":"MURCIA","postalCode":"30370","schedule":"L-D: 07:00-22:00","fuels":{"gasoline95":1.815,"gasoline95Premium":1.885,"gasoline98":1.935,"diesel":1.939,"dieselRenewable":2.059},"extra":{"saleType":"P","margin":"I","reportingType":"OM","ideess":"4214","idMunicipio":"4590","idProvincia":"30","idCCAA":"14"}}},{"type":"Feature","geometry":{"type":"Point","coordinates":[-0.872833,37.783]},"properties":{"id":"es-4216","source":"ES","brand":"REPSOL","address":"AVENIDA MARQUES DE ROZALEJO, S,/N,","municipality":"Torre-Pacheco","province":"MURCIA","postalCode":"30739","schedule":"L-D: 06:00-22:00","fuels":{"gasoline95":1.789,"gasoline98":1.909,"diesel":1.925,"dieselB":1.705,"dieselRenewable":2.045},"extra":{"saleType":"P","margin":"I","reportingType":"OM","ideess":"4216","idMunicipio":"4593","idProvincia":"30","idCCAA":"14"}}},{"type":"Feature","geometry":{"type":"Point","coordinates":[-0.788111,37.842361]},"properties":{"id":"es-4218","source":"ES","brand":"CAMPSA EXPRESS","address":"AVENIDA DR ARTERO GUIRAO, 12","municipality":"San Pedro del Pinatar","province":"MURCIA","postalCode":"30740","schedule":"L-D: 24H","fuels":{"gasoline95":1.579,"gasoline98":1.749,"diesel":1.775,"dieselPremium":1.885},"extra":{"saleType":"P","margin":"I","reportingType":"OM","ideess":"4218","idMunicipio":"4591","idProvincia":"30","idCCAA":"14"}}},{"type":"Feature","geometry":{"type":"Point","coordinates":[-0.809528,37.798861]},"properties":{"id":"es-4238","source":"ES","brand":"REPSOL","address":" AVDA. MAR MENOR, 2","municipality":"San Javier","province":"MURCIA","postalCode":"30720","schedule":"L-D: 07:00-23:00","fuels":{"gasoline95":1.815,"gasoline95Premium":1.885,"gasoline98":1.935,"diesel":1.925,"dieselRenewable":2.045},"extra":{"saleType":"P","margin":"D","reportingType":"OM","ideess":"4238","idMunicipio":"4590","idProvincia":"30","idCCAA":"14"}}},{"type":"Feature","geometry":{"type":"Point","coordinates":[-0.838333,37.805333]},"properties":{"id":"es-4246","source":"ES","brand":"CEPSA","address":"PLAZA CHICA, 3","municipality":"San Javier","province":"MURCIA","postalCode":"30730","schedule":"L-D: 06:00-22:00","fuels":{"gasoline95":1.784,"gasoline95Premium":1.879,"diesel":1.949,"dieselPremium":2.049},"extra":{"saleType":"P","margin":"I","reportingType":"OM","ideess":"4246","idMunicipio":"4590","idProvincia":"30","idCCAA":"14"}}},{"type":"Feature","geometry":{"type":"Point","coordinates":[-0.871194,37.64125]},"properties":{"id":"es-4247","source":"ES","brand":"MOEVE","address":"CARRETERA N-332A KM. 18","municipality":"Cartagena","province":"MURCIA","postalCode":"30366","schedule":"L-D: 06:00-23:00","fuels":{"gasoline95":1.794,"gasoline95Premium":1.889,"gasoline98":1.934,"diesel":1.919,"dieselPremium":2.029},"extra":{"saleType":"P","margin":"D","reportingType":"OM","ideess":"4247","idMunicipio":"4571","idProvincia":"30","idCCAA":"14"}}},{"type":"Feature","geometry":{"type":"Point","coordinates":[-0.871028,37.643611]},"properties":{"id":"es-4248","source":"ES","brand":"MOEVE","address":"CARRETERA N-332A KM. 18","municipality":"Cartagena","province":"MURCIA","postalCode":"30366","schedule":"L-S: 07:00-14:00","fuels":{"gasoline95":1.794,"gasoline95Premium":1.889,"gasoline98":1.934,"diesel":1.919,"dieselPremium":2.029},"extra":{"saleType":"P","margin":"I","reportingType":"OM","ideess":"4248","idMunicipio":"4571","idProvincia":"30","idCCAA":"14"}}},{"type":"Feature","geometry":{"type":"Point","coordinates":[-0.956611,37.818861]},"properties":{"id":"es-4256","source":"ES","brand":"CEPSA BALSICAS","address":"AVENIDA DE MURCIA, 56","municipality":"Torre-Pacheco","province":"MURCIA","postalCode":"30591","schedule":"L-S: 07:00-22:00; D: 08:00-22:00","fuels":{"gasoline95":1.779,"gasoline95Premium":1.859,"diesel":1.889,"dieselPremium":1.979,"dieselB":1.659},"extra":{"saleType":"P","margin":"D","reportingType":"dm","ideess":"4256","idMunicipio":"4593","idProvincia":"30","idCCAA":"14"}}},{"type":"Feature","geometry":{"type":"Point","coordinates":[-0.708889,37.627944]},"properties":{"id":"es-4258","source":"ES","brand":"REPSOL","address":"CARRETERA MU-312 KM. 14,9","municipality":"Cartagena","province":"MURCIA","postalCode":"30370","schedule":"L-D: 07:00-22:00","fuels":{"gasoline95":1.815,"gasoline95Premium":1.885,"gasoline98":1.935,"diesel":1.939,"dieselRenewable":2.059},"extra":{"saleType":"P","margin":"D","reportingType":"OM","ideess":"4258","idMunicipio":"4571","idProvincia":"30","idCCAA":"14"}}},{"type":"Feature","geometry":{"type":"Point","coordinates":[-0.995806,37.714083]},"properties":{"id":"es-4263","source":"ES","brand":"ROYMAGA PETROLEOS","address":"PLAZA SURESTE, S/N","municipality":"Cartagena","province":"MURCIA","postalCode":"30594","schedule":"L-D: 06:00-22:00","fuels":{"gasoline95":1.699,"gasoline98":1.779,"diesel":1.829,"dieselPremium":1.849,"dieselB":1.559,"adblue":1.1},"extra":{"saleType":"P","margin":"I","reportingType":"dm","ideess":"4263","idMunicipio":"4571","idProvincia":"30","idCCAA":"14"}}},{"type":"Feature","geometry":{"type":"Point","coordinates":[-0.794778,37.627889]},"properties":{"id":"es-4264","source":"ES","brand":"MOEVE","address":"CARRETERA MU-312 KM. 11","municipality":"Cartagena","province":"MURCIA","postalCode":"30385","schedule":"L-D: 06:30-22:00","fuels":{"gasoline95":1.804,"gasoline95Premium":1.899,"gasoline98":1.934,"diesel":1.919,"dieselPremium":2.029},"extra":{"saleType":"P","margin":"D","reportingType":"OM","ideess":"4264","idMunicipio":"4571","idProvincia":"30","idCCAA":"14"}}},{"type":"Feature","geometry":{"type":"Point","coordinates":[-0.794361,37.628611]},"properties":{"id":"es-4265","source":"ES","brand":"MOEVE","address":"CARRETERA MU-312 KM. 11","municipality":"Cartagena","province":"MURCIA","postalCode":"30385","schedule":"L-D: 06:30-22:00","fuels":{"gasoline95":1.804,"gasoline95Premium":1.899,"gasoline98":1.934,"diesel":1.919,"dieselPremium":2.029},"extra":{"saleType":"P","margin":"I","reportingType":"OM","ideess":"4265","idMunicipio":"4571","idProvincia":"30","idCCAA":"14"}}},{"type":"Feature","geometry":{"type":"Point","coordinates":[-0.988278,37.639333]},"properties":{"id":"es-4270","source":"ES","brand":"REPSOL","address":"CARRETERA MU-36F KM. 1,5","municipality":"Cartagena","province":"MURCIA","postalCode":"30310","schedule":"L-D: 06:00-22:00","fuels":{"gasoline95":1.799,"gasoline98":1.919,"diesel":1.895,"dieselRenewable":2.015},"extra":{"saleType":"P","margin":"I","reportingType":"OM","ideess":"4270","idMunicipio":"4571","idProvincia":"30","idCCAA":"14"}}},{"type":"Feature","geometry":{"type":"Point","coordinates":[-0.968417,37.595556]},"properties":{"id":"es-4282","source":"ES","brand":"REPSOL","address":"AVENIDA SANCHEZ MECA, SN","municipality":"Cartagena","province":"MURCIA","postalCode":"30202","schedule":"L-D: 24H","fuels":{"gasoline95":1.779,"gasoline98":1.909,"diesel":1.869,"dieselRenewable":1.999,"lpg":1.039},"extra":{"saleType":"P","margin":"D","reportingType":"dm","ideess":"4282","idMunicipio":"4571","idProvincia":"30","idCCAA":"14"}}},{"type":"Feature","geometry":{"type":"Point","coordinates":[-0.844139,37.806278]},"properties":{"id":"es-4284","source":"ES","brand":"REPSOL","address":"CL CRTA. DE BALSICAS, 64","municipality":"San Javier","province":"MURCIA","postalCode":"30730","schedule":"L-D: 06:30-22:30","fuels":{"gasoline95":1.819,"gasoline98":1.929,"diesel":1.925,"dieselRenewable":2.045},"extra":{"saleType":"P","margin":"D","reportingType":"OM","ideess":"4284","idMunicipio":"4590","idProvincia":"30","idCCAA":"14"}}},{"type":"Feature","geometry":{"type":"Point","coordinates":[-0.871889,37.763611]},"properties":{"id":"es-8079","source":"ES","brand":"LA HITA-RODA","address":"CARRETERA CARRETERA DE SAN JAVIER CARTAGENA KM. 5,600","municipality":"Torre-Pacheco","province":"MURCIA","postalCode":"30739","schedule":"L-D: 24H","fuels":{"gasoline95":1.698,"diesel":1.798},"extra":{"saleType":"P","margin":"N","reportingType":"dm","ideess":"8079","idMunicipio":"4593","idProvincia":"30","idCCAA":"14"}}},{"type":"Feature","geometry":{"type":"Point","coordinates":[-0.787056,37.822722]},"properties":{"id":"es-8302","source":"ES","brand":"LA HITA-LO PAGAN","address":"AVENIDA ROMERIA DE LA VIRGEN DEL CARMEN, 169","municipality":"San Pedro del Pinatar","province":"MURCIA","postalCode":"30740","schedule":"L: 24H","fuels":{"gasoline95":1.698,"gasoline95E10":1.698,"diesel":1.798,"dieselPremium":1.798},"extra":{"saleType":"P","margin":"N","reportingType":"dm","ideess":"8302","idMunicipio":"4591","idProvincia":"30","idCCAA":"14"}}},{"type":"Feature","geometry":{"type":"Point","coordinates":[-0.879944,37.852472]},"properties":{"id":"es-8992","source":"ES","brand":"EL PORRAS","address":"AUTOVIA SAN JAVIER-SUCINA KM. 35,9","municipality":"San Javier","province":"MURCIA","postalCode":"30730","schedule":"L-D: 24H","fuels":{"gasoline95":1.649,"gasoline98":1.789,"diesel":1.749,"dieselB":1.479,"adblue":1.1},"extra":{"saleType":"P","margin":"D","reportingType":"dm","ideess":"8992","idMunicipio":"4590","idProvincia":"30","idCCAA":"14"}}},{"type":"Feature","geometry":{"type":"Point","coordinates":[-0.685944,37.983333]},"properties":{"id":"es-9262","source":"ES","brand":"BP OIL ESPAÑA","address":"CALLE ORIHUELA, 90","municipality":"Torrevieja","province":"ALICANTE","postalCode":"03182","schedule":"L-D: 06:30-22:00","fuels":{"gasoline95":1.819,"gasoline98":1.919,"diesel":1.909,"dieselPremium":2.009},"extra":{"saleType":"P","margin":"D","reportingType":"dm","ideess":"9262","idMunicipio":"272","idProvincia":"03","idCCAA":"10"}}},{"type":"Feature","geometry":{"type":"Point","coordinates":[-0.858192,37.841935]},"properties":{"id":"es-9417","source":"ES","brand":"HORTAMIRA","address":"CTRA. SAN CAYETANO S/N","municipality":"San Javier","province":"MURCIA","postalCode":"30739","schedule":"L-V: 08:00-13:30 y 15:00-21:00; S: 08:00-14:00","fuels":{"diesel":1.781,"dieselB":1.358},"extra":{"saleType":"P","margin":"D","reportingType":"dm","ideess":"9417","idMunicipio":"4590","idProvincia":"30","idCCAA":"14"}}},{"type":"Feature","geometry":{"type":"Point","coordinates":[-0.787639,37.843333]},"properties":{"id":"es-9545","source":"ES","brand":"HERMANOS NAVARRO","address":"AVENIDA DOCTOR ARTERO GUIRAO, 2","municipality":"San Pedro del Pinatar","province":"MURCIA","postalCode":"30740","schedule":"L-D: 06:00-22:00","fuels":{"gasoline95":1.664,"gasoline98":1.775,"diesel":1.797,"dieselPremium":1.819,"adblue":1.199},"extra":{"saleType":"P","margin":"D","reportingType":"dm","ideess":"9545","idMunicipio":"4591","idProvincia":"30","idCCAA":"14"}}},{"type":"Feature","geometry":{"type":"Point","coordinates":[-0.952389,37.733111]},"properties":{"id":"es-9694","source":"ES","brand":"REPSOL","address":"POLIGONO INDUSTRIAL LA HITA S/N","municipality":"Torre-Pacheco","province":"MURCIA","postalCode":"30700","schedule":"L-D: 06:00-22:30","fuels":{"gasoline95":1.768,"gasoline98":1.888,"diesel":1.948,"dieselRenewable":2.068},"extra":{"saleType":"P","margin":"D","reportingType":"dm","ideess":"9694","idMunicipio":"4593","idProvincia":"30","idCCAA":"14"}}},{"type":"Feature","geometry":{"type":"Point","coordinates":[-0.943611,37.891306]},"properties":{"id":"es-9795","source":"ES","brand":"REPSOL","address":"AVENIDA CONSTITUCION, 38","municipality":"Murcia","province":"MURCIA","postalCode":"30590","schedule":"L-D: 06:00-22:00","fuels":{"gasoline95":1.769,"gasoline98":1.869,"diesel":1.889,"dieselRenewable":1.995},"extra":{"saleType":"P","margin":"N","reportingType":"dm","ideess":"9795","idMunicipio":"4585","idProvincia":"30","idCCAA":"14"}}},{"type":"Feature","geometry":{"type":"Point","coordinates":[-0.949083,37.741972]},"properties":{"id":"es-9820","source":"ES","brand":"REPSOL","address":"AVENIDA JUAN CARLOS I, S/N","municipality":"Torre-Pacheco","province":"MURCIA","postalCode":"30700","schedule":"L-V: 06:30-22:00; S-D: 07:00-16:00","fuels":{"gasoline95":1.775,"gasoline98":1.895,"diesel":1.949,"dieselRenewable":2.069},"extra":{"saleType":"P","margin":"I","reportingType":"OM","ideess":"9820","idMunicipio":"4593","idProvincia":"30","idCCAA":"14"}}}]}