{"type":"FeatureCollection","features":[{"type":"Feature","geometry":{"type":"Point","coordinates":[-6.422417,41.008861]},"properties":{"id":"es-13243","source":"ES","brand":"PGS","address":"CALLE VIA DE SERVICIO , PARCELA 2J, S/N","municipality":"Vitigudino","province":"SALAMANCA","postalCode":"37210","schedule":"L-D: 24H","fuels":{"gasoline95":1.639,"diesel":1.775,"adblue":0.78},"extra":{"saleType":"P","margin":"N","reportingType":"dm","ideess":"13243","idMunicipio":"5684","idProvincia":"37","idCCAA":"08"}}},{"type":"Feature","geometry":{"type":"Point","coordinates":[-6.175528,41.475917]},"properties":{"id":"es-14997","source":"ES","brand":"E.S. DIEZ CENTIMOS","address":"CARRERA ZAMORA V2210-P47-P94, 0","municipality":"Gamones","province":"ZAMORA","postalCode":"49251","schedule":"L-D: 24H","fuels":{"gasoline95":1.729,"diesel":1.839},"extra":{"saleType":"P","margin":"N","reportingType":"dm","ideess":"14997","idMunicipio":"7647","idProvincia":"49","idCCAA":"08"}}},{"type":"Feature","geometry":{"type":"Point","coordinates":[-6.486417,41.741694]},"properties":{"id":"es-15769","source":"ES","brand":"MOEVE","address":"POLIGONO POLIGONO 506, PARCELA 1608-B, 1608","municipality":"Trabazos","province":"ZAMORA","postalCode":"49516","schedule":"L-D: 06:00-23:59","fuels":{"gasoline95":1.779,"gasoline95Premium":1.869,"diesel":1.909,"dieselPremium":2.009},"extra":{"saleType":"P","margin":"N","reportingType":"OM","ideess":"15769","idMunicipio":"7767","idProvincia":"49","idCCAA":"08"}}},{"type":"Feature","geometry":{"type":"Point","coordinates":[-6.468389,41.734083]},"properties":{"id":"es-4913","source":"ES","brand":"LA CHUCA","address":"CTRA. N-122 km 528,72","municipality":"Rábano de Aliste","province":"ZAMORA","postalCode":"49515","schedule":"L-D: 08:00-00:00","fuels":{"gasoline95":1.75,"gasoline98":1.86,"diesel":1.88,"dieselPremium":1.95},"extra":{"saleType":"P","margin":"D","reportingType":"dm","ideess":"4913","idMunicipio":"7727","idProvincia":"49","idCCAA":"08"}}},{"type":"Feature","geometry":{"type":"Point","coordinates":[-6.222444,41.0305]},"properties":{"id":"es-4956","source":"ES","brand":"ESTACION DE SERVICIO PRIETO, S.L.","address":"CTRA. C-517 km 49","municipality":"Villar de Peralonso","province":"SALAMANCA","postalCode":"37147","schedule":"L-V: 07:00-20:30; S: 08:00-16:00; D: 08:00-20:30","fuels":{"gasoline95":1.615,"gasoline98":1.725,"diesel":1.775,"dieselB":1.445},"extra":{"saleType":"P","margin":"N","reportingType":"dm","ideess":"4956","idMunicipio":"5667","idProvincia":"37","idCCAA":"08"}}},{"type":"Feature","geometry":{"type":"Point","coordinates":[-6.002778,41.088222]},"properties":{"id":"es-6122","source":"ES","brand":"CEPSA","address":"PLAZA MERCADO, S/N","municipality":"Ledesma","province":"SALAMANCA","postalCode":"37100","schedule":"L-V: 08:00-14:00 y 16:00-20:00; S-D: 09:00-14:00","fuels":{"gasoline95":1.759,"diesel":1.909,"dieselPremium":2.029},"extra":{"saleType":"P","margin":"D","reportingType":"dm","ideess":"6122","idMunicipio":"5484","idProvincia":"37","idCCAA":"08"}}},{"type":"Feature","geometry":{"type":"Point","coordinates":[-6.348417,41.785056]},"properties":{"id":"es-6151","source":"ES","brand":"CEPSA","address":"CARRETERA ZA-913 KM. 32,5","municipality":"San Vitero","province":"ZAMORA","postalCode":"49523","schedule":"L-D: 07:00-23:00","fuels":{"gasoline95":1.799,"diesel":1.94,"dieselPremium":2.038},"extra":{"saleType":"P","margin":"I","reportingType":"dm","ideess":"6151","idMunicipio":"7749","idProvincia":"49","idCCAA":"08"}}},{"type":"Feature","geometry":{"type":"Point","coordinates":[-6.377528,41.321583]},"properties":{"id":"es-6153","source":"ES","brand":"CEPSA","address":"CARRETERA ZAMORA-FERMOSELLE  CL 527 KM. 60,500","municipality":"Fermoselle","province":"ZAMORA","postalCode":"49220","schedule":"L: 09:00-21:00","fuels":{"gasoline95":1.799,"gasoline95Premium":1.889,"diesel":1.939,"dieselB":1.709},"extra":{"saleType":"P","margin":"D","reportingType":"dm","ideess":"6153","idMunicipio":"7628","idProvincia":"49","idCCAA":"08"}}},{"type":"Feature","geometry":{"type":"Point","coordinates":[-6.432917,41.012833]},"properties":{"id":"es-6156","source":"ES","brand":"CEPSA","address":"CARRETERA FREGENEDA KM. 68","municipality":"Vitigudino","province":"SALAMANCA","postalCode":"37210","schedule":"L-D: 08:00-21:00","fuels":{"gasoline95":1.759,"gasoline98":1.889,"diesel":1.919,"dieselPremium":1.999,"adblue":0.89},"extra":{"saleType":"P","margin":"I","reportingType":"dm","ideess":"6156","idMunicipio":"5684","idProvincia":"37","idCCAA":"08"}}},{"type":"Feature","geometry":{"type":"Point","coordinates":[-6.582694,41.200417]},"properties":{"id":"es-6189","source":"ES","brand":"REPSOL","address":"CARRETERA SA-314 KM. ","municipality":"Masueco","province":"SALAMANCA","postalCode":"37251","schedule":"L-D: 24H","fuels":{"gasoline95":1.759,"diesel":1.899,"dieselB":1.559,"dieselRenewable":1.989},"extra":{"saleType":"P","margin":"I","reportingType":"dm","ideess":"6189","idMunicipio":"5498","idProvincia":"37","idCCAA":"08"}}},{"type":"Feature","geometry":{"type":"Point","coordinates":[-6.157611,41.937194]},"properties":{"id":"es-6195","source":"ES","brand":"REPSOL","address":"CR N-631, 43,4","municipality":"Otero de Bodas","province":"ZAMORA","postalCode":"49336","schedule":"L-D: 07:00-22:00","fuels":{"gasoline95":1.729,"diesel":1.909,"dieselPremium":2.009},"extra":{"saleType":"P","margin":"D","reportingType":"OM","ideess":"6195","idMunicipio":"7696","idProvincia":"49","idCCAA":"08"}}},{"type":"Feature","geometry":{"type":"Point","coordinates":[-6.102306,41.368139]},"properties":{"id":"es-6236","source":"ES","brand":"REPSOL","address":"AVENIDA DE LA GUARDIA CIVIL, 16","municipality":"Bermillo de Sayago","province":"ZAMORA","postalCode":"49200","schedule":"L: 07:00-23:00","fuels":{"gasoline95":1.769,"gasoline98":1.939,"diesel":1.929,"dieselPremium":1.989},"extra":{"saleType":"P","margin":"I","reportingType":"OM","ideess":"6236","idMunicipio":"7590","idProvincia":"49","idCCAA":"08"}}},{"type":"Feature","geometry":{"type":"Point","coordinates":[-6.382778,41.236278]},"properties":{"id":"es-6273","source":"ES","brand":"COMBUSTIBLES TRABANCA","address":"CARRETERA SA 316 KM. 0,100","municipality":"Trabanca","province":"SALAMANCA","postalCode":"37173","schedule":"L-D: 08:00-21:00","fuels":{"gasoline95":1.679,"diesel":1.779,"dieselPremium":1.829},"extra":{"saleType":"P","margin":"D","reportingType":"dm","ideess":"6273","idMunicipio":"5636","idProvincia":"37","idCCAA":"08"}}},{"type":"Feature","geometry":{"type":"Point","coordinates":[-6.660972,41.071278]},"properties":{"id":"es-6370","source":"ES","brand":"REPSOL","address":"CR L-105 0023 (L-105 km 23,1)","municipality":"Barruecopardo","province":"SALAMANCA","postalCode":"37255","schedule":"L: 09:00-14:00 y 15:00-20:00","fuels":{"gasoline95":1.769,"diesel":1.899},"extra":{"saleType":"P","margin":"I","reportingType":"dm","ideess":"6370","idMunicipio":"5370","idProvincia":"37","idCCAA":"08"}}},{"type":"Feature","geometry":{"type":"Point","coordinates":[-6.34225,41.697389]},"properties":{"id":"es-6389","source":"ES","brand":"REPSOL","address":"CR N-122, 516,7  I","municipality":"Alcañices","province":"ZAMORA","postalCode":"49500","schedule":"L-D: 07:00-22:59","fuels":{"gasoline95":1.769,"gasoline98":1.889,"diesel":1.929,"dieselPremium":1.989},"extra":{"saleType":"P","margin":"I","reportingType":"OM","ideess":"6389","idMunicipio":"7570","idProvincia":"49","idCCAA":"08"}}},{"type":"Feature","geometry":{"type":"Point","coordinates":[-6.025583,41.996139]},"properties":{"id":"es-6398","source":"ES","brand":"REPSOL","address":"CARRETERA N-525 KM. ","municipality":"Camarzana de Tera","province":"ZAMORA","postalCode":"49332","schedule":"L-D: 07:00-22:00","fuels":{"gasoline95":1.769,"gasoline98":1.909,"diesel":1.929,"dieselPremium":2.019,"dieselB":1.562},"extra":{"saleType":"P","margin":"D","reportingType":"OM","ideess":"6398","idMunicipio":"7600","idProvincia":"49","idCCAA":"08"}}},{"type":"Feature","geometry":{"type":"Point","coordinates":[-6.070167,41.256528]},"properties":{"id":"es-9371","source":"ES","brand":"AVIA","address":"CARRERA FONFRIA - LEDESMA, 43,230","municipality":"Almeida de Sayago","province":"ZAMORA","postalCode":"49210","schedule":"L-V: 08:00-21:00; S-D: 08:00-20:00","fuels":{"gasoline95":1.779,"gasoline98":1.959,"diesel":1.939,"dieselPremium":2.019,"dieselB":1.569},"extra":{"saleType":"P","margin":"D","reportingType":"dm","ideess":"9371","idMunicipio":"7575","idProvincia":"49","idCCAA":"08"}}}]}