{"type":"FeatureCollection","features":[{"type":"Feature","geometry":{"type":"Point","coordinates":[42.037472,-8.659472]},"properties":{"id":"es-16268","source":"ES","brand":"GUAY","address":"CARRETERA ANTA KM. 1","municipality":"Tui","province":"PONTEVEDRA","postalCode":"36700","schedule":"L-D: 06:00-23:00","fuels":{"gasoline95":1.599,"diesel":1.639,"dieselPremium":1.719,"adblue":0.779},"extra":{"saleType":"P","margin":"D","reportingType":"dm","ideess":"16268","idMunicipio":"5322","idProvincia":"36","idCCAA":"12"}}}]}