{"type":"FeatureCollection","features":[{"type":"Feature","geometry":{"type":"Point","coordinates":[-5.319556,35.891556]},"properties":{"id":"es-10513","source":"ES","brand":"DISA VARADERO","address":"AVENIDA MUELLE CAÑONERO DATO, 10","municipality":"Ceuta","province":"CEUTA","postalCode":"51001","schedule":"L-D: 07:00-23:00","fuels":{"gasoline95":1.567,"gasoline98":1.597,"diesel":1.678},"extra":{"saleType":"P","margin":"D","reportingType":"OM","ideess":"10513","idMunicipio":"8110","idProvincia":"51","idCCAA":"18"}}},{"type":"Feature","geometry":{"type":"Point","coordinates":[-5.322917,35.88525]},"properties":{"id":"es-11303","source":"ES","brand":"CEPSA","address":"AVENIDA MARTINEZ CATENA S/N-FRENTE PLAYA DEL CHORRILLO, S,N","municipality":"Ceuta","province":"CEUTA","postalCode":"51001","schedule":"L-D: 07:00-23:00","fuels":{"gasoline95":1.564,"gasoline95Premium":1.614,"diesel":1.654,"dieselPremium":1.714},"extra":{"saleType":"P","margin":"D","reportingType":"OM","ideess":"11303","idMunicipio":"8110","idProvincia":"51","idCCAA":"18"}}},{"type":"Feature","geometry":{"type":"Point","coordinates":[-5.300861,35.894722]},"properties":{"id":"es-11739","source":"ES","brand":"ON365","address":"MUELLE ALFAU, S/N","municipality":"Ceuta","province":"CEUTA","postalCode":"51001","schedule":"L-D: 24H","fuels":{"gasoline95":1.549,"gasoline98":1.589,"diesel":1.659,"dieselPremium":1.699},"extra":{"saleType":"P","margin":"D","reportingType":"dm","ideess":"11739","idMunicipio":"8110","idProvincia":"51","idCCAA":"18"}}},{"type":"Feature","geometry":{"type":"Point","coordinates":[-5.324056,35.894167]},"properties":{"id":"es-16166","source":"ES","brand":"MOEVE","address":"AVENIDA JUAN DE BORBON, 27","municipality":"Ceuta","province":"CEUTA","postalCode":"51001","schedule":"L-D: 24H","fuels":{"gasoline95":1.568,"gasoline98":1.598,"diesel":1.679,"dieselPremium":1.719,"adblue":1.205},"extra":{"saleType":"P","margin":"D","reportingType":"dm","ideess":"16166","idMunicipio":"8110","idProvincia":"51","idCCAA":"18"}}},{"type":"Feature","geometry":{"type":"Point","coordinates":[-5.319444,35.889972]},"properties":{"id":"es-2754","source":"ES","brand":"CEPSA","address":"AVENIDA GONZALEZ TABLAS, S/N","municipality":"Ceuta","province":"CEUTA","postalCode":"51001","schedule":"L-V: 07:00-22:00; S: 09:00-14:00","fuels":{"gasoline95":1.564,"gasoline95Premium":1.614,"diesel":1.654,"dieselPremium":1.714},"extra":{"saleType":"P","margin":"D","reportingType":"OM","ideess":"2754","idMunicipio":"8110","idProvincia":"51","idCCAA":"18"}}},{"type":"Feature","geometry":{"type":"Point","coordinates":[-5.322917,35.894056]},"properties":{"id":"es-2755","source":"ES","brand":"SHELL PUNTA ALMINA","address":"AVENIDA MUELLE CAÑONERO DATO, S/N","municipality":"Ceuta","province":"CEUTA","postalCode":"51001","schedule":"L-D: 24H","fuels":{"gasoline95":1.567,"gasoline98":1.597,"diesel":1.678},"extra":{"saleType":"P","margin":"D","reportingType":"OM","ideess":"2755","idMunicipio":"8110","idProvincia":"51","idCCAA":"18"}}},{"type":"Feature","geometry":{"type":"Point","coordinates":[-5.320917,35.892556]},"properties":{"id":"es-2900","source":"ES","brand":"DISA PUERTO","address":"AVENIDA CAÑONERO DATO, 10","municipality":"Ceuta","province":"CEUTA","postalCode":"51002","schedule":"L-D: 06:00-23:59","fuels":{"gasoline95":1.567,"gasoline98":1.597,"diesel":1.678},"extra":{"saleType":"P","margin":"D","reportingType":"OM","ideess":"2900","idMunicipio":"8110","idProvincia":"51","idCCAA":"18"}}},{"type":"Feature","geometry":{"type":"Point","coordinates":[-5.336778,35.8795]},"properties":{"id":"es-2901","source":"ES","brand":"SHELL CATENA","address":"AVENIDA MARTINEZ CATENA, 6","municipality":"Ceuta","province":"CEUTA","postalCode":"51001","schedule":"L-D: 06:00-00:00","fuels":{"gasoline95":1.567,"gasoline98":1.597,"diesel":1.678},"extra":{"saleType":"P","margin":"N","reportingType":"OM","ideess":"2901","idMunicipio":"8110","idProvincia":"51","idCCAA":"18"}}},{"type":"Feature","geometry":{"type":"Point","coordinates":[-5.328667,35.893222]},"properties":{"id":"es-2903","source":"ES","brand":"ON365","address":"AVENIDA TENIENTE GRAL MUSLERA, S/N","municipality":"Ceuta","province":"CEUTA","postalCode":"51002","schedule":"L-D: 06:00-23:59","fuels":{"gasoline95":1.549,"gasoline98":1.589,"diesel":1.659},"extra":{"saleType":"P","margin":"D","reportingType":"dm","ideess":"2903","idMunicipio":"8110","idProvincia":"51","idCCAA":"18"}}},{"type":"Feature","geometry":{"type":"Point","coordinates":[-5.320556,35.892333]},"properties":{"id":"es-8908","source":"ES","brand":"SHELL MUELLE DATO","address":"AVENIDA MUELLE DATO, 8","municipality":"Ceuta","province":"CEUTA","postalCode":"51001","schedule":"L-D: 24H","fuels":{"gasoline95":1.567,"gasoline98":1.597,"diesel":1.678},"extra":{"saleType":"P","margin":"D","reportingType":"OM","ideess":"8908","idMunicipio":"8110","idProvincia":"51","idCCAA":"18"}}}]}