{"type":"FeatureCollection","features":[{"type":"Feature","geometry":{"type":"Point","coordinates":[-5.619194,40.972556]},"properties":{"id":"es-10071","source":"ES","brand":"E.S. CABRERIZOS","address":"CARRETERA DE ALDEALENGUA SA-804 KM. 0,500","municipality":"Cabrerizos","province":"SALAMANCA","postalCode":"37193","schedule":"L-S: 07:00-22:00; D: 08:00-22:00","fuels":{"gasoline95":1.759,"diesel":1.919,"dieselPremium":2.039},"extra":{"saleType":"P","margin":"D","reportingType":"dm","ideess":"10071","idMunicipio":"5389","idProvincia":"37","idCCAA":"08"}}},{"type":"Feature","geometry":{"type":"Point","coordinates":[-5.627389,40.933028]},"properties":{"id":"es-10162","source":"ES","brand":"SHELL","address":"CARRETERA C-510 KM. 1,3","municipality":"Santa Marta de Tormes","province":"SALAMANCA","postalCode":"37900","schedule":"L-D: 06:00-00:00","fuels":{"gasoline95":1.729,"gasoline98":1.869,"diesel":1.844,"dieselPremium":1.924},"extra":{"saleType":"P","margin":"N","reportingType":"OM","ideess":"10162","idMunicipio":"5606","idProvincia":"37","idCCAA":"08"}}},{"type":"Feature","geometry":{"type":"Point","coordinates":[-5.850333,40.111694]},"properties":{"id":"es-10277","source":"ES","brand":"COOP. SAN JOSE","address":"PASEO LA FERIA, S/N","municipality":"Piornal","province":"CÁCERES","postalCode":"10615","schedule":"L-D: 24H","fuels":{"gasoline95":1.556,"diesel":1.699,"dieselB":1.336},"extra":{"saleType":"P","margin":"D","reportingType":"dm","ideess":"10277","idMunicipio":"1688","idProvincia":"10","idCCAA":"11"}}},{"type":"Feature","geometry":{"type":"Point","coordinates":[-5.908972,40.107028]},"properties":{"id":"es-10524","source":"ES","brand":"SAN ROQUE","address":"AVENIDA ASPERILLAS, 45","municipality":"Casas del Castañar","province":"CÁCERES","postalCode":"10616","schedule":"L-D: 24H","fuels":{"diesel":1.83,"dieselB":1.28},"extra":{"saleType":"P","margin":"N","reportingType":"dm","ideess":"10524","idMunicipio":"1598","idProvincia":"10","idCCAA":"11"}}},{"type":"Feature","geometry":{"type":"Point","coordinates":[-5.433389,40.132694]},"properties":{"id":"es-11033","source":"ES","brand":"REPSOL","address":"CARRETERA EX-203 KM. 74,000","municipality":"Villanueva de la Vera","province":"CÁCERES","postalCode":"10470","schedule":"L-D: 07:00-22:00","fuels":{"gasoline95":1.779,"gasoline98":1.959,"diesel":1.985,"dieselRenewable":2.105},"extra":{"saleType":"P","margin":"I","reportingType":"dm","ideess":"11033","idMunicipio":"1754","idProvincia":"10","idCCAA":"11"}}},{"type":"Feature","geometry":{"type":"Point","coordinates":[-5.034083,40.575056]},"properties":{"id":"es-11237","source":"ES","brand":"E.S \"EL CARRASCAL\"","address":"CARRETERA AVILA PLASENCIA KM. 286","municipality":"Muñana","province":"ÁVILA","postalCode":"05540","schedule":"L-D: 24H","fuels":{"gasoline95":1.629,"gasoline98":1.779,"diesel":1.719},"extra":{"saleType":"P","margin":"I","reportingType":"dm","ideess":"11237","idMunicipio":"502","idProvincia":"05","idCCAA":"08"}}},{"type":"Feature","geometry":{"type":"Point","coordinates":[-5.65575,40.894278]},"properties":{"id":"es-11418","source":"ES","brand":"REPSOL","address":"AUTOVIA A-66 KM. 348","municipality":"Arapiles","province":"SALAMANCA","postalCode":"37796","schedule":"L-D: 24H","fuels":{"gasoline95":1.766,"gasoline98":1.926,"diesel":1.93,"dieselRenewable":2.05},"extra":{"saleType":"P","margin":"I","reportingType":"OM","ideess":"11418","idMunicipio":"5360","idProvincia":"37","idCCAA":"08"}}},{"type":"Feature","geometry":{"type":"Point","coordinates":[-5.544194,40.981639]},"properties":{"id":"es-11439","source":"ES","brand":"SIS CARBURANTES","address":"CARRETERA AVDA SALAMANCA 52-56 KM. 9,800","municipality":"Aldealengua","province":"SALAMANCA","postalCode":"37350","schedule":"L-D: 07:00-22:00","fuels":{"gasoline95":1.659,"diesel":1.829,"dieselPremium":1.959},"extra":{"saleType":"P","margin":"D","reportingType":"dm","ideess":"11439","idMunicipio":"5344","idProvincia":"37","idCCAA":"08"}}},{"type":"Feature","geometry":{"type":"Point","coordinates":[-5.655556,40.939694]},"properties":{"id":"es-11580","source":"ES","brand":"REPSOL","address":"CALLE SEGUNDA, 9","municipality":"Carbajosa de la Sagrada","province":"SALAMANCA","postalCode":"37188","schedule":"L-D: 24H","fuels":{"gasoline95":1.77,"gasoline98":1.9,"diesel":1.93,"dieselRenewable":2.05,"lpg":1.139},"extra":{"saleType":"P","margin":"I","reportingType":"OM","ideess":"11580","idMunicipio":"5404","idProvincia":"37","idCCAA":"08"}}},{"type":"Feature","geometry":{"type":"Point","coordinates":[-5.808361,40.931417]},"properties":{"id":"es-11610","source":"ES","brand":"EESS GASOLIVIA","address":"CARRETERA BURGOS A PORTUGAL KM. 251","municipality":"Galindo y Perahuy","province":"SALAMANCA","postalCode":"37449","schedule":"L-D: 24H","fuels":{"gasoline95":1.659,"diesel":1.819,"adblue":1.0},"extra":{"saleType":"P","margin":"I","reportingType":"dm","ideess":"11610","idMunicipio":"5457","idProvincia":"37","idCCAA":"08"}}},{"type":"Feature","geometry":{"type":"Point","coordinates":[-5.622639,40.660556]},"properties":{"id":"es-11850","source":"ES","brand":"CEPSA","address":"AUTOVIA A-66 KM. 375","municipality":"Montejo","province":"SALAMANCA","postalCode":"37795","schedule":"L-D: 24H","fuels":{"gasoline95":1.789,"gasoline98":1.949,"diesel":1.929,"dieselPremium":2.009,"adblue":0.89},"extra":{"saleType":"P","margin":"I","reportingType":"dm","ideess":"11850","idMunicipio":"5513","idProvincia":"37","idCCAA":"08"}}},{"type":"Feature","geometry":{"type":"Point","coordinates":[-5.982778,40.878056]},"properties":{"id":"es-11883","source":"ES","brand":"REPSOL","address":"AUTOVIA A-62 KM. 269","municipality":"Robliza de Cojos","province":"SALAMANCA","postalCode":"37130","schedule":"L-D: 24H","fuels":{"gasoline95":1.845,"gasoline98":2.025,"diesel":1.979,"dieselPremium":2.059,"dieselB":1.659},"extra":{"saleType":"P","margin":"D","reportingType":"dm","ideess":"11883","idMunicipio":"5580","idProvincia":"37","idCCAA":"08"}}},{"type":"Feature","geometry":{"type":"Point","coordinates":[-5.676194,40.548194]},"properties":{"id":"es-12242","source":"ES","brand":"AREA DE SERVICIOS Y TRANSPORTES GUIJUELO SL","address":"CALLE FILIBERTO VILLALOBOS, 4","municipality":"Guijuelo","province":"SALAMANCA","postalCode":"37770","schedule":"L-D: 24H","fuels":{"gasoline95":1.705,"diesel":1.89,"adblue":0.869},"extra":{"saleType":"P","margin":"I","reportingType":"dm","ideess":"12242","idMunicipio":"5470","idProvincia":"37","idCCAA":"08"}}},{"type":"Feature","geometry":{"type":"Point","coordinates":[-5.948556,40.134556]},"properties":{"id":"es-12367","source":"ES","brand":"SDAD COOP SAN LUCAS DEL TORNO","address":"CARRETERA EL TORNO - CABEZABELLOSA KM. 0,800","municipality":"Torno (El)","province":"CÁCERES","postalCode":"10617","schedule":"L-D: 24H","fuels":{"diesel":1.659,"dieselB":1.253},"extra":{"saleType":"P","margin":"I","reportingType":"dm","ideess":"12367","idMunicipio":"1726","idProvincia":"10","idCCAA":"11"}}},{"type":"Feature","geometry":{"type":"Point","coordinates":[-5.698333,40.962222]},"properties":{"id":"es-12572","source":"ES","brand":"REPSOL","address":"CALLE ANTONIO LOPEZ BORRASCA, 2","municipality":"Salamanca","province":"SALAMANCA","postalCode":"37007","schedule":"L-D: 07:00-23:00","fuels":{"gasoline95":1.76,"gasoline98":1.92,"diesel":1.916,"dieselRenewable":2.036,"lpg":1.115},"extra":{"saleType":"P","margin":"D","reportingType":"OM","ideess":"12572","idMunicipio":"5585","idProvincia":"37","idCCAA":"08"}}},{"type":"Feature","geometry":{"type":"Point","coordinates":[-5.662417,40.895833]},"properties":{"id":"es-12672","source":"ES","brand":"REPSOL","address":"CARRETERA SA-CV-70 KM. 1,650","municipality":"Arapiles","province":"SALAMANCA","postalCode":"37796","schedule":"L-D: 07:00-23:00","fuels":{"gasoline95":1.766,"gasoline98":1.926,"diesel":1.93,"dieselPremium":2.05,"lpg":1.115},"extra":{"saleType":"P","margin":"D","reportingType":"OM","ideess":"12672","idMunicipio":"5360","idProvincia":"37","idCCAA":"08"}}},{"type":"Feature","geometry":{"type":"Point","coordinates":[-5.728083,40.959306]},"properties":{"id":"es-12717","source":"ES","brand":"LOW COST CARBURANTES","address":"CARRETERA CL-517 SALAMANCA-VITIGUDINO KM. 1,1","municipality":"Salamanca","province":"SALAMANCA","postalCode":"37009","schedule":"L-D: 24H","fuels":{"gasoline95":1.609,"diesel":1.699},"extra":{"saleType":"P","margin":"D","reportingType":"dm","ideess":"12717","idMunicipio":"5585","idProvincia":"37","idCCAA":"08"}}},{"type":"Feature","geometry":{"type":"Point","coordinates":[-5.649972,40.996]},"properties":{"id":"es-12859","source":"ES","brand":"USC","address":"AVENIDA FUENTESAUCO, S/N","municipality":"Villares de la Reina","province":"SALAMANCA","postalCode":"37184","schedule":"L-D: 24H","fuels":{"gasoline95":1.659,"diesel":1.679,"adblue":0.85},"extra":{"saleType":"P","margin":"D","reportingType":"dm","ideess":"12859","idMunicipio":"5669","idProvincia":"37","idCCAA":"08"}}},{"type":"Feature","geometry":{"type":"Point","coordinates":[-5.877861,40.142806]},"properties":{"id":"es-12904","source":"ES","brand":"AGRUPACION COOP. VALLE DEL JERTE","address":"CARRETERA NACIONAL 110 KM. 381,000","municipality":"Valdastillas","province":"CÁCERES","postalCode":"10614","schedule":"L-D: 24H","fuels":{"gasoline95":1.525,"diesel":1.668},"extra":{"saleType":"P","margin":"I","reportingType":"dm","ideess":"12904","idMunicipio":"1738","idProvincia":"10","idCCAA":"11"}}},{"type":"Feature","geometry":{"type":"Point","coordinates":[-5.747278,40.059528]},"properties":{"id":"es-13176","source":"ES","brand":"PETROL STATION","address":"CALLE HERNAN CORTES, 84","municipality":"Jaraíz de la Vera","province":"CÁCERES","postalCode":"10400","schedule":"L-D: 24H","fuels":{"gasoline95":1.599,"diesel":1.739},"extra":{"saleType":"P","margin":"D","reportingType":"dm","ideess":"13176","idMunicipio":"1645","idProvincia":"10","idCCAA":"11"}}},{"type":"Feature","geometry":{"type":"Point","coordinates":[-5.652056,40.942056]},"properties":{"id":"es-13300","source":"ES","brand":"GMOIL","address":"CALLE PRIMERA, S/N","municipality":"Carbajosa de la Sagrada","province":"SALAMANCA","postalCode":"37188","schedule":"L-D: 24H","fuels":{"gasoline95":1.539,"diesel":1.639},"extra":{"saleType":"P","margin":"D","reportingType":"dm","ideess":"13300","idMunicipio":"5404","idProvincia":"37","idCCAA":"08"}}},{"type":"Feature","geometry":{"type":"Point","coordinates":[-5.830778,40.04375]},"properties":{"id":"es-13303","source":"ES","brand":"ESTACION SERVICIO NTRA SRA DE LA BLANCA","address":"CARRETERA PASARON ARROYOMOLINOS DE LA VERA KM. 1,5","municipality":"Pasarón de la Vera","province":"CÁCERES","postalCode":"10411","schedule":"L-D: 24H","fuels":{"gasoline95":1.559,"diesel":1.619},"extra":{"saleType":"P","margin":"D","reportingType":"dm","ideess":"13303","idMunicipio":"1679","idProvincia":"10","idCCAA":"11"}}},{"type":"Feature","geometry":{"type":"Point","coordinates":[-5.6805,40.942056]},"properties":{"id":"es-13379","source":"ES","brand":"REPSOL SALAMANCA","address":"CALLE ANTONIO GAUDI, 1","municipality":"Aldeatejada","province":"SALAMANCA","postalCode":"37187","schedule":"L-D: 24H","fuels":{"gasoline95":1.74,"gasoline98":1.92,"diesel":1.91,"dieselPremium":2.03},"extra":{"saleType":"P","margin":"D","reportingType":"OM","ideess":"13379","idMunicipio":"5351","idProvincia":"37","idCCAA":"08"}}},{"type":"Feature","geometry":{"type":"Point","coordinates":[-5.507583,40.919972]},"properties":{"id":"es-13754","source":"ES","brand":"CEPSA","address":"AUTOVIA A50 KM. 86,700","municipality":"Machacón","province":"SALAMANCA","postalCode":"37893","schedule":"L: 07:00-23:00","fuels":{"gasoline95":1.779,"gasoline98":1.959,"diesel":1.929,"dieselPremium":2.029},"extra":{"saleType":"P","margin":"D","reportingType":"dm","ideess":"13754","idMunicipio":"5488","idProvincia":"37","idCCAA":"08"}}},{"type":"Feature","geometry":{"type":"Point","coordinates":[-5.639028,40.993139]},"properties":{"id":"es-13814","source":"ES","brand":"BALLENOIL","address":"CARRETERA VALLADOLID KM. 85","municipality":"Villares de la Reina","province":"SALAMANCA","postalCode":"37184","schedule":"L-D: 24H","fuels":{"gasoline95":1.649,"diesel":1.679},"extra":{"saleType":"P","margin":"D","reportingType":"OM","ideess":"13814","idMunicipio":"5669","idProvincia":"37","idCCAA":"08"}}},{"type":"Feature","geometry":{"type":"Point","coordinates":[-5.638056,40.99775]},"properties":{"id":"es-13865","source":"ES","brand":"ECU VILLARES","address":"CAMINO CABRERIZOS, 55","municipality":"Villares de la Reina","province":"SALAMANCA","postalCode":"37184","schedule":"L-D: 24H","fuels":{"gasoline95":1.649,"diesel":1.709,"adblue":0.85},"extra":{"saleType":"P","margin":"D","reportingType":"dm","ideess":"13865","idMunicipio":"5669","idProvincia":"37","idCCAA":"08"}}},{"type":"Feature","geometry":{"type":"Point","coordinates":[-5.656889,40.938306]},"properties":{"id":"es-14373","source":"ES","brand":"EURONOR ENERGY","address":"CALLE VERTICAL V, 20","municipality":"Carbajosa de la Sagrada","province":"SALAMANCA","postalCode":"37188","schedule":"L-D: 24H","fuels":{"gasoline95":1.589,"diesel":1.649},"extra":{"saleType":"P","margin":"D","reportingType":"dm","ideess":"14373","idMunicipio":"5404","idProvincia":"37","idCCAA":"08"}}},{"type":"Feature","geometry":{"type":"Point","coordinates":[-5.20475,40.91125]},"properties":{"id":"es-14564","source":"ES","brand":"AN ENERGETICOS - PEÑARANDA","address":"CAMINO CAMINO DEL VILLAR, 0","municipality":"Peñaranda de Bracamonte","province":"SALAMANCA","postalCode":"37300","schedule":"L-D: 24H","fuels":{"gasoline95":1.549,"diesel":1.669,"dieselB":1.469,"adblue":0.705},"extra":{"saleType":"P","margin":"N","reportingType":"dm","ideess":"14564","idMunicipio":"5556","idProvincia":"37","idCCAA":"08"}}},{"type":"Feature","geometry":{"type":"Point","coordinates":[-5.654611,40.93725]},"properties":{"id":"es-14631","source":"ES","brand":"NATURGY ES SALAMANCA-BECONSA","address":"CALLE VERTICAL TERCERA, 4 - 6 POL. IND. EL MONTALVO III, 4","municipality":"Carbajosa de la Sagrada","province":"SALAMANCA","postalCode":"37188","schedule":"L-D: 24H","fuels":{"cng":1.599,"lng":1.499},"extra":{"saleType":"P","margin":"D","reportingType":"dm","ideess":"14631","idMunicipio":"5404","idProvincia":"37","idCCAA":"08"}}},{"type":"Feature","geometry":{"type":"Point","coordinates":[-5.655139,40.943306]},"properties":{"id":"es-14803","source":"ES","brand":"BALLENOIL","address":"CALLE NEWTON, 13","municipality":"Carbajosa de la Sagrada","province":"SALAMANCA","postalCode":"37188","schedule":"L-D: 24H","fuels":{"gasoline95":1.599,"diesel":1.639,"dieselPremium":1.659},"extra":{"saleType":"P","margin":"D","reportingType":"OM","ideess":"14803","idMunicipio":"5404","idProvincia":"37","idCCAA":"08"}}},{"type":"Feature","geometry":{"type":"Point","coordinates":[-5.656194,40.945528]},"properties":{"id":"es-14823","source":"ES","brand":"PETROPRIX","address":"AVENIDA DE CARBAJOSA LA SAGRADA, 13","municipality":"Carbajosa de la Sagrada","province":"SALAMANCA","postalCode":"37188","schedule":"L-D: 24H","fuels":{"gasoline95":1.599,"diesel":1.639},"extra":{"saleType":"P","margin":"I","reportingType":"dm","ideess":"14823","idMunicipio":"5404","idProvincia":"37","idCCAA":"08"}}},{"type":"Feature","geometry":{"type":"Point","coordinates":[-5.667972,40.567472]},"properties":{"id":"es-14826","source":"ES","brand":"IBERFUEL","address":"CALLE RIO DUERO, 12","municipality":"Guijuelo","province":"SALAMANCA","postalCode":"37770","schedule":"L-D: 24H","fuels":{"gasoline95Premium":1.699,"diesel":1.799,"dieselPremium":1.799},"extra":{"saleType":"P","margin":"D","reportingType":"dm","ideess":"14826","idMunicipio":"5470","idProvincia":"37","idCCAA":"08"}}},{"type":"Feature","geometry":{"type":"Point","coordinates":[-5.649389,40.951778]},"properties":{"id":"es-14901","source":"ES","brand":"MOEVE","address":"CALLE CARRETERA DE MADRID, 19","municipality":"Santa Marta de Tormes","province":"SALAMANCA","postalCode":"37900","schedule":"L-D: 07:00-23:59","fuels":{"gasoline95":1.759,"gasoline95Premium":1.859,"diesel":1.919,"dieselPremium":1.989,"lpg":1.189},"extra":{"saleType":"P","margin":"D","reportingType":"OM","ideess":"14901","idMunicipio":"5606","idProvincia":"37","idCCAA":"08"}}},{"type":"Feature","geometry":{"type":"Point","coordinates":[-5.650361,40.951917]},"properties":{"id":"es-14918","source":"ES","brand":"SUPECO","address":"AVENIDA PADRES PAULES, S/N","municipality":"Santa Marta de Tormes","province":"SALAMANCA","postalCode":"37900","schedule":"L-D: 24H","fuels":{"gasoline95":1.609,"diesel":1.659},"extra":{"saleType":"P","margin":"N","reportingType":"dm","ideess":"14918","idMunicipio":"5606","idProvincia":"37","idCCAA":"08"}}},{"type":"Feature","geometry":{"type":"Point","coordinates":[-5.648583,40.951611]},"properties":{"id":"es-14928","source":"ES","brand":"BALLENOIL","address":"AVENIDA PADRES PAULES, 35","municipality":"Santa Marta de Tormes","province":"SALAMANCA","postalCode":"37900","schedule":"L-D: 24H","fuels":{"gasoline95":1.599,"diesel":1.639},"extra":{"saleType":"P","margin":"D","reportingType":"OM","ideess":"14928","idMunicipio":"5606","idProvincia":"37","idCCAA":"08"}}},{"type":"Feature","geometry":{"type":"Point","coordinates":[-5.534944,40.080528]},"properties":{"id":"es-15034","source":"ES","brand":"CARBURANTES COOLOSAR","address":"DISEMINADO EL ROBLEDO, S/N","municipality":"Losar de la Vera","province":"CÁCERES","postalCode":"10460","schedule":"L-D: 24H","fuels":{"gasoline95":1.499,"diesel":1.659,"dieselB":1.439},"extra":{"saleType":"P","margin":"D","reportingType":"dm","ideess":"15034","idMunicipio":"1651","idProvincia":"10","idCCAA":"11"}}},{"type":"Feature","geometry":{"type":"Point","coordinates":[-5.727167,40.959333]},"properties":{"id":"es-15219","source":"ES","brand":"HAM","address":"CALLE PUERTO DE GOTEMBURGO, 1342","municipality":"Salamanca","province":"SALAMANCA","postalCode":"37008","schedule":"L-D: 24H","fuels":{"cng":1.574,"lng":1.529,"bioCng":1.554,"bioLng":1.499},"extra":{"saleType":"P","margin":"D","reportingType":"dm","ideess":"15219","idMunicipio":"5585","idProvincia":"37","idCCAA":"08"}}},{"type":"Feature","geometry":{"type":"Point","coordinates":[-5.095917,40.207083]},"properties":{"id":"es-15239","source":"ES","brand":"PETROSTAR ENERGÍA","address":"CALLE CANDELEDA, 25","municipality":"Arenas de San Pedro","province":"ÁVILA","postalCode":"05400","schedule":"L-D: 24H","fuels":{"gasoline95":1.609,"diesel":1.729},"extra":{"saleType":"P","margin":"I","reportingType":"dm","ideess":"15239","idMunicipio":"390","idProvincia":"05","idCCAA":"08"}}},{"type":"Feature","geometry":{"type":"Point","coordinates":[-5.649694,40.95875]},"properties":{"id":"es-15790","source":"ES","brand":"PLENERGY","address":"CALLE ALDEHUELA, 86","municipality":"Salamanca","province":"SALAMANCA","postalCode":"37003","schedule":"L-D: 24H","fuels":{"gasoline95":1.599,"diesel":1.639},"extra":{"saleType":"P","margin":"D","reportingType":"dm","ideess":"15790","idMunicipio":"5585","idProvincia":"37","idCCAA":"08"}}},{"type":"Feature","geometry":{"type":"Point","coordinates":[-5.777194,40.383944]},"properties":{"id":"es-15861","source":"ES","brand":"BEJAROIL","address":"CARRETERA DE LA ESTACION KM. 87","municipality":"Béjar","province":"SALAMANCA","postalCode":"37700","schedule":"L-D: 24H","fuels":{"gasoline95":1.665,"diesel":1.855,"dieselPremium":1.955,"adblue":0.89},"extra":{"saleType":"P","margin":"D","reportingType":"dm","ideess":"15861","idMunicipio":"5372","idProvincia":"37","idCCAA":"08"}}},{"type":"Feature","geometry":{"type":"Point","coordinates":[-5.646361,40.988556]},"properties":{"id":"es-16036","source":"ES","brand":"PLENERGY","address":"CARRETERA DE VALLADOLID KM. 1","municipality":"Villares de la Reina","province":"SALAMANCA","postalCode":"37184","schedule":"L-D: 24H","fuels":{"gasoline95":1.649,"diesel":1.679},"extra":{"saleType":"P","margin":"D","reportingType":"dm","ideess":"16036","idMunicipio":"5669","idProvincia":"37","idCCAA":"08"}}},{"type":"Feature","geometry":{"type":"Point","coordinates":[-5.654556,40.940278]},"properties":{"id":"es-16100","source":"ES","brand":"PLENERGY","address":"CALLE SALAMANCA, 44","municipality":"Carbajosa de la Sagrada","province":"SALAMANCA","postalCode":"37188","schedule":"L-D: 24H","fuels":{"gasoline95":1.599,"diesel":1.639},"extra":{"saleType":"P","margin":"D","reportingType":"dm","ideess":"16100","idMunicipio":"5404","idProvincia":"37","idCCAA":"08"}}},{"type":"Feature","geometry":{"type":"Point","coordinates":[-5.683583,40.938972]},"properties":{"id":"es-16114","source":"ES","brand":"PLENERGY","address":"CALLE DISEMINADO PEÑASCAL, S/N","municipality":"Salamanca","province":"SALAMANCA","postalCode":"37008","schedule":"L-D: 24H","fuels":{"gasoline95":1.619,"diesel":1.659},"extra":{"saleType":"P","margin":"D","reportingType":"dm","ideess":"16114","idMunicipio":"5585","idProvincia":"37","idCCAA":"08"}}},{"type":"Feature","geometry":{"type":"Point","coordinates":[-5.20075,40.892306]},"properties":{"id":"es-16208","source":"ES","brand":"HIDRO&GAR.2","address":"CALLE CARRETEROS, 14","municipality":"Peñaranda de Bracamonte","province":"SALAMANCA","postalCode":"37300","schedule":"L: 24H","fuels":{"gasoline95":1.579,"diesel":1.699},"extra":{"saleType":"P","margin":"D","reportingType":"dm","ideess":"16208","idMunicipio":"5556","idProvincia":"37","idCCAA":"08"}}},{"type":"Feature","geometry":{"type":"Point","coordinates":[-5.2815,40.831]},"properties":{"id":"es-16420","source":"ES","brand":"PETRONOR","address":"CALLE SAN GREGORIO, 21","municipality":"Macotera","province":"SALAMANCA","postalCode":"37310","schedule":"L-D: 07:00-23:00","fuels":{"gasoline95":1.785,"gasoline98":1.785,"diesel":1.935,"dieselPremium":2.055},"extra":{"saleType":"P","margin":"D","reportingType":"dm","ideess":"16420","idMunicipio":"5489","idProvincia":"37","idCCAA":"08"}}},{"type":"Feature","geometry":{"type":"Point","coordinates":[-5.203889,40.900528]},"properties":{"id":"es-405","source":"ES","brand":"MONTE LA REINA","address":"CARRETERA CAÑIZAL PIEDRAHITA KM. 38,20","municipality":"Peñaranda de Bracamonte","province":"SALAMANCA","postalCode":"37300","schedule":"L-D: 24H","fuels":{"gasoline95":1.554,"gasoline98":1.668,"diesel":1.69,"dieselPremium":1.805,"adblue":0.696},"extra":{"saleType":"P","margin":"N","reportingType":"dm","ideess":"405","idMunicipio":"5556","idProvincia":"37","idCCAA":"08"}}},{"type":"Feature","geometry":{"type":"Point","coordinates":[-5.58675,40.894167]},"properties":{"id":"es-4741","source":"ES","brand":"EL TREBOL","address":"*EL TREBOL* CR.ALBA DE TORMES-PIEDRAHITA  KM 5.200 km 8,7","municipality":"Calvarrasa de Arriba","province":"SALAMANCA","postalCode":"37191","schedule":"L-S: 07:00-22:00; D: 08:00-22:00","fuels":{"gasoline95":1.759,"gasoline98":1.878,"diesel":1.879,"dieselPremium":1.937,"dieselB":1.655},"extra":{"saleType":"P","margin":"D","reportingType":"dm","ideess":"4741","idMunicipio":"5392","idProvincia":"37","idCCAA":"08"}}},{"type":"Feature","geometry":{"type":"Point","coordinates":[-5.419694,40.766778]},"properties":{"id":"es-4746","source":"ES","brand":"LIBRE","address":"AVENIDA PAZ, 1","municipality":"Valdecarros","province":"SALAMANCA","postalCode":"37881","schedule":"L-D: 24H","fuels":{"gasoline95":1.669,"diesel":1.779,"dieselPremium":1.839},"extra":{"saleType":"P","margin":"D","reportingType":"dm","ideess":"4746","idMunicipio":"5638","idProvincia":"37","idCCAA":"08"}}},{"type":"Feature","geometry":{"type":"Point","coordinates":[-5.877528,40.777472]},"properties":{"id":"es-4747","source":"ES","brand":"EL TREBOL","address":"(EL TREBOL) AVD. JOSE ANTONIO Nº 7 (SALAMANCA-CORIA km 30,4)","municipality":"Vecinos","province":"SALAMANCA","postalCode":"37450","schedule":"L-S: 07:00-22:00; D: 08:00-22:00","fuels":{"gasoline95":1.759,"gasoline98":1.878,"diesel":1.879,"dieselPremium":1.937,"dieselB":1.655},"extra":{"saleType":"P","margin":"D","reportingType":"dm","ideess":"4747","idMunicipio":"5652","idProvincia":"37","idCCAA":"08"}}},{"type":"Feature","geometry":{"type":"Point","coordinates":[-5.133889,40.35975]},"properties":{"id":"es-4914","source":"ES","brand":"E.S GREDOS","address":"CALLE BONAL, S/N","municipality":"Navarredonda de Gredos","province":"ÁVILA","postalCode":"05635","schedule":"L: 08:00-21:00","fuels":{"gasoline95":1.709,"gasoline98":1.819,"diesel":1.849,"dieselPremium":1.949},"extra":{"saleType":"P","margin":"D","reportingType":"dm","ideess":"4914","idMunicipio":"529","idProvincia":"05","idCCAA":"08"}}},{"type":"Feature","geometry":{"type":"Point","coordinates":[-5.516528,40.3585]},"properties":{"id":"es-4919","source":"ES","brand":"BELLAVISTA S.L.","address":"CARRETERA NACIONAL 110 KM. 335,2","municipality":"Barco de Ávila (El)","province":"ÁVILA","postalCode":"05600","schedule":"L-D: 07:00-23:00","fuels":{"gasoline95":1.689,"gasoline98":1.789,"diesel":1.729,"dieselPremium":1.809},"extra":{"saleType":"P","margin":"D","reportingType":"dm","ideess":"4919","idMunicipio":"396","idProvincia":"05","idCCAA":"08"}}},{"type":"Feature","geometry":{"type":"Point","coordinates":[-5.044083,40.182917]},"properties":{"id":"es-4935","source":"ES","brand":"FERNANDEZ BERMEJO","address":"CARRETERA AVILA-CORDOBA KM. 77","municipality":"Arenas de San Pedro","province":"ÁVILA","postalCode":"05418","schedule":"L-D: 07:00-22:30","fuels":{"gasoline95":1.649,"gasoline98":1.739,"diesel":1.779,"dieselPremium":1.809,"dieselB":1.49},"extra":{"saleType":"P","margin":"I","reportingType":"dm","ideess":"4935","idMunicipio":"390","idProvincia":"05","idCCAA":"08"}}},{"type":"Feature","geometry":{"type":"Point","coordinates":[-5.079611,40.209]},"properties":{"id":"es-4939","source":"ES","brand":"FERNANDEZ BERMEJO","address":"AVDA. DE LA CONSTITUCION, 54","municipality":"Arenas de San Pedro","province":"ÁVILA","postalCode":"05400","schedule":"L-D: 07:00-23:00","fuels":{"gasoline95":1.649,"gasoline98":1.739,"diesel":1.779,"dieselPremium":1.809},"extra":{"saleType":"P","margin":"I","reportingType":"dm","ideess":"4939","idMunicipio":"390","idProvincia":"05","idCCAA":"08"}}},{"type":"Feature","geometry":{"type":"Point","coordinates":[-5.67275,40.955806]},"properties":{"id":"es-4952","source":"ES","brand":"EL TREBOL","address":"(EL TREBOL) CTRA. FREGENEDA Nº 12-22 SALAMANCA","municipality":"Salamanca","province":"SALAMANCA","postalCode":"37008","schedule":"L-S: 07:00-22:00; D: 08:00-22:00","fuels":{"gasoline95":1.759,"gasoline98":1.878,"diesel":1.879,"dieselPremium":1.937,"dieselB":1.655,"adblue":0.999},"extra":{"saleType":"P","margin":"N","reportingType":"dm","ideess":"4952","idMunicipio":"5585","idProvincia":"37","idCCAA":"08"}}},{"type":"Feature","geometry":{"type":"Point","coordinates":[-5.682778,40.971194]},"properties":{"id":"es-4955","source":"ES","brand":"RONDA OESTE","address":"AVENIDA LUIS DE CAMOENS, 20","municipality":"Salamanca","province":"SALAMANCA","postalCode":"37007","schedule":"L-D: 07:00-23:00","fuels":{"gasoline95":1.597,"gasoline98":1.657,"diesel":1.698,"dieselPremium":1.797},"extra":{"saleType":"P","margin":"N","reportingType":"dm","ideess":"4955","idMunicipio":"5585","idProvincia":"37","idCCAA":"08"}}},{"type":"Feature","geometry":{"type":"Point","coordinates":[-5.664583,40.907306]},"properties":{"id":"es-4957","source":"ES","brand":"LAS TORRES","address":"CARRETERA N-630 KM. 347","municipality":"Arapiles","province":"SALAMANCA","postalCode":"37796","schedule":"L-V: 08:00-13:00","fuels":{"gasoline95":1.685,"gasoline98":1.855,"diesel":1.839},"extra":{"saleType":"P","margin":"I","reportingType":"dm","ideess":"4957","idMunicipio":"5360","idProvincia":"37","idCCAA":"08"}}},{"type":"Feature","geometry":{"type":"Point","coordinates":[-5.245833,40.154556]},"properties":{"id":"es-4988","source":"ES","brand":"CEPSA","address":"AVENIDA AVIACIÓN ESPAÑOLA, 47","municipality":"Candeleda","province":"ÁVILA","postalCode":"05480","schedule":"L-D: 07:00-22:00","fuels":{"gasoline95":1.759,"gasoline98":1.889,"diesel":1.899,"dieselPremium":1.979,"dieselB":1.699},"extra":{"saleType":"P","margin":"I","reportingType":"dm","ideess":"4988","idMunicipio":"419","idProvincia":"05","idCCAA":"08"}}},{"type":"Feature","geometry":{"type":"Point","coordinates":[-5.339722,40.147556]},"properties":{"id":"es-5065","source":"ES","brand":"CEPSA","address":"C-501 km 8,6","municipality":"Candeleda","province":"ÁVILA","postalCode":"05480","schedule":"L-D: 07:00-23:00","fuels":{"gasoline95":1.739,"gasoline98":1.879,"diesel":1.869,"dieselB":1.649},"extra":{"saleType":"P","margin":"D","reportingType":"dm","ideess":"5065","idMunicipio":"419","idProvincia":"05","idCCAA":"08"}}},{"type":"Feature","geometry":{"type":"Point","coordinates":[-5.642222,40.946306]},"properties":{"id":"es-5512","source":"ES","brand":"E.LECLERC","address":"AVDA. E. LECLERC,   Nº2 (C.C. E.LECLERC)","municipality":"Carbajosa de la Sagrada","province":"SALAMANCA","postalCode":"37900","schedule":"L-D: 24H","fuels":{"gasoline95":1.598,"gasoline98":1.698,"diesel":1.698,"dieselPremium":1.798},"extra":{"saleType":"P","margin":"N","reportingType":"dm","ideess":"5512","idMunicipio":"5404","idProvincia":"37","idCCAA":"08"}}},{"type":"Feature","geometry":{"type":"Point","coordinates":[-5.014111,40.580417]},"properties":{"id":"es-5531","source":"ES","brand":"REPSOL","address":"CARRETERA N-110 SORIA-PLASENCIA KM. 284","municipality":"Muñana","province":"ÁVILA","postalCode":"05540","schedule":"L-V: 07:00-23:00; S-D: 08:00-23:00","fuels":{"gasoline95":1.739,"gasoline98":1.889,"diesel":1.885,"dieselPremium":1.979},"extra":{"saleType":"P","margin":"D","reportingType":"dm","ideess":"5531","idMunicipio":"502","idProvincia":"05","idCCAA":"08"}}},{"type":"Feature","geometry":{"type":"Point","coordinates":[-5.019667,40.705694]},"properties":{"id":"es-5543","source":"ES","brand":"PETRONOR","address":"CR AV-110, 29  D","municipality":"Muñico","province":"ÁVILA","postalCode":"05145","schedule":"L-D: 08:30-21:30","fuels":{"gasoline95":1.749,"diesel":1.849,"dieselPremium":1.909},"extra":{"saleType":"P","margin":"D","reportingType":"dm","ideess":"5543","idMunicipio":"503","idProvincia":"05","idCCAA":"08"}}},{"type":"Feature","geometry":{"type":"Point","coordinates":[-5.719194,40.113389]},"properties":{"id":"es-5815","source":"ES","brand":"(SIN RÓTULO)","address":"C-501 km 43","municipality":"Cuacos de Yuste","province":"CÁCERES","postalCode":"10430","schedule":"L-D: 07:00-22:00","fuels":{"gasoline95":1.719,"diesel":1.859},"extra":{"saleType":"P","margin":"I","reportingType":"dm","ideess":"5815","idMunicipio":"1610","idProvincia":"10","idCCAA":"11"}}},{"type":"Feature","geometry":{"type":"Point","coordinates":[-5.744667,40.051083]},"properties":{"id":"es-5893","source":"ES","brand":"CEPSA","address":"CARRETERA EX-392 KM. 16","municipality":"Jaraíz de la Vera","province":"CÁCERES","postalCode":"10400","schedule":"L-D: 07:00-21:00","fuels":{"gasoline95":1.786,"diesel":1.908,"dieselPremium":1.988},"extra":{"saleType":"P","margin":"I","reportingType":"dm","ideess":"5893","idMunicipio":"1645","idProvincia":"10","idCCAA":"11"}}},{"type":"Feature","geometry":{"type":"Point","coordinates":[-5.874333,40.017278]},"properties":{"id":"es-5898","source":"ES","brand":"REPSOL","address":"CR C-501, 22 (C-501 km 22,1)","municipality":"Tejeda de Tiétar","province":"CÁCERES","postalCode":"10420","schedule":"L: 06:00-22:00","fuels":{"gasoline95":1.786,"diesel":1.95,"dieselPremium":2.04},"extra":{"saleType":"P","margin":"I","reportingType":"OM","ideess":"5898","idMunicipio":"1723","idProvincia":"10","idCCAA":"11"}}},{"type":"Feature","geometry":{"type":"Point","coordinates":[-5.596611,40.049833]},"properties":{"id":"es-5907","source":"ES","brand":"REPSOL","address":" CR C904, KM 19.800, ","municipality":"Cuacos de Yuste","province":"CÁCERES","postalCode":"10430","schedule":"L-V: 09:00-20:00; S: 09:00-14:00","fuels":{"gasoline95":1.78,"diesel":1.946,"dieselPremium":2.066},"extra":{"saleType":"P","margin":"D","reportingType":"OM","ideess":"5907","idMunicipio":"1610","idProvincia":"10","idCCAA":"11"}}},{"type":"Feature","geometry":{"type":"Point","coordinates":[-5.7965,40.200778]},"properties":{"id":"es-5910","source":"ES","brand":"REPSOL","address":"CARRETERA N-110 KM. 370,800","municipality":"Cabezuela del Valle","province":"CÁCERES","postalCode":"10610","schedule":"L-D: 06:00-22:00","fuels":{"gasoline95":1.8,"diesel":1.95,"dieselPremium":2.04},"extra":{"saleType":"P","margin":"I","reportingType":"OM","ideess":"5910","idMunicipio":"1577","idProvincia":"10","idCCAA":"11"}}},{"type":"Feature","geometry":{"type":"Point","coordinates":[-5.73175,40.026194]},"properties":{"id":"es-5930","source":"ES","brand":"POCITO","address":"CR EX-203, 12,8","municipality":"Jaraíz de la Vera","province":"CÁCERES","postalCode":"10400","schedule":"L-D: 06:00-22:00","fuels":{"gasoline95":1.59,"diesel":1.729,"dieselB":1.22},"extra":{"saleType":"P","margin":"I","reportingType":"dm","ideess":"5930","idMunicipio":"1645","idProvincia":"10","idCCAA":"11"}}},{"type":"Feature","geometry":{"type":"Point","coordinates":[-5.909611,40.267611]},"properties":{"id":"es-5936","source":"ES","brand":"REPSOL","address":"CR N-630, 435,8","municipality":"Aldeanueva del Camino","province":"CÁCERES","postalCode":"10740","schedule":"L: 07:00-11:00","fuels":{"gasoline95":1.8,"gasoline98":1.96,"diesel":1.966,"dieselPremium":2.086},"extra":{"saleType":"P","margin":"D","reportingType":"OM","ideess":"5936","idMunicipio":"1557","idProvincia":"10","idCCAA":"11"}}},{"type":"Feature","geometry":{"type":"Point","coordinates":[-5.662944,40.130417]},"properties":{"id":"es-5937","source":"ES","brand":"CEPSA","address":"CALLE SOLEDAD VEGA Y ORTIZ S/N (EX-203 km 47,8)","municipality":"Jarandilla de la Vera","province":"CÁCERES","postalCode":"10450","schedule":"L-D: 07:00-22:00","fuels":{"gasoline95":1.719,"gasoline98":1.839,"diesel":1.899,"dieselPremium":1.979,"dieselB":1.699},"extra":{"saleType":"P","margin":"I","reportingType":"dm","ideess":"5937","idMunicipio":"1646","idProvincia":"10","idCCAA":"11"}}},{"type":"Feature","geometry":{"type":"Point","coordinates":[-5.890833,40.136417]},"properties":{"id":"es-5950","source":"ES","brand":"REPSOL","address":"CARRETERA N-110 KM. 382,400","municipality":"Valdastillas","province":"CÁCERES","postalCode":"10614","schedule":"L-D: 06:00-22:00","fuels":{"gasoline95":1.836,"diesel":2.0},"extra":{"saleType":"P","margin":"I","reportingType":"OM","ideess":"5950","idMunicipio":"1738","idProvincia":"10","idCCAA":"11"}}},{"type":"Feature","geometry":{"type":"Point","coordinates":[-5.014611,40.263972]},"properties":{"id":"es-6044","source":"ES","brand":"REPSOL","address":"CALLE MAYOR, 56","municipality":"Mombeltrán","province":"ÁVILA","postalCode":"05410","schedule":"L-D: 06:00-22:00","fuels":{"gasoline95":1.869,"diesel":1.959,"dieselPremium":2.059},"extra":{"saleType":"P","margin":"I","reportingType":"dm","ideess":"6044","idMunicipio":"499","idProvincia":"05","idCCAA":"08"}}},{"type":"Feature","geometry":{"type":"Point","coordinates":[-5.642806,40.950889]},"properties":{"id":"es-6086","source":"ES","brand":"GALP","address":"CARRETERA N-501 KM14-16 KM. 14","municipality":"Santa Marta de Tormes","province":"SALAMANCA","postalCode":"37900","schedule":"L-D: 24H","fuels":{"gasoline95":1.729,"gasoline95Premium":1.779,"diesel":1.879,"dieselPremium":1.929,"adblue":0.799},"extra":{"saleType":"P","margin":"I","reportingType":"OM","ideess":"6086","idMunicipio":"5606","idProvincia":"37","idCCAA":"08"}}},{"type":"Feature","geometry":{"type":"Point","coordinates":[-5.918806,40.5795]},"properties":{"id":"es-6125","source":"ES","brand":"CEPSA","address":"CALLE JUAN CARLOS I, 71","municipality":"Linares de Riofrío","province":"SALAMANCA","postalCode":"37760","schedule":"L-V: 07:00-21:00; S: 07:30-21:00; D: 08:00-21:00","fuels":{"gasoline95":1.695,"gasoline95Premium":1.796,"diesel":1.879,"dieselPremium":1.947},"extra":{"saleType":"P","margin":"I","reportingType":"dm","ideess":"6125","idMunicipio":"5486","idProvincia":"37","idCCAA":"08"}}},{"type":"Feature","geometry":{"type":"Point","coordinates":[-5.849028,40.340806]},"properties":{"id":"es-6133","source":"ES","brand":"CEPSA","address":"CARRETERA N-630 KM. 423,90","municipality":"Puerto de Béjar","province":"SALAMANCA","postalCode":"37720","schedule":"L-D: 08:00-22:00","fuels":{"gasoline95":1.789,"gasoline98":1.959,"diesel":1.959,"dieselPremium":2.069,"adblue":0.89},"extra":{"saleType":"P","margin":"D","reportingType":"dm","ideess":"6133","idMunicipio":"5573","idProvincia":"37","idCCAA":"08"}}},{"type":"Feature","geometry":{"type":"Point","coordinates":[-5.632056,40.806417]},"properties":{"id":"es-6160","source":"ES","brand":"GALP","address":"CARRETERA N 630 KM. 359,2","municipality":"Buenavista","province":"SALAMANCA","postalCode":"37789","schedule":"L-D: 06:00-22:00","fuels":{"gasoline95":1.709,"diesel":1.869},"extra":{"saleType":"P","margin":"I","reportingType":"dm","ideess":"6160","idMunicipio":"5384","idProvincia":"37","idCCAA":"08"}}},{"type":"Feature","geometry":{"type":"Point","coordinates":[-5.644833,40.974056]},"properties":{"id":"es-6163","source":"ES","brand":"CEPSA","address":"CALZADA MEDINA, 81","municipality":"Salamanca","province":"SALAMANCA","postalCode":"37004","schedule":"L-D: 06:00-22:00","fuels":{"gasoline95":1.769,"gasoline95Premium":1.859,"diesel":1.949,"dieselPremium":2.009,"lpg":1.189},"extra":{"saleType":"P","margin":"I","reportingType":"OM","ideess":"6163","idMunicipio":"5585","idProvincia":"37","idCCAA":"08"}}},{"type":"Feature","geometry":{"type":"Point","coordinates":[-5.706917,40.955333]},"properties":{"id":"es-6170","source":"ES","brand":"REPSOL","address":"CARRETERA N-630 KM. 338","municipality":"Salamanca","province":"SALAMANCA","postalCode":"37008","schedule":"L-D: 24H","fuels":{"gasoline95":1.76,"gasoline98":1.93,"diesel":1.916,"dieselPremium":1.986},"extra":{"saleType":"P","margin":"D","reportingType":"OM","ideess":"6170","idMunicipio":"5585","idProvincia":"37","idCCAA":"08"}}},{"type":"Feature","geometry":{"type":"Point","coordinates":[-5.65325,40.957972]},"properties":{"id":"es-6205","source":"ES","brand":"REPSOL","address":"AVENIDA ALDEHUELA, 10","municipality":"Salamanca","province":"SALAMANCA","postalCode":"37008","schedule":"L-D: 07:00-23:00","fuels":{"gasoline95":1.739,"gasoline98":1.929,"diesel":1.869,"dieselPremium":1.939,"adblue":1.069},"extra":{"saleType":"P","margin":"D","reportingType":"dm","ideess":"6205","idMunicipio":"5585","idProvincia":"37","idCCAA":"08"}}},{"type":"Feature","geometry":{"type":"Point","coordinates":[-5.687889,40.989583]},"properties":{"id":"es-6206","source":"ES","brand":"REPSOL","address":"CR C-300 5,4","municipality":"Villamayor","province":"SALAMANCA","postalCode":"37185","schedule":"L-D: 07:00-23:00","fuels":{"gasoline95":1.76,"gasoline98":1.94,"diesel":1.92,"dieselRenewable":2.04},"extra":{"saleType":"P","margin":"D","reportingType":"OM","ideess":"6206","idMunicipio":"5661","idProvincia":"37","idCCAA":"08"}}},{"type":"Feature","geometry":{"type":"Point","coordinates":[-5.762306,40.384167]},"properties":{"id":"es-6208","source":"ES","brand":"REPSOL","address":"CL CRTA DE SALAMANCA, 3","municipality":"Béjar","province":"SALAMANCA","postalCode":"37700","schedule":"L-D: 24H","fuels":{"gasoline95":1.77,"gasoline98":1.95,"diesel":1.956,"dieselB":1.622,"dieselRenewable":2.076},"extra":{"saleType":"P","margin":"D","reportingType":"OM","ideess":"6208","idMunicipio":"5372","idProvincia":"37","idCCAA":"08"}}},{"type":"Feature","geometry":{"type":"Point","coordinates":[-5.610278,40.94975]},"properties":{"id":"es-6215","source":"ES","brand":"REPSOL","address":"CARRETERA MADRID KM. 89,4000","municipality":"Santa Marta de Tormes","province":"SALAMANCA","postalCode":"37900","schedule":"L-D: 07:00-23:00","fuels":{"gasoline95":1.77,"gasoline98":1.95,"diesel":1.93,"dieselRenewable":2.05},"extra":{"saleType":"P","margin":"D","reportingType":"OM","ideess":"6215","idMunicipio":"5606","idProvincia":"37","idCCAA":"08"}}},{"type":"Feature","geometry":{"type":"Point","coordinates":[-5.665667,40.957167]},"properties":{"id":"es-6254","source":"ES","brand":"REPSOL","address":"CALLE REYES DE ESPAÑA, 38","municipality":"Salamanca","province":"SALAMANCA","postalCode":"37008","schedule":"L-D: 07:00-23:00","fuels":{"gasoline95":1.76,"gasoline98":1.92,"diesel":1.916,"dieselPremium":1.996},"extra":{"saleType":"P","margin":"D","reportingType":"dm","ideess":"6254","idMunicipio":"5585","idProvincia":"37","idCCAA":"08"}}},{"type":"Feature","geometry":{"type":"Point","coordinates":[-5.693806,40.955306]},"properties":{"id":"es-6268","source":"ES","brand":"REPSOL","address":"AVENIDA LASALLE, 200","municipality":"Salamanca","province":"SALAMANCA","postalCode":"37008","schedule":"L-V: 07:00-22:00; S-D: 08:00-22:00","fuels":{"gasoline95":1.76,"gasoline98":1.91,"diesel":1.916,"dieselPremium":1.996},"extra":{"saleType":"P","margin":"D","reportingType":"OM","ideess":"6268","idMunicipio":"5585","idProvincia":"37","idCCAA":"08"}}},{"type":"Feature","geometry":{"type":"Point","coordinates":[-5.623083,40.70025]},"properties":{"id":"es-6284","source":"ES","brand":"REPSOL","address":"CTRA. N-630 KM 372, D","municipality":"Fresno Alhándiga","province":"SALAMANCA","postalCode":"37789","schedule":"L-D: 07:00-23:00","fuels":{"gasoline95":1.789,"gasoline98":1.949,"diesel":1.929,"dieselPremium":2.009,"adblue":0.959},"extra":{"saleType":"P","margin":"D","reportingType":"dm","ideess":"6284","idMunicipio":"5449","idProvincia":"37","idCCAA":"08"}}},{"type":"Feature","geometry":{"type":"Point","coordinates":[-5.622667,40.930222]},"properties":{"id":"es-6293","source":"ES","brand":"GALP","address":"CARRETERA CL-510 KM. 3,500","municipality":"Santa Marta de Tormes","province":"SALAMANCA","postalCode":"37900","schedule":"L-D: 07:00-23:00","fuels":{"gasoline95":1.729,"gasoline98":1.839,"diesel":1.879,"dieselPremium":1.929,"adblue":0.799},"extra":{"saleType":"P","margin":"D","reportingType":"OM","ideess":"6293","idMunicipio":"5606","idProvincia":"37","idCCAA":"08"}}},{"type":"Feature","geometry":{"type":"Point","coordinates":[-5.646389,40.98825]},"properties":{"id":"es-6300","source":"ES","brand":"REPSOL","address":"CL CTRA.VALLADOLIDPG.LOS VILLA 2   D","municipality":"Villares de la Reina","province":"SALAMANCA","postalCode":"37184","schedule":"L-D: 07:00-23:00","fuels":{"gasoline95":1.76,"gasoline98":1.94,"diesel":1.926,"dieselRenewable":2.046},"extra":{"saleType":"P","margin":"D","reportingType":"OM","ideess":"6300","idMunicipio":"5669","idProvincia":"37","idCCAA":"08"}}},{"type":"Feature","geometry":{"type":"Point","coordinates":[-5.515056,40.822417]},"properties":{"id":"es-6307","source":"ES","brand":"REPSOL","address":"CALLE JUAN PABLO II, 20","municipality":"Alba de Tormes","province":"SALAMANCA","postalCode":"37800","schedule":"L-D: 07:00-23:00","fuels":{"gasoline95":1.74,"diesel":1.956,"dieselPremium":2.066},"extra":{"saleType":"P","margin":"I","reportingType":"OM","ideess":"6307","idMunicipio":"5336","idProvincia":"37","idCCAA":"08"}}},{"type":"Feature","geometry":{"type":"Point","coordinates":[-5.67475,40.955]},"properties":{"id":"es-6311","source":"ES","brand":"REPSOL","address":"CL BA, CHAMBERÍ-CR FREGENEDA,45","municipality":"Salamanca","province":"SALAMANCA","postalCode":"37008","schedule":"L-D: 07:00-23:00","fuels":{"gasoline95":1.76,"gasoline98":1.92,"diesel":1.916,"dieselPremium":1.986},"extra":{"saleType":"P","margin":"D","reportingType":"OM","ideess":"6311","idMunicipio":"5585","idProvincia":"37","idCCAA":"08"}}},{"type":"Feature","geometry":{"type":"Point","coordinates":[-5.670556,40.564361]},"properties":{"id":"es-6317","source":"ES","brand":"REPSOL","address":"CALLE FILIBERTO VILLALOBOS, 215","municipality":"Guijuelo","province":"SALAMANCA","postalCode":"37770","schedule":"L-D: 06:00-22:00","fuels":{"gasoline95":1.77,"gasoline98":1.95,"diesel":1.956,"dieselRenewable":2.076},"extra":{"saleType":"P","margin":"D","reportingType":"OM","ideess":"6317","idMunicipio":"5470","idProvincia":"37","idCCAA":"08"}}},{"type":"Feature","geometry":{"type":"Point","coordinates":[-5.669944,40.94775]},"properties":{"id":"es-6331","source":"ES","brand":"REPSOL","address":"CARRETERA N-630 KM. 342","municipality":"Salamanca","province":"SALAMANCA","postalCode":"37008","schedule":"L-V: 06:00-23:00; S-D: 07:00-23:00","fuels":{"gasoline95":1.76,"gasoline98":1.92,"diesel":1.916,"dieselPremium":1.996,"lpg":1.115,"adblue":1.19},"extra":{"saleType":"P","margin":"D","reportingType":"dm","ideess":"6331","idMunicipio":"5585","idProvincia":"37","idCCAA":"08"}}},{"type":"Feature","geometry":{"type":"Point","coordinates":[-5.727361,40.951056]},"properties":{"id":"es-6337","source":"ES","brand":"REPSOL","address":"CARRETERA N 620 KM. 244","municipality":"Salamanca","province":"SALAMANCA","postalCode":"37008","schedule":"L-V: 07:30-21:30; S-D: 08:00-15:00","fuels":{"gasoline95":1.756,"diesel":1.92,"dieselPremium":2.04},"extra":{"saleType":"P","margin":"D","reportingType":"OM","ideess":"6337","idMunicipio":"5585","idProvincia":"37","idCCAA":"08"}}},{"type":"Feature","geometry":{"type":"Point","coordinates":[-5.279389,40.830472]},"properties":{"id":"es-6341","source":"ES","brand":"PETRONOR","address":"CALLE SAN GREGORIO, 21","municipality":"Macotera","province":"SALAMANCA","postalCode":"37310","schedule":"L-V: 08:30-20:30; S-D: 09:00-15:00","fuels":{"gasoline95":1.739,"gasoline98":1.919,"diesel":1.909,"dieselPremium":2.029},"extra":{"saleType":"P","margin":"D","reportingType":"dm","ideess":"6341","idMunicipio":"5489","idProvincia":"37","idCCAA":"08"}}},{"type":"Feature","geometry":{"type":"Point","coordinates":[-5.663167,40.978389]},"properties":{"id":"es-6350","source":"ES","brand":"REPSOL","address":"CL AVENIDA RAIMUNDO BORGOÑA, 48  I","municipality":"Salamanca","province":"SALAMANCA","postalCode":"37005","schedule":"L-D: 06:00-00:00","fuels":{"gasoline95":1.766,"gasoline95Premium":1.836,"gasoline98":1.896,"diesel":1.926,"dieselPremium":1.996,"lpg":1.139},"extra":{"saleType":"P","margin":"I","reportingType":"OM","ideess":"6350","idMunicipio":"5585","idProvincia":"37","idCCAA":"08"}}},{"type":"Feature","geometry":{"type":"Point","coordinates":[-5.658222,40.978944]},"properties":{"id":"es-6351","source":"ES","brand":"REPSOL","address":"CL AVDA. SAN AGUSTIN, 78","municipality":"Salamanca","province":"SALAMANCA","postalCode":"37005","schedule":"L-D: 07:00-23:00","fuels":{"gasoline95":1.766,"gasoline98":1.946,"diesel":1.92,"dieselPremium":1.99},"extra":{"saleType":"P","margin":"I","reportingType":"OM","ideess":"6351","idMunicipio":"5585","idProvincia":"37","idCCAA":"08"}}},{"type":"Feature","geometry":{"type":"Point","coordinates":[-5.750722,40.389556]},"properties":{"id":"es-6367","source":"ES","brand":"REPSOL","address":"CARRETERA N-630 KM. 412","municipality":"Béjar","province":"SALAMANCA","postalCode":"37700","schedule":"L-D: 07:00-23:00","fuels":{"gasoline95":1.77,"gasoline98":1.95,"diesel":1.956,"dieselRenewable":2.076},"extra":{"saleType":"P","margin":"D","reportingType":"OM","ideess":"6367","idMunicipio":"5372","idProvincia":"37","idCCAA":"08"}}},{"type":"Feature","geometry":{"type":"Point","coordinates":[-5.662806,40.969917]},"properties":{"id":"es-6380","source":"ES","brand":"REPSOL","address":"AVENIDA MIRAT, 40","municipality":"Salamanca","province":"SALAMANCA","postalCode":"37005","schedule":"L-D: 07:00-23:00","fuels":{"gasoline95":1.76,"diesel":1.92,"dieselPremium":2.04},"extra":{"saleType":"P","margin":"D","reportingType":"OM","ideess":"6380","idMunicipio":"5585","idProvincia":"37","idCCAA":"08"}}},{"type":"Feature","geometry":{"type":"Point","coordinates":[-5.555139,40.946028]},"properties":{"id":"es-6397","source":"ES","brand":"REPSOL","address":"CARRETERA N-501 KM. 84","municipality":"Calvarrasa de Abajo","province":"SALAMANCA","postalCode":"37181","schedule":"L-V: 07:00-22:00; S-D: 08:00-22:00","fuels":{"gasoline95":1.759,"gasoline98":1.929,"diesel":1.919,"dieselPremium":2.009,"adblue":0.97},"extra":{"saleType":"P","margin":"I","reportingType":"dm","ideess":"6397","idMunicipio":"5391","idProvincia":"37","idCCAA":"08"}}},{"type":"Feature","geometry":{"type":"Point","coordinates":[-5.656833,40.947361]},"properties":{"id":"es-6424","source":"ES","brand":"MOEVE","address":"AVENIDA CARBAJOSA, 10","municipality":"Carbajosa de la Sagrada","province":"SALAMANCA","postalCode":"37188","schedule":"L-D: 06:00-23:00","fuels":{"gasoline95":1.759,"gasoline95Premium":1.859,"diesel":1.919,"dieselPremium":1.989},"extra":{"saleType":"P","margin":"N","reportingType":"OM","ideess":"6424","idMunicipio":"5404","idProvincia":"37","idCCAA":"08"}}},{"type":"Feature","geometry":{"type":"Point","coordinates":[-5.858028,40.319167]},"properties":{"id":"es-7523","source":"ES","brand":"REPSOL","address":"AVENIDA DE LAS TERMAS, 48","municipality":"Baños de Montemayor","province":"CÁCERES","postalCode":"10750","schedule":"L-D: 10:30-15:00 y 19:00-22:00","fuels":{"gasoline95":1.786,"diesel":1.946,"dieselPremium":2.066},"extra":{"saleType":"P","margin":"I","reportingType":"OM","ideess":"7523","idMunicipio":"1566","idProvincia":"10","idCCAA":"11"}}},{"type":"Feature","geometry":{"type":"Point","coordinates":[-5.757556,40.055139]},"properties":{"id":"es-7554","source":"ES","brand":"REPSOL","address":"CL AVENIDA CONSTITUCION, S.N.","municipality":"Jaraíz de la Vera","province":"CÁCERES","postalCode":"10400","schedule":"L-D: 06:00-22:00","fuels":{"gasoline95":1.789,"diesel":1.919,"dieselPremium":1.999,"dieselB":1.549},"extra":{"saleType":"P","margin":"D","reportingType":"dm","ideess":"7554","idMunicipio":"1645","idProvincia":"10","idCCAA":"11"}}},{"type":"Feature","geometry":{"type":"Point","coordinates":[-5.596333,40.115639]},"properties":{"id":"es-7598","source":"ES","brand":"E.S. COMARCA DE LA VERA","address":"CARRETERA COMARCAL 501 KM. 58,200","municipality":"Losar de la Vera","province":"CÁCERES","postalCode":"10460","schedule":"L-D: 24H","fuels":{"gasoline95":1.719,"diesel":1.839},"extra":{"saleType":"P","margin":"N","reportingType":"dm","ideess":"7598","idMunicipio":"1651","idProvincia":"10","idCCAA":"11"}}},{"type":"Feature","geometry":{"type":"Point","coordinates":[-5.232083,40.139583]},"properties":{"id":"es-7968","source":"ES","brand":"REPSOL","address":"CR  AV-910 P.K. 1,910","municipality":"Candeleda","province":"ÁVILA","postalCode":"05480","schedule":"L-D: 07:00-23:00","fuels":{"gasoline95":1.759,"diesel":1.899,"dieselPremium":1.999},"extra":{"saleType":"P","margin":"D","reportingType":"dm","ideess":"7968","idMunicipio":"419","idProvincia":"05","idCCAA":"08"}}},{"type":"Feature","geometry":{"type":"Point","coordinates":[-5.917028,40.265083]},"properties":{"id":"es-8266","source":"ES","brand":"MOEVE","address":"CARRETERA N-630 KM. 436,4","municipality":"Aldeanueva del Camino","province":"CÁCERES","postalCode":"10740","schedule":"L-D: 24H","fuels":{"gasoline95":1.799,"gasoline95Premium":1.889,"diesel":1.999,"dieselPremium":2.079},"extra":{"saleType":"P","margin":"D","reportingType":"OM","ideess":"8266","idMunicipio":"1557","idProvincia":"10","idCCAA":"11"}}},{"type":"Feature","geometry":{"type":"Point","coordinates":[-5.325556,40.465194]},"properties":{"id":"es-9432","source":"ES","brand":"REPSOL","address":"C/ EXTRAMUROS - 6 (TRAVESIA CN - 110)","municipality":"Piedrahíta","province":"ÁVILA","postalCode":"05500","schedule":"L-D: 07:00-23:00","fuels":{"gasoline95":1.759,"gasoline98":1.969,"diesel":1.926,"dieselPremium":2.046,"dieselB":1.659},"extra":{"saleType":"P","margin":"D","reportingType":"dm","ideess":"9432","idMunicipio":"550","idProvincia":"05","idCCAA":"08"}}},{"type":"Feature","geometry":{"type":"Point","coordinates":[-5.326889,40.466083]},"properties":{"id":"es-9434","source":"ES","brand":"REPSOL","address":"CALLE EXTRAMUROS, S/N","municipality":"Piedrahíta","province":"ÁVILA","postalCode":"05500","schedule":"L-D: 07:30-21:30","fuels":{"gasoline95":1.76,"diesel":1.936,"dieselPremium":2.056},"extra":{"saleType":"P","margin":"I","reportingType":"OM","ideess":"9434","idMunicipio":"550","idProvincia":"05","idCCAA":"08"}}},{"type":"Feature","geometry":{"type":"Point","coordinates":[-5.484528,40.030861]},"properties":{"id":"es-9571","source":"ES","brand":"REPSOL","address":"POLIGONO EL RUEDO (CAMINO GENERAL km KM 14)","municipality":"Talayuela","province":"CÁCERES","postalCode":"10319","schedule":"L-D: 07:00-22:00","fuels":{"gasoline95":1.786,"diesel":1.98},"extra":{"saleType":"P","margin":"N","reportingType":"OM","ideess":"9571","idMunicipio":"1722","idProvincia":"10","idCCAA":"11"}}}]}