{"type":"FeatureCollection","features":[{"type":"Feature","geometry":{"type":"Point","coordinates":[-17.979361,27.705333]},"properties":{"id":"es-7830","source":"ES","brand":"DISA EL PINAR","address":"TRAVESÍA DEL PINAR, 29","municipality":"Frontera","province":"SANTA CRUZ DE TENERIFE","postalCode":"38914","schedule":"L-D: 06:00-22:00","fuels":{"gasoline95":1.659,"gasoline98":1.809,"diesel":1.759,"dieselPremium":1.839},"extra":{"saleType":"P","margin":"D","reportingType":"OM","ideess":"7830","idMunicipio":"5703","idProvincia":"38","idCCAA":"05"}}},{"type":"Feature","geometry":{"type":"Point","coordinates":[-17.914222,27.811667]},"properties":{"id":"es-7833","source":"ES","brand":"DISA VALVERDE","address":"CALLE CONSTITUCION, 22","municipality":"Valverde","province":"SANTA CRUZ DE TENERIFE","postalCode":"38900","schedule":"L-D: 06:00-22:00","fuels":{"gasoline95":1.659,"gasoline98":1.809,"diesel":1.759,"dieselPremium":1.839},"extra":{"saleType":"P","margin":"D","reportingType":"OM","ideess":"7833","idMunicipio":"5740","idProvincia":"38","idCCAA":"05"}}}]}