{"type":"FeatureCollection","features":[{"type":"Feature","geometry":{"type":"Point","coordinates":[-5.591222,39.960722]},"properties":{"id":"es-10095","source":"ES","brand":"CARBURANTES CAMPO ARAÑUELO S.L.","address":"CARRETERA JARANDILLA KM. 8200","municipality":"Navalmoral de la Mata","province":"CÁCERES","postalCode":"10300","schedule":"L-D: 07:00-23:00","fuels":{"gasoline95":1.649,"diesel":1.759},"extra":{"saleType":"P","margin":"D","reportingType":"dm","ideess":"10095","idMunicipio":"1672","idProvincia":"10","idCCAA":"11"}}},{"type":"Feature","geometry":{"type":"Point","coordinates":[-5.724833,39.068028]},"properties":{"id":"es-10192","source":"ES","brand":"COOPERATIVA LA SAGRADA FAMILIA","address":"CALLE RONDA NORTE, S/N","municipality":"Villanueva de la Serena","province":"BADAJOZ","postalCode":"06712","schedule":"L-D: 24H","fuels":{"diesel":1.74,"dieselB":1.325},"extra":{"saleType":"P","margin":"N","reportingType":"dm","ideess":"10192","idMunicipio":"784","idProvincia":"06","idCCAA":"11"}}},{"type":"Feature","geometry":{"type":"Point","coordinates":[-5.418583,39.625083]},"properties":{"id":"es-10521","source":"ES","brand":"ESTACION DE SERVICIO CASTAÑAR","address":"CARRETERA km 28","municipality":"Castañar de Ibor","province":"CÁCERES","postalCode":"10340","schedule":"L: 07:00-22:00","fuels":{"gasoline95":1.789,"diesel":1.949,"dieselB":1.349},"extra":{"saleType":"P","margin":"D","reportingType":"dm","ideess":"10521","idMunicipio":"1602","idProvincia":"10","idCCAA":"11"}}},{"type":"Feature","geometry":{"type":"Point","coordinates":[-5.625861,39.1405]},"properties":{"id":"es-11293","source":"ES","brand":"REPSOL","address":"CARRETERA EX-355 KM. 8","municipality":"Madrigalejo","province":"CÁCERES","postalCode":"10110","schedule":"L-S: 07:00-21:00","fuels":{"gasoline95":1.759,"diesel":1.965,"dieselPremium":2.065},"extra":{"saleType":"P","margin":"I","reportingType":"OM","ideess":"11293","idMunicipio":"1653","idProvincia":"10","idCCAA":"11"}}},{"type":"Feature","geometry":{"type":"Point","coordinates":[-5.550944,39.8745]},"properties":{"id":"es-11755","source":"ES","brand":"REPSOL","address":"CARRETERA CC 054 KM. 2,300","municipality":"Navalmoral de la Mata","province":"CÁCERES","postalCode":"10300","schedule":"L-D: 24H","fuels":{"gasoline95":1.869,"gasoline98":2.039,"diesel":1.969,"dieselPremium":2.039,"lpg":1.057},"extra":{"saleType":"P","margin":"I","reportingType":"dm","ideess":"11755","idMunicipio":"1672","idProvincia":"10","idCCAA":"11"}}},{"type":"Feature","geometry":{"type":"Point","coordinates":[-5.761944,39.917278]},"properties":{"id":"es-11774","source":"ES","brand":"REPSOL","address":"AUTOVIA EX-A1 KM. 16","municipality":"Majadas","province":"CÁCERES","postalCode":"10529","schedule":"L-D: 24H","fuels":{"gasoline95":1.859,"diesel":2.019,"dieselPremium":2.079},"extra":{"saleType":"P","margin":"D","reportingType":"dm","ideess":"11774","idMunicipio":"1655","idProvincia":"10","idCCAA":"11"}}},{"type":"Feature","geometry":{"type":"Point","coordinates":[-5.713444,39.036111]},"properties":{"id":"es-12265","source":"ES","brand":"IBERDOEX","address":"CARRETERA N-430 KM. 118","municipality":"Villanueva de la Serena","province":"BADAJOZ","postalCode":"06720","schedule":"L-D: 24H","fuels":{"gasoline95":1.649,"diesel":1.849,"dieselB":1.559},"extra":{"saleType":"P","margin":"D","reportingType":"dm","ideess":"12265","idMunicipio":"784","idProvincia":"06","idCCAA":"11"}}},{"type":"Feature","geometry":{"type":"Point","coordinates":[-5.470556,39.105278]},"properties":{"id":"es-12294","source":"ES","brand":"SAN AGUSTIN DE OBANDO SCL","address":"CALLE SIGLO XXI, 7","municipality":"Navalvillar de Pela","province":"BADAJOZ","postalCode":"06760","schedule":"L-D: 24H","fuels":{"diesel":1.74,"dieselB":1.31},"extra":{"saleType":"P","margin":"D","reportingType":"dm","ideess":"12294","idMunicipio":"720","idProvincia":"06","idCCAA":"11"}}},{"type":"Feature","geometry":{"type":"Point","coordinates":[-5.496556,39.114778]},"properties":{"id":"es-12295","source":"ES","brand":"SAN AGUSTIN DE OBANDO SCL","address":"CARRETERA EX-116 KM. 0,500","municipality":"Navalvillar de Pela","province":"BADAJOZ","postalCode":"06730","schedule":"L-D: 24H","fuels":{"diesel":1.74,"dieselB":1.31},"extra":{"saleType":"P","margin":"D","reportingType":"dm","ideess":"12295","idMunicipio":"720","idProvincia":"06","idCCAA":"11"}}},{"type":"Feature","geometry":{"type":"Point","coordinates":[-5.625139,39.084861]},"properties":{"id":"es-12402","source":"ES","brand":"COOP.GUADALPERALES","address":"PLAZA DE LA IGLESIA, S/N","municipality":"Acedera","province":"BADAJOZ","postalCode":"06713","schedule":"L-D: 24H","fuels":{"diesel":1.753,"dieselB":1.357},"extra":{"saleType":"P","margin":"N","reportingType":"dm","ideess":"12402","idMunicipio":"630","idProvincia":"06","idCCAA":"11"}}},{"type":"Feature","geometry":{"type":"Point","coordinates":[-5.234583,39.042917]},"properties":{"id":"es-12585","source":"ES","brand":"COOP. LA SIBERIA EXTREMEÑA","address":"AVENIDA EXTREMADURA, 118","municipality":"Talarrubias","province":"BADAJOZ","postalCode":"06640","schedule":"L-D: 24H","fuels":{"diesel":1.865,"dieselB":1.402},"extra":{"saleType":"P","margin":"D","reportingType":"dm","ideess":"12585","idMunicipio":"757","idProvincia":"06","idCCAA":"11"}}},{"type":"Feature","geometry":{"type":"Point","coordinates":[-5.740028,39.1135]},"properties":{"id":"es-12677","source":"ES","brand":"LA ENCINA DE PALAZUELO S. COOP.","address":"CARRETERA CIRCUNVALACIÓN, S/N KM. 10","municipality":"Villar de Rena","province":"BADAJOZ","postalCode":"06717","schedule":"L-D: 24H","fuels":{"diesel":1.76},"extra":{"saleType":"P","margin":"D","reportingType":"dm","ideess":"12677","idMunicipio":"786","idProvincia":"06","idCCAA":"11"}}},{"type":"Feature","geometry":{"type":"Point","coordinates":[-5.198472,39.702306]},"properties":{"id":"es-13068","source":"ES","brand":"COOP. EL PEDROSO","address":"CAMINO CERRO DE LAS CHOZAS, S/N","municipality":"Villar del Pedroso","province":"CÁCERES","postalCode":"10330","schedule":"L-D: 24H","fuels":{"diesel":1.875,"dieselB":1.25},"extra":{"saleType":"P","margin":"D","reportingType":"dm","ideess":"13068","idMunicipio":"1756","idProvincia":"10","idCCAA":"11"}}},{"type":"Feature","geometry":{"type":"Point","coordinates":[-5.539556,39.017139]},"properties":{"id":"es-13168","source":"ES","brand":"CEPSA","address":"CARRETERA BA 105 KM. 0,55","municipality":"Orellana la Vieja","province":"BADAJOZ","postalCode":"06740","schedule":"L: 08:00-20:00","fuels":{"gasoline95":1.789,"diesel":1.949,"dieselPremium":2.019,"dieselB":1.719},"extra":{"saleType":"P","margin":"I","reportingType":"dm","ideess":"13168","idMunicipio":"726","idProvincia":"06","idCCAA":"11"}}},{"type":"Feature","geometry":{"type":"Point","coordinates":[-5.9215,39.140472]},"properties":{"id":"es-13498","source":"ES","brand":"SHELL","address":"CALLE HERRADORES, 2","municipality":"Miajadas","province":"CÁCERES","postalCode":"10100","schedule":"L-D: 24H","fuels":{"gasoline95":1.679,"diesel":1.769},"extra":{"saleType":"P","margin":"N","reportingType":"dm","ideess":"13498","idMunicipio":"1662","idProvincia":"10","idCCAA":"11"}}},{"type":"Feature","geometry":{"type":"Point","coordinates":[-5.854056,39.481556]},"properties":{"id":"es-14078","source":"ES","brand":"COPRECA","address":"CARRETERA ANTIGUA NACIONAL V KM. 250","municipality":"Trujillo","province":"CÁCERES","postalCode":"10200","schedule":"L-D: 24H","fuels":{"gasoline95":1.71,"diesel":1.91},"extra":{"saleType":"P","margin":"D","reportingType":"dm","ideess":"14078","idMunicipio":"1737","idProvincia":"10","idCCAA":"11"}}},{"type":"Feature","geometry":{"type":"Point","coordinates":[-5.54525,39.899222]},"properties":{"id":"es-14097","source":"ES","brand":"BALLENOIL","address":"CARRETERA JARANDILLA KM. 36","municipality":"Navalmoral de la Mata","province":"CÁCERES","postalCode":"10300","schedule":"L-D: 24H","fuels":{"gasoline95":1.579,"diesel":1.759,"dieselPremium":1.769},"extra":{"saleType":"P","margin":"D","reportingType":"OM","ideess":"14097","idMunicipio":"1672","idProvincia":"10","idCCAA":"11"}}},{"type":"Feature","geometry":{"type":"Point","coordinates":[-5.428333,39.891917]},"properties":{"id":"es-14270","source":"ES","brand":"GALP","address":"AUTOVIA CTRA A-5, KM 171 - POL. PUERTA DE EXTREMADURA PARC 80-81-82 KM. 171","municipality":"Peraleda de la Mata","province":"CÁCERES","postalCode":"10335","schedule":"L-D: 24H","fuels":{"gasoline95":1.814,"gasoline95Premium":1.864,"diesel":1.984,"dieselPremium":2.074,"adblue":0.799},"extra":{"saleType":"P","margin":"N","reportingType":"OM","ideess":"14270","idMunicipio":"1681","idProvincia":"10","idCCAA":"11"}}},{"type":"Feature","geometry":{"type":"Point","coordinates":[-5.54025,39.897056]},"properties":{"id":"es-14523","source":"ES","brand":"SHELL","address":"CARRETERA MADRID-LISBOA, Nº 88 KM. 88","municipality":"Navalmoral de la Mata","province":"CÁCERES","postalCode":"10300","schedule":"L-D: 24H","fuels":{"gasoline95":1.599,"diesel":1.759},"extra":{"saleType":"P","margin":"N","reportingType":"OM","ideess":"14523","idMunicipio":"1672","idProvincia":"10","idCCAA":"11"}}},{"type":"Feature","geometry":{"type":"Point","coordinates":[-5.919,39.146556]},"properties":{"id":"es-14979","source":"ES","brand":"SAN ISIDRO DE MIAJADAS SCL","address":"AVENIDA GARCIA SIÑERIZ, 172","municipality":"Miajadas","province":"CÁCERES","postalCode":"10100","schedule":"L-D: 24H","fuels":{"diesel":1.759,"adblue":0.613},"extra":{"saleType":"P","margin":"D","reportingType":"dm","ideess":"14979","idMunicipio":"1662","idProvincia":"10","idCCAA":"11"}}},{"type":"Feature","geometry":{"type":"Point","coordinates":[-5.786417,39.149306]},"properties":{"id":"es-15037","source":"ES","brand":"COOPERATIVA AGRICOLA SAN RAFAEL","address":"POLIGONO SAN RAFAEL, S/N","municipality":"Campo Lugar","province":"CÁCERES","postalCode":"10134","schedule":"L-D: 24H","fuels":{"diesel":1.749,"dieselB":1.45,"adblue":0.8},"extra":{"saleType":"P","margin":"N","reportingType":"dm","ideess":"15037","idMunicipio":"1585","idProvincia":"10","idCCAA":"11"}}},{"type":"Feature","geometry":{"type":"Point","coordinates":[-5.920972,39.140444]},"properties":{"id":"es-15082","source":"ES","brand":"MOMO OIL","address":"POLIGONO C/ CURTIDORES, 22","municipality":"Miajadas","province":"CÁCERES","postalCode":"10100","schedule":"L-D: 24H","fuels":{"gasoline95":1.699,"diesel":1.799,"dieselPremium":1.849,"adblue":0.799},"extra":{"saleType":"P","margin":"N","reportingType":"dm","ideess":"15082","idMunicipio":"1662","idProvincia":"10","idCCAA":"11"}}},{"type":"Feature","geometry":{"type":"Point","coordinates":[-5.892361,39.087972]},"properties":{"id":"es-15336","source":"ES","brand":"LOGISTICA MORENO","address":"CARRETERA EX-106 KM. 8","municipality":"Don Benito","province":"BADAJOZ","postalCode":"06412","schedule":"L-D: 08:00-21:00","fuels":{"diesel":1.739,"dieselPremium":1.739},"extra":{"saleType":"P","margin":"D","reportingType":"dm","ideess":"15336","idMunicipio":"673","idProvincia":"06","idCCAA":"11"}}},{"type":"Feature","geometry":{"type":"Point","coordinates":[-5.923556,39.139806]},"properties":{"id":"es-15354","source":"ES","brand":"TRANSTELLO S.L.","address":"CALLE FUNDIDORES, 9","municipality":"Miajadas","province":"CÁCERES","postalCode":"10100","schedule":"L-V: 07:30-14:00 y 16:00-20:30; S: 07:30-14:00","fuels":{"diesel":1.78},"extra":{"saleType":"P","margin":"N","reportingType":"dm","ideess":"15354","idMunicipio":"1662","idProvincia":"10","idCCAA":"11"}}},{"type":"Feature","geometry":{"type":"Point","coordinates":[-5.933806,39.136472]},"properties":{"id":"es-15379","source":"ES","brand":"ESTACION 24H. MIAJADAS LOGISTICA Y TRANSPORTES SL","address":"CALLE DE LAS ARTES Y OFICIOS, S/N","municipality":"Miajadas","province":"CÁCERES","postalCode":"10100","schedule":"L-D: 24H","fuels":{"diesel":1.818},"extra":{"saleType":"P","margin":"D","reportingType":"dm","ideess":"15379","idMunicipio":"1662","idProvincia":"10","idCCAA":"11"}}},{"type":"Feature","geometry":{"type":"Point","coordinates":[-5.620667,39.137083]},"properties":{"id":"es-15400","source":"ES","brand":"SOC. COOP. LTDA. DEL CAMPO SAN JUAN","address":"AVENIDA DE LA CONSTITUCION, S","municipality":"Madrigalejo","province":"CÁCERES","postalCode":"10110","schedule":"L-D: 24H","fuels":{"diesel":1.745,"dieselB":1.51},"extra":{"saleType":"P","margin":"N","reportingType":"dm","ideess":"15400","idMunicipio":"1653","idProvincia":"10","idCCAA":"11"}}},{"type":"Feature","geometry":{"type":"Point","coordinates":[-5.751111,39.073222]},"properties":{"id":"es-15586","source":"ES","brand":"DIDAYMAZ S.COOP.","address":"CAMINO CARRETERA CIRCUNVALACION, S/N","municipality":"Don Benito","province":"BADAJOZ","postalCode":"06717","schedule":"L-D: 24H","fuels":{"diesel":1.75,"dieselB":1.35},"extra":{"saleType":"P","margin":"N","reportingType":"dm","ideess":"15586","idMunicipio":"673","idProvincia":"06","idCCAA":"11"}}},{"type":"Feature","geometry":{"type":"Point","coordinates":[-5.833083,39.526472]},"properties":{"id":"es-15996","source":"ES","brand":"MOLGAS","address":"AUTOPISTA A5 KM. 244,5","municipality":"Trujillo","province":"CÁCERES","postalCode":"10292","schedule":"L: 00:00-23:59","fuels":{"cng":1.739,"lng":1.649},"extra":{"saleType":"P","margin":"D","reportingType":"dm","ideess":"15996","idMunicipio":"1737","idProvincia":"10","idCCAA":"11"}}},{"type":"Feature","geometry":{"type":"Point","coordinates":[-5.395083,39.369056]},"properties":{"id":"es-16203","source":"ES","brand":"IBERDOEX","address":"CARRETERA EX-102 KM. 55,100","municipality":"Cañamero","province":"CÁCERES","postalCode":"10136","schedule":"L-D: 06:00-21:00","fuels":{"gasoline95":1.769,"gasoline98":1.839,"diesel":1.899,"dieselB":1.479},"extra":{"saleType":"P","margin":"D","reportingType":"dm","ideess":"16203","idMunicipio":"1586","idProvincia":"10","idCCAA":"11"}}},{"type":"Feature","geometry":{"type":"Point","coordinates":[-5.529944,39.892333]},"properties":{"id":"es-16402","source":"ES","brand":"BALLENOIL","address":"CARRETERA MADRID-LISBOA KM. 44","municipality":"Navalmoral de la Mata","province":"CÁCERES","postalCode":"10300","schedule":"L-D: 24H","fuels":{"gasoline95":1.579,"gasoline95Premium":1.589,"diesel":1.759,"dieselPremium":1.769},"extra":{"saleType":"P","margin":"D","reportingType":"OM","ideess":"16402","idMunicipio":"1672","idProvincia":"10","idCCAA":"11"}}},{"type":"Feature","geometry":{"type":"Point","coordinates":[-5.064389,39.170472]},"properties":{"id":"es-16421","source":"ES","brand":"IMPULSO365","address":"VIAL PI LOS MONTEROS ESQUINA VIAL F CON VIAL D, 37","municipality":"Herrera del Duque","province":"BADAJOZ","postalCode":"06670","schedule":"L: 24H","fuels":{"gasoline95":1.677,"diesel":1.817},"extra":{"saleType":"P","margin":"D","reportingType":"dm","ideess":"16421","idMunicipio":"692","idProvincia":"06","idCCAA":"11"}}},{"type":"Feature","geometry":{"type":"Point","coordinates":[-5.546222,39.901889]},"properties":{"id":"es-16428","source":"ES","brand":"EURONOR ENERGY","address":"CARRETERA JARANDILLA KM. 66","municipality":"Navalmoral de la Mata","province":"CÁCERES","postalCode":"10300","schedule":"L-D: 24H","fuels":{"gasoline95":1.559,"diesel":1.719},"extra":{"saleType":"P","margin":"D","reportingType":"dm","ideess":"16428","idMunicipio":"1672","idProvincia":"10","idCCAA":"11"}}},{"type":"Feature","geometry":{"type":"Point","coordinates":[-5.185778,39.927389]},"properties":{"id":"es-5333","source":"ES","brand":"GALP","address":"CALLE POLIGONO 6, 104","municipality":"Oropesa","province":"TOLEDO","postalCode":"45560","schedule":"L-D: 24H","fuels":{"gasoline95":1.789,"gasoline98":1.919,"diesel":1.919,"dieselB":1.609},"extra":{"saleType":"P","margin":"D","reportingType":"dm","ideess":"5333","idMunicipio":"6885","idProvincia":"45","idCCAA":"07"}}},{"type":"Feature","geometry":{"type":"Point","coordinates":[-5.026639,39.926417]},"properties":{"id":"es-5366","source":"ES","brand":"REPSOL","address":"AUTOVIA A5 KM. 134","municipality":"Calera y Chozas","province":"TOLEDO","postalCode":"45595","schedule":"L-D: 06:00-23:00","fuels":{"gasoline95":1.829,"diesel":1.979,"dieselPremium":1.999},"extra":{"saleType":"P","margin":"D","reportingType":"dm","ideess":"5366","idMunicipio":"6789","idProvincia":"45","idCCAA":"07"}}},{"type":"Feature","geometry":{"type":"Point","coordinates":[-5.332778,39.8955]},"properties":{"id":"es-5369","source":"ES","brand":"REPSOL","address":"CARRETERA A-5 KM. 162","municipality":"Calzada de Oropesa","province":"TOLEDO","postalCode":"45580","schedule":"L-D: 24H","fuels":{"gasoline95":1.809,"gasoline98":2.009,"diesel":1.979,"dieselPremium":2.099,"adblue":1.79},"extra":{"saleType":"P","margin":"D","reportingType":"dm","ideess":"5369","idMunicipio":"6791","idProvincia":"45","idCCAA":"07"}}},{"type":"Feature","geometry":{"type":"Point","coordinates":[-5.303639,39.895111]},"properties":{"id":"es-5381","source":"ES","brand":"REPSOL","address":"CR A-5, 159","municipality":"Calzada de Oropesa","province":"TOLEDO","postalCode":"45580","schedule":"L: 06:00-22:00","fuels":{"gasoline95":1.819,"gasoline98":1.989,"diesel":1.979,"dieselRenewable":2.099},"extra":{"saleType":"P","margin":"I","reportingType":"OM","ideess":"5381","idMunicipio":"6791","idProvincia":"45","idCCAA":"07"}}},{"type":"Feature","geometry":{"type":"Point","coordinates":[-5.183917,39.920472]},"properties":{"id":"es-5394","source":"ES","brand":"REPSOL","address":"CARRETERA ANTIGUA DE EXTREMADURA KM. 148","municipality":"Oropesa","province":"TOLEDO","postalCode":"45560","schedule":"L-D: 06:00-22:00","fuels":{"gasoline95":1.799,"gasoline98":1.999,"diesel":1.969,"dieselB":1.709,"dieselRenewable":2.069,"adblue":1.399},"extra":{"saleType":"P","margin":"I","reportingType":"dm","ideess":"5394","idMunicipio":"6885","idProvincia":"45","idCCAA":"07"}}},{"type":"Feature","geometry":{"type":"Point","coordinates":[-5.022667,39.45675]},"properties":{"id":"es-5455","source":"ES","brand":"GAMBA OIL","address":"CARRETERA N-502 KM. 189","municipality":"Sevilleja de la Jara","province":"TOLEDO","postalCode":"45672","schedule":"L: 07:00-22:00","fuels":{"gasoline95":1.665,"gasoline95Premium":1.795,"diesel":1.815},"extra":{"saleType":"P","margin":"I","reportingType":"dm","ideess":"5455","idMunicipio":"6923","idProvincia":"45","idCCAA":"07"}}},{"type":"Feature","geometry":{"type":"Point","coordinates":[-5.171306,39.80575]},"properties":{"id":"es-5465","source":"ES","brand":"REPSOL","address":"CR TO-40, 33","municipality":"Alcolea de Tajo","province":"TOLEDO","postalCode":"45571","schedule":"L-D: 06:00-23:00","fuels":{"gasoline95":1.879,"gasoline98":1.979,"diesel":1.999,"dieselPremium":2.059,"dieselB":1.676},"extra":{"saleType":"P","margin":"I","reportingType":"dm","ideess":"5465","idMunicipio":"6768","idProvincia":"45","idCCAA":"07"}}},{"type":"Feature","geometry":{"type":"Point","coordinates":[-5.05825,39.917306]},"properties":{"id":"es-5501","source":"ES","brand":"GALP","address":"Ctra. N-V km 137,300","municipality":"Calera y Chozas","province":"TOLEDO","postalCode":"45595","schedule":"L-D: 24H","fuels":{"gasoline95":1.789,"gasoline98":1.909,"diesel":1.959,"dieselPremium":2.009,"dieselRenewable":2.049,"lpg":1.105,"adblue":0.799},"extra":{"saleType":"P","margin":"N","reportingType":"OM","ideess":"5501","idMunicipio":"6789","idProvincia":"45","idCCAA":"07"}}},{"type":"Feature","geometry":{"type":"Point","coordinates":[-5.896972,39.172361]},"properties":{"id":"es-5822","source":"ES","brand":"GALP","address":"CARRETERA NACIONAL V KM. 287,9","municipality":"Escurial","province":"CÁCERES","postalCode":"10133","schedule":"L-D: 24H","fuels":{"gasoline95":1.789,"gasoline98":1.909,"diesel":2.009,"dieselPremium":2.079,"adblue":1.139},"extra":{"saleType":"P","margin":"D","reportingType":"dm","ideess":"5822","idMunicipio":"1615","idProvincia":"10","idCCAA":"11"}}},{"type":"Feature","geometry":{"type":"Point","coordinates":[-5.784444,39.412861]},"properties":{"id":"es-5833","source":"ES","brand":"IBERDOEX","address":"EX208 km 91,87","municipality":"Madroñera","province":"CÁCERES","postalCode":"10210","schedule":"L-D: 07:00-22:00","fuels":{"gasoline95":1.779,"gasoline98":1.989,"diesel":1.919,"dieselPremium":1.979,"dieselB":1.599},"extra":{"saleType":"P","margin":"I","reportingType":"dm","ideess":"5833","idMunicipio":"1654","idProvincia":"10","idCCAA":"11"}}},{"type":"Feature","geometry":{"type":"Point","coordinates":[-5.886556,39.410944]},"properties":{"id":"es-5846","source":"ES","brand":"Q8","address":"AUTOVIA AUTOVIA DEL SUROESTE KM. 259","municipality":"Trujillo","province":"CÁCERES","postalCode":"10200","schedule":"L-D: 06:00-00:00","fuels":{"gasoline95":1.799,"diesel":1.999,"dieselPremium":2.069,"adblue":0.899},"extra":{"saleType":"P","margin":"I","reportingType":"dm","ideess":"5846","idMunicipio":"1737","idProvincia":"10","idCCAA":"11"}}},{"type":"Feature","geometry":{"type":"Point","coordinates":[-5.855444,39.031]},"properties":{"id":"es-5847","source":"ES","brand":"Q8","address":"CARRETERA CTRA. N-430 (CTRA. BADAJOZ-CIUDAD REAL) KM. KM 105,5","municipality":"Don Benito","province":"BADAJOZ","postalCode":"06400","schedule":"L-D: 24H","fuels":{"gasoline95":1.719,"diesel":1.829},"extra":{"saleType":"P","margin":"N","reportingType":"dm","ideess":"5847","idMunicipio":"673","idProvincia":"06","idCCAA":"11"}}},{"type":"Feature","geometry":{"type":"Point","coordinates":[-5.900556,39.13275]},"properties":{"id":"es-5874","source":"ES","brand":"CEPSA","address":"CARRETERA EX-106 KM. 1,4","municipality":"Miajadas","province":"CÁCERES","postalCode":"10100","schedule":"L-D: 07:00-23:00","fuels":{"gasoline95":1.784,"diesel":1.939,"dieselPremium":2.094},"extra":{"saleType":"P","margin":"D","reportingType":"dm","ideess":"5874","idMunicipio":"1662","idProvincia":"10","idCCAA":"11"}}},{"type":"Feature","geometry":{"type":"Point","coordinates":[-5.835417,39.517556]},"properties":{"id":"es-5876","source":"ES","brand":"MOEVE","address":"A-5 km 245,2","municipality":"Trujillo","province":"CÁCERES","postalCode":"10200","schedule":"L-D: 06:00-23:59","fuels":{"gasoline95":1.804,"gasoline95Premium":1.924,"diesel":2.004,"dieselPremium":2.084},"extra":{"saleType":"P","margin":"D","reportingType":"OM","ideess":"5876","idMunicipio":"1737","idProvincia":"10","idCCAA":"11"}}},{"type":"Feature","geometry":{"type":"Point","coordinates":[-5.833361,39.526167]},"properties":{"id":"es-5877","source":"ES","brand":"MOEVE","address":"AUTOVIA A-5 KM. 244,6","municipality":"Trujillo","province":"CÁCERES","postalCode":"10200","schedule":"L-D: 24H","fuels":{"gasoline95":1.804,"gasoline95Premium":1.894,"diesel":2.004,"dieselPremium":2.084,"lpg":1.179},"extra":{"saleType":"P","margin":"I","reportingType":"OM","ideess":"5877","idMunicipio":"1737","idProvincia":"10","idCCAA":"11"}}},{"type":"Feature","geometry":{"type":"Point","coordinates":[-5.832583,39.565056]},"properties":{"id":"es-5892","source":"ES","brand":"REPSOL","address":"CR A-5 P.K. 240,00 I","municipality":"Trujillo","province":"CÁCERES","postalCode":"10200","schedule":"L-D: 24H","fuels":{"gasoline95":1.869,"gasoline98":2.029,"diesel":1.999,"dieselRenewable":2.089,"adblue":1.22},"extra":{"saleType":"P","margin":"I","reportingType":"dm","ideess":"5892","idMunicipio":"1737","idProvincia":"10","idCCAA":"11"}}},{"type":"Feature","geometry":{"type":"Point","coordinates":[-5.719917,39.687861]},"properties":{"id":"es-5897","source":"ES","brand":"REPSOL","address":"AUTOVIA MADRID -PORTUGAL KM. 219","municipality":"Deleitosa","province":"CÁCERES","postalCode":"10370","schedule":"L-D: 24H","fuels":{"gasoline95":1.869,"gasoline98":2.059,"diesel":2.019,"dieselPremium":2.069},"extra":{"saleType":"P","margin":"D","reportingType":"dm","ideess":"5897","idMunicipio":"1612","idProvincia":"10","idCCAA":"11"}}},{"type":"Feature","geometry":{"type":"Point","coordinates":[-5.901833,39.141306]},"properties":{"id":"es-5899","source":"ES","brand":"SEDIMACAR, SL","address":"CARRETERA EX-106 KM. 2,50","municipality":"Miajadas","province":"CÁCERES","postalCode":"10100","schedule":"L-D: 00:00-23:59","fuels":{"gasoline95":1.57,"diesel":1.7},"extra":{"saleType":"P","margin":"I","reportingType":"dm","ideess":"5899","idMunicipio":"1662","idProvincia":"10","idCCAA":"11"}}},{"type":"Feature","geometry":{"type":"Point","coordinates":[-5.894056,39.087389]},"properties":{"id":"es-5909","source":"ES","brand":"CAMPSA","address":"AUTOVIA EX-A2 DE MIAJADAS A DON BENITO/VILLANUEVA KM. 6,160","municipality":"Don Benito","province":"BADAJOZ","postalCode":"06412","schedule":"L-S: 07:00-22:00","fuels":{"gasoline95":1.745,"diesel":1.945,"dieselPremium":2.055},"extra":{"saleType":"P","margin":"D","reportingType":"OM","ideess":"5909","idMunicipio":"673","idProvincia":"06","idCCAA":"11"}}},{"type":"Feature","geometry":{"type":"Point","coordinates":[-5.049861,39.169417]},"properties":{"id":"es-5917","source":"ES","brand":"MOEVE","address":"AVENIDA LA PALMERA, 22","municipality":"Herrera del Duque","province":"BADAJOZ","postalCode":"06670","schedule":"L: 08:00-21:00","fuels":{"gasoline95":1.829,"diesel":2.019,"dieselPremium":2.099},"extra":{"saleType":"P","margin":"D","reportingType":"dm","ideess":"5917","idMunicipio":"692","idProvincia":"06","idCCAA":"11"}}},{"type":"Feature","geometry":{"type":"Point","coordinates":[-5.696167,39.791194]},"properties":{"id":"es-5929","source":"ES","brand":"REPSOL","address":"AUTOVIA A-5 KM. 200","municipality":"Almaraz","province":"CÁCERES","postalCode":"10350","schedule":"L-D: 24H","fuels":{"gasoline95":1.849,"gasoline98":2.029,"diesel":1.979,"dieselRenewable":2.079,"adblue":1.049},"extra":{"saleType":"P","margin":"D","reportingType":"dm","ideess":"5929","idMunicipio":"1561","idProvincia":"10","idCCAA":"11"}}},{"type":"Feature","geometry":{"type":"Point","coordinates":[-5.318583,39.448194]},"properties":{"id":"es-5932","source":"ES","brand":"MOEVE","address":"CARRETERA EX-1118 KM. 1","municipality":"Guadalupe","province":"CÁCERES","postalCode":"10140","schedule":"L-D: 07:00-22:00","fuels":{"gasoline95":1.729,"gasoline98":1.829,"diesel":1.899,"dieselPremium":1.989,"dieselB":1.599},"extra":{"saleType":"P","margin":"D","reportingType":"dm","ideess":"5932","idMunicipio":"1628","idProvincia":"10","idCCAA":"11"}}},{"type":"Feature","geometry":{"type":"Point","coordinates":[-5.694889,39.291028]},"properties":{"id":"es-5939","source":"ES","brand":"REPSOL","address":"CARRETERA CR C-401, KM. 225","municipality":"Zorita","province":"CÁCERES","postalCode":"10130","schedule":"L-D: 07:00-22:00","fuels":{"gasoline95":1.819,"diesel":1.989},"extra":{"saleType":"P","margin":"I","reportingType":"dm","ideess":"5939","idMunicipio":"1761","idProvincia":"10","idCCAA":"11"}}},{"type":"Feature","geometry":{"type":"Point","coordinates":[-5.52425,39.891111]},"properties":{"id":"es-5943","source":"ES","brand":"REPSOL","address":"CARRETERA EX-118 KM. 179","municipality":"Navalmoral de la Mata","province":"CÁCERES","postalCode":"10300","schedule":"L-D: 06:00-22:00","fuels":{"gasoline95":1.815,"gasoline98":1.985,"diesel":1.985,"dieselPremium":2.045},"extra":{"saleType":"P","margin":"I","reportingType":"OM","ideess":"5943","idMunicipio":"1672","idProvincia":"10","idCCAA":"11"}}},{"type":"Feature","geometry":{"type":"Point","coordinates":[-5.687917,39.039944]},"properties":{"id":"es-5958","source":"ES","brand":"REPSOL","address":"CARRETERA N-430 KM. 120,0","municipality":"Villanueva de la Serena","province":"BADAJOZ","postalCode":"06720","schedule":"L-D: 06:00-22:00","fuels":{"gasoline95":1.745,"diesel":1.955,"dieselPremium":2.045},"extra":{"saleType":"P","margin":"D","reportingType":"OM","ideess":"5958","idMunicipio":"784","idProvincia":"06","idCCAA":"11"}}},{"type":"Feature","geometry":{"type":"Point","coordinates":[-5.106083,39.281222]},"properties":{"id":"es-7498","source":"ES","brand":"GALP","address":"CARRETERA N-502 KM. 216,500","municipality":"Castilblanco","province":"BADAJOZ","postalCode":"06680","schedule":"L-X: 07:00-20:00; V-D: 07:00-20:00","fuels":{"gasoline95":1.759,"diesel":1.919,"dieselB":1.438},"extra":{"saleType":"P","margin":"D","reportingType":"dm","ideess":"7498","idMunicipio":"664","idProvincia":"06","idCCAA":"11"}}},{"type":"Feature","geometry":{"type":"Point","coordinates":[-5.047028,39.170833]},"properties":{"id":"es-7503","source":"ES","brand":"IBERDOEX","address":"AVENIDA JUAN CARLOS 1, 19","municipality":"Herrera del Duque","province":"BADAJOZ","postalCode":"06670","schedule":"L: 07:00-22:00","fuels":{"gasoline95":1.829,"diesel":1.949,"dieselB":1.709},"extra":{"saleType":"P","margin":"I","reportingType":"dm","ideess":"7503","idMunicipio":"692","idProvincia":"06","idCCAA":"11"}}},{"type":"Feature","geometry":{"type":"Point","coordinates":[-5.857528,39.339111]},"properties":{"id":"es-7506","source":"ES","brand":"REPSOL","address":"AUTOVIA CR N-5, 268 KM. 268","municipality":"Santa Cruz de la Sierra","province":"CÁCERES","postalCode":"10260","schedule":"L: 07:00-23:00","fuels":{"gasoline95":1.815,"diesel":2.019,"dieselRenewable":2.139},"extra":{"saleType":"P","margin":"D","reportingType":"OM","ideess":"7506","idMunicipio":"1708","idProvincia":"10","idCCAA":"11"}}},{"type":"Feature","geometry":{"type":"Point","coordinates":[-5.18875,39.251972]},"properties":{"id":"es-7510","source":"ES","brand":"IBERDOEX","address":"CR BA-5, 1,8","municipality":"Valdecaballeros","province":"BADAJOZ","postalCode":"06689","schedule":"L-D: 07:30-21:00","fuels":{"gasoline95":1.795,"diesel":1.915},"extra":{"saleType":"P","margin":"I","reportingType":"dm","ideess":"7510","idMunicipio":"767","idProvincia":"06","idCCAA":"11"}}},{"type":"Feature","geometry":{"type":"Point","coordinates":[-5.863111,39.468806]},"properties":{"id":"es-7517","source":"ES","brand":"CEPSA","address":"CARRETERA ANTIGUA N-V KM. 252","municipality":"Trujillo","province":"CÁCERES","postalCode":"10200","schedule":"L-S: 06:00-22:00; D: 07:00-22:00","fuels":{"gasoline95":1.799,"gasoline95Premium":1.884,"diesel":1.989,"dieselPremium":2.094},"extra":{"saleType":"P","margin":"D","reportingType":"dm","ideess":"7517","idMunicipio":"1737","idProvincia":"10","idCCAA":"11"}}},{"type":"Feature","geometry":{"type":"Point","coordinates":[-5.742222,39.566]},"properties":{"id":"es-7518","source":"ES","brand":"CEPSA","address":"CC-L km 8","municipality":"Torrecillas de la Tiesa","province":"CÁCERES","postalCode":"10252","schedule":"L-D: 07:00-22:00","fuels":{"gasoline95":1.824,"diesel":2.014,"dieselPremium":2.094},"extra":{"saleType":"P","margin":"I","reportingType":"dm","ideess":"7518","idMunicipio":"1730","idProvincia":"10","idCCAA":"11"}}},{"type":"Feature","geometry":{"type":"Point","coordinates":[-5.544028,39.896056]},"properties":{"id":"es-7522","source":"ES","brand":"REPSOL","address":"CARRETERA MADRID-LISBOA KM. 180,800","municipality":"Navalmoral de la Mata","province":"CÁCERES","postalCode":"10300","schedule":"L-D: 06:00-00:00","fuels":{"gasoline95":1.809,"gasoline98":1.979,"diesel":1.979,"dieselRenewable":2.099},"extra":{"saleType":"P","margin":"I","reportingType":"OM","ideess":"7522","idMunicipio":"1672","idProvincia":"10","idCCAA":"11"}}},{"type":"Feature","geometry":{"type":"Point","coordinates":[-5.331194,39.451833]},"properties":{"id":"es-7536","source":"ES","brand":"GALP CHIPI","address":"CARRETERA C-713 KM. 4,5","municipality":"Guadalupe","province":"CÁCERES","postalCode":"10140","schedule":"L-D: 07:00-22:00","fuels":{"gasoline95":1.719,"diesel":1.859},"extra":{"saleType":"P","margin":"I","reportingType":"dm","ideess":"7536","idMunicipio":"1628","idProvincia":"10","idCCAA":"11"}}},{"type":"Feature","geometry":{"type":"Point","coordinates":[-5.61025,39.981472]},"properties":{"id":"es-7539","source":"ES","brand":"REPSOL","address":"CALLE MARTINEZ CAMARGO, 18","municipality":"Talayuela","province":"CÁCERES","postalCode":"10310","schedule":"L-D: 06:30-21:30","fuels":{"gasoline95":1.759,"diesel":1.969,"dieselPremium":2.029},"extra":{"saleType":"P","margin":"I","reportingType":"OM","ideess":"7539","idMunicipio":"1722","idProvincia":"10","idCCAA":"11"}}},{"type":"Feature","geometry":{"type":"Point","coordinates":[-5.479444,39.333333]},"properties":{"id":"es-7543","source":"ES","brand":"REPSOL","address":"CARRETERA EX-102 KM. 45,500","municipality":"Logrosán","province":"CÁCERES","postalCode":"10120","schedule":"L-D: 07:00-23:00","fuels":{"gasoline95":1.841,"gasoline98":2.022,"diesel":1.998,"dieselPremium":2.078,"dieselB":1.829},"extra":{"saleType":"P","margin":"D","reportingType":"dm","ideess":"7543","idMunicipio":"1650","idProvincia":"10","idCCAA":"11"}}},{"type":"Feature","geometry":{"type":"Point","coordinates":[-5.504611,39.110361]},"properties":{"id":"es-7580","source":"ES","brand":"REPSOL","address":"CARRETERA N-430 KM. 138","municipality":"Navalvillar de Pela","province":"BADAJOZ","postalCode":"06760","schedule":"L-D: 07:00-22:30","fuels":{"gasoline95":1.788,"gasoline98":1.951,"diesel":1.951},"extra":{"saleType":"P","margin":"I","reportingType":"dm","ideess":"7580","idMunicipio":"720","idProvincia":"06","idCCAA":"11"}}},{"type":"Feature","geometry":{"type":"Point","coordinates":[-5.925167,39.143306]},"properties":{"id":"es-7586","source":"ES","brand":"REPSOL","address":"CARRETERA N-5 KM. 290,8","municipality":"Miajadas","province":"CÁCERES","postalCode":"10100","schedule":"L-D: 24H","fuels":{"gasoline95":1.759,"gasoline95Premium":1.829,"gasoline98":1.929,"diesel":1.965,"dieselB":1.61,"dieselRenewable":2.085},"extra":{"saleType":"P","margin":"I","reportingType":"OM","ideess":"7586","idMunicipio":"1662","idProvincia":"10","idCCAA":"11"}}},{"type":"Feature","geometry":{"type":"Point","coordinates":[-5.870806,39.460472]},"properties":{"id":"es-7587","source":"ES","brand":"REPSOL","address":"AVENIDA MADRID, 50","municipality":"Trujillo","province":"CÁCERES","postalCode":"10200","schedule":"L-D: 06:00-22:00","fuels":{"gasoline95":1.799,"gasoline98":1.989,"diesel":1.989,"dieselPremium":2.049},"extra":{"saleType":"P","margin":"I","reportingType":"dm","ideess":"7587","idMunicipio":"1737","idProvincia":"10","idCCAA":"11"}}},{"type":"Feature","geometry":{"type":"Point","coordinates":[-5.881472,39.448944]},"properties":{"id":"es-7589","source":"ES","brand":"REPSOL","address":"AVENIDA MIAJADAS, S/N","municipality":"Trujillo","province":"CÁCERES","postalCode":"10200","schedule":"L-S: 08:00-20:00","fuels":{"gasoline95":1.815,"diesel":2.019,"dieselPremium":2.079},"extra":{"saleType":"P","margin":"D","reportingType":"OM","ideess":"7589","idMunicipio":"1737","idProvincia":"10","idCCAA":"11"}}},{"type":"Feature","geometry":{"type":"Point","coordinates":[-5.467111,39.888333]},"properties":{"id":"es-7591","source":"ES","brand":"REPSOL","address":"AUTOVIA AUTOVIA KM. 174","municipality":"Peraleda de la Mata","province":"CÁCERES","postalCode":"10335","schedule":"L-D: 24H","fuels":{"gasoline95":1.815,"diesel":1.975,"dieselPremium":2.085},"extra":{"saleType":"P","margin":"I","reportingType":"OM","ideess":"7591","idMunicipio":"1681","idProvincia":"10","idCCAA":"11"}}},{"type":"Feature","geometry":{"type":"Point","coordinates":[-5.629528,39.851778]},"properties":{"id":"es-7595","source":"ES","brand":"DST BELVIS","address":"CARRETERA NACIONAL V KM. 190","municipality":"Belvís de Monroy","province":"CÁCERES","postalCode":"10394","schedule":"L-D: 24H","fuels":{"gasoline95":1.789,"diesel":1.949,"dieselPremium":2.009,"dieselB":1.57,"adblue":0.829},"extra":{"saleType":"P","margin":"D","reportingType":"dm","ideess":"7595","idMunicipio":"1568","idProvincia":"10","idCCAA":"11"}}},{"type":"Feature","geometry":{"type":"Point","coordinates":[-5.787833,39.216972]},"properties":{"id":"es-7599","source":"ES","brand":"CEPSA","address":"CARRETERA EX-102 KM. 12200","municipality":"Campo Lugar","province":"CÁCERES","postalCode":"10134","schedule":"L-D: 07:00-22:00","fuels":{"gasoline95":1.829,"diesel":1.949,"dieselB":1.869},"extra":{"saleType":"P","margin":"N","reportingType":"dm","ideess":"7599","idMunicipio":"1585","idProvincia":"10","idCCAA":"11"}}},{"type":"Feature","geometry":{"type":"Point","coordinates":[-5.4705,39.859306]},"properties":{"id":"es-7603","source":"ES","brand":"GALP","address":"CARRETERA GUADALUPE EX-118 KM. 60,150","municipality":"Peraleda de la Mata","province":"CÁCERES","postalCode":"10335","schedule":"L-S: 07:00-19:00; D: 07:00-22:00","fuels":{"gasoline95":1.799,"diesel":1.999,"dieselB":1.598},"extra":{"saleType":"P","margin":"N","reportingType":"dm","ideess":"7603","idMunicipio":"1681","idProvincia":"10","idCCAA":"11"}}},{"type":"Feature","geometry":{"type":"Point","coordinates":[-5.870417,39.013]},"properties":{"id":"es-7991","source":"ES","brand":"BP","address":"CARRETERA EXTREMADURA 106 KM. 16,3","municipality":"Don Benito","province":"BADAJOZ","postalCode":"06400","schedule":"L-D: 06:00-22:00","fuels":{"gasoline95":1.759,"diesel":1.929,"dieselPremium":1.999,"dieselB":1.399},"extra":{"saleType":"P","margin":"I","reportingType":"dm","ideess":"7991","idMunicipio":"673","idProvincia":"06","idCCAA":"11"}}},{"type":"Feature","geometry":{"type":"Point","coordinates":[-5.476694,39.785778]},"properties":{"id":"es-8003","source":"ES","brand":"GASOLINERA LOS IBORES","address":"EX_118 NAVALMORAL-GUADALUPE km 51,32","municipality":"Bohonal de Ibor","province":"CÁCERES","postalCode":"10320","schedule":"L: 07:00-22:00","fuels":{"gasoline95":1.729,"gasoline98":1.899,"diesel":1.895,"dieselPremium":1.965},"extra":{"saleType":"P","margin":"N","reportingType":"dm","ideess":"8003","idMunicipio":"1572","idProvincia":"10","idCCAA":"11"}}},{"type":"Feature","geometry":{"type":"Point","coordinates":[-5.641611,39.644278]},"properties":{"id":"es-8004","source":"ES","brand":"GALP","address":"CALLE NTRA SRA DE LA BREÑA, 0,4","municipality":"Deleitosa","province":"CÁCERES","postalCode":"10370","schedule":"L: 07:00-22:00","fuels":{"gasoline95":1.759,"diesel":1.939,"dieselPremium":2.009},"extra":{"saleType":"P","margin":"D","reportingType":"dm","ideess":"8004","idMunicipio":"1612","idProvincia":"10","idCCAA":"11"}}},{"type":"Feature","geometry":{"type":"Point","coordinates":[-5.660639,39.828056]},"properties":{"id":"es-8407","source":"ES","brand":"BP ALMARAZ","address":"AUTOVIA A-V KM. 193,800","municipality":"Almaraz","province":"CÁCERES","postalCode":"10350","schedule":"L-D: 24H","fuels":{"gasoline95":1.819,"gasoline98":1.961,"diesel":1.999,"dieselPremium":2.101,"adblue":0.949},"extra":{"saleType":"P","margin":"D","reportingType":"dm","ideess":"8407","idMunicipio":"1561","idProvincia":"10","idCCAA":"11"}}},{"type":"Feature","geometry":{"type":"Point","coordinates":[-5.233778,39.030028]},"properties":{"id":"es-9385","source":"ES","brand":"GALP","address":"CARRETERA BA-401 KM. 1","municipality":"Talarrubias","province":"BADAJOZ","postalCode":"06640","schedule":"L-D: 06:00-23:00","fuels":{"gasoline95":1.779,"diesel":1.869,"dieselB":1.429},"extra":{"saleType":"P","margin":"D","reportingType":"dm","ideess":"9385","idMunicipio":"757","idProvincia":"06","idCCAA":"11"}}}]}