{"type":"FeatureCollection","features":[{"type":"Feature","geometry":{"type":"Point","coordinates":[-3.882778,36.75225]},"properties":{"id":"es-10078","source":"ES","brand":"BP","address":"MA-105 km 0,3","municipality":"Nerja","province":"MÁLAGA","postalCode":"29780","schedule":"L-D: 24H","fuels":{"gasoline95":1.849,"gasoline98":1.989,"diesel":1.955,"dieselPremium":2.045},"extra":{"saleType":"P","margin":"D","reportingType":"dm","ideess":"10078","idMunicipio":"4529","idProvincia":"29","idCCAA":"01"}}},{"type":"Feature","geometry":{"type":"Point","coordinates":[-3.600194,36.782222]},"properties":{"id":"es-10237","source":"ES","brand":"E.S MOLVIZAR, S.L","address":"CTRA. DE MOTRIL, S/N (GR-SO-14 km 4,300)","municipality":"Molvízar","province":"GRANADA","postalCode":"18611","schedule":"L-D: 06:00-22:00","fuels":{"gasoline95":1.715,"diesel":1.759},"extra":{"saleType":"P","margin":"I","reportingType":"dm","ideess":"10237","idMunicipio":"2779","idProvincia":"18","idCCAA":"01"}}},{"type":"Feature","geometry":{"type":"Point","coordinates":[-3.58425,36.74775]},"properties":{"id":"es-10544","source":"ES","brand":"ASC CARBURANTES","address":"POLIGONO CALLE E, S/N","municipality":"Salobreña","province":"GRANADA","postalCode":"18680","schedule":"L-D: 06:30-22:30","fuels":{"gasoline95":1.639,"diesel":1.749,"adblue":0.89},"extra":{"saleType":"P","margin":"N","reportingType":"dm","ideess":"10544","idMunicipio":"2814","idProvincia":"18","idCCAA":"01"}}},{"type":"Feature","geometry":{"type":"Point","coordinates":[-3.807306,36.948139]},"properties":{"id":"es-10690","source":"ES","brand":"E.S. LOS PAROMALEJOS,S.L.","address":"CARRETERA DE JAYENA-SUSPIRO DEL MORO KM 9,200","municipality":"Jayena","province":"GRANADA","postalCode":"18127","schedule":"L-V: 07:00-22:00; S-D: 07:00-15:00","fuels":{"gasoline95":1.649,"diesel":1.699,"dieselB":1.379},"extra":{"saleType":"P","margin":"D","reportingType":"dm","ideess":"10690","idMunicipio":"2761","idProvincia":"18","idCCAA":"01"}}},{"type":"Feature","geometry":{"type":"Point","coordinates":[-3.682556,36.734583]},"properties":{"id":"es-11688","source":"ES","brand":"BP ESSA","address":"CALLE KHAN JONES, S/N","municipality":"Almuñécar","province":"GRANADA","postalCode":"18690","schedule":"L-D: 24H","fuels":{"gasoline95":1.751,"gasoline98":1.899,"diesel":1.879,"dieselPremium":1.972},"extra":{"saleType":"P","margin":"D","reportingType":"dm","ideess":"11688","idMunicipio":"2685","idProvincia":"18","idCCAA":"01"}}},{"type":"Feature","geometry":{"type":"Point","coordinates":[-3.605,36.987111]},"properties":{"id":"es-11830","source":"ES","brand":"REPSOL - LA LOMA","address":"AUTOVIA A 42 KM. 153","municipality":"Villamena","province":"GRANADA","postalCode":"18659","schedule":"L-D: 24H","fuels":{"gasoline95":1.739,"gasoline98":1.859,"diesel":1.849,"dieselPremium":1.919,"dieselB":1.679},"extra":{"saleType":"P","margin":"D","reportingType":"dm","ideess":"11830","idMunicipio":"2831","idProvincia":"18","idCCAA":"01"}}},{"type":"Feature","geometry":{"type":"Point","coordinates":[-3.60475,36.988889]},"properties":{"id":"es-11895","source":"ES","brand":"BP ISRECE A 44","address":"AUTOVIA A-44 BAILÉN-MOTRIL KM. 153,000","municipality":"Villamena","province":"GRANADA","postalCode":"18659","schedule":"L-D: 06:30-22:30","fuels":{"gasoline95":1.769,"gasoline98":1.909,"diesel":1.939,"dieselPremium":2.029,"adblue":1.025},"extra":{"saleType":"P","margin":"I","reportingType":"OM","ideess":"11895","idMunicipio":"2831","idProvincia":"18","idCCAA":"01"}}},{"type":"Feature","geometry":{"type":"Point","coordinates":[-3.001889,36.756139]},"properties":{"id":"es-11926","source":"ES","brand":"REPSOL","address":"CARRETERA LA ALQUERIA Nº125 SALIDA AUTOVIA 389 KM. 389","municipality":"Adra","province":"ALMERÍA","postalCode":"04770","schedule":"L-D: 24H","fuels":{"gasoline95":1.849,"diesel":1.909,"dieselPremium":1.989,"dieselB":1.719},"extra":{"saleType":"P","margin":"D","reportingType":"dm","ideess":"11926","idMunicipio":"282","idProvincia":"04","idCCAA":"01"}}},{"type":"Feature","geometry":{"type":"Point","coordinates":[-3.888194,36.762083]},"properties":{"id":"es-11978","source":"ES","brand":"CEPSA","address":"AUTOVIA A-7 KM. 292","municipality":"Frigiliana","province":"MÁLAGA","postalCode":"29778","schedule":"L-D: 24H","fuels":{"gasoline95":1.764,"diesel":1.868,"dieselPremium":1.958,"adblue":0.999},"extra":{"saleType":"P","margin":"D","reportingType":"dm","ideess":"11978","idMunicipio":"4507","idProvincia":"29","idCCAA":"01"}}},{"type":"Feature","geometry":{"type":"Point","coordinates":[-3.513139,36.737611]},"properties":{"id":"es-12240","source":"ES","brand":"SHELL","address":"CARRETERA ALMERIA KM. 1","municipality":"Motril","province":"GRANADA","postalCode":"18600","schedule":"L-D: 07:00-11:00","fuels":{"gasoline95":1.739,"gasoline98":1.869,"diesel":1.859,"dieselPremium":1.939},"extra":{"saleType":"P","margin":"D","reportingType":"dm","ideess":"12240","idMunicipio":"2786","idProvincia":"18","idCCAA":"01"}}},{"type":"Feature","geometry":{"type":"Point","coordinates":[-3.527861,36.742417]},"properties":{"id":"es-12360","source":"ES","brand":"PLENERGY","address":"CALLE RAMBLA DE LAS BRUJAS, 0","municipality":"Motril","province":"GRANADA","postalCode":"18600","schedule":"L-D: 24H","fuels":{"gasoline95":1.509,"diesel":1.649},"extra":{"saleType":"P","margin":"D","reportingType":"dm","ideess":"12360","idMunicipio":"2786","idProvincia":"18","idCCAA":"01"}}},{"type":"Feature","geometry":{"type":"Point","coordinates":[-3.511528,36.736972]},"properties":{"id":"es-12529","source":"ES","brand":"MINIOIL","address":"CALLE SANTO DOMINGO, 3","municipality":"Motril","province":"GRANADA","postalCode":"18600","schedule":"L-D: 24H","fuels":{"gasoline95":1.599,"diesel":1.699,"adblue":0.899},"extra":{"saleType":"P","margin":"D","reportingType":"dm","ideess":"12529","idMunicipio":"2786","idProvincia":"18","idCCAA":"01"}}},{"type":"Feature","geometry":{"type":"Point","coordinates":[-3.169361,36.751833]},"properties":{"id":"es-12785","source":"ES","brand":"GASOLINERA","address":"CALLE VISTA ALEGRE (VAL), S/N","municipality":"Albuñol","province":"GRANADA","postalCode":"18760","schedule":"L: 06:00-21:00","fuels":{"gasoline95":1.699,"diesel":1.889,"adblue":0.75},"extra":{"saleType":"P","margin":"D","reportingType":"dm","ideess":"12785","idMunicipio":"2676","idProvincia":"18","idCCAA":"01"}}},{"type":"Feature","geometry":{"type":"Point","coordinates":[-3.557306,36.974444]},"properties":{"id":"es-12799","source":"ES","brand":"ESTACIÓN DE SERVICIO NIGÜELAS, S.L.","address":"CARRETERA GR-9067 KM. 1","municipality":"Nigüelas","province":"GRANADA","postalCode":"18657","schedule":"L-D: 24H","fuels":{"gasoline95":1.699,"diesel":1.799,"adblue":0.889},"extra":{"saleType":"P","margin":"N","reportingType":"dm","ideess":"12799","idMunicipio":"2789","idProvincia":"18","idCCAA":"01"}}},{"type":"Feature","geometry":{"type":"Point","coordinates":[-3.9605,36.752639]},"properties":{"id":"es-12811","source":"ES","brand":"BP TORROX","address":"AUTOVIA A-7 KM. 287","municipality":"Torrox","province":"MÁLAGA","postalCode":"29770","schedule":"L-D: 24H","fuels":{"gasoline95":1.849,"gasoline98":1.989,"diesel":1.989,"dieselPremium":2.079},"extra":{"saleType":"P","margin":"D","reportingType":"OM","ideess":"12811","idMunicipio":"4545","idProvincia":"29","idCCAA":"01"}}},{"type":"Feature","geometry":{"type":"Point","coordinates":[-3.583167,36.747167]},"properties":{"id":"es-13395","source":"ES","brand":"PETROPRIX","address":"POLIGONO LA GASOLINERA, 51","municipality":"Salobreña","province":"GRANADA","postalCode":"18680","schedule":"L-D: 24H","fuels":{"gasoline95":1.509,"diesel":1.649},"extra":{"saleType":"P","margin":"N","reportingType":"dm","ideess":"13395","idMunicipio":"2814","idProvincia":"18","idCCAA":"01"}}},{"type":"Feature","geometry":{"type":"Point","coordinates":[-3.885528,36.755389]},"properties":{"id":"es-13989","source":"ES","brand":"AUTONET&OIL","address":"CALLE PAGO CASTILLO ALTO, 1","municipality":"Nerja","province":"MÁLAGA","postalCode":"29780","schedule":"L-D: 24H","fuels":{"gasoline95":1.619,"diesel":1.809},"extra":{"saleType":"P","margin":"D","reportingType":"dm","ideess":"13989","idMunicipio":"4529","idProvincia":"29","idCCAA":"01"}}},{"type":"Feature","geometry":{"type":"Point","coordinates":[-3.55725,36.770722]},"properties":{"id":"es-14187","source":"ES","brand":"CEPSA","address":"AUTOVIA GR-14 KM. 0","municipality":"Motril","province":"GRANADA","postalCode":"18600","schedule":"L-D: 24H","fuels":{"gasoline95":1.736,"gasoline95Premium":1.826,"gasoline98":1.866,"diesel":1.859,"dieselPremium":1.937},"extra":{"saleType":"P","margin":"I","reportingType":"dm","ideess":"14187","idMunicipio":"2786","idProvincia":"18","idCCAA":"01"}}},{"type":"Feature","geometry":{"type":"Point","coordinates":[-3.36225,36.734833]},"properties":{"id":"es-14446","source":"ES","brand":"EL GRUPO SCA","address":"CALLE RAMBLA HILEROS, S/N","municipality":"Gualchos","province":"GRANADA","postalCode":"18740","schedule":"L-S: 07:00-23:00","fuels":{"gasoline95":1.511,"diesel":1.615,"dieselPremium":1.645,"adblue":0.8},"extra":{"saleType":"P","margin":"D","reportingType":"dm","ideess":"14446","idMunicipio":"2749","idProvincia":"18","idCCAA":"01"}}},{"type":"Feature","geometry":{"type":"Point","coordinates":[-3.513278,36.740083]},"properties":{"id":"es-14622","source":"ES","brand":"ASC CARBURANTES","address":"CARRETERA ALMERIA-MOTRIL KM. 31","municipality":"Motril","province":"GRANADA","postalCode":"18600","schedule":"L-D: 24H","fuels":{"gasoline95":1.639,"diesel":1.749,"lpg":0.989,"adblue":0.89},"extra":{"saleType":"P","margin":"I","reportingType":"dm","ideess":"14622","idMunicipio":"2786","idProvincia":"18","idCCAA":"01"}}},{"type":"Feature","geometry":{"type":"Point","coordinates":[-3.446444,36.699028]},"properties":{"id":"es-14687","source":"ES","brand":"GASOLINERA GRANADA LA PALMA","address":"CARRETERA 340 KM. 342","municipality":"Motril","province":"GRANADA","postalCode":"18730","schedule":"L-S: 06:00-22:00","fuels":{"gasoline95":1.469,"diesel":1.553,"dieselPremium":1.583,"adblue":0.424},"extra":{"saleType":"P","margin":"N","reportingType":"dm","ideess":"14687","idMunicipio":"2786","idProvincia":"18","idCCAA":"01"}}},{"type":"Feature","geometry":{"type":"Point","coordinates":[-3.551694,36.949278]},"properties":{"id":"es-14848","source":"ES","brand":"E.S. LEMANS","address":"CALLE GRANADA, 28","municipality":"Lecrín","province":"GRANADA","postalCode":"18656","schedule":"L-D: 24H","fuels":{"gasoline95":1.729,"diesel":1.859,"dieselPremium":1.929},"extra":{"saleType":"P","margin":"I","reportingType":"dm","ideess":"14848","idMunicipio":"2769","idProvincia":"18","idCCAA":"01"}}},{"type":"Feature","geometry":{"type":"Point","coordinates":[-3.426278,36.9025]},"properties":{"id":"es-14900","source":"ES","brand":"MOEVE  - E.S. ÓRGIVA","address":"CALLE FUENTE MARIANO, 1","municipality":"Órgiva","province":"GRANADA","postalCode":"18400","schedule":"L-V: 06:30-23:00; S-D: 07:00-23:00","fuels":{"gasoline95":1.709,"gasoline98":1.845,"diesel":1.839,"dieselPremium":1.915},"extra":{"saleType":"P","margin":"D","reportingType":"dm","ideess":"14900","idMunicipio":"2793","idProvincia":"18","idCCAA":"01"}}},{"type":"Feature","geometry":{"type":"Point","coordinates":[-3.513556,36.737417]},"properties":{"id":"es-15144","source":"ES","brand":"SMART OIL","address":"CARRETERA ALMERIA-MOTRIL KM. 50","municipality":"Motril","province":"GRANADA","postalCode":"18600","schedule":"L: 06:30-22:30","fuels":{"gasoline95":1.599,"diesel":1.699,"dieselPremium":1.749,"adblue":0.889},"extra":{"saleType":"P","margin":"N","reportingType":"dm","ideess":"15144","idMunicipio":"2786","idProvincia":"18","idCCAA":"01"}}},{"type":"Feature","geometry":{"type":"Point","coordinates":[-3.475278,36.726139]},"properties":{"id":"es-15351","source":"ES","brand":"SAT LA CAÑA","address":"CARRETERA VIEJA DE CARCHUNA KM. S/N","municipality":"Motril","province":"GRANADA","postalCode":"18600","schedule":"L-S: 08:00-14:00 y 16:00-19:00","fuels":{"diesel":1.599,"dieselB":1.5},"extra":{"saleType":"P","margin":"D","reportingType":"dm","ideess":"15351","idMunicipio":"2786","idProvincia":"18","idCCAA":"01"}}},{"type":"Feature","geometry":{"type":"Point","coordinates":[-3.577528,36.999694]},"properties":{"id":"es-15457","source":"ES","brand":"E.S. VALLE ZAHOR","address":"CARRETERA N-323 KM. 457,1","municipality":"Dúrcal","province":"GRANADA","postalCode":"18560","schedule":"L-D: 06:30-22:00","fuels":{"gasoline95":1.719,"gasoline98":1.889,"diesel":1.869},"extra":{"saleType":"P","margin":"I","reportingType":"dm","ideess":"15457","idMunicipio":"2733","idProvincia":"18","idCCAA":"01"}}},{"type":"Feature","geometry":{"type":"Point","coordinates":[-3.509,36.731917]},"properties":{"id":"es-15999","source":"ES","brand":"PETROPRIX","address":"CARRETERA ALMERIA-MOTRIL KM. 107","municipality":"Motril","province":"GRANADA","postalCode":"18600","schedule":"L-D: 24H","fuels":{"gasoline95":1.509,"diesel":1.649},"extra":{"saleType":"P","margin":"D","reportingType":"dm","ideess":"15999","idMunicipio":"2786","idProvincia":"18","idCCAA":"01"}}},{"type":"Feature","geometry":{"type":"Point","coordinates":[-3.509028,36.733472]},"properties":{"id":"es-16348","source":"ES","brand":"GM OIL","address":"CALLE SANTO DOMINGO, 23","municipality":"Motril","province":"GRANADA","postalCode":"18600","schedule":"L-D: 24H","fuels":{"gasoline95":1.479,"diesel":1.699},"extra":{"saleType":"P","margin":"D","reportingType":"dm","ideess":"16348","idMunicipio":"2786","idProvincia":"18","idCCAA":"01"}}},{"type":"Feature","geometry":{"type":"Point","coordinates":[-3.517389,36.725361]},"properties":{"id":"es-16424","source":"ES","brand":"HAXX PUERTO DE MOTRIL","address":"ACCESO LA ZAL, SN","municipality":"Motril","province":"GRANADA","postalCode":"18613","schedule":"L-D: 24H","fuels":{"gasoline95":1.599,"diesel":1.699,"dieselPremium":1.699,"dieselB":1.369,"lpg":0.969,"adblue":0.899},"extra":{"saleType":"P","margin":"D","reportingType":"dm","ideess":"16424","idMunicipio":"2786","idProvincia":"18","idCCAA":"01"}}},{"type":"Feature","geometry":{"type":"Point","coordinates":[-3.523806,36.731444]},"properties":{"id":"es-16485","source":"ES","brand":"AGLA PLAYA MOTRIL","address":"AVENIDA NUESTRA SEÑORA DE LA CABEZA, S/N","municipality":"Motril","province":"GRANADA","postalCode":"18613","schedule":"L-D: 24H","fuels":{"gasoline95":1.558,"diesel":1.668,"adblue":0.898},"extra":{"saleType":"P","margin":"D","reportingType":"dm","ideess":"16485","idMunicipio":"2786","idProvincia":"18","idCCAA":"01"}}},{"type":"Feature","geometry":{"type":"Point","coordinates":[-3.364472,36.930139]},"properties":{"id":"es-5554","source":"ES","brand":"E.S MIRADOR DE POQUEIRA","address":"CARRETERA GR-421 km 54,074","municipality":"Pampaneira","province":"GRANADA","postalCode":"18411","schedule":"L-D: 07:00-23:00","fuels":{"gasoline95":1.695,"gasoline98":1.805,"diesel":1.825},"extra":{"saleType":"P","margin":"D","reportingType":"dm","ideess":"5554","idMunicipio":"2797","idProvincia":"18","idCCAA":"01"}}},{"type":"Feature","geometry":{"type":"Point","coordinates":[-3.522528,36.754444]},"properties":{"id":"es-5654","source":"ES","brand":"REPSOL","address":"AVENIDA ENRIQUE MARTIN CUEVAS, 45","municipality":"Motril","province":"GRANADA","postalCode":"18600","schedule":"L-D: 06:30-22:30","fuels":{"gasoline95":1.78,"gasoline98":1.96,"diesel":1.896,"dieselRenewable":2.016},"extra":{"saleType":"P","margin":"D","reportingType":"OM","ideess":"5654","idMunicipio":"2786","idProvincia":"18","idCCAA":"01"}}},{"type":"Feature","geometry":{"type":"Point","coordinates":[-3.429917,36.901333]},"properties":{"id":"es-5725","source":"ES","brand":"BP E.S. ALPUJARRA","address":"CR COMARCAL 333 km 16,145","municipality":"Órgiva","province":"GRANADA","postalCode":"18400","schedule":"L-D: 06:30-23:00","fuels":{"gasoline95":1.719,"gasoline98":1.859,"diesel":1.849,"dieselPremium":1.939},"extra":{"saleType":"P","margin":"I","reportingType":"dm","ideess":"5725","idMunicipio":"2793","idProvincia":"18","idCCAA":"01"}}},{"type":"Feature","geometry":{"type":"Point","coordinates":[-3.584083,36.740333]},"properties":{"id":"es-5726","source":"ES","brand":"REPSOL","address":"AVENIDA MEDITERRANEO, 29","municipality":"Salobreña","province":"GRANADA","postalCode":"18680","schedule":"L-D: 06:30-22:30","fuels":{"gasoline95":1.796,"gasoline98":1.926,"diesel":1.91,"dieselRenewable":2.03,"lpg":1.079},"extra":{"saleType":"P","margin":"D","reportingType":"OM","ideess":"5726","idMunicipio":"2814","idProvincia":"18","idCCAA":"01"}}},{"type":"Feature","geometry":{"type":"Point","coordinates":[-3.182889,36.761972]},"properties":{"id":"es-5735","source":"ES","brand":"REPSOL","address":"A-345 km 64,7","municipality":"Albuñol","province":"GRANADA","postalCode":"18700","schedule":"L: 07:00-20:00","fuels":{"gasoline95":1.756,"gasoline98":1.936,"diesel":1.95,"dieselPremium":2.07},"extra":{"saleType":"P","margin":"I","reportingType":"OM","ideess":"5735","idMunicipio":"2676","idProvincia":"18","idCCAA":"01"}}},{"type":"Feature","geometry":{"type":"Point","coordinates":[-3.003944,36.748056]},"properties":{"id":"es-5797","source":"ES","brand":"REPSOL","address":"CARRETERA N-340 KM. 389,6","municipality":"Adra","province":"ALMERÍA","postalCode":"04770","schedule":"L: 06:00-22:00","fuels":{"gasoline95":1.77,"gasoline98":1.9,"diesel":1.896,"dieselRenewable":2.016},"extra":{"saleType":"P","margin":"D","reportingType":"OM","ideess":"5797","idMunicipio":"282","idProvincia":"04","idCCAA":"01"}}},{"type":"Feature","geometry":{"type":"Point","coordinates":[-3.546972,36.776778]},"properties":{"id":"es-6579","source":"ES","brand":"CEPSA","address":"CARRETERA NACIONAL 323 KM. 186","municipality":"Motril","province":"GRANADA","postalCode":"18600","schedule":"L-V: 07:00-11:00","fuels":{"gasoline95":1.714,"gasoline98":1.839,"diesel":1.771},"extra":{"saleType":"P","margin":"I","reportingType":"dm","ideess":"6579","idMunicipio":"2786","idProvincia":"18","idCCAA":"01"}}},{"type":"Feature","geometry":{"type":"Point","coordinates":[-3.513833,36.743556]},"properties":{"id":"es-6580","source":"ES","brand":"CEPSA","address":"CALLE PUENTE TOLEDANO, S/N","municipality":"Motril","province":"GRANADA","postalCode":"18600","schedule":"L-D: 06:00-22:00","fuels":{"gasoline95":1.736,"gasoline95Premium":1.826,"gasoline98":1.866,"diesel":1.859,"dieselPremium":1.937},"extra":{"saleType":"P","margin":"I","reportingType":"dm","ideess":"6580","idMunicipio":"2786","idProvincia":"18","idCCAA":"01"}}},{"type":"Feature","geometry":{"type":"Point","coordinates":[-3.435889,36.701028]},"properties":{"id":"es-6581","source":"ES","brand":"CEPSA","address":"CARRETERA AVDA.LAS PALMERAS KM. ","municipality":"Motril","province":"GRANADA","postalCode":"18730","schedule":"L-D: 06:00-22:00","fuels":{"gasoline95":1.736,"gasoline98":1.866,"diesel":1.859,"dieselPremium":1.937},"extra":{"saleType":"P","margin":"I","reportingType":"dm","ideess":"6581","idMunicipio":"2786","idProvincia":"18","idCCAA":"01"}}},{"type":"Feature","geometry":{"type":"Point","coordinates":[-3.176722,36.946194]},"properties":{"id":"es-6604","source":"ES","brand":"BP CADIAR","address":"CARRETERA LANJARÓN- GRANADA A-348 KM. 53","municipality":"Cádiar","province":"GRANADA","postalCode":"18440","schedule":"L-D: 08:00-14:30 y 16:00-20:30","fuels":{"gasoline95":1.789,"gasoline98":1.929,"diesel":1.909},"extra":{"saleType":"P","margin":"I","reportingType":"dm","ideess":"6604","idMunicipio":"2701","idProvincia":"18","idCCAA":"01"}}},{"type":"Feature","geometry":{"type":"Point","coordinates":[-3.364639,36.720528]},"properties":{"id":"es-6606","source":"ES","brand":"REPSOL","address":"CARRETERA MALAGA NACIONAL 340 KM. 352","municipality":"Gualchos","province":"GRANADA","postalCode":"18740","schedule":"L-S: 07:00-22:30; D: 08:00-22:30","fuels":{"gasoline95":1.805,"gasoline98":1.985,"diesel":1.925,"dieselPremium":2.045,"lpg":1.17},"extra":{"saleType":"P","margin":"D","reportingType":"dm","ideess":"6606","idMunicipio":"2749","idProvincia":"18","idCCAA":"01"}}},{"type":"Feature","geometry":{"type":"Point","coordinates":[-3.542278,36.728222]},"properties":{"id":"es-6726","source":"ES","brand":"PLENERGY","address":"CARRETERA DE LA CELULOSA (N-323a) KM. 0","municipality":"Motril","province":"GRANADA","postalCode":"18600","schedule":"L-D: 24H","fuels":{"gasoline95":1.509,"diesel":1.649},"extra":{"saleType":"P","margin":"D","reportingType":"dm","ideess":"6726","idMunicipio":"2786","idProvincia":"18","idCCAA":"01"}}},{"type":"Feature","geometry":{"type":"Point","coordinates":[-3.560694,36.977889]},"properties":{"id":"es-6731","source":"ES","brand":"BP SAN BLAS","address":"AVENIDA DEL SUR, S/N","municipality":"Dúrcal","province":"GRANADA","postalCode":"18560","schedule":"L-D: 06:00-00:00","fuels":{"gasoline95":1.769,"gasoline98":1.909,"diesel":1.939,"dieselPremium":2.029,"adblue":1.025},"extra":{"saleType":"P","margin":"N","reportingType":"OM","ideess":"6731","idMunicipio":"2733","idProvincia":"18","idCCAA":"01"}}},{"type":"Feature","geometry":{"type":"Point","coordinates":[-3.586972,36.74825]},"properties":{"id":"es-6828","source":"ES","brand":"PLENERGY","address":"CARRETERA CARRETERA N-340, KM. 327 KM. 327","municipality":"Salobreña","province":"GRANADA","postalCode":"18680","schedule":"L-D: 24H","fuels":{"gasoline95":1.509,"diesel":1.649},"extra":{"saleType":"P","margin":"D","reportingType":"dm","ideess":"6828","idMunicipio":"2814","idProvincia":"18","idCCAA":"01"}}},{"type":"Feature","geometry":{"type":"Point","coordinates":[-3.04825,36.962778]},"properties":{"id":"es-6851","source":"ES","brand":"BP LA ALPUJARRA-UGIJAR","address":"CARRETERA ALMERÍA KM. 1","municipality":"Ugíjar","province":"GRANADA","postalCode":"18480","schedule":"L-D: 07:00-22:00","fuels":{"gasoline95":1.679,"gasoline98":1.819,"diesel":1.779,"dieselPremium":1.869,"dieselB":1.519},"extra":{"saleType":"P","margin":"D","reportingType":"dm","ideess":"6851","idMunicipio":"2824","idProvincia":"18","idCCAA":"01"}}},{"type":"Feature","geometry":{"type":"Point","coordinates":[-3.517472,36.74375]},"properties":{"id":"es-6862","source":"ES","brand":"E.S. CAMPSA","address":"CALLE AVENIDA ANDALUCIA, 11","municipality":"Motril","province":"GRANADA","postalCode":"18600","schedule":"L-D: 06:30-22:30","fuels":{"gasoline95":1.78,"gasoline98":1.91,"diesel":1.896,"dieselB":1.622,"dieselRenewable":2.016},"extra":{"saleType":"P","margin":"N","reportingType":"OM","ideess":"6862","idMunicipio":"2786","idProvincia":"18","idCCAA":"01"}}},{"type":"Feature","geometry":{"type":"Point","coordinates":[-3.687472,36.736917]},"properties":{"id":"es-6901","source":"ES","brand":"REPSOL","address":"AVENIDA AVENIDA DE SALOBREÑA, 1","municipality":"Almuñécar","province":"GRANADA","postalCode":"18690","schedule":"L: 07:00-23:00","fuels":{"gasoline95":1.779,"gasoline98":1.939,"diesel":1.929,"dieselPremium":1.989,"adblue":0.849},"extra":{"saleType":"P","margin":"I","reportingType":"dm","ideess":"6901","idMunicipio":"2685","idProvincia":"18","idCCAA":"01"}}},{"type":"Feature","geometry":{"type":"Point","coordinates":[-3.473056,36.920667]},"properties":{"id":"es-6946","source":"ES","brand":"REPSOL","address":"CALLE SEÑOR DE LA EXPIRACIÓN, S/N","municipality":"Lanjarón","province":"GRANADA","postalCode":"18420","schedule":"L: 06:00-22:00","fuels":{"gasoline95":1.736,"gasoline98":1.899,"diesel":1.821,"dieselPremium":1.895},"extra":{"saleType":"P","margin":"D","reportingType":"dm","ideess":"6946","idMunicipio":"2767","idProvincia":"18","idCCAA":"01"}}},{"type":"Feature","geometry":{"type":"Point","coordinates":[-3.981028,36.825139]},"properties":{"id":"es-7047","source":"ES","brand":"E.S.MARIDI","address":"CTRA.MA-111 km 16,65","municipality":"Cómpeta","province":"MÁLAGA","postalCode":"29754","schedule":"L-D: 07:00-22:00","fuels":{"gasoline95":1.649,"gasoline98":1.749,"dieselPremium":1.749},"extra":{"saleType":"P","margin":"D","reportingType":"dm","ideess":"7047","idMunicipio":"4499","idProvincia":"29","idCCAA":"01"}}},{"type":"Feature","geometry":{"type":"Point","coordinates":[-3.891111,36.747056]},"properties":{"id":"es-7130","source":"ES","brand":"REPSOL","address":"CARRETERA N-340 KM. 290,5","municipality":"Nerja","province":"MÁLAGA","postalCode":"29780","schedule":"L-D: 06:00-22:00","fuels":{"gasoline95":1.85,"gasoline98":1.98,"diesel":1.946,"dieselPremium":2.016},"extra":{"saleType":"P","margin":"I","reportingType":"OM","ideess":"7130","idMunicipio":"4529","idProvincia":"29","idCCAA":"01"}}},{"type":"Feature","geometry":{"type":"Point","coordinates":[-3.978472,36.734944]},"properties":{"id":"es-7139","source":"ES","brand":"REPSOL","address":"CARRETERA MALAGA-ALMERIA KM. 282","municipality":"Torrox","province":"MÁLAGA","postalCode":"29793","schedule":"L: 24H","fuels":{"gasoline95":1.799,"gasoline98":1.959,"diesel":1.939,"dieselPremium":1.999,"adblue":0.999},"extra":{"saleType":"P","margin":"D","reportingType":"dm","ideess":"7139","idMunicipio":"4545","idProvincia":"29","idCCAA":"01"}}},{"type":"Feature","geometry":{"type":"Point","coordinates":[-3.978444,36.735306]},"properties":{"id":"es-7140","source":"ES","brand":"REPSOL","address":"CARRETERA MALAGA-ALMERIA KM. 282","municipality":"Torrox","province":"MÁLAGA","postalCode":"29793","schedule":"L-V: 08:00-21:00; S: 08:00-14:00","fuels":{"gasoline95":1.799,"diesel":1.939,"dieselPremium":1.999},"extra":{"saleType":"P","margin":"I","reportingType":"dm","ideess":"7140","idMunicipio":"4545","idProvincia":"29","idCCAA":"01"}}},{"type":"Feature","geometry":{"type":"Point","coordinates":[-3.357694,36.731472]},"properties":{"id":"es-8077","source":"ES","brand":"EESS GASOLEOS FERRER S.L","address":"POLIGONO CASTELL DE FERRO, FASE III, KM, 353,5","municipality":"Gualchos","province":"GRANADA","postalCode":"18740","schedule":"L-D: 24H","fuels":{"gasoline95":1.689,"gasoline98":1.829,"diesel":1.759},"extra":{"saleType":"P","margin":"D","reportingType":"dm","ideess":"8077","idMunicipio":"2749","idProvincia":"18","idCCAA":"01"}}},{"type":"Feature","geometry":{"type":"Point","coordinates":[-3.530806,36.742028]},"properties":{"id":"es-8361","source":"ES","brand":"ALCAMPO MOTRIL","address":"AVENIDA SALOBREÑA, S/N","municipality":"Motril","province":"GRANADA","postalCode":"18600","schedule":"L-D: 24H","fuels":{"gasoline95":1.529,"gasoline98":1.729,"diesel":1.699,"dieselPremium":1.759},"extra":{"saleType":"P","margin":"N","reportingType":"dm","ideess":"8361","idMunicipio":"2786","idProvincia":"18","idCCAA":"01"}}},{"type":"Feature","geometry":{"type":"Point","coordinates":[-3.876167,36.752222]},"properties":{"id":"es-9481","source":"ES","brand":"E.S NERJA","address":"AVENIDA DE PESCIA, 3","municipality":"Nerja","province":"MÁLAGA","postalCode":"29780","schedule":"L-D: 24H","fuels":{"gasoline95":1.829,"gasoline98":1.929,"diesel":1.929,"dieselPremium":1.989,"adblue":0.939},"extra":{"saleType":"P","margin":"D","reportingType":"dm","ideess":"9481","idMunicipio":"4529","idProvincia":"29","idCCAA":"01"}}},{"type":"Feature","geometry":{"type":"Point","coordinates":[-3.553583,36.946]},"properties":{"id":"es-9839","source":"ES","brand":"ESTACION DE SERVICIO VALLE DE LECRIN","address":"AVENIDA CONSTITUCIÓN, 23","municipality":"Lecrín","province":"GRANADA","postalCode":"18656","schedule":"L-D: 06:30-23:00","fuels":{"gasoline95":1.709,"gasoline98":1.859,"diesel":1.809},"extra":{"saleType":"P","margin":"D","reportingType":"dm","ideess":"9839","idMunicipio":"2769","idProvincia":"18","idCCAA":"01"}}},{"type":"Feature","geometry":{"type":"Point","coordinates":[-3.533417,36.814333]},"properties":{"id":"es-9863","source":"ES","brand":"REPSOL","address":"CARRETERA N-323 KM. 187,5","municipality":"Vélez de Benaudalla","province":"GRANADA","postalCode":"18670","schedule":"L: 06:30-22:30","fuels":{"gasoline95":1.78,"gasoline95Premium":1.84,"gasoline98":1.96,"diesel":1.93,"dieselRenewable":2.05},"extra":{"saleType":"P","margin":"I","reportingType":"OM","ideess":"9863","idMunicipio":"2829","idProvincia":"18","idCCAA":"01"}}},{"type":"Feature","geometry":{"type":"Point","coordinates":[-3.73875,36.736556]},"properties":{"id":"es-9934","source":"ES","brand":"CEPSA","address":"CARRETERA N-340 KM. 308","municipality":"Almuñécar","province":"GRANADA","postalCode":"18697","schedule":"L-D: 06:30-22:30","fuels":{"gasoline95":1.74,"gasoline98":1.86,"diesel":1.94,"dieselPremium":1.99},"extra":{"saleType":"P","margin":"D","reportingType":"dm","ideess":"9934","idMunicipio":"2685","idProvincia":"18","idCCAA":"01"}}}]}