{"type":"FeatureCollection","features":[{"type":"Feature","geometry":{"type":"Point","coordinates":[-18.010944,27.774306]},"properties":{"id":"es-16297","source":"ES","brand":"DEL VALLE COMBUSTIBLES, S.L.","address":"CALLE EL MATORRAL, 55","municipality":"Frontera","province":"SANTA CRUZ DE TENERIFE","postalCode":"38911","schedule":"L-D: 06:00-22:00","fuels":{"gasoline95":1.557,"diesel":1.669},"extra":{"saleType":"P","margin":"D","reportingType":"dm","ideess":"16297","idMunicipio":"5703","idProvincia":"38","idCCAA":"05"}}},{"type":"Feature","geometry":{"type":"Point","coordinates":[-18.011944,27.751944]},"properties":{"id":"es-7844","source":"ES","brand":"DISA FRONTERA","address":"CALLE CRTRA GRAL TIGADAY, S/N","municipality":"Frontera","province":"SANTA CRUZ DE TENERIFE","postalCode":"38911","schedule":"L-D: 06:00-22:00","fuels":{"gasoline95":1.659,"gasoline98":1.809,"diesel":1.759,"dieselPremium":1.839},"extra":{"saleType":"P","margin":"D","reportingType":"OM","ideess":"7844","idMunicipio":"5703","idProvincia":"38","idCCAA":"05"}}}]}