{"type":"FeatureCollection","features":[{"type":"Feature","geometry":{"type":"Point","coordinates":[-2.121528,40.053389]},"properties":{"id":"es-12117","source":"ES","brand":"CARREFOUR","address":"AVENIDA DEL MEDITERRANEO, S/N","municipality":"Cuenca","province":"CUENCA","postalCode":"16004","schedule":"L-D: 08:00-22:00","fuels":{"gasoline95":1.749,"diesel":1.859},"extra":{"saleType":"P","margin":"N","reportingType":"dm","ideess":"12117","idMunicipio":"2283","idProvincia":"16","idCCAA":"07"}}},{"type":"Feature","geometry":{"type":"Point","coordinates":[-2.570306,40.007639]},"properties":{"id":"es-12946","source":"ES","brand":"VIRGEN URBANOS","address":"CALLE URBANOS, 1","municipality":"Torrejoncillo del Rey","province":"CUENCA","postalCode":"16161","schedule":"L-D: 24H","fuels":{"diesel":1.6,"dieselB":1.35},"extra":{"saleType":"P","margin":"N","reportingType":"dm","ideess":"12946","idMunicipio":"2396","idProvincia":"16","idCCAA":"07"}}},{"type":"Feature","geometry":{"type":"Point","coordinates":[-2.664944,40.957194]},"properties":{"id":"es-13205","source":"ES","brand":"CEPSA","address":"AUTOVIA NORDESTE KM. 112","municipality":"Algora","province":"GUADALAJARA","postalCode":"19268","schedule":"L-D: 24H","fuels":{"gasoline95":1.829,"gasoline98":1.989,"diesel":1.959,"dieselPremium":2.059},"extra":{"saleType":"P","margin":"D","reportingType":"dm","ideess":"13205","idMunicipio":"2853","idProvincia":"19","idCCAA":"07"}}},{"type":"Feature","geometry":{"type":"Point","coordinates":[-2.615972,40.972278]},"properties":{"id":"es-13333","source":"ES","brand":"HAM TORREMOCHA","address":"CARRETERA A2 KM. 117,4","municipality":"Torremocha del Campo","province":"GUADALAJARA","postalCode":"19268","schedule":"L-D: 24H","fuels":{"cng":1.574,"lng":1.529,"bioCng":1.554,"bioLng":1.499},"extra":{"saleType":"P","margin":"D","reportingType":"dm","ideess":"13333","idMunicipio":"3081","idProvincia":"19","idCCAA":"07"}}},{"type":"Feature","geometry":{"type":"Point","coordinates":[-2.126944,40.055278]},"properties":{"id":"es-13749","source":"ES","brand":"AUTONET&OIL","address":"AVENIDA REY JUAN CARLOS I (DEL), 30","municipality":"Cuenca","province":"CUENCA","postalCode":"16004","schedule":"L-D: 24H","fuels":{"gasoline95":1.549,"diesel":1.759,"adblue":0.999},"extra":{"saleType":"P","margin":"D","reportingType":"dm","ideess":"13749","idMunicipio":"2283","idProvincia":"16","idCCAA":"07"}}},{"type":"Feature","geometry":{"type":"Point","coordinates":[-2.124333,40.051972]},"properties":{"id":"es-15078","source":"ES","brand":"SIS CARBURANTES","address":"POLIGONO PALANCARES, 4","municipality":"Cuenca","province":"CUENCA","postalCode":"16004","schedule":"L-D: 24H","fuels":{"gasoline95":1.579,"diesel":1.709},"extra":{"saleType":"P","margin":"D","reportingType":"dm","ideess":"15078","idMunicipio":"2283","idProvincia":"16","idCCAA":"07"}}},{"type":"Feature","geometry":{"type":"Point","coordinates":[-2.734444,40.042694]},"properties":{"id":"es-15410","source":"ES","brand":"NOALLES Y BALANZA","address":"CARRETERA CM-310A KM. 90","municipality":"Campos del Paraíso","province":"CUENCA","postalCode":"16555","schedule":"L-D: 24H","fuels":{"diesel":1.595,"dieselB":1.3},"extra":{"saleType":"P","margin":"I","reportingType":"dm","ideess":"15410","idMunicipio":"2253","idProvincia":"16","idCCAA":"07"}}},{"type":"Feature","geometry":{"type":"Point","coordinates":[-2.150361,40.076222]},"properties":{"id":"es-16175","source":"ES","brand":"BALLENOIL","address":"AVENIDA DE LOS ALFARES, 21","municipality":"Cuenca","province":"CUENCA","postalCode":"16002","schedule":"L-D: 24H","fuels":{"gasoline95":1.559,"diesel":1.699,"dieselPremium":1.709},"extra":{"saleType":"P","margin":"N","reportingType":"OM","ideess":"16175","idMunicipio":"2283","idProvincia":"16","idCCAA":"07"}}},{"type":"Feature","geometry":{"type":"Point","coordinates":[-2.615972,40.972278]},"properties":{"id":"es-4408","source":"ES","brand":"AREA 117","address":"CARRETERA A2 KM. 117,400","municipality":"Torremocha del Campo","province":"GUADALAJARA","postalCode":"19268","schedule":"L-D: 24H","fuels":{"gasoline95":1.669,"diesel":1.749,"dieselB":1.419,"adblue":0.849},"extra":{"saleType":"P","margin":"I","reportingType":"dm","ideess":"4408","idMunicipio":"3081","idProvincia":"19","idCCAA":"07"}}},{"type":"Feature","geometry":{"type":"Point","coordinates":[-2.882694,40.761639]},"properties":{"id":"es-4411","source":"ES","brand":"ALAMEDA","address":"CARRETERA CM-2011 KM. 12,2","municipality":"Brihuega","province":"GUADALAJARA","postalCode":"19400","schedule":"L-D: 07:00-22:00","fuels":{"gasoline95":1.729,"gasoline98":1.829,"diesel":1.809,"dieselPremium":1.839,"adblue":0.799},"extra":{"saleType":"P","margin":"I","reportingType":"dm","ideess":"4411","idMunicipio":"2883","idProvincia":"19","idCCAA":"07"}}},{"type":"Feature","geometry":{"type":"Point","coordinates":[-2.151417,40.076944]},"properties":{"id":"es-4433","source":"ES","brand":"GALP","address":"AVENIDA LOS ALFARES, S/N","municipality":"Cuenca","province":"CUENCA","postalCode":"16002","schedule":"L-D: 06:00-22:00","fuels":{"gasoline95":1.809,"gasoline98":1.949,"diesel":1.919,"dieselPremium":1.969},"extra":{"saleType":"P","margin":"N","reportingType":"OM","ideess":"4433","idMunicipio":"2283","idProvincia":"16","idCCAA":"07"}}},{"type":"Feature","geometry":{"type":"Point","coordinates":[-2.151472,40.078222]},"properties":{"id":"es-4435","source":"ES","brand":"C.C ALCAMPO","address":"CARRETERA NACIONAL 400 KM. 178,5","municipality":"Cuenca","province":"CUENCA","postalCode":"16002","schedule":"L-S: 07:30-23:00; D: 09:00-23:00","fuels":{"gasoline95":1.549,"gasoline98":1.724,"diesel":1.772,"dieselPremium":1.774},"extra":{"saleType":"P","margin":"N","reportingType":"dm","ideess":"4435","idMunicipio":"2283","idProvincia":"16","idCCAA":"07"}}},{"type":"Feature","geometry":{"type":"Point","coordinates":[-2.223111,40.426806]},"properties":{"id":"es-4809","source":"ES","brand":"R4 SAN MILLAN","address":"CM-2100 km 26","municipality":"Cañamares","province":"CUENCA","postalCode":"16890","schedule":"L-D: 08:00-20:00","fuels":{"gasoline95":1.609,"diesel":1.729},"extra":{"saleType":"P","margin":"D","reportingType":"dm","ideess":"4809","idMunicipio":"2257","idProvincia":"16","idCCAA":"07"}}},{"type":"Feature","geometry":{"type":"Point","coordinates":[-2.107139,40.011694]},"properties":{"id":"es-4832","source":"ES","brand":"CAMPSA","address":"CARRETERA N 320 KM. 131","municipality":"Cuenca","province":"CUENCA","postalCode":"16193","schedule":"L-D: 08:00-21:00","fuels":{"gasoline95":1.806,"diesel":1.97,"dieselPremium":2.04},"extra":{"saleType":"P","margin":"I","reportingType":"OM","ideess":"4832","idMunicipio":"2283","idProvincia":"16","idCCAA":"07"}}},{"type":"Feature","geometry":{"type":"Point","coordinates":[-2.714167,40.927722]},"properties":{"id":"es-4859","source":"ES","brand":"REPSOL","address":"AUTOVIA A-2 KM. 107","municipality":"Mirabueno","province":"GUADALAJARA","postalCode":"19268","schedule":"L-D: 06:00-22:00","fuels":{"gasoline95":1.826,"diesel":1.926,"dieselB":1.582,"dieselRenewable":2.046},"extra":{"saleType":"P","margin":"D","reportingType":"OM","ideess":"4859","idMunicipio":"2992","idProvincia":"19","idCCAA":"07"}}},{"type":"Feature","geometry":{"type":"Point","coordinates":[-2.928389,40.92225]},"properties":{"id":"es-4880","source":"ES","brand":"CEPSA","address":"CARRETERA SORIA KM. 47","municipality":"Jadraque","province":"GUADALAJARA","postalCode":"19240","schedule":"L-D: 24H","fuels":{"gasoline95":1.755,"gasoline98":1.856,"diesel":1.919,"dieselPremium":1.993},"extra":{"saleType":"P","margin":"D","reportingType":"dm","ideess":"4880","idMunicipio":"2965","idProvincia":"19","idCCAA":"07"}}},{"type":"Feature","geometry":{"type":"Point","coordinates":[-2.759917,40.896417]},"properties":{"id":"es-4886","source":"ES","brand":"CEPSA","address":"AUTOVIA A-2 KM. 101,8","municipality":"Almadrones","province":"GUADALAJARA","postalCode":"19490","schedule":"L-D: 24H","fuels":{"gasoline95":1.819,"gasoline95Premium":1.919,"diesel":1.959,"dieselPremium":2.039},"extra":{"saleType":"P","margin":"D","reportingType":"OM","ideess":"4886","idMunicipio":"2856","idProvincia":"19","idCCAA":"07"}}},{"type":"Feature","geometry":{"type":"Point","coordinates":[-2.760472,40.898444]},"properties":{"id":"es-4887","source":"ES","brand":"MOEVE","address":"AUTOVIA A-2 KM. 103","municipality":"Almadrones","province":"GUADALAJARA","postalCode":"19490","schedule":"L-D: 24H","fuels":{"gasoline95":1.819,"gasoline95Premium":1.919,"gasoline98":1.959,"diesel":1.939,"dieselPremium":2.039},"extra":{"saleType":"P","margin":"I","reportingType":"OM","ideess":"4887","idMunicipio":"2856","idProvincia":"19","idCCAA":"07"}}},{"type":"Feature","geometry":{"type":"Point","coordinates":[-2.891528,40.345861]},"properties":{"id":"es-4897","source":"ES","brand":"ANAYA SL","address":"CARRETERA CM-200 KM. 84,500","municipality":"Almonacid de Zorita","province":"GUADALAJARA","postalCode":"19118","schedule":"L-S: 07:00-21:30; D: 08:00-21:30","fuels":{"gasoline95":1.739,"diesel":1.815},"extra":{"saleType":"P","margin":"I","reportingType":"dm","ideess":"4897","idMunicipio":"2858","idProvincia":"19","idCCAA":"07"}}},{"type":"Feature","geometry":{"type":"Point","coordinates":[-2.9085,40.123889]},"properties":{"id":"es-5098","source":"ES","brand":"REPSOL","address":"CALLE EXTRAMUROS, S/N","municipality":"Barajas de Melo","province":"CUENCA","postalCode":"16460","schedule":"L-D: 07:00-21:00","fuels":{"gasoline95":1.839,"gasoline98":1.969,"diesel":1.979,"dieselRenewable":2.069},"extra":{"saleType":"P","margin":"I","reportingType":"dm","ideess":"5098","idMunicipio":"2237","idProvincia":"16","idCCAA":"07"}}},{"type":"Feature","geometry":{"type":"Point","coordinates":[-2.13875,40.059222]},"properties":{"id":"es-5104","source":"ES","brand":"PLENERGY","address":"AVENIDA REYES CATOLICOS, 68","municipality":"Cuenca","province":"CUENCA","postalCode":"16003","schedule":"L-D: 24H","fuels":{"gasoline95":1.559,"diesel":1.699},"extra":{"saleType":"P","margin":"D","reportingType":"dm","ideess":"5104","idMunicipio":"2283","idProvincia":"16","idCCAA":"07"}}},{"type":"Feature","geometry":{"type":"Point","coordinates":[-2.970472,40.358389]},"properties":{"id":"es-5107","source":"ES","brand":"REPSOL","address":"CALLE CONDESA DE SAN RAFAEL, 57","municipality":"Yebra","province":"GUADALAJARA","postalCode":"19111","schedule":"L-J: 06:30-23:00; V-S: 06:30-00:00; D: 06:30-23:00","fuels":{"gasoline95":1.806,"diesel":1.926,"dieselPremium":2.055,"dieselB":1.555},"extra":{"saleType":"P","margin":"D","reportingType":"dm","ideess":"5107","idMunicipio":"3119","idProvincia":"19","idCCAA":"07"}}},{"type":"Feature","geometry":{"type":"Point","coordinates":[-2.646444,40.341694]},"properties":{"id":"es-5127","source":"ES","brand":"MOEVE","address":"CARRETERA CU-211 KM. 25,9","municipality":"Villalba del Rey","province":"CUENCA","postalCode":"16535","schedule":"L-D: 08:00-20:00","fuels":{"gasoline95":1.729,"diesel":1.839,"dieselPremium":1.889,"dieselB":1.6},"extra":{"saleType":"P","margin":"I","reportingType":"dm","ideess":"5127","idMunicipio":"2422","idProvincia":"16","idCCAA":"07"}}},{"type":"Feature","geometry":{"type":"Point","coordinates":[-2.134361,40.066083]},"properties":{"id":"es-5147","source":"ES","brand":"REPSOL","address":"CALLE HERMANOS BECERRIL, 2","municipality":"Cuenca","province":"CUENCA","postalCode":"16004","schedule":"L-V: 07:00-22:00; S: 08:00-22:00; D: 09:00-22:00","fuels":{"gasoline95":1.806,"gasoline98":1.936,"diesel":1.97,"dieselPremium":2.04},"extra":{"saleType":"P","margin":"D","reportingType":"OM","ideess":"5147","idMunicipio":"2283","idProvincia":"16","idCCAA":"07"}}},{"type":"Feature","geometry":{"type":"Point","coordinates":[-2.125889,40.055111]},"properties":{"id":"es-5159","source":"ES","brand":"REPSOL","address":"CARRETERA N-320 KM. 136,5","municipality":"Cuenca","province":"CUENCA","postalCode":"16004","schedule":"L-D: 24H","fuels":{"gasoline95":1.816,"gasoline98":1.946,"diesel":1.976,"dieselRenewable":2.096},"extra":{"saleType":"P","margin":"D","reportingType":"OM","ideess":"5159","idMunicipio":"2283","idProvincia":"16","idCCAA":"07"}}},{"type":"Feature","geometry":{"type":"Point","coordinates":[-2.395028,40.361278]},"properties":{"id":"es-5160","source":"ES","brand":"BLANCA ENERGY","address":"CARRETERA N-320 KM. 181","municipality":"Cañaveras","province":"CUENCA","postalCode":"16850","schedule":"L-D: 24H","fuels":{"gasoline95":1.637,"diesel":1.707,"adblue":0.85},"extra":{"saleType":"P","margin":"D","reportingType":"dm","ideess":"5160","idMunicipio":"2259","idProvincia":"16","idCCAA":"07"}}},{"type":"Feature","geometry":{"type":"Point","coordinates":[-2.857028,40.551639]},"properties":{"id":"es-5183","source":"ES","brand":"REPSOL","address":" CTR. N320 PK 239,500, ","municipality":"Berninches","province":"GUADALAJARA","postalCode":"19133","schedule":"L-D: 08:00-22:00","fuels":{"gasoline95":1.86,"gasoline98":2.04,"diesel":1.97,"dieselPremium":2.06},"extra":{"saleType":"P","margin":"I","reportingType":"OM","ideess":"5183","idMunicipio":"2881","idProvincia":"19","idCCAA":"07"}}},{"type":"Feature","geometry":{"type":"Point","coordinates":[-2.688424,40.148893]},"properties":{"id":"es-5234","source":"ES","brand":"PETRONOR","address":"CR CM-310, 102,7","municipality":"Huete","province":"CUENCA","postalCode":"16500","schedule":"L-S: 08:00-21:00; D: 08:00-15:00","fuels":{"gasoline95":1.719,"diesel":1.799,"dieselPremium":1.869,"adblue":0.69},"extra":{"saleType":"P","margin":"D","reportingType":"dm","ideess":"5234","idMunicipio":"2314","idProvincia":"16","idCCAA":"07"}}},{"type":"Feature","geometry":{"type":"Point","coordinates":[-2.987083,40.298]},"properties":{"id":"es-5256","source":"ES","brand":"REPSOL","address":"CARRETERA CM-219 KM. 17,300","municipality":"Almoguera","province":"GUADALAJARA","postalCode":"19115","schedule":"L-D: 06:30-22:30","fuels":{"gasoline95":1.816,"diesel":1.936,"dieselB":1.562,"dieselRenewable":2.056},"extra":{"saleType":"P","margin":"D","reportingType":"OM","ideess":"5256","idMunicipio":"2857","idProvincia":"19","idCCAA":"07"}}},{"type":"Feature","geometry":{"type":"Point","coordinates":[-2.836028,40.859361]},"properties":{"id":"es-5259","source":"ES","brand":"REPSOL","address":"AUTOVIA CTRA A2 KM. 95","municipality":"Ledanca","province":"GUADALAJARA","postalCode":"19195","schedule":"L-D: 07:00-22:00","fuels":{"gasoline95":1.816,"diesel":1.926,"dieselPremium":2.046},"extra":{"saleType":"P","margin":"D","reportingType":"OM","ideess":"5259","idMunicipio":"2967","idProvincia":"19","idCCAA":"07"}}},{"type":"Feature","geometry":{"type":"Point","coordinates":[-2.316917,40.450778]},"properties":{"id":"es-5281","source":"ES","brand":"REPSOL","address":"CARRETERA CM-2023 KM. 74,6","municipality":"Priego","province":"CUENCA","postalCode":"16800","schedule":"L-D: 08:00-15:00 y 17:00-21:00","fuels":{"gasoline95":1.819,"diesel":1.969,"dieselPremium":2.039},"extra":{"saleType":"P","margin":"I","reportingType":"dm","ideess":"5281","idMunicipio":"2365","idProvincia":"16","idCCAA":"07"}}},{"type":"Feature","geometry":{"type":"Point","coordinates":[-2.17025,40.073639]},"properties":{"id":"es-5286","source":"ES","brand":"CAMPSA","address":"CR N-400 176,9","municipality":"Cuenca","province":"CUENCA","postalCode":"16002","schedule":"L-D: 07:00-22:00","fuels":{"gasoline95":1.816,"gasoline95Premium":1.896,"gasoline98":1.996,"diesel":1.966,"dieselPremium":2.036,"lpg":1.089},"extra":{"saleType":"P","margin":"I","reportingType":"OM","ideess":"5286","idMunicipio":"2283","idProvincia":"16","idCCAA":"07"}}},{"type":"Feature","geometry":{"type":"Point","coordinates":[-2.62825,40.785444]},"properties":{"id":"es-5295","source":"ES","brand":"CEPSA","address":"CARRETERA N-204 KM. 47,5","municipality":"Cifuentes","province":"GUADALAJARA","postalCode":"19420","schedule":"L-D: 07:00-23:00","fuels":{"gasoline95":1.799,"gasoline98":1.939,"diesel":1.929,"dieselPremium":1.999},"extra":{"saleType":"P","margin":"D","reportingType":"dm","ideess":"5295","idMunicipio":"2910","idProvincia":"19","idCCAA":"07"}}},{"type":"Feature","geometry":{"type":"Point","coordinates":[-2.733306,40.035444]},"properties":{"id":"es-5298","source":"ES","brand":"REPSOL","address":"CARRETERA N-400 KM. 124,7","municipality":"Campos del Paraíso","province":"CUENCA","postalCode":"16555","schedule":"L-S: 07:00-21:30; D: 08:00-21:30","fuels":{"gasoline95":1.729,"diesel":1.849,"dieselPremium":1.929},"extra":{"saleType":"P","margin":"I","reportingType":"dm","ideess":"5298","idMunicipio":"2253","idProvincia":"16","idCCAA":"07"}}},{"type":"Feature","geometry":{"type":"Point","coordinates":[-2.129806,40.054833]},"properties":{"id":"es-5308","source":"ES","brand":"GALP","address":"AVENIDA RONDA OESTE, 2","municipality":"Cuenca","province":"CUENCA","postalCode":"16003","schedule":"L-D: 06:00-22:00","fuels":{"gasoline95":1.809,"gasoline98":1.949,"diesel":1.919,"dieselPremium":1.969,"adblue":0.799},"extra":{"saleType":"P","margin":"N","reportingType":"OM","ideess":"5308","idMunicipio":"2283","idProvincia":"16","idCCAA":"07"}}},{"type":"Feature","geometry":{"type":"Point","coordinates":[-2.200806,40.084528]},"properties":{"id":"es-5324","source":"ES","brand":"MOEVE","address":"AUTOVIA A-40 KM. 174","municipality":"Chillarón de Cuenca","province":"CUENCA","postalCode":"16190","schedule":"L-D: 06:00-23:59","fuels":{"gasoline95":1.799,"gasoline95Premium":1.889,"diesel":1.969,"dieselPremium":2.059},"extra":{"saleType":"P","margin":"I","reportingType":"OM","ideess":"5324","idMunicipio":"2280","idProvincia":"16","idCCAA":"07"}}},{"type":"Feature","geometry":{"type":"Point","coordinates":[-2.135,40.067611]},"properties":{"id":"es-5328","source":"ES","brand":"MOEVE","address":"CALLE FERMIN CABALLERO, 19","municipality":"Cuenca","province":"CUENCA","postalCode":"16004","schedule":"L-D: 06:00-00:00","fuels":{"gasoline95":1.799,"gasoline95Premium":1.889,"diesel":1.969,"dieselPremium":2.059},"extra":{"saleType":"P","margin":"D","reportingType":"OM","ideess":"5328","idMunicipio":"2283","idProvincia":"16","idCCAA":"07"}}},{"type":"Feature","geometry":{"type":"Point","coordinates":[-2.143368,40.05181]},"properties":{"id":"es-9109","source":"ES","brand":"HERMANOS NUÑO, S.L.","address":"CARRETERA DE ALCAZAR, 14","municipality":"Cuenca","province":"CUENCA","postalCode":"16003","schedule":"L-D: 06:30-22:15","fuels":{"gasoline95":1.559,"gasoline98":1.759,"diesel":1.769},"extra":{"saleType":"P","margin":"N","reportingType":"dm","ideess":"9109","idMunicipio":"2283","idProvincia":"16","idCCAA":"07"}}},{"type":"Feature","geometry":{"type":"Point","coordinates":[-2.733139,40.48325]},"properties":{"id":"es-9563","source":"ES","brand":"REPSOL","address":"CARRETERA NACIONAL 320 KM. 220","municipality":"Sacedón","province":"GUADALAJARA","postalCode":"19120","schedule":"L-D: 07:00-23:00","fuels":{"gasoline95":1.86,"gasoline98":2.02,"diesel":1.97,"dieselRenewable":2.09},"extra":{"saleType":"P","margin":"D","reportingType":"OM","ideess":"9563","idMunicipio":"3047","idProvincia":"19","idCCAA":"07"}}},{"type":"Feature","geometry":{"type":"Point","coordinates":[-2.926806,40.417833]},"properties":{"id":"es-9779","source":"ES","brand":"LOS ANGELES","address":"CARRETERA GUADALAJARA-TARANCON KM. 95,700","municipality":"Pastrana","province":"GUADALAJARA","postalCode":"19100","schedule":"L-V: 08:00-20:00; S-D: 09:00-20:00","fuels":{"gasoline95":1.747,"diesel":1.891},"extra":{"saleType":"P","margin":"I","reportingType":"dm","ideess":"9779","idMunicipio":"3015","idProvincia":"19","idCCAA":"07"}}}]}