{"type":"FeatureCollection","features":[{"type":"Feature","geometry":{"type":"Point","coordinates":[1.130944,42.406139]},"properties":{"id":"es-11057","source":"ES","brand":"BONAREA","address":"POLIGONO ELS SALANCONS, 1","municipality":"Sort","province":"LLEIDA","postalCode":"25560","schedule":"L-D: 24H","fuels":{"gasoline95":1.513,"diesel":1.683,"adblue":0.499},"extra":{"saleType":"P","margin":"D","reportingType":"dm","ideess":"11057","idMunicipio":"3991","idProvincia":"25","idCCAA":"09"}}},{"type":"Feature","geometry":{"type":"Point","coordinates":[1.137889,42.397778]},"properties":{"id":"es-12095","source":"ES","brand":"PORT CANTÓ","address":"CARRETERA N-260 KM. 278,25","municipality":"Soriguera","province":"LLEIDA","postalCode":"25566","schedule":"L-D: 24H","fuels":{"gasoline95":1.699,"gasoline98":1.799,"diesel":1.859},"extra":{"saleType":"P","margin":"I","reportingType":"dm","ideess":"12095","idMunicipio":"3990","idProvincia":"25","idCCAA":"09"}}},{"type":"Feature","geometry":{"type":"Point","coordinates":[1.759389,42.373556]},"properties":{"id":"es-12347","source":"ES","brand":"EMCCAT 24H.","address":"CARRETERA N-260 KM. 198,100","municipality":"Bellver de Cerdanya","province":"LLEIDA","postalCode":"25720","schedule":"L-D: 24H","fuels":{"gasoline95":1.647,"diesel":1.847},"extra":{"saleType":"P","margin":"D","reportingType":"dm","ideess":"12347","idMunicipio":"3848","idProvincia":"25","idCCAA":"09"}}},{"type":"Feature","geometry":{"type":"Point","coordinates":[1.928583,42.426417]},"properties":{"id":"es-12864","source":"ES","brand":"AUTOSERVEI PUIGCERDÀ","address":"CALLE GIRONA, 1","municipality":"Puigcerdà","province":"GIRONA","postalCode":"17520","schedule":"L-D: 24H","fuels":{"gasoline95":1.719,"diesel":1.849},"extra":{"saleType":"P","margin":"N","reportingType":"dm","ideess":"12864","idMunicipio":"2580","idProvincia":"17","idCCAA":"09"}}},{"type":"Feature","geometry":{"type":"Point","coordinates":[1.824111,42.093778]},"properties":{"id":"es-12934","source":"ES","brand":"BALLUS BAIX COST","address":"CALLE BERNAT SALA (POLIGONO INDUSTRIAL), 62","municipality":"Berga","province":"BARCELONA","postalCode":"08600","schedule":"L-D: 24H","fuels":{"gasoline95":1.609,"diesel":1.797},"extra":{"saleType":"P","margin":"D","reportingType":"dm","ideess":"12934","idMunicipio":"884","idProvincia":"08","idCCAA":"09"}}},{"type":"Feature","geometry":{"type":"Point","coordinates":[1.681139,42.364444]},"properties":{"id":"es-1560","source":"ES","brand":"BENZINERA MARTINET","address":"CARRETERA N-260 KM. 205,7","municipality":"Lles de Cerdanya","province":"LLEIDA","postalCode":"25726","schedule":"L-D: 07:00-22:00","fuels":{"gasoline95":1.647,"diesel":1.847,"adblue":0.98},"extra":{"saleType":"P","margin":"D","reportingType":"dm","ideess":"1560","idMunicipio":"3917","idProvincia":"25","idCCAA":"09"}}},{"type":"Feature","geometry":{"type":"Point","coordinates":[1.85775,42.160306]},"properties":{"id":"es-1576","source":"ES","brand":"PETROMIRALLES","address":"CARRETERA COMARCAL C-16 KM. 105,5","municipality":"Cercs","province":"BARCELONA","postalCode":"08698","schedule":"L-D: 24H","fuels":{"gasoline95":1.709,"gasoline98":1.809,"diesel":1.739,"dieselPremium":1.769,"adblue":0.789},"extra":{"saleType":"P","margin":"D","reportingType":"dm","ideess":"1576","idMunicipio":"930","idProvincia":"08","idCCAA":"09"}}},{"type":"Feature","geometry":{"type":"Point","coordinates":[1.78,42.370278]},"properties":{"id":"es-1601","source":"ES","brand":"ANEU OIL","address":"AVENIDA CERDANYA, 35","municipality":"Bellver de Cerdanya","province":"LLEIDA","postalCode":"25720","schedule":"L-D: 24H","fuels":{"gasoline95":1.697,"diesel":1.797},"extra":{"saleType":"P","margin":"I","reportingType":"dm","ideess":"1601","idMunicipio":"3848","idProvincia":"25","idCCAA":"09"}}},{"type":"Feature","geometry":{"type":"Point","coordinates":[1.139194,42.577139]},"properties":{"id":"es-1604","source":"ES","brand":"MOEVE","address":"C-134, KM  154","municipality":"Espot","province":"LLEIDA","postalCode":"25597","schedule":"L-J: 07:00-20:30; V: 07:00-21:30; S: 07:30-21:30; D: 08:00-21:00","fuels":{"gasoline95":1.778,"gasoline98":1.876,"diesel":1.898,"dieselPremium":1.969},"extra":{"saleType":"P","margin":"I","reportingType":"dm","ideess":"1604","idMunicipio":"3878","idProvincia":"25","idCCAA":"09"}}},{"type":"Feature","geometry":{"type":"Point","coordinates":[1.388528,42.317778]},"properties":{"id":"es-16171","source":"ES","brand":"MAPISAOIL","address":"CARRETERA LLEIDA KM. 37","municipality":"Ribera d'Urgellet","province":"LLEIDA","postalCode":"25796","schedule":"L-D: 24H","fuels":{"gasoline95":1.65,"diesel":1.797,"adblue":0.95},"extra":{"saleType":"P","margin":"I","reportingType":"dm","ideess":"16171","idMunicipio":"3969","idProvincia":"25","idCCAA":"09"}}},{"type":"Feature","geometry":{"type":"Point","coordinates":[1.922,42.423056]},"properties":{"id":"es-1620","source":"ES","brand":"MEROIL","address":"CARRETERA NACIONAL   152 KM. 169,100","municipality":"Puigcerdà","province":"GIRONA","postalCode":"17520","schedule":"L-D: 06:00-00:00","fuels":{"gasoline95":1.719,"gasoline98":1.998,"diesel":1.849,"dieselPremium":1.999,"lpg":0.976,"adblue":0.708},"extra":{"saleType":"P","margin":"I","reportingType":"OM","ideess":"1620","idMunicipio":"2580","idProvincia":"17","idCCAA":"09"}}},{"type":"Feature","geometry":{"type":"Point","coordinates":[1.471694,42.361639]},"properties":{"id":"es-16300","source":"ES","brand":"ESCLATOIL","address":"CARRER ALT PIRINEU, 10","municipality":"Seu d'Urgell (La)","province":"LLEIDA","postalCode":"25700","schedule":"L-D: 24H","fuels":{"gasoline95":1.549,"diesel":1.749,"dieselPremium":1.799,"adblue":0.529},"extra":{"saleType":"P","margin":"D","reportingType":"dm","ideess":"16300","idMunicipio":"3986","idProvincia":"25","idCCAA":"09"}}},{"type":"Feature","geometry":{"type":"Point","coordinates":[1.849639,42.09525]},"properties":{"id":"es-1689","source":"ES","brand":"CARREFOUR","address":"CARRETERA CTRA SAN FRUITOS KM. 65","municipality":"Berga","province":"BARCELONA","postalCode":"08600","schedule":"L-D: 24H","fuels":{"gasoline95":1.689,"gasoline98":1.849,"diesel":1.919,"dieselPremium":1.959},"extra":{"saleType":"P","margin":"N","reportingType":"dm","ideess":"1689","idMunicipio":"884","idProvincia":"08","idCCAA":"09"}}},{"type":"Feature","geometry":{"type":"Point","coordinates":[1.33025,42.212111]},"properties":{"id":"es-1838","source":"ES","brand":"PETRONOR","address":"CR C-14, 162","municipality":"Organyà","province":"LLEIDA","postalCode":"25794","schedule":"L-D: 07:30-21:30","fuels":{"gasoline95":1.729,"gasoline98":1.889,"diesel":1.909,"dieselPremium":1.969},"extra":{"saleType":"P","margin":"D","reportingType":"OM","ideess":"1838","idMunicipio":"3944","idProvincia":"25","idCCAA":"09"}}},{"type":"Feature","geometry":{"type":"Point","coordinates":[1.745389,42.2265]},"properties":{"id":"es-1858","source":"ES","brand":"REPSOL","address":"CARRETERA B-400 KM. 14,8","municipality":"Saldes","province":"BARCELONA","postalCode":"08699","schedule":"L-D: 06:00-22:00","fuels":{"gasoline95":1.799,"gasoline98":1.949,"diesel":1.979,"dieselPremium":1.999},"extra":{"saleType":"P","margin":"I","reportingType":"dm","ideess":"1858","idMunicipio":"1054","idProvincia":"08","idCCAA":"09"}}},{"type":"Feature","geometry":{"type":"Point","coordinates":[1.312917,42.064333]},"properties":{"id":"es-2027","source":"ES","brand":"ESTACIO SERVEI OLIANA","address":"CARRETERA C-14 KM. 141,000","municipality":"Oliana","province":"LLEIDA","postalCode":"25790","schedule":"L-S: 06:30-22:00; D: 07:30-22:00","fuels":{"gasoline95":1.67,"gasoline98":1.769,"diesel":1.738,"dieselB":1.38},"extra":{"saleType":"P","margin":"N","reportingType":"dm","ideess":"2027","idMunicipio":"3938","idProvincia":"25","idCCAA":"09"}}},{"type":"Feature","geometry":{"type":"Point","coordinates":[1.982889,42.462861]},"properties":{"id":"es-2090","source":"ES","brand":"PETROCAT","address":"AVINGUDA CATALUNYA, 31","municipality":"Llívia","province":"GIRONA","postalCode":"17527","schedule":"L-D: 08:00-20:00","fuels":{"gasoline95":1.805,"diesel":1.925},"extra":{"saleType":"P","margin":"D","reportingType":"OM","ideess":"2090","idMunicipio":"2539","idProvincia":"17","idCCAA":"09"}}},{"type":"Feature","geometry":{"type":"Point","coordinates":[1.9785,42.245111]},"properties":{"id":"es-2229","source":"ES","brand":"REPSOL","address":"CARRETERA B-402 KM. 10","municipality":"Pobla de Lillet (La)","province":"BARCELONA","postalCode":"08696","schedule":"L-D: 07:00-21:00","fuels":{"gasoline95":1.789,"diesel":1.949,"dieselRenewable":2.049},"extra":{"saleType":"P","margin":"D","reportingType":"dm","ideess":"2229","idMunicipio":"1031","idProvincia":"08","idCCAA":"09"}}},{"type":"Feature","geometry":{"type":"Point","coordinates":[1.936194,42.432667]},"properties":{"id":"es-2242","source":"ES","brand":"REPSOL","address":"CARRETERA NAC-152 KM. 171","municipality":"Puigcerdà","province":"GIRONA","postalCode":"17520","schedule":"L-D: 06:00-00:00","fuels":{"gasoline95":1.887,"gasoline98":1.998,"diesel":1.984,"dieselRenewable":2.13,"adblue":1.15},"extra":{"saleType":"P","margin":"D","reportingType":"dm","ideess":"2242","idMunicipio":"2580","idProvincia":"17","idCCAA":"09"}}},{"type":"Feature","geometry":{"type":"Point","coordinates":[1.294306,42.005889]},"properties":{"id":"es-2282","source":"ES","brand":"REPSOL","address":"CARRETERA C 14 KM. 134","municipality":"Bassella","province":"LLEIDA","postalCode":"25289","schedule":"L-D: 06:00-23:00","fuels":{"gasoline95":1.779,"gasoline98":1.919,"diesel":1.929,"dieselRenewable":2.029,"lpg":1.149,"adblue":0.999},"extra":{"saleType":"P","margin":"N","reportingType":"dm","ideess":"2282","idMunicipio":"3840","idProvincia":"25","idCCAA":"09"}}},{"type":"Feature","geometry":{"type":"Point","coordinates":[1.591778,42.136056]},"properties":{"id":"es-2294","source":"ES","brand":"REPSOL","address":"CARRETERA DE BERGA KM. S/N","municipality":"Sant Llorenç de Morunys","province":"LLEIDA","postalCode":"25282","schedule":"L-D: 06:30-21:00","fuels":{"gasoline95":1.785,"gasoline98":1.955,"diesel":1.905,"dieselPremium":1.965},"extra":{"saleType":"P","margin":"D","reportingType":"OM","ideess":"2294","idMunicipio":"3978","idProvincia":"25","idCCAA":"09"}}},{"type":"Feature","geometry":{"type":"Point","coordinates":[1.833806,42.346167]},"properties":{"id":"es-2345","source":"ES","brand":"REPSOL","address":"CARRETERA C-16 KM. 130,733","municipality":"Bellver de Cerdanya","province":"LLEIDA","postalCode":"25720","schedule":"L-D: 24H","fuels":{"gasoline95":1.775,"gasoline98":1.895,"diesel":1.919,"dieselPremium":1.979},"extra":{"saleType":"P","margin":"D","reportingType":"OM","ideess":"2345","idMunicipio":"3848","idProvincia":"25","idCCAA":"09"}}},{"type":"Feature","geometry":{"type":"Point","coordinates":[1.832806,42.346556]},"properties":{"id":"es-2346","source":"ES","brand":"REPSOL","address":"CARRETERA C-16 KM. 136,6","municipality":"Bellver de Cerdanya","province":"LLEIDA","postalCode":"25720","schedule":"L-D: 24H","fuels":{"gasoline95":1.775,"gasoline98":1.895,"diesel":1.919,"dieselPremium":1.979},"extra":{"saleType":"P","margin":"I","reportingType":"OM","ideess":"2346","idMunicipio":"3848","idProvincia":"25","idCCAA":"09"}}},{"type":"Feature","geometry":{"type":"Point","coordinates":[1.130556,42.437111]},"properties":{"id":"es-2416","source":"ES","brand":"PETROLIS","address":"CARRETERA C-13 KM. 131","municipality":"Rialp","province":"LLEIDA","postalCode":"25594","schedule":"L-D: 07:00-21:00","fuels":{"gasoline95":1.699,"gasoline98":1.799,"diesel":1.799},"extra":{"saleType":"P","margin":"N","reportingType":"dm","ideess":"2416","idMunicipio":"3967","idProvincia":"25","idCCAA":"09"}}},{"type":"Feature","geometry":{"type":"Point","coordinates":[1.845222,42.099194]},"properties":{"id":"es-2421","source":"ES","brand":"BP OIL","address":"PASSEIG DE LA PAU, S/N","municipality":"Berga","province":"BARCELONA","postalCode":"08600","schedule":"L-J: 06:00-01:00; V-S: 24H; D: 06:00-01:00","fuels":{"gasoline95":1.709,"gasoline98":1.901,"diesel":1.955,"dieselPremium":2.045,"adblue":0.99},"extra":{"saleType":"P","margin":"N","reportingType":"dm","ideess":"2421","idMunicipio":"884","idProvincia":"08","idCCAA":"09"}}},{"type":"Feature","geometry":{"type":"Point","coordinates":[1.930389,42.431667]},"properties":{"id":"es-2475","source":"ES","brand":"REPSOL","address":"AVENIDA CATALUNYA, 38","municipality":"Puigcerdà","province":"GIRONA","postalCode":"17520","schedule":"L-D: 07:00-23:00","fuels":{"gasoline95":1.799,"gasoline98":1.919,"diesel":1.919,"dieselPremium":2.019},"extra":{"saleType":"P","margin":"D","reportingType":"dm","ideess":"2475","idMunicipio":"2580","idProvincia":"17","idCCAA":"09"}}},{"type":"Feature","geometry":{"type":"Point","coordinates":[1.454972,42.360389]},"properties":{"id":"es-2498","source":"ES","brand":"REPSOL","address":"AVENIDA VALIRA, 27","municipality":"Seu d'Urgell (La)","province":"LLEIDA","postalCode":"25700","schedule":"L-D: 07:00-21:00","fuels":{"gasoline95":1.779,"diesel":1.919,"dieselRenewable":2.029},"extra":{"saleType":"P","margin":"D","reportingType":"dm","ideess":"2498","idMunicipio":"3986","idProvincia":"25","idCCAA":"09"}}},{"type":"Feature","geometry":{"type":"Point","coordinates":[1.853361,42.107694]},"properties":{"id":"es-2763","source":"ES","brand":"PETRONOR","address":"CARRETERA C-149 KM. 43,5","municipality":"Berga","province":"BARCELONA","postalCode":"08600","schedule":"L: 06:00-22:00","fuels":{"gasoline95":1.739,"diesel":1.959,"dieselPremium":2.039},"extra":{"saleType":"P","margin":"I","reportingType":"dm","ideess":"2763","idMunicipio":"884","idProvincia":"08","idCCAA":"09"}}},{"type":"Feature","geometry":{"type":"Point","coordinates":[1.884444,42.016639]},"properties":{"id":"es-2766","source":"ES","brand":"REPSOL","address":"BARRIADA BASSACS, S/N","municipality":"Gironella","province":"BARCELONA","postalCode":"08680","schedule":"L-D: 06:00-22:00","fuels":{"gasoline95":1.735,"gasoline98":1.855,"diesel":1.959,"dieselRenewable":2.079},"extra":{"saleType":"P","margin":"I","reportingType":"dm","ideess":"2766","idMunicipio":"957","idProvincia":"08","idCCAA":"09"}}},{"type":"Feature","geometry":{"type":"Point","coordinates":[1.845528,42.368306]},"properties":{"id":"es-2773","source":"ES","brand":"REPSOL","address":"CARRETERA LP-4033 KM. 6,2","municipality":"Prats i Sansor","province":"LLEIDA","postalCode":"25721","schedule":"L-V: 09:00-21:00; S-D: 09:00-17:00","fuels":{"gasoline95":1.779,"gasoline98":1.899,"diesel":1.925,"dieselPremium":1.985},"extra":{"saleType":"P","margin":"I","reportingType":"OM","ideess":"2773","idMunicipio":"3960","idProvincia":"25","idCCAA":"09"}}},{"type":"Feature","geometry":{"type":"Point","coordinates":[1.854528,42.103944]},"properties":{"id":"es-2798","source":"ES","brand":"REPSOL","address":"AVINGUDA CANAL INDUSTRIAL, S/N","municipality":"Berga","province":"BARCELONA","postalCode":"08600","schedule":"L-D: 06:00-22:00","fuels":{"gasoline95":1.735,"gasoline98":1.885,"diesel":1.955,"dieselRenewable":2.075},"extra":{"saleType":"P","margin":"D","reportingType":"dm","ideess":"2798","idMunicipio":"884","idProvincia":"08","idCCAA":"09"}}},{"type":"Feature","geometry":{"type":"Point","coordinates":[1.872722,42.223528]},"properties":{"id":"es-2885","source":"ES","brand":"CEPSA","address":"CARRETERA C-16 KM. 113,5","municipality":"Guardiola de Berguedà","province":"BARCELONA","postalCode":"08694","schedule":"L-D: 06:00-22:00","fuels":{"gasoline95":1.794,"gasoline95Premium":1.894,"diesel":1.974,"dieselPremium":2.064},"extra":{"saleType":"P","margin":"I","reportingType":"OM","ideess":"2885","idMunicipio":"963","idProvincia":"08","idCCAA":"09"}}},{"type":"Feature","geometry":{"type":"Point","coordinates":[1.126333,42.60875]},"properties":{"id":"es-2942","source":"ES","brand":"MOEVE","address":"CARRETERA C-13 KM. 158","municipality":"Esterri d'Àneu","province":"LLEIDA","postalCode":"25580","schedule":"L-D: 08:00-14:00 y 15:30-20:00","fuels":{"gasoline95":1.778,"diesel":1.898},"extra":{"saleType":"P","margin":"D","reportingType":"dm","ideess":"2942","idMunicipio":"3881","idProvincia":"25","idCCAA":"09"}}},{"type":"Feature","geometry":{"type":"Point","coordinates":[1.857611,42.159556]},"properties":{"id":"es-8207","source":"ES","brand":"PETROMIRALLES","address":"CARRETERA COMARCAL C-16 KM. 105","municipality":"Cercs","province":"BARCELONA","postalCode":"08699","schedule":"L-D: 24H","fuels":{"gasoline95":1.709,"gasoline98":1.809,"diesel":1.739,"dieselPremium":1.769,"adblue":0.789},"extra":{"saleType":"P","margin":"I","reportingType":"dm","ideess":"8207","idMunicipio":"930","idProvincia":"08","idCCAA":"09"}}},{"type":"Feature","geometry":{"type":"Point","coordinates":[1.428278,42.346611]},"properties":{"id":"es-9193","source":"ES","brand":"VALENTI","address":"CTRA. N-260 km 230","municipality":"Montferrer i Castellbò","province":"LLEIDA","postalCode":"25711","schedule":"L-D: 07:00-21:00","fuels":{"gasoline95":1.659,"gasoline98":1.839,"diesel":1.799,"dieselB":1.28},"extra":{"saleType":"P","margin":"D","reportingType":"dm","ideess":"9193","idMunicipio":"3929","idProvincia":"25","idCCAA":"09"}}}]}