{"type":"FeatureCollection","features":[{"type":"Feature","geometry":{"type":"Point","coordinates":[-6.636444,38.168028]},"properties":{"id":"es-10037","source":"ES","brand":"GASOLEO B","address":"POLIGONO INDUSTRIAL FREXNENSE, S/N","municipality":"Fregenal de la Sierra","province":"BADAJOZ","postalCode":"06340","schedule":"L-D: 24H","fuels":{"gasoline95":1.62,"diesel":1.8,"dieselB":1.35,"adblue":0.6},"extra":{"saleType":"P","margin":"I","reportingType":"dm","ideess":"10037","idMunicipio":"679","idProvincia":"06","idCCAA":"11"}}},{"type":"Feature","geometry":{"type":"Point","coordinates":[-6.387583,38.897444]},"properties":{"id":"es-10096","source":"ES","brand":"COOP. LIMITADA DEL CAMPO SAN JOSE DE CALAMONTE","address":"CARRETERA ACC. A CALAMONTE KM 1 KM. 1","municipality":"Mérida","province":"BADAJOZ","postalCode":"06800","schedule":"L-D: 24H","fuels":{"diesel":1.769},"extra":{"saleType":"P","margin":"D","reportingType":"dm","ideess":"10096","idMunicipio":"712","idProvincia":"06","idCCAA":"11"}}},{"type":"Feature","geometry":{"type":"Point","coordinates":[-6.649833,38.168417]},"properties":{"id":"es-10165","source":"ES","brand":"CEPSA","address":"CARRETERA BADAJOZ-HUELVA KM. 95","municipality":"Fregenal de la Sierra","province":"BADAJOZ","postalCode":"06340","schedule":"L-D: 07:00-10:00","fuels":{"gasoline95":1.769,"diesel":1.974,"dieselPremium":2.084},"extra":{"saleType":"P","margin":"D","reportingType":"dm","ideess":"10165","idMunicipio":"679","idProvincia":"06","idCCAA":"11"}}},{"type":"Feature","geometry":{"type":"Point","coordinates":[-6.693472,38.923306]},"properties":{"id":"es-10189","source":"ES","brand":"SAN VALERIANO EXTREMEÑO SCL","address":"PROLONGACIO/PROLONGACIÓN RONDA OESTE, S/N","municipality":"Badajoz","province":"BADAJOZ","postalCode":"06186","schedule":"L-D: 24H","fuels":{"diesel":1.759,"dieselB":1.399},"extra":{"saleType":"P","margin":"N","reportingType":"dm","ideess":"10189","idMunicipio":"644","idProvincia":"06","idCCAA":"11"}}},{"type":"Feature","geometry":{"type":"Point","coordinates":[-6.76125,38.922528]},"properties":{"id":"es-10196","source":"ES","brand":"VEGAS DE PUEBLONUEVO, SDAD. COOP. LTDA.","address":"CARRETERA MONTIJO-BADAJOZ KM. 13,9","municipality":"Pueblonuevo del Guadiana","province":"BADAJOZ","postalCode":"06184","schedule":"L-D: 24H","fuels":{"dieselB":1.263},"extra":{"saleType":"P","margin":"D","reportingType":"dm","ideess":"10196","idMunicipio":"738","idProvincia":"06","idCCAA":"11"}}},{"type":"Feature","geometry":{"type":"Point","coordinates":[-6.693833,38.134583]},"properties":{"id":"es-10249","source":"ES","brand":"MOEVE","address":"POLIGONO LA CHACARA, 3","municipality":"Higuera la Real","province":"BADAJOZ","postalCode":"06350","schedule":"L-D: 06:00-22:00","fuels":{"gasoline95":1.754,"diesel":1.984,"dieselPremium":2.064},"extra":{"saleType":"P","margin":"D","reportingType":"OM","ideess":"10249","idMunicipio":"696","idProvincia":"06","idCCAA":"11"}}},{"type":"Feature","geometry":{"type":"Point","coordinates":[-6.454028,38.851639]},"properties":{"id":"es-10258","source":"ES","brand":"COOP. PERALES","address":"C/ ENCARNACION, S/N","municipality":"Arroyo de San Serván","province":"BADAJOZ","postalCode":"06850","schedule":"L-D: 24H","fuels":{"diesel":1.784,"dieselB":1.362},"extra":{"saleType":"P","margin":"D","reportingType":"dm","ideess":"10258","idMunicipio":"641","idProvincia":"06","idCCAA":"11"}}},{"type":"Feature","geometry":{"type":"Point","coordinates":[-6.989556,38.900389]},"properties":{"id":"es-10351","source":"ES","brand":"AREA SAN MARTIN","address":"POLIGONO INDUSTRIAL EL NEVERO, 17","municipality":"Badajoz","province":"BADAJOZ","postalCode":"06006","schedule":"L-D: 24H","fuels":{"gasoline95":1.629,"diesel":1.779,"dieselPremium":1.779,"adblue":0.69},"extra":{"saleType":"P","margin":"D","reportingType":"dm","ideess":"10351","idMunicipio":"644","idProvincia":"06","idCCAA":"11"}}},{"type":"Feature","geometry":{"type":"Point","coordinates":[-6.185194,38.947444]},"properties":{"id":"es-10353","source":"ES","brand":"QUALITYFUEL","address":"AUTOVIA A-5 KM. 326","municipality":"San Pedro de Mérida","province":"BADAJOZ","postalCode":"06893","schedule":"L-D: 24H","fuels":{"gasoline95":1.709,"diesel":1.789},"extra":{"saleType":"P","margin":"D","reportingType":"dm","ideess":"10353","idMunicipio":"748","idProvincia":"06","idCCAA":"11"}}},{"type":"Feature","geometry":{"type":"Point","coordinates":[-6.487194,38.640556]},"properties":{"id":"es-10373","source":"ES","brand":"CAMPSA","address":"C-423 km 40,6","municipality":"Aceuchal","province":"BADAJOZ","postalCode":"06207","schedule":"L-D: 06:00-22:00","fuels":{"gasoline95":1.755,"diesel":1.929,"dieselPremium":2.009},"extra":{"saleType":"P","margin":"I","reportingType":"OM","ideess":"10373","idMunicipio":"631","idProvincia":"06","idCCAA":"11"}}},{"type":"Feature","geometry":{"type":"Point","coordinates":[-6.831361,38.939917]},"properties":{"id":"es-10381","source":"ES","brand":"S. COOP. AGRICOLA DE COLONOS DE NOVELDA","address":"CALLE AIRE, S/N","municipality":"Badajoz","province":"BADAJOZ","postalCode":"06183","schedule":"L-D: 24H","fuels":{"diesel":1.747,"dieselB":1.36},"extra":{"saleType":"P","margin":"N","reportingType":"dm","ideess":"10381","idMunicipio":"644","idProvincia":"06","idCCAA":"11"}}},{"type":"Feature","geometry":{"type":"Point","coordinates":[-6.943194,38.914222]},"properties":{"id":"es-10661","source":"ES","brand":"COOPERATIVA COLONOS DE GÉVORA","address":"CTRA. BADAJOZ-MONTIJO km 30.2","municipality":"Badajoz","province":"BADAJOZ","postalCode":"06180","schedule":"L-D: 24H","fuels":{"gasoline95":1.62,"dieselPremium":1.759,"dieselB":1.3,"adblue":0.634},"extra":{"saleType":"P","margin":"D","reportingType":"dm","ideess":"10661","idMunicipio":"644","idProvincia":"06","idCCAA":"11"}}},{"type":"Feature","geometry":{"type":"Point","coordinates":[-6.630639,38.615389]},"properties":{"id":"es-10701","source":"ES","brand":"REPSOL","address":"AVENIDA EXTREMADURA, 13","municipality":"Santa Marta","province":"BADAJOZ","postalCode":"06150","schedule":"L-V: 06:00-14:30 y 17:00-21:00; S: 06:00-14:30","fuels":{"diesel":1.939},"extra":{"saleType":"P","margin":"I","reportingType":"OM","ideess":"10701","idMunicipio":"752","idProvincia":"06","idCCAA":"11"}}},{"type":"Feature","geometry":{"type":"Point","coordinates":[-6.368667,38.447278]},"properties":{"id":"es-10733","source":"ES","brand":"BP","address":"GUADIANA, 24","municipality":"Santos de Maimona (Los)","province":"BADAJOZ","postalCode":"06230","schedule":"L-D: 06:30-22:00","fuels":{"gasoline95":1.789,"diesel":1.959,"dieselPremium":2.039,"adblue":0.83},"extra":{"saleType":"P","margin":"D","reportingType":"dm","ideess":"10733","idMunicipio":"753","idProvincia":"06","idCCAA":"11"}}},{"type":"Feature","geometry":{"type":"Point","coordinates":[-6.421278,38.433917]},"properties":{"id":"es-10773","source":"ES","brand":"CARREFOUR","address":"CARRETERA CRTA CORDOBA A BADAJOZ KM. 71,3","municipality":"Zafra","province":"BADAJOZ","postalCode":"06300","schedule":"L-D: 24H","fuels":{"gasoline95":1.749,"gasoline98":1.929,"diesel":1.959,"dieselPremium":1.999},"extra":{"saleType":"P","margin":"D","reportingType":"dm","ideess":"10773","idMunicipio":"789","idProvincia":"06","idCCAA":"11"}}},{"type":"Feature","geometry":{"type":"Point","coordinates":[-6.974528,38.866139]},"properties":{"id":"es-10816","source":"ES","brand":"REPSOL","address":"CALLE VICENTE DELGADO ALGABA, S/N","municipality":"Badajoz","province":"BADAJOZ","postalCode":"06010","schedule":"L-D: 07:00-22:00","fuels":{"gasoline95":1.809,"diesel":1.969,"dieselPremium":2.039,"adblue":0.999},"extra":{"saleType":"P","margin":"N","reportingType":"dm","ideess":"10816","idMunicipio":"644","idProvincia":"06","idCCAA":"11"}}},{"type":"Feature","geometry":{"type":"Point","coordinates":[-6.193861,38.856944]},"properties":{"id":"es-11041","source":"ES","brand":"SDAD. COOP. DEL CAMPO NUESTRO PADRE JESUS","address":"CARRETERA OLIVA DE MERIDA KM. 0,200","municipality":"Villagonzalo","province":"BADAJOZ","postalCode":"06473","schedule":"L-D: 24H","fuels":{"gasoline95":1.635,"diesel":1.775,"dieselB":1.365},"extra":{"saleType":"P","margin":"I","reportingType":"dm","ideess":"11041","idMunicipio":"782","idProvincia":"06","idCCAA":"11"}}},{"type":"Feature","geometry":{"type":"Point","coordinates":[-6.076389,38.559639]},"properties":{"id":"es-11061","source":"ES","brand":"SDAD.COOP.LIMT. DE HORNACHOS","address":"CTRA. PUEBLA DE LA REINA S/N","municipality":"Hornachos","province":"BADAJOZ","postalCode":"06228","schedule":"L-D: 24H","fuels":{"diesel":1.809,"dieselB":1.299},"extra":{"saleType":"P","margin":"D","reportingType":"dm","ideess":"11061","idMunicipio":"698","idProvincia":"06","idCCAA":"11"}}},{"type":"Feature","geometry":{"type":"Point","coordinates":[-6.626861,38.8455]},"properties":{"id":"es-11072","source":"ES","brand":"COOPERATIVA LOBON","address":"CALLE CAMINO DE LAS HUERTAS, 7","municipality":"Lobón","province":"BADAJOZ","postalCode":"06498","schedule":"L-D: 24H","fuels":{"dieselB":1.383},"extra":{"saleType":"P","margin":"I","reportingType":"dm","ideess":"11072","idMunicipio":"703","idProvincia":"06","idCCAA":"11"}}},{"type":"Feature","geometry":{"type":"Point","coordinates":[-6.408778,38.692139]},"properties":{"id":"es-11102","source":"ES","brand":"GALP (E.S. ANTUNEZ)","address":"CALLE ELECTRTICIDAD, S/N","municipality":"Almendralejo","province":"BADAJOZ","postalCode":"06200","schedule":"L-D: 06:00-22:00","fuels":{"gasoline95":1.799,"diesel":1.969,"dieselPremium":2.019},"extra":{"saleType":"P","margin":"D","reportingType":"dm","ideess":"11102","idMunicipio":"640","idProvincia":"06","idCCAA":"11"}}},{"type":"Feature","geometry":{"type":"Point","coordinates":[-6.3775,38.793611]},"properties":{"id":"es-11197","source":"ES","brand":"MORENO","address":"CTRA. GIJÓN-SEVILLA","municipality":"Torremejía","province":"BADAJOZ","postalCode":"06210","schedule":"L-S: 06:00-21:30; D: 10:00-15:00","fuels":{"gasoline95":1.739,"diesel":1.879},"extra":{"saleType":"P","margin":"D","reportingType":"dm","ideess":"11197","idMunicipio":"763","idProvincia":"06","idCCAA":"11"}}},{"type":"Feature","geometry":{"type":"Point","coordinates":[-6.603583,38.908917]},"properties":{"id":"es-11342","source":"ES","brand":"TIERRASGORDAS","address":"CARRETERA TORREMAYOR KM. 0","municipality":"Montijo","province":"BADAJOZ","postalCode":"06480","schedule":"L-D: 24H","fuels":{"diesel":1.719,"dieselB":1.415},"extra":{"saleType":"P","margin":"D","reportingType":"dm","ideess":"11342","idMunicipio":"717","idProvincia":"06","idCCAA":"11"}}},{"type":"Feature","geometry":{"type":"Point","coordinates":[-6.415417,38.086667]},"properties":{"id":"es-11473","source":"ES","brand":"E.S.SAN BENITO","address":"CALLE TOMILLAR, S/N","municipality":"Cabeza la Vaca","province":"BADAJOZ","postalCode":"06293","schedule":"L-S: 07:00-15:30 y 16:30-20:00","fuels":{"gasoline95":1.779,"diesel":1.969},"extra":{"saleType":"P","margin":"D","reportingType":"dm","ideess":"11473","idMunicipio":"653","idProvincia":"06","idCCAA":"11"}}},{"type":"Feature","geometry":{"type":"Point","coordinates":[-6.364028,38.858444]},"properties":{"id":"es-11485","source":"ES","brand":"SHELL","address":"AUTOVIA A-66 KM. 630","municipality":"Mérida","province":"BADAJOZ","postalCode":"06800","schedule":"L-D: 24H","fuels":{"gasoline95":1.719,"gasoline98":1.859,"diesel":1.949,"dieselPremium":2.029,"adblue":1.25},"extra":{"saleType":"P","margin":"D","reportingType":"OM","ideess":"11485","idMunicipio":"712","idProvincia":"06","idCCAA":"11"}}},{"type":"Feature","geometry":{"type":"Point","coordinates":[-6.631222,38.613056]},"properties":{"id":"es-11487","source":"ES","brand":"COOPERATIVA SANTA MARTA VIRGEN","address":"CALLE CORDELILLO, 62","municipality":"Santa Marta","province":"BADAJOZ","postalCode":"06150","schedule":"L-D: 24H","fuels":{"gasoline95":1.686,"diesel":1.865,"dieselB":1.388},"extra":{"saleType":"P","margin":"D","reportingType":"dm","ideess":"11487","idMunicipio":"752","idProvincia":"06","idCCAA":"11"}}},{"type":"Feature","geometry":{"type":"Point","coordinates":[-6.362222,38.937861]},"properties":{"id":"es-11563","source":"ES","brand":"REPSOL","address":"AUTOVIA A-5 KM. 341","municipality":"Mérida","province":"BADAJOZ","postalCode":"06800","schedule":"L-D: 06:00-23:00","fuels":{"gasoline95":1.769,"gasoline98":1.889,"diesel":1.979,"dieselRenewable":2.089,"lpg":1.195},"extra":{"saleType":"P","margin":"I","reportingType":"OM","ideess":"11563","idMunicipio":"712","idProvincia":"06","idCCAA":"11"}}},{"type":"Feature","geometry":{"type":"Point","coordinates":[-6.365083,38.938417]},"properties":{"id":"es-11564","source":"ES","brand":"REPSOL","address":"AUTOVIA A-5 KM. 341","municipality":"Mérida","province":"BADAJOZ","postalCode":"06800","schedule":"L-D: 24H","fuels":{"gasoline95":1.779,"gasoline98":1.889,"diesel":1.979,"dieselB":1.63,"dieselRenewable":2.089},"extra":{"saleType":"P","margin":"D","reportingType":"OM","ideess":"11564","idMunicipio":"712","idProvincia":"06","idCCAA":"11"}}},{"type":"Feature","geometry":{"type":"Point","coordinates":[-6.410889,38.347056]},"properties":{"id":"es-11573","source":"ES","brand":"COOP. STMO. CRISTO H.","address":"CALLE LUIS CHAMIZO, 1","municipality":"Medina de las Torres","province":"BADAJOZ","postalCode":"06320","schedule":"L-D: 24H","fuels":{"dieselPremium":1.789,"dieselB":1.376},"extra":{"saleType":"P","margin":"D","reportingType":"dm","ideess":"11573","idMunicipio":"710","idProvincia":"06","idCCAA":"11"}}},{"type":"Feature","geometry":{"type":"Point","coordinates":[-6.996278,38.894833]},"properties":{"id":"es-11645","source":"ES","brand":"BALLENOIL","address":"CALLE JERONIMO DE VALENCIA, 11","municipality":"Badajoz","province":"BADAJOZ","postalCode":"06006","schedule":"L-D: 24H","fuels":{"gasoline95":1.639,"diesel":1.789,"dieselPremium":1.799},"extra":{"saleType":"P","margin":"N","reportingType":"OM","ideess":"11645","idMunicipio":"644","idProvincia":"06","idCCAA":"11"}}},{"type":"Feature","geometry":{"type":"Point","coordinates":[-6.150583,38.112806]},"properties":{"id":"es-11675","source":"ES","brand":"IBERDOEX","address":"CARRETERA CASTUERA KM. 194","municipality":"Montemolín","province":"BADAJOZ","postalCode":"06907","schedule":"L-D: 24H","fuels":{"gasoline95":1.805,"diesel":1.989},"extra":{"saleType":"P","margin":"I","reportingType":"dm","ideess":"11675","idMunicipio":"715","idProvincia":"06","idCCAA":"11"}}},{"type":"Feature","geometry":{"type":"Point","coordinates":[-6.397583,38.710889]},"properties":{"id":"es-11738","source":"ES","brand":"CEPSA","address":"CARRETERA GIJON-SEVILLA KM. 648","municipality":"Almendralejo","province":"BADAJOZ","postalCode":"06200","schedule":"L-D: 24H","fuels":{"gasoline95":1.839,"gasoline98":2.049,"diesel":1.999,"dieselPremium":2.089},"extra":{"saleType":"P","margin":"I","reportingType":"dm","ideess":"11738","idMunicipio":"640","idProvincia":"06","idCCAA":"11"}}},{"type":"Feature","geometry":{"type":"Point","coordinates":[-6.390167,38.672389]},"properties":{"id":"es-11756","source":"ES","brand":"MORGANE OIL","address":"AVENIDA DE SEVILLA, 140","municipality":"Almendralejo","province":"BADAJOZ","postalCode":"06200","schedule":"L-D: 24H","fuels":{"gasoline95":1.649,"gasoline98":1.709,"diesel":1.759,"dieselPremium":1.809},"extra":{"saleType":"P","margin":"D","reportingType":"dm","ideess":"11756","idMunicipio":"640","idProvincia":"06","idCCAA":"11"}}},{"type":"Feature","geometry":{"type":"Point","coordinates":[-6.965194,38.906333]},"properties":{"id":"es-11759","source":"ES","brand":"REPSOL","address":"CARRETERA N523 KM. 0","municipality":"Badajoz","province":"BADAJOZ","postalCode":"06006","schedule":"L-D: 06:00-22:00","fuels":{"gasoline95":1.899,"gasoline98":2.079,"diesel":2.049,"dieselPremium":2.149,"adblue":1.399},"extra":{"saleType":"P","margin":"I","reportingType":"dm","ideess":"11759","idMunicipio":"644","idProvincia":"06","idCCAA":"11"}}},{"type":"Feature","geometry":{"type":"Point","coordinates":[-6.220556,38.029444]},"properties":{"id":"es-11787","source":"ES","brand":"REPSOL","address":"AUTOPISTA A-66 KM. 727","municipality":"Monesterio","province":"BADAJOZ","postalCode":"06260","schedule":"L-D: 24H","fuels":{"gasoline95":1.809,"gasoline98":1.929,"diesel":1.995,"dieselRenewable":2.105},"extra":{"saleType":"P","margin":"I","reportingType":"OM","ideess":"11787","idMunicipio":"714","idProvincia":"06","idCCAA":"11"}}},{"type":"Feature","geometry":{"type":"Point","coordinates":[-6.685667,38.928472]},"properties":{"id":"es-11791","source":"ES","brand":"TALANTENA","address":"CARRETERA MATASDEPORRAS KM. SN","municipality":"Badajoz","province":"BADAJOZ","postalCode":"06186","schedule":"L-D: 06:30-10:00","fuels":{"gasoline95":1.729,"diesel":1.829,"dieselB":1.399},"extra":{"saleType":"P","margin":"D","reportingType":"dm","ideess":"11791","idMunicipio":"644","idProvincia":"06","idCCAA":"11"}}},{"type":"Feature","geometry":{"type":"Point","coordinates":[-6.302111,38.315167]},"properties":{"id":"es-11990","source":"ES","brand":"MOEVE","address":"AUTOVIA A-66 KM. 690","municipality":"Calzadilla de los Barros","province":"BADAJOZ","postalCode":"06249","schedule":"L-D: 06:00-22:00","fuels":{"gasoline95":1.774,"gasoline95Premium":1.849,"diesel":2.004,"dieselPremium":2.074},"extra":{"saleType":"P","margin":"I","reportingType":"OM","ideess":"11990","idMunicipio":"656","idProvincia":"06","idCCAA":"11"}}},{"type":"Feature","geometry":{"type":"Point","coordinates":[-6.355944,38.561056]},"properties":{"id":"es-12111","source":"ES","brand":"IDS","address":"CALLE VARALES, S/N","municipality":"Villafranca de los Barros","province":"BADAJOZ","postalCode":"06220","schedule":"L-D: 24H","fuels":{"diesel":1.894,"dieselRenewable":2.136,"adblue":1.105},"extra":{"saleType":"P","margin":"D","reportingType":"dm","ideess":"12111","idMunicipio":"780","idProvincia":"06","idCCAA":"11"}}},{"type":"Feature","geometry":{"type":"Point","coordinates":[-6.871278,38.138194]},"properties":{"id":"es-12177","source":"ES","brand":"AGLA","address":"DISEMINADO LAGARES, 0,00","municipality":"Encinasola","province":"HUELVA","postalCode":"21390","schedule":"L: 07:30-22:00","fuels":{"gasoline95":1.739,"diesel":1.909,"dieselB":1.499},"extra":{"saleType":"P","margin":"D","reportingType":"dm","ideess":"12177","idMunicipio":"3245","idProvincia":"21","idCCAA":"01"}}},{"type":"Feature","geometry":{"type":"Point","coordinates":[-6.987611,38.895667]},"properties":{"id":"es-12195","source":"ES","brand":"BDS","address":"CALLE NEVERO QUINCE, 57","municipality":"Badajoz","province":"BADAJOZ","postalCode":"06006","schedule":"L-D: 24H","fuels":{"gasoline95":1.649,"diesel":1.799,"adblue":0.78},"extra":{"saleType":"P","margin":"D","reportingType":"dm","ideess":"12195","idMunicipio":"644","idProvincia":"06","idCCAA":"11"}}},{"type":"Feature","geometry":{"type":"Point","coordinates":[-6.617028,38.891611]},"properties":{"id":"es-12317","source":"ES","brand":"SDAD. COOP. VEGAS BAJAS","address":"CALLE CALZADA ROMANA, S/N","municipality":"Puebla de la Calzada","province":"BADAJOZ","postalCode":"06490","schedule":"L-D: 24H","fuels":{"diesel":1.759},"extra":{"saleType":"P","margin":"D","reportingType":"dm","ideess":"12317","idMunicipio":"732","idProvincia":"06","idCCAA":"11"}}},{"type":"Feature","geometry":{"type":"Point","coordinates":[-6.998778,38.892222]},"properties":{"id":"es-12363","source":"ES","brand":"PETROMODE","address":"CALLE FEDERICO MAYOR ZARAGOZA, S/N","municipality":"Badajoz","province":"BADAJOZ","postalCode":"06011","schedule":"L-D: 24H","fuels":{"gasoline95":1.629,"diesel":1.759},"extra":{"saleType":"P","margin":"D","reportingType":"dm","ideess":"12363","idMunicipio":"644","idProvincia":"06","idCCAA":"11"}}},{"type":"Feature","geometry":{"type":"Point","coordinates":[-6.380556,38.885028]},"properties":{"id":"es-12465","source":"ES","brand":"GALP","address":"CARRETERA SEVILLA KM. S/N","municipality":"Calamonte","province":"BADAJOZ","postalCode":"06810","schedule":"L-D: 24H","fuels":{"gasoline95":1.669,"diesel":1.829},"extra":{"saleType":"P","margin":"D","reportingType":"dm","ideess":"12465","idMunicipio":"654","idProvincia":"06","idCCAA":"11"}}},{"type":"Feature","geometry":{"type":"Point","coordinates":[-6.6755,38.724528]},"properties":{"id":"es-12493","source":"ES","brand":"COAGCOR A.I.E","address":"CALLE VASCO NUÑEZ DE BALBOA, 23","municipality":"Corte de Peleas","province":"BADAJOZ","postalCode":"06196","schedule":"L-D: 24H","fuels":{"diesel":1.72,"dieselB":1.38},"extra":{"saleType":"P","margin":"D","reportingType":"dm","ideess":"12493","idMunicipio":"670","idProvincia":"06","idCCAA":"11"}}},{"type":"Feature","geometry":{"type":"Point","coordinates":[-6.328556,38.100556]},"properties":{"id":"es-12513","source":"ES","brand":"AL-KASERA","address":"PARAJE PUERTO RICO, S/N","municipality":"Calera de León","province":"BADAJOZ","postalCode":"06292","schedule":"L: 06:00-22:00","fuels":{"gasoline95":1.701,"diesel":1.803,"dieselB":1.48},"extra":{"saleType":"P","margin":"N","reportingType":"dm","ideess":"12513","idMunicipio":"655","idProvincia":"06","idCCAA":"11"}}},{"type":"Feature","geometry":{"type":"Point","coordinates":[-6.404139,38.418917]},"properties":{"id":"es-12902","source":"ES","brand":"IBERDOEX","address":"CALLE GUADIANA, S/N","municipality":"Zafra","province":"BADAJOZ","postalCode":"06300","schedule":"L-D: 24H","fuels":{"gasoline95":1.629,"diesel":1.799},"extra":{"saleType":"P","margin":"D","reportingType":"dm","ideess":"12902","idMunicipio":"789","idProvincia":"06","idCCAA":"11"}}},{"type":"Feature","geometry":{"type":"Point","coordinates":[-6.296556,38.23025]},"properties":{"id":"es-12928","source":"ES","brand":"GALP","address":"ACCESO A-66, S/N","municipality":"Fuente de Cantos","province":"BADAJOZ","postalCode":"06240","schedule":"L-D: 06:00-23:00","fuels":{"gasoline95":1.799,"gasoline98":1.979,"diesel":1.979,"dieselPremium":2.039},"extra":{"saleType":"P","margin":"D","reportingType":"dm","ideess":"12928","idMunicipio":"681","idProvincia":"06","idCCAA":"11"}}},{"type":"Feature","geometry":{"type":"Point","coordinates":[-6.270861,38.094639]},"properties":{"id":"es-13123","source":"ES","brand":"SAN ISIDRO","address":"CALLE BARRIO DE LA CRUZ, 157","municipality":"Monesterio","province":"BADAJOZ","postalCode":"06260","schedule":"L-D: 24H","fuels":{"gasoline95":1.689,"diesel":1.869,"dieselB":1.609},"extra":{"saleType":"P","margin":"I","reportingType":"dm","ideess":"13123","idMunicipio":"714","idProvincia":"06","idCCAA":"11"}}},{"type":"Feature","geometry":{"type":"Point","coordinates":[-6.953,38.874611]},"properties":{"id":"es-13147","source":"ES","brand":"OCHO AREAS DE SERVICIO","address":"CALLE CORTE DE PELEAS, 114","municipality":"Badajoz","province":"BADAJOZ","postalCode":"06009","schedule":"L-D: 24H","fuels":{"gasoline95":1.639,"diesel":1.789,"adblue":0.78},"extra":{"saleType":"P","margin":"D","reportingType":"dm","ideess":"13147","idMunicipio":"644","idProvincia":"06","idCCAA":"11"}}},{"type":"Feature","geometry":{"type":"Point","coordinates":[-6.220556,38.028611]},"properties":{"id":"es-13208","source":"ES","brand":"MOEVE COMPLEJO LEO 24H","address":"AUTOVIA A 66 KM. 730","municipality":"Monesterio","province":"BADAJOZ","postalCode":"06200","schedule":"L-D: 24H","fuels":{"gasoline95":1.809,"diesel":1.985,"dieselPremium":2.055,"lpg":1.115,"adblue":1.075},"extra":{"saleType":"P","margin":"D","reportingType":"dm","ideess":"13208","idMunicipio":"714","idProvincia":"06","idCCAA":"11"}}},{"type":"Feature","geometry":{"type":"Point","coordinates":[-6.257639,38.084278]},"properties":{"id":"es-13259","source":"ES","brand":"COMOSUREX","address":"POLIGONO EL ALCORNOCAL, CALLE LOS AGRICULTORES, 56","municipality":"Monesterio","province":"BADAJOZ","postalCode":"06200","schedule":"L-D: 24H","fuels":{"diesel":1.859},"extra":{"saleType":"P","margin":"D","reportingType":"dm","ideess":"13259","idMunicipio":"714","idProvincia":"06","idCCAA":"11"}}},{"type":"Feature","geometry":{"type":"Point","coordinates":[-6.332639,38.105306]},"properties":{"id":"es-13350","source":"ES","brand":"E.S TENTUDIA","address":"CALLE HERNANDO DE SOTO, 2","municipality":"Calera de León","province":"BADAJOZ","postalCode":"06292","schedule":"L-D: 24H","fuels":{"gasoline95":1.679,"diesel":1.829},"extra":{"saleType":"P","margin":"N","reportingType":"dm","ideess":"13350","idMunicipio":"655","idProvincia":"06","idCCAA":"11"}}},{"type":"Feature","geometry":{"type":"Point","coordinates":[-6.621611,38.8995]},"properties":{"id":"es-13509","source":"ES","brand":"PETROCAR","address":"AVENIDA DE PUEBLA, 6","municipality":"Montijo","province":"BADAJOZ","postalCode":"06480","schedule":"L-D: 24H","fuels":{"gasoline95":1.639,"diesel":1.759},"extra":{"saleType":"P","margin":"D","reportingType":"dm","ideess":"13509","idMunicipio":"717","idProvincia":"06","idCCAA":"11"}}},{"type":"Feature","geometry":{"type":"Point","coordinates":[-6.932639,38.883861]},"properties":{"id":"es-13546","source":"ES","brand":"BALLENOIL","address":"CARRETERA BA-20 KM. 1","municipality":"Badajoz","province":"BADAJOZ","postalCode":"06080","schedule":"L-D: 24H","fuels":{"gasoline95":1.639,"diesel":1.789,"lpg":1.083,"adblue":0.859},"extra":{"saleType":"P","margin":"I","reportingType":"OM","ideess":"13546","idMunicipio":"644","idProvincia":"06","idCCAA":"11"}}},{"type":"Feature","geometry":{"type":"Point","coordinates":[-6.957583,38.336056]},"properties":{"id":"es-13716","source":"ES","brand":"13344","address":"CARRETERA HIGUERA DE VARGAS KM. 1,3","municipality":"Zahínos","province":"BADAJOZ","postalCode":"06129","schedule":"L: 06:30-22:30","fuels":{"diesel":1.839,"dieselB":1.509},"extra":{"saleType":"P","margin":"D","reportingType":"dm","ideess":"13716","idMunicipio":"790","idProvincia":"06","idCCAA":"11"}}},{"type":"Feature","geometry":{"type":"Point","coordinates":[-6.413083,38.429833]},"properties":{"id":"es-13726","source":"ES","brand":"BALLENOIL","address":"CALLE RECINTO FERIAL, MANZANA R-2, S/N","municipality":"Zafra","province":"BADAJOZ","postalCode":"06300","schedule":"L-D: 24H","fuels":{"gasoline95":1.629,"diesel":1.799},"extra":{"saleType":"P","margin":"D","reportingType":"OM","ideess":"13726","idMunicipio":"789","idProvincia":"06","idCCAA":"11"}}},{"type":"Feature","geometry":{"type":"Point","coordinates":[-6.353472,38.905417]},"properties":{"id":"es-13777","source":"ES","brand":"BALLENOIL","address":"CALLE ROSALIA CASTRO ESQUINA RAFAEL ALBERTI MERELLO (PARQUE COMERCIAL LA HEREDAD), 4","municipality":"Mérida","province":"BADAJOZ","postalCode":"06800","schedule":"L-D: 24H","fuels":{"gasoline95":1.619,"diesel":1.799},"extra":{"saleType":"P","margin":"N","reportingType":"OM","ideess":"13777","idMunicipio":"712","idProvincia":"06","idCCAA":"11"}}},{"type":"Feature","geometry":{"type":"Point","coordinates":[-6.790111,38.612278]},"properties":{"id":"es-13803","source":"ES","brand":"DOEX","address":"CARRETERA EX-105 KM. 110","municipality":"Torre de Miguel Sesmero","province":"BADAJOZ","postalCode":"06172","schedule":"L-D: 24H","fuels":{"gasoline95":1.709,"diesel":1.819,"dieselB":1.589},"extra":{"saleType":"P","margin":"D","reportingType":"dm","ideess":"13803","idMunicipio":"761","idProvincia":"06","idCCAA":"11"}}},{"type":"Feature","geometry":{"type":"Point","coordinates":[-6.344194,38.934889]},"properties":{"id":"es-13898","source":"ES","brand":"PETROGOLD","address":"AVENIDA FELIPE VI, S/N","municipality":"Mérida","province":"BADAJOZ","postalCode":"06800","schedule":"L-D: 24H","fuels":{"gasoline95":1.659,"diesel":1.789,"dieselPremium":1.789},"extra":{"saleType":"P","margin":"D","reportingType":"dm","ideess":"13898","idMunicipio":"712","idProvincia":"06","idCCAA":"11"}}},{"type":"Feature","geometry":{"type":"Point","coordinates":[-6.852556,38.509778]},"properties":{"id":"es-13908","source":"ES","brand":"M&D","address":"CALLE JEREZ, 0","municipality":"Barcarrota","province":"BADAJOZ","postalCode":"06160","schedule":"L-D: 24H","fuels":{"gasoline95":1.629,"diesel":1.799,"adblue":0.79},"extra":{"saleType":"P","margin":"D","reportingType":"dm","ideess":"13908","idMunicipio":"645","idProvincia":"06","idCCAA":"11"}}},{"type":"Feature","geometry":{"type":"Point","coordinates":[-6.330111,38.916028]},"properties":{"id":"es-13915","source":"ES","brand":"BALLENOIL","address":"CALLE PAPA JUAN XXI, S/N","municipality":"Mérida","province":"BADAJOZ","postalCode":"06800","schedule":"L-D: 24H","fuels":{"gasoline95":1.619,"diesel":1.799},"extra":{"saleType":"P","margin":"I","reportingType":"OM","ideess":"13915","idMunicipio":"712","idProvincia":"06","idCCAA":"11"}}},{"type":"Feature","geometry":{"type":"Point","coordinates":[-6.007611,38.242556]},"properties":{"id":"es-13928","source":"ES","brand":"PETROCOR","address":"CALLE LA RADIO II, 17","municipality":"Llerena","province":"BADAJOZ","postalCode":"06900","schedule":"L-D: 24H","fuels":{"gasoline95":1.689,"diesel":1.949},"extra":{"saleType":"P","margin":"D","reportingType":"dm","ideess":"13928","idMunicipio":"702","idProvincia":"06","idCCAA":"11"}}},{"type":"Feature","geometry":{"type":"Point","coordinates":[-6.361778,38.916028]},"properties":{"id":"es-13929","source":"ES","brand":"HERMANOS GUILLEN MONTERO S.A.","address":"AVENIDA HISPANIDAD, 2","municipality":"Mérida","province":"BADAJOZ","postalCode":"06800","schedule":"L-D: 24H","fuels":{"gasoline95":1.659,"diesel":1.799,"adblue":0.899},"extra":{"saleType":"P","margin":"D","reportingType":"dm","ideess":"13929","idMunicipio":"712","idProvincia":"06","idCCAA":"11"}}},{"type":"Feature","geometry":{"type":"Point","coordinates":[-6.361056,38.937861]},"properties":{"id":"es-13996","source":"ES","brand":"HAM","address":"AUTOVIA A5 KM. 341","municipality":"Mérida","province":"BADAJOZ","postalCode":"06800","schedule":"L-D: 06:00-22:00","fuels":{"cng":1.644,"lng":1.599,"bioCng":1.624,"bioLng":1.569},"extra":{"saleType":"P","margin":"N","reportingType":"dm","ideess":"13996","idMunicipio":"712","idProvincia":"06","idCCAA":"11"}}},{"type":"Feature","geometry":{"type":"Point","coordinates":[-6.359583,38.557111]},"properties":{"id":"es-14001","source":"ES","brand":"QUALITYFUEL","address":"CALLE ELECTRICISTA, 1","municipality":"Villafranca de los Barros","province":"BADAJOZ","postalCode":"06220","schedule":"L-D: 24H","fuels":{"gasoline95":1.709,"diesel":1.789},"extra":{"saleType":"P","margin":"D","reportingType":"dm","ideess":"14001","idMunicipio":"780","idProvincia":"06","idCCAA":"11"}}},{"type":"Feature","geometry":{"type":"Point","coordinates":[-6.172417,38.34525]},"properties":{"id":"es-14003","source":"ES","brand":"CEPSA","address":"CARRETERA N-432 KM. 96,4","municipality":"Usagre","province":"BADAJOZ","postalCode":"06290","schedule":"L: 07:00-22:00","fuels":{"gasoline95":1.799,"gasoline98":1.849,"diesel":1.959,"dieselPremium":2.049,"dieselB":1.249},"extra":{"saleType":"P","margin":"I","reportingType":"dm","ideess":"14003","idMunicipio":"766","idProvincia":"06","idCCAA":"11"}}},{"type":"Feature","geometry":{"type":"Point","coordinates":[-6.429833,38.94125]},"properties":{"id":"es-14319","source":"ES","brand":"SEDIMACAR, S.L.","address":"CALLE VIA EMERITA, 66","municipality":"Esparragalejo","province":"BADAJOZ","postalCode":"06860","schedule":"L-D: 24H","fuels":{"gasoline95":1.57,"diesel":1.7},"extra":{"saleType":"P","margin":"D","reportingType":"dm","ideess":"14319","idMunicipio":"675","idProvincia":"06","idCCAA":"11"}}},{"type":"Feature","geometry":{"type":"Point","coordinates":[-6.954972,38.868833]},"properties":{"id":"es-14454","source":"ES","brand":"SHELL","address":"CARRETERA N-432 KM. 0,650","municipality":"Badajoz","province":"BADAJOZ","postalCode":"06009","schedule":"L-D: 24H","fuels":{"gasoline95":1.639,"diesel":1.789},"extra":{"saleType":"P","margin":"N","reportingType":"OM","ideess":"14454","idMunicipio":"644","idProvincia":"06","idCCAA":"11"}}},{"type":"Feature","geometry":{"type":"Point","coordinates":[-6.710694,38.303833]},"properties":{"id":"es-14629","source":"ES","brand":"SIERRA DE JEREZ SOCIEDAD COOPERATIVA","address":"CARRETERA CIRCUNVALACIÓN SN KM. S/N","municipality":"Jerez de los Caballeros","province":"BADAJOZ","postalCode":"06389","schedule":"L-D: 24H","fuels":{"diesel":1.79,"dieselB":1.47},"extra":{"saleType":"P","margin":"D","reportingType":"dm","ideess":"14629","idMunicipio":"699","idProvincia":"06","idCCAA":"11"}}},{"type":"Feature","geometry":{"type":"Point","coordinates":[-6.911861,38.286278]},"properties":{"id":"es-14642","source":"ES","brand":"ASAJA SDAD COOP","address":"POLIGONO LA CALZADA, 0","municipality":"Oliva de la Frontera","province":"BADAJOZ","postalCode":"06120","schedule":"L-V: 07:00-14:30 y 16:30-19:30; S: 07:00-13:00","fuels":{"diesel":1.88,"dieselB":1.5},"extra":{"saleType":"P","margin":"D","reportingType":"dm","ideess":"14642","idMunicipio":"722","idProvincia":"06","idCCAA":"11"}}},{"type":"Feature","geometry":{"type":"Point","coordinates":[-6.964,38.881694]},"properties":{"id":"es-15049","source":"ES","brand":"REPSOL","address":"AVENIDA CIRCUNVALACIÓN REINA SOFÍA, SN","municipality":"Badajoz","province":"BADAJOZ","postalCode":"06007","schedule":"L-S: 06:00-23:00; D: 07:00-23:00","fuels":{"gasoline95":1.799,"gasoline98":1.969,"diesel":1.925,"dieselPremium":2.035,"lpg":1.185},"extra":{"saleType":"P","margin":"D","reportingType":"OM","ideess":"15049","idMunicipio":"644","idProvincia":"06","idCCAA":"11"}}},{"type":"Feature","geometry":{"type":"Point","coordinates":[-6.612139,38.879417]},"properties":{"id":"es-15318","source":"ES","brand":"EXPLOTACIONES GASOAL SL","address":"CARRETERA EX-328 LOBON-LA ROCA KM. 2,76","municipality":"Puebla de la Calzada","province":"BADAJOZ","postalCode":"06490","schedule":"L-V: 06:30-22:30; S: 07:00-22:30; D: 07:00-15:00","fuels":{"gasoline95":1.679,"diesel":1.839,"dieselB":1.435},"extra":{"saleType":"P","margin":"D","reportingType":"dm","ideess":"15318","idMunicipio":"732","idProvincia":"06","idCCAA":"11"}}},{"type":"Feature","geometry":{"type":"Point","coordinates":[-6.079056,38.083917]},"properties":{"id":"es-15378","source":"ES","brand":"LIBRE","address":"CARRETERA CAZALLA KM. S/N","municipality":"Puebla del Maestre","province":"BADAJOZ","postalCode":"06906","schedule":"L-V: 08:00-15:00","fuels":{"diesel":1.999,"dieselB":1.499},"extra":{"saleType":"P","margin":"D","reportingType":"dm","ideess":"15378","idMunicipio":"736","idProvincia":"06","idCCAA":"11"}}},{"type":"Feature","geometry":{"type":"Point","coordinates":[-6.37425,38.919111]},"properties":{"id":"es-15422","source":"ES","brand":"NIEVES","address":"CALLE POLIGONO INDUSTRIAL EL PRADO CL SUP-PA-01 B8., S/N","municipality":"Mérida","province":"BADAJOZ","postalCode":"06800","schedule":"L-D: 24H","fuels":{"diesel":1.899,"dieselB":1.629,"adblue":0.899},"extra":{"saleType":"P","margin":"N","reportingType":"dm","ideess":"15422","idMunicipio":"712","idProvincia":"06","idCCAA":"11"}}},{"type":"Feature","geometry":{"type":"Point","coordinates":[-6.999083,38.892417]},"properties":{"id":"es-15458","source":"ES","brand":"ESTRELLA ROJA","address":"CALLE FEDERICO MAYOR ZARAGOZA, 14","municipality":"Badajoz","province":"BADAJOZ","postalCode":"06006","schedule":"L-D: 24H","fuels":{"gasoline95":1.629,"diesel":1.759},"extra":{"saleType":"P","margin":"D","reportingType":"dm","ideess":"15458","idMunicipio":"644","idProvincia":"06","idCCAA":"11"}}},{"type":"Feature","geometry":{"type":"Point","coordinates":[-6.393889,38.394222]},"properties":{"id":"es-15488","source":"ES","brand":"NTRA SRA DE BELEN","address":"CALLE CRUZ VERDE, 9","municipality":"Puebla de Sancho Pérez","province":"BADAJOZ","postalCode":"06310","schedule":"L-D: 00:00-23:59","fuels":{"diesel":1.776,"dieselB":1.312},"extra":{"saleType":"P","margin":"D","reportingType":"dm","ideess":"15488","idMunicipio":"735","idProvincia":"06","idCCAA":"11"}}},{"type":"Feature","geometry":{"type":"Point","coordinates":[-6.357722,38.916278]},"properties":{"id":"es-15664","source":"ES","brand":"VERDE Y SOSTENIBLE","address":"AVENIDA HISPANIDAD, 3","municipality":"Mérida","province":"BADAJOZ","postalCode":"06800","schedule":"L-D: 24H","fuels":{"gasoline95":1.669,"diesel":1.799,"dieselPremium":1.879,"adblue":0.999},"extra":{"saleType":"P","margin":"D","reportingType":"dm","ideess":"15664","idMunicipio":"712","idProvincia":"06","idCCAA":"11"}}},{"type":"Feature","geometry":{"type":"Point","coordinates":[-6.954361,38.876222]},"properties":{"id":"es-15681","source":"ES","brand":"BALLENOIL","address":"CALLE CORTE DE PELEAS, 120","municipality":"Badajoz","province":"BADAJOZ","postalCode":"06009","schedule":"L-D: 24H","fuels":{"gasoline95":1.639,"diesel":1.789,"dieselPremium":1.799},"extra":{"saleType":"P","margin":"D","reportingType":"OM","ideess":"15681","idMunicipio":"644","idProvincia":"06","idCCAA":"11"}}},{"type":"Feature","geometry":{"type":"Point","coordinates":[-6.621389,38.844444]},"properties":{"id":"es-15730","source":"ES","brand":"FUEL 10","address":"AUTOVIA A5 KM. 367","municipality":"Lobón","province":"BADAJOZ","postalCode":"06498","schedule":"L-D: 24H","fuels":{"gasoline95":1.648,"diesel":1.786},"extra":{"saleType":"P","margin":"D","reportingType":"dm","ideess":"15730","idMunicipio":"703","idProvincia":"06","idCCAA":"11"}}},{"type":"Feature","geometry":{"type":"Point","coordinates":[-6.375556,38.921972]},"properties":{"id":"es-15820","source":"ES","brand":"BALLENOIL","address":"POLIGONO IND. EL PRADO, PARC SER 1-A, S/N","municipality":"Mérida","province":"BADAJOZ","postalCode":"06800","schedule":"L-D: 24H","fuels":{"gasoline95":1.619,"diesel":1.799,"dieselPremium":1.809},"extra":{"saleType":"P","margin":"N","reportingType":"OM","ideess":"15820","idMunicipio":"712","idProvincia":"06","idCCAA":"11"}}},{"type":"Feature","geometry":{"type":"Point","coordinates":[-6.783,38.359639]},"properties":{"id":"es-15977","source":"ES","brand":"IBERDOEX","address":"POLIGONO EL PERICOTE 2, 1","municipality":"Valle de Santa Ana","province":"BADAJOZ","postalCode":"06178","schedule":"L-D: 24H","fuels":{"gasoline95":1.809,"diesel":1.949},"extra":{"saleType":"P","margin":"I","reportingType":"dm","ideess":"15977","idMunicipio":"775","idProvincia":"06","idCCAA":"11"}}},{"type":"Feature","geometry":{"type":"Point","coordinates":[-6.973083,38.862861]},"properties":{"id":"es-16090","source":"ES","brand":"BALLENOIL","address":"AVENIDA DAMIÁN TÉLLEZ LAFUENTE, 38","municipality":"Badajoz","province":"BADAJOZ","postalCode":"06010","schedule":"L-D: 24H","fuels":{"gasoline95":1.639,"diesel":1.789,"dieselPremium":1.799},"extra":{"saleType":"P","margin":"N","reportingType":"OM","ideess":"16090","idMunicipio":"644","idProvincia":"06","idCCAA":"11"}}},{"type":"Feature","geometry":{"type":"Point","coordinates":[-6.411778,38.690056]},"properties":{"id":"es-16129","source":"ES","brand":"BALLENOIL","address":"CALLE MECANICA, 1","municipality":"Almendralejo","province":"BADAJOZ","postalCode":"06200","schedule":"L-D: 24H","fuels":{"gasoline95":1.639,"diesel":1.769,"dieselPremium":1.789},"extra":{"saleType":"P","margin":"N","reportingType":"OM","ideess":"16129","idMunicipio":"640","idProvincia":"06","idCCAA":"11"}}},{"type":"Feature","geometry":{"type":"Point","coordinates":[-6.651333,38.171917]},"properties":{"id":"es-16222","source":"ES","brand":"AGLA","address":"CALLE MATADERO, 5","municipality":"Fregenal de la Sierra","province":"BADAJOZ","postalCode":"06340","schedule":"L: 24H","fuels":{"gasoline95":1.698,"diesel":1.878,"adblue":0.929},"extra":{"saleType":"P","margin":"I","reportingType":"dm","ideess":"16222","idMunicipio":"679","idProvincia":"06","idCCAA":"11"}}},{"type":"Feature","geometry":{"type":"Point","coordinates":[-6.386667,38.927278]},"properties":{"id":"es-16233","source":"ES","brand":"SEDIMACAR S.L.","address":"CALLE HUESCA,  ESQUINA CALLE VALLADOLID, 1","municipality":"Mérida","province":"BADAJOZ","postalCode":"06800","schedule":"L-D: 24H","fuels":{"gasoline95":1.57,"diesel":1.7},"extra":{"saleType":"P","margin":"D","reportingType":"dm","ideess":"16233","idMunicipio":"712","idProvincia":"06","idCCAA":"11"}}},{"type":"Feature","geometry":{"type":"Point","coordinates":[-6.992167,38.898778]},"properties":{"id":"es-16234","source":"ES","brand":"NAKANOIL","address":"CALLE NEVERO NUEVE, 1","municipality":"Badajoz","province":"BADAJOZ","postalCode":"06006","schedule":"L-D: 24H","fuels":{"gasoline95":1.639,"diesel":1.789,"adblue":0.69},"extra":{"saleType":"P","margin":"I","reportingType":"dm","ideess":"16234","idMunicipio":"644","idProvincia":"06","idCCAA":"11"}}},{"type":"Feature","geometry":{"type":"Point","coordinates":[-6.411778,38.693194]},"properties":{"id":"es-16252","source":"ES","brand":"CARREFOUR","address":"CALLE MECANICA, 12","municipality":"Almendralejo","province":"BADAJOZ","postalCode":"06200","schedule":"L-D: 24H","fuels":{"gasoline95":1.749,"diesel":1.899},"extra":{"saleType":"P","margin":"N","reportingType":"dm","ideess":"16252","idMunicipio":"640","idProvincia":"06","idCCAA":"11"}}},{"type":"Feature","geometry":{"type":"Point","coordinates":[-6.608,38.902389]},"properties":{"id":"es-16322","source":"ES","brand":"BALLENOIL","address":"CARRETERA EX-209 KM. 5","municipality":"Montijo","province":"BADAJOZ","postalCode":"06480","schedule":"L-D: 24H","fuels":{"gasoline95":1.619,"diesel":1.759},"extra":{"saleType":"P","margin":"N","reportingType":"OM","ideess":"16322","idMunicipio":"717","idProvincia":"06","idCCAA":"11"}}},{"type":"Feature","geometry":{"type":"Point","coordinates":[-6.617889,38.89225]},"properties":{"id":"es-16324","source":"ES","brand":"MERCOENERGY","address":"AVENIDA ALCORNOQUE DEL, 91","municipality":"Puebla de la Calzada","province":"BADAJOZ","postalCode":"06490","schedule":"L-D: 24H","fuels":{"gasoline95Premium":1.659,"dieselPremium":1.789,"adblue":0.798},"extra":{"saleType":"P","margin":"D","reportingType":"dm","ideess":"16324","idMunicipio":"732","idProvincia":"06","idCCAA":"11"}}},{"type":"Feature","geometry":{"type":"Point","coordinates":[-6.281722,38.946889]},"properties":{"id":"es-16427","source":"ES","brand":"BP OIL ESPAÑA S.A.U","address":"CARRETERA NACIONAL V KM. 334,2","municipality":"Mérida","province":"BADAJOZ","postalCode":"06800","schedule":"L-D: 06:30-22:30","fuels":{"gasoline95":1.784,"gasoline98":1.925,"diesel":1.969,"dieselPremium":2.089},"extra":{"saleType":"P","margin":"D","reportingType":"dm","ideess":"16427","idMunicipio":"712","idProvincia":"06","idCCAA":"11"}}},{"type":"Feature","geometry":{"type":"Point","coordinates":[-6.363944,38.914972]},"properties":{"id":"es-16457","source":"ES","brand":"BALLENOIL","address":"CALLE SAN JUAN DE DIOS ROMÁN SECO, 1","municipality":"Mérida","province":"BADAJOZ","postalCode":"06800","schedule":"L-D: 24H","fuels":{"gasoline95":1.609,"gasoline95Premium":1.619,"diesel":1.799,"dieselPremium":1.809},"extra":{"saleType":"P","margin":"N","reportingType":"OM","ideess":"16457","idMunicipio":"712","idProvincia":"06","idCCAA":"11"}}},{"type":"Feature","geometry":{"type":"Point","coordinates":[-6.386444,38.894806]},"properties":{"id":"es-16459","source":"ES","brand":"BALLENOIL","address":"AVENIDA EXTREMADURA, 76","municipality":"Calamonte","province":"BADAJOZ","postalCode":"06810","schedule":"L-D: 24H","fuels":{"gasoline95":1.609,"gasoline95Premium":1.619,"diesel":1.799,"dieselPremium":1.809},"extra":{"saleType":"P","margin":"N","reportingType":"OM","ideess":"16459","idMunicipio":"654","idProvincia":"06","idCCAA":"11"}}},{"type":"Feature","geometry":{"type":"Point","coordinates":[-6.213194,38.827083]},"properties":{"id":"es-16468","source":"ES","brand":"CANCHALOSA","address":"CARRETERA CIRCUNVALACION KM. 3,4","municipality":"Zarza (La)","province":"BADAJOZ","postalCode":"06830","schedule":"L-D: 00:00-23:59","fuels":{"diesel":1.694,"dieselB":1.21},"extra":{"saleType":"P","margin":"D","reportingType":"dm","ideess":"16468","idMunicipio":"792","idProvincia":"06","idCCAA":"11"}}},{"type":"Feature","geometry":{"type":"Point","coordinates":[-6.224972,38.911972]},"properties":{"id":"es-5819","source":"ES","brand":"E.S. \"LAS ADELFAS\"","address":"CARRETERA EX307 KM. 9,102","municipality":"Valverde de Mérida","province":"BADAJOZ","postalCode":"06890","schedule":"L-S: 06:00-23:00; D: 08:00-23:00","fuels":{"gasoline95":1.759,"diesel":1.839},"extra":{"saleType":"P","margin":"I","reportingType":"dm","ideess":"5819","idMunicipio":"779","idProvincia":"06","idCCAA":"11"}}},{"type":"Feature","geometry":{"type":"Point","coordinates":[-6.91225,38.285333]},"properties":{"id":"es-5821","source":"ES","brand":"IBERDOEX","address":"CARRETERA JEREZ KM. S/N","municipality":"Oliva de la Frontera","province":"BADAJOZ","postalCode":"06120","schedule":"L-D: 07:00-22:00","fuels":{"gasoline95":1.699,"diesel":1.899,"dieselPremium":1.949,"dieselB":1.399},"extra":{"saleType":"P","margin":"D","reportingType":"dm","ideess":"5821","idMunicipio":"722","idProvincia":"06","idCCAA":"11"}}},{"type":"Feature","geometry":{"type":"Point","coordinates":[-6.85975,38.886528]},"properties":{"id":"es-5824","source":"ES","brand":"IBERDOEX","address":"CARRETERA NACIONAL V KM. 391","municipality":"Badajoz","province":"BADAJOZ","postalCode":"06195","schedule":"L-D: 24H","fuels":{"gasoline95":1.669,"gasoline98":1.879,"diesel":1.819,"dieselPremium":1.859,"adblue":0.809},"extra":{"saleType":"P","margin":"D","reportingType":"dm","ideess":"5824","idMunicipio":"644","idProvincia":"06","idCCAA":"11"}}},{"type":"Feature","geometry":{"type":"Point","coordinates":[-6.7015,38.886944]},"properties":{"id":"es-5826","source":"ES","brand":"IBERDOEX","address":"CALZADA ROMANA, S/N","municipality":"Valdelacalzada","province":"BADAJOZ","postalCode":"06185","schedule":"L-D: 06:00-22:00","fuels":{"gasoline95":1.689,"diesel":1.839,"dieselB":1.429,"adblue":0.819},"extra":{"saleType":"P","margin":"N","reportingType":"dm","ideess":"5826","idMunicipio":"768","idProvincia":"06","idCCAA":"11"}}},{"type":"Feature","geometry":{"type":"Point","coordinates":[-6.975,38.438306]},"properties":{"id":"es-5828","source":"ES","brand":"REPSOL","address":"CARRETERA HIGUERA DE VARGAS A EX-112 KM. 0,385","municipality":"Higuera de Vargas","province":"BADAJOZ","postalCode":"06132","schedule":"L-S: 06:30-21:30; D: 07:30-21:00","fuels":{"gasoline95":1.809,"diesel":1.989,"dieselPremium":2.059},"extra":{"saleType":"P","margin":"I","reportingType":"dm","ideess":"5828","idMunicipio":"695","idProvincia":"06","idCCAA":"11"}}},{"type":"Feature","geometry":{"type":"Point","coordinates":[-6.540278,38.070556]},"properties":{"id":"es-5834","source":"ES","brand":"IBERDOEX","address":"SEGURA A CUMBRES (CTRA. SEGURA-CUMBRES PK 6 km 6)","municipality":"Fuentes de León","province":"BADAJOZ","postalCode":"06280","schedule":"L-S: 07:00-22:00; D: 09:00-14:00 y 17:00-21:00","fuels":{"gasoline95":1.759,"diesel":1.949,"dieselPremium":1.999,"dieselB":1.599},"extra":{"saleType":"P","margin":"D","reportingType":"dm","ideess":"5834","idMunicipio":"684","idProvincia":"06","idCCAA":"11"}}},{"type":"Feature","geometry":{"type":"Point","coordinates":[-6.783639,38.520139]},"properties":{"id":"es-5837","source":"ES","brand":"IBERDOEX","address":"CTRA. NOGALES S/N","municipality":"Salvaleón","province":"BADAJOZ","postalCode":"06174","schedule":"L-D: 07:00-22:00","fuels":{"gasoline95":1.729,"diesel":1.839,"dieselPremium":1.899,"dieselB":1.629},"extra":{"saleType":"P","margin":"D","reportingType":"dm","ideess":"5837","idMunicipio":"746","idProvincia":"06","idCCAA":"11"}}},{"type":"Feature","geometry":{"type":"Point","coordinates":[-6.78275,38.323611]},"properties":{"id":"es-5840","source":"ES","brand":"Q8","address":"CALLE CTRA. N-435, PK KM 70,9, 70","municipality":"Jerez de los Caballeros","province":"BADAJOZ","postalCode":"06380","schedule":"L-D: 24H","fuels":{"gasoline95":1.799,"diesel":1.939,"dieselPremium":2.009,"adblue":0.899},"extra":{"saleType":"P","margin":"I","reportingType":"dm","ideess":"5840","idMunicipio":"699","idProvincia":"06","idCCAA":"11"}}},{"type":"Feature","geometry":{"type":"Point","coordinates":[-6.712722,38.852278]},"properties":{"id":"es-5841","source":"ES","brand":"Q8","address":"AUTOVIA AUTOVIA  A-5 KM. KM 375,86","municipality":"Talavera la Real","province":"BADAJOZ","postalCode":"06140","schedule":"L-D: 24H","fuels":{"gasoline95":1.759,"gasoline98":1.829,"diesel":1.969,"adblue":0.919},"extra":{"saleType":"P","margin":"D","reportingType":"dm","ideess":"5841","idMunicipio":"758","idProvincia":"06","idCCAA":"11"}}},{"type":"Feature","geometry":{"type":"Point","coordinates":[-6.921111,38.887806]},"properties":{"id":"es-5844","source":"ES","brand":"BP A5 BADAJOZ","address":"CARRETERA N-V MADRID-LISBOA, KM 395, 7 KM. ","municipality":"Badajoz","province":"BADAJOZ","postalCode":"06008","schedule":"L-D: 06:30-23:00","fuels":{"gasoline95":1.749,"gasoline98":1.899,"diesel":1.889,"dieselPremium":1.979,"adblue":0.74},"extra":{"saleType":"P","margin":"N","reportingType":"dm","ideess":"5844","idMunicipio":"644","idProvincia":"06","idCCAA":"11"}}},{"type":"Feature","geometry":{"type":"Point","coordinates":[-6.964972,38.906278]},"properties":{"id":"es-5845","source":"ES","brand":"REPSOL","address":"CTRA. EX-100 km 85,6","municipality":"Badajoz","province":"BADAJOZ","postalCode":"06006","schedule":"L-V: 07:00-22:00; S-D: 10:00-22:00","fuels":{"gasoline95":2.039,"gasoline98":2.259,"diesel":2.179,"dieselPremium":2.259,"adblue":2.15},"extra":{"saleType":"P","margin":"D","reportingType":"dm","ideess":"5845","idMunicipio":"644","idProvincia":"06","idCCAA":"11"}}},{"type":"Feature","geometry":{"type":"Point","coordinates":[-6.360361,38.403667]},"properties":{"id":"es-5848","source":"ES","brand":"Q8","address":"CARRETERA CTRA. N-432 (CTRA. BADAJOZ-ZAFRA-CÓRDOBA) KM. KM 78,23","municipality":"Puebla de Sancho Pérez","province":"BADAJOZ","postalCode":"06392","schedule":"L-D: 24H","fuels":{"gasoline95":1.679,"gasoline98":1.829,"diesel":1.829},"extra":{"saleType":"P","margin":"D","reportingType":"dm","ideess":"5848","idMunicipio":"735","idProvincia":"06","idCCAA":"11"}}},{"type":"Feature","geometry":{"type":"Point","coordinates":[-6.261611,38.792417]},"properties":{"id":"es-5849","source":"ES","brand":"HNOS GUILLEN MONTERO S.A.L.","address":"CARRETERA BA089 KM. 42,700","municipality":"Alange","province":"BADAJOZ","postalCode":"06840","schedule":"L-D: 06:00-22:00","fuels":{"gasoline95":1.659,"diesel":1.799,"dieselB":1.499,"adblue":0.899},"extra":{"saleType":"P","margin":"N","reportingType":"dm","ideess":"5849","idMunicipio":"633","idProvincia":"06","idCCAA":"11"}}},{"type":"Feature","geometry":{"type":"Point","coordinates":[-6.971472,38.861472]},"properties":{"id":"es-5850","source":"ES","brand":"CARREFOUR","address":"CARRETERA CRTA. VALVERDE DE LEGANES KM, 1 KM. 1","municipality":"Badajoz","province":"BADAJOZ","postalCode":"06010","schedule":"L-D: 24H","fuels":{"gasoline95":1.759,"gasoline98":1.879,"diesel":1.919,"dieselPremium":1.959},"extra":{"saleType":"P","margin":"N","reportingType":"dm","ideess":"5850","idMunicipio":"644","idProvincia":"06","idCCAA":"11"}}},{"type":"Feature","geometry":{"type":"Point","coordinates":[-6.360278,38.907139]},"properties":{"id":"es-5851","source":"ES","brand":"CARREFOUR","address":"CARRETERA MADRID-LISBOA, S/N KM. S/N","municipality":"Mérida","province":"BADAJOZ","postalCode":"06800","schedule":"L-D: 24H","fuels":{"gasoline95":1.729,"gasoline98":1.899,"diesel":1.919,"dieselPremium":1.959},"extra":{"saleType":"P","margin":"N","reportingType":"dm","ideess":"5851","idMunicipio":"712","idProvincia":"06","idCCAA":"11"}}},{"type":"Feature","geometry":{"type":"Point","coordinates":[-6.989861,38.867944]},"properties":{"id":"es-5852","source":"ES","brand":"CARREFOUR","address":"CALLE C/ JOSE MARÍA ALCARAZ Y ALENDA, S/N","municipality":"Badajoz","province":"BADAJOZ","postalCode":"06011","schedule":"L-D: 24H","fuels":{"gasoline95":1.759,"gasoline98":1.879,"diesel":1.919,"dieselPremium":1.959},"extra":{"saleType":"P","margin":"N","reportingType":"dm","ideess":"5852","idMunicipio":"644","idProvincia":"06","idCCAA":"11"}}},{"type":"Feature","geometry":{"type":"Point","coordinates":[-6.642222,38.617889]},"properties":{"id":"es-5860","source":"ES","brand":"CEPSA","address":"CARRETERA BADAJOZ-GRANADA KM. 42,7","municipality":"Santa Marta","province":"BADAJOZ","postalCode":"06150","schedule":"L-D: 07:00-22:00","fuels":{"gasoline95":1.779,"diesel":1.969,"dieselPremium":2.059},"extra":{"saleType":"P","margin":"I","reportingType":"dm","ideess":"5860","idMunicipio":"752","idProvincia":"06","idCCAA":"11"}}},{"type":"Feature","geometry":{"type":"Point","coordinates":[-6.994306,38.901417]},"properties":{"id":"es-5861","source":"ES","brand":"IDS","address":"AVENIDA ANTONIO NEVADO, 35","municipality":"Badajoz","province":"BADAJOZ","postalCode":"06006","schedule":"L-D: 24H","fuels":{"diesel":1.929,"adblue":1.195},"extra":{"saleType":"P","margin":"N","reportingType":"dm","ideess":"5861","idMunicipio":"644","idProvincia":"06","idCCAA":"11"}}},{"type":"Feature","geometry":{"type":"Point","coordinates":[-6.405556,38.691944]},"properties":{"id":"es-5864","source":"ES","brand":"LOW COST LOS POZUELOS","address":"CARRETERA GIJÓN-SEVILLA KM. 38","municipality":"Almendralejo","province":"BADAJOZ","postalCode":"06200","schedule":"L-D: 06:00-22:30","fuels":{"gasoline95":1.659,"diesel":1.799},"extra":{"saleType":"P","margin":"D","reportingType":"dm","ideess":"5864","idMunicipio":"640","idProvincia":"06","idCCAA":"11"}}},{"type":"Feature","geometry":{"type":"Point","coordinates":[-6.099722,38.862778]},"properties":{"id":"es-5865","source":"ES","brand":"SANGAR","address":"CARRETERA EXT.105, KM. 24","municipality":"Guareña","province":"BADAJOZ","postalCode":"06470","schedule":"L-D: 24H","fuels":{"gasoline95":1.709,"diesel":1.825,"dieselPremium":1.829},"extra":{"saleType":"P","margin":"I","reportingType":"dm","ideess":"5865","idMunicipio":"689","idProvincia":"06","idCCAA":"11"}}},{"type":"Feature","geometry":{"type":"Point","coordinates":[-6.945861,38.877889]},"properties":{"id":"es-5866","source":"ES","brand":"REPSOL","address":"CARRETERA N-5 KM. 401,800","municipality":"Badajoz","province":"BADAJOZ","postalCode":"06008","schedule":"L-D: 24H","fuels":{"gasoline95":1.799,"gasoline98":1.959,"diesel":1.939,"dieselPremium":2.029,"adblue":0.909},"extra":{"saleType":"P","margin":"I","reportingType":"dm","ideess":"5866","idMunicipio":"644","idProvincia":"06","idCCAA":"11"}}},{"type":"Feature","geometry":{"type":"Point","coordinates":[-6.619972,38.842111]},"properties":{"id":"es-5872","source":"ES","brand":"MOEVE","address":"AUTOVIA A5 KM. 367,350","municipality":"Lobón","province":"BADAJOZ","postalCode":"06498","schedule":"L-D: 24H","fuels":{"gasoline95":1.784,"diesel":1.974,"dieselPremium":2.034,"dieselB":1.644},"extra":{"saleType":"P","margin":"I","reportingType":"OM","ideess":"5872","idMunicipio":"703","idProvincia":"06","idCCAA":"11"}}},{"type":"Feature","geometry":{"type":"Point","coordinates":[-6.966111,38.846028]},"properties":{"id":"es-5884","source":"ES","brand":"\"BP\" ROTONDA LAS VAGUADAS S.L.","address":"CARRETERA DE VALVERDE KM. 3,200","municipality":"Badajoz","province":"BADAJOZ","postalCode":"06010","schedule":"L-D: 07:00-23:00","fuels":{"gasoline95":1.789,"gasoline98":1.919,"diesel":1.949,"dieselPremium":2.039,"lpg":1.179,"adblue":1.099},"extra":{"saleType":"P","margin":"I","reportingType":"dm","ideess":"5884","idMunicipio":"644","idProvincia":"06","idCCAA":"11"}}},{"type":"Feature","geometry":{"type":"Point","coordinates":[-6.450444,38.512917]},"properties":{"id":"es-5902","source":"ES","brand":"REPSOL","address":"CARRETERA EX-362 KM. 4,4","municipality":"Fuente del Maestre","province":"BADAJOZ","postalCode":"06360","schedule":"L-D: 06:00-22:00","fuels":{"gasoline95":1.789,"diesel":1.989,"dieselPremium":2.079,"dieselB":1.659},"extra":{"saleType":"P","margin":"D","reportingType":"dm","ideess":"5902","idMunicipio":"683","idProvincia":"06","idCCAA":"11"}}},{"type":"Feature","geometry":{"type":"Point","coordinates":[-6.448083,38.879583]},"properties":{"id":"es-5915","source":"ES","brand":"MOEVE","address":"A-5 km 351,5","municipality":"Mérida","province":"BADAJOZ","postalCode":"06800","schedule":"L-D: 06:00-23:59","fuels":{"gasoline95":1.794,"gasoline95Premium":1.839,"diesel":1.974,"dieselPremium":2.054},"extra":{"saleType":"P","margin":"D","reportingType":"OM","ideess":"5915","idMunicipio":"712","idProvincia":"06","idCCAA":"11"}}},{"type":"Feature","geometry":{"type":"Point","coordinates":[-6.85175,38.515639]},"properties":{"id":"es-5919","source":"ES","brand":"CEPSA","address":"AVENIDA BRADENTON, S/N","municipality":"Barcarrota","province":"BADAJOZ","postalCode":"06160","schedule":"L-V: 08:00-21:00; S-D: 08:00-14:30 y 17:30-21:00","fuels":{"gasoline95":1.794,"gasoline98":1.954,"diesel":1.944,"dieselPremium":2.064},"extra":{"saleType":"P","margin":"D","reportingType":"dm","ideess":"5919","idMunicipio":"645","idProvincia":"06","idCCAA":"11"}}},{"type":"Feature","geometry":{"type":"Point","coordinates":[-6.455306,38.858139]},"properties":{"id":"es-5920","source":"ES","brand":"REPSOL","address":"AVENIDA EXTREMADURA, S/N","municipality":"Arroyo de San Serván","province":"BADAJOZ","postalCode":"06850","schedule":"L-S: 06:00-22:00","fuels":{"gasoline95":1.749,"diesel":1.949,"dieselB":1.584},"extra":{"saleType":"P","margin":"D","reportingType":"OM","ideess":"5920","idMunicipio":"641","idProvincia":"06","idCCAA":"11"}}},{"type":"Feature","geometry":{"type":"Point","coordinates":[-6.340556,38.920472]},"properties":{"id":"es-5921","source":"ES","brand":"BALLENOIL","address":"AVDA. EXTREMADURA, 15","municipality":"Mérida","province":"BADAJOZ","postalCode":"06800","schedule":"L-D: 24H","fuels":{"gasoline95":1.619,"diesel":1.799},"extra":{"saleType":"P","margin":"D","reportingType":"OM","ideess":"5921","idMunicipio":"712","idProvincia":"06","idCCAA":"11"}}},{"type":"Feature","geometry":{"type":"Point","coordinates":[-6.585944,38.381611]},"properties":{"id":"es-5923","source":"ES","brand":"CAMPSA","address":"CR BA-4311 8,5","municipality":"Burguillos del Cerro","province":"BADAJOZ","postalCode":"06370","schedule":"L-S: 08:00-20:00","fuels":{"gasoline95":1.745,"diesel":1.919},"extra":{"saleType":"P","margin":"I","reportingType":"OM","ideess":"5923","idMunicipio":"651","idProvincia":"06","idCCAA":"11"}}},{"type":"Feature","geometry":{"type":"Point","coordinates":[-6.413944,38.422778]},"properties":{"id":"es-5931","source":"ES","brand":"REPSOL","address":"AVENIDA DE LOS SANTOS, SN","municipality":"Zafra","province":"BADAJOZ","postalCode":"06300","schedule":"L-D: 06:00-23:00","fuels":{"gasoline95":1.779,"gasoline98":1.949,"diesel":1.985,"dieselPremium":2.045},"extra":{"saleType":"P","margin":"D","reportingType":"OM","ideess":"5931","idMunicipio":"789","idProvincia":"06","idCCAA":"11"}}},{"type":"Feature","geometry":{"type":"Point","coordinates":[-6.601583,38.900028]},"properties":{"id":"es-5933","source":"ES","brand":"MOEVE","address":"CARRETERA EX-209 KM. 37,5","municipality":"Montijo","province":"BADAJOZ","postalCode":"06480","schedule":"L-D: 06:00-00:00","fuels":{"gasoline95":1.745,"gasoline95Premium":1.799,"gasoline98":1.979,"diesel":1.955,"dieselPremium":1.999,"dieselB":1.805,"adblue":1.099},"extra":{"saleType":"P","margin":"D","reportingType":"dm","ideess":"5933","idMunicipio":"717","idProvincia":"06","idCCAA":"11"}}},{"type":"Feature","geometry":{"type":"Point","coordinates":[-6.764806,38.3265]},"properties":{"id":"es-5934","source":"ES","brand":"REPSOL","address":"CARRETERA BADAJOZ KM. 71","municipality":"Jerez de los Caballeros","province":"BADAJOZ","postalCode":"06380","schedule":"L-D: 07:00-23:00","fuels":{"gasoline95":1.809,"gasoline98":1.989,"diesel":1.949,"dieselRenewable":2.039},"extra":{"saleType":"P","margin":"D","reportingType":"dm","ideess":"5934","idMunicipio":"699","idProvincia":"06","idCCAA":"11"}}},{"type":"Feature","geometry":{"type":"Point","coordinates":[-6.81775,38.614778]},"properties":{"id":"es-5940","source":"ES","brand":"REPSOL","address":"CARRETERA NACIONAL 435 KM KM. 34,5","municipality":"Almendral","province":"BADAJOZ","postalCode":"06171","schedule":"L-D: 06:00-22:00","fuels":{"gasoline95":1.809,"diesel":1.979,"dieselPremium":2.079,"dieselB":1.63},"extra":{"saleType":"P","margin":"D","reportingType":"OM","ideess":"5940","idMunicipio":"639","idProvincia":"06","idCCAA":"11"}}},{"type":"Feature","geometry":{"type":"Point","coordinates":[-6.001778,38.406861]},"properties":{"id":"es-5941","source":"ES","brand":"REPSOL","address":"AVENIDA JOSE CAMPILLO, 2","municipality":"Valencia de las Torres","province":"BADAJOZ","postalCode":"06444","schedule":"D: 08:00-20:00","fuels":{"gasoline95":1.779,"diesel":1.959,"dieselPremium":2.059},"extra":{"saleType":"P","margin":"D","reportingType":"dm","ideess":"5941","idMunicipio":"770","idProvincia":"06","idCCAA":"11"}}},{"type":"Feature","geometry":{"type":"Point","coordinates":[-6.344278,38.938639]},"properties":{"id":"es-5947","source":"ES","brand":"REPSOL","address":"CARRETERA N-630 KM. 618,3","municipality":"Mérida","province":"BADAJOZ","postalCode":"06800","schedule":"L-D: 06:30-22:30","fuels":{"gasoline95":1.765,"gasoline98":1.935,"diesel":1.959,"dieselPremium":2.049},"extra":{"saleType":"P","margin":"D","reportingType":"OM","ideess":"5947","idMunicipio":"712","idProvincia":"06","idCCAA":"11"}}},{"type":"Feature","geometry":{"type":"Point","coordinates":[-6.077639,38.555556]},"properties":{"id":"es-5952","source":"ES","brand":"MURILLO ROJO SL","address":"CARRETERA BA-613 KM. 24,8","municipality":"Hornachos","province":"BADAJOZ","postalCode":"06228","schedule":"L: 07:00-22:00; D: 07:00-14:30","fuels":{"gasoline95":1.749,"diesel":1.8,"dieselB":1.108},"extra":{"saleType":"P","margin":"D","reportingType":"dm","ideess":"5952","idMunicipio":"698","idProvincia":"06","idCCAA":"11"}}},{"type":"Feature","geometry":{"type":"Point","coordinates":[-6.00825,38.240444]},"properties":{"id":"es-5956","source":"ES","brand":"SAN CRISTOBAL","address":"AVENIDA BADAJOZ, 2","municipality":"Llerena","province":"BADAJOZ","postalCode":"06900","schedule":"L-D: 07:00-22:00","fuels":{"gasoline95":1.769,"diesel":2.019,"dieselPremium":2.099},"extra":{"saleType":"P","margin":"D","reportingType":"dm","ideess":"5956","idMunicipio":"702","idProvincia":"06","idCCAA":"11"}}},{"type":"Feature","geometry":{"type":"Point","coordinates":[-6.944972,38.921361]},"properties":{"id":"es-5960","source":"ES","brand":"CEPSA","address":"CARRETERA EX-100 KM. 82,9","municipality":"Badajoz","province":"BADAJOZ","postalCode":"06180","schedule":"L-D: 06:00-22:00","fuels":{"gasoline95":1.814,"gasoline98":1.914,"diesel":1.989,"dieselPremium":2.094},"extra":{"saleType":"P","margin":"I","reportingType":"dm","ideess":"5960","idMunicipio":"644","idProvincia":"06","idCCAA":"11"}}},{"type":"Feature","geometry":{"type":"Point","coordinates":[-6.445194,38.531028]},"properties":{"id":"es-5962","source":"ES","brand":"CEPSA","address":"CARRETERA VILLALBA KM. 12","municipality":"Fuente del Maestre","province":"BADAJOZ","postalCode":"06360","schedule":"L-S: 07:00-21:00","fuels":{"gasoline95":1.794,"diesel":2.014,"dieselPremium":2.084},"extra":{"saleType":"P","margin":"D","reportingType":"dm","ideess":"5962","idMunicipio":"683","idProvincia":"06","idCCAA":"11"}}},{"type":"Feature","geometry":{"type":"Point","coordinates":[-6.300972,38.250222]},"properties":{"id":"es-7483","source":"ES","brand":"GALP","address":"C/ REAL, S/N","municipality":"Fuente de Cantos","province":"BADAJOZ","postalCode":"06240","schedule":"L-D: 07:00-23:00","fuels":{"gasoline95":1.749,"diesel":1.929},"extra":{"saleType":"P","margin":"I","reportingType":"dm","ideess":"7483","idMunicipio":"681","idProvincia":"06","idCCAA":"11"}}},{"type":"Feature","geometry":{"type":"Point","coordinates":[-6.391,38.687389]},"properties":{"id":"es-7484","source":"ES","brand":"E. S. SAN ISIDRO","address":"CTRA DE ALANGE  EX 105-R, KM km 1,9","municipality":"Almendralejo","province":"BADAJOZ","postalCode":"06200","schedule":"L: 06:00-22:00","fuels":{"gasoline95":1.635,"gasoline98":1.699,"diesel":1.829},"extra":{"saleType":"P","margin":"D","reportingType":"dm","ideess":"7484","idMunicipio":"640","idProvincia":"06","idCCAA":"11"}}},{"type":"Feature","geometry":{"type":"Point","coordinates":[-6.355194,38.448361]},"properties":{"id":"es-7489","source":"ES","brand":"CARBURANTES LA ESTRELLA","address":"CARRETERA CARRETERA N-630 KM. 678,5","municipality":"Santos de Maimona (Los)","province":"BADAJOZ","postalCode":"06230","schedule":"L-D: 07:00-22:00","fuels":{"diesel":1.849,"adblue":0.699},"extra":{"saleType":"P","margin":"I","reportingType":"dm","ideess":"7489","idMunicipio":"753","idProvincia":"06","idCCAA":"11"}}},{"type":"Feature","geometry":{"type":"Point","coordinates":[-6.760861,38.921833]},"properties":{"id":"es-7499","source":"ES","brand":"CEPSA","address":"EX-209 km 22,5","municipality":"Pueblonuevo del Guadiana","province":"BADAJOZ","postalCode":"06184","schedule":"L: 08:00-20:00","fuels":{"gasoline95":1.784,"diesel":1.984,"dieselPremium":2.064,"dieselB":1.664},"extra":{"saleType":"P","margin":"I","reportingType":"dm","ideess":"7499","idMunicipio":"738","idProvincia":"06","idCCAA":"11"}}},{"type":"Feature","geometry":{"type":"Point","coordinates":[-6.646389,38.840194]},"properties":{"id":"es-7502","source":"ES","brand":"REPSOL","address":"CR A-5, 369,8","municipality":"Lobón","province":"BADAJOZ","postalCode":"06498","schedule":"L-D: 06:00-22:00","fuels":{"gasoline95":1.779,"diesel":1.969,"dieselRenewable":2.089},"extra":{"saleType":"P","margin":"D","reportingType":"OM","ideess":"7502","idMunicipio":"703","idProvincia":"06","idCCAA":"11"}}},{"type":"Feature","geometry":{"type":"Point","coordinates":[-6.529111,38.115722]},"properties":{"id":"es-7504","source":"ES","brand":"REPSOL","address":"CR C-434, 36,5","municipality":"Segura de León","province":"BADAJOZ","postalCode":"06270","schedule":"L: 07:00-22:00","fuels":{"gasoline95":1.745,"gasoline98":1.915,"diesel":1.949,"dieselRenewable":2.069},"extra":{"saleType":"P","margin":"I","reportingType":"OM","ideess":"7504","idMunicipio":"754","idProvincia":"06","idCCAA":"11"}}},{"type":"Feature","geometry":{"type":"Point","coordinates":[-6.938361,38.848833]},"properties":{"id":"es-7505","source":"ES","brand":"REPSOL","address":"CARRETERA CTRA. BADAJOZ-GRANADA KM 3,5 M.D. KM. 3,5","municipality":"Badajoz","province":"BADAJOZ","postalCode":"06009","schedule":"L-D: 07:00-23:00","fuels":{"gasoline95":1.759,"gasoline98":1.929,"diesel":1.919,"dieselPremium":2.029},"extra":{"saleType":"P","margin":"D","reportingType":"OM","ideess":"7505","idMunicipio":"644","idProvincia":"06","idCCAA":"11"}}},{"type":"Feature","geometry":{"type":"Point","coordinates":[-6.528528,38.725556]},"properties":{"id":"es-7508","source":"ES","brand":"REPSOL","address":"CARRETERA EX-300 KM. 47,2","municipality":"Solana de los Barros","province":"BADAJOZ","postalCode":"06209","schedule":"L-S: 06:30-11:00 y 14:00-19:00","fuels":{"gasoline95":1.755,"gasoline98":1.925,"diesel":1.949,"dieselPremium":2.059},"extra":{"saleType":"P","margin":"D","reportingType":"OM","ideess":"7508","idMunicipio":"756","idProvincia":"06","idCCAA":"11"}}},{"type":"Feature","geometry":{"type":"Point","coordinates":[-6.961944,38.87875]},"properties":{"id":"es-7513","source":"ES","brand":"REPSOL","address":"AVENIDA RICARDO CARAPETO, 2","municipality":"Badajoz","province":"BADAJOZ","postalCode":"06008","schedule":"L-D: 07:00-23:00","fuels":{"gasoline95":1.795,"gasoline98":1.965,"diesel":1.919,"dieselPremium":2.029},"extra":{"saleType":"P","margin":"D","reportingType":"OM","ideess":"7513","idMunicipio":"644","idProvincia":"06","idCCAA":"11"}}},{"type":"Feature","geometry":{"type":"Point","coordinates":[-6.95975,38.87275]},"properties":{"id":"es-7514","source":"ES","brand":"CEPSA","address":"AREA, ARRABAL CR SEVILLA AI-7, 1","municipality":"Badajoz","province":"BADAJOZ","postalCode":"06009","schedule":"L: 07:00-23:00","fuels":{"gasoline95":1.824,"gasoline98":1.934,"diesel":1.989,"dieselPremium":2.044},"extra":{"saleType":"P","margin":"I","reportingType":"dm","ideess":"7514","idMunicipio":"644","idProvincia":"06","idCCAA":"11"}}},{"type":"Feature","geometry":{"type":"Point","coordinates":[-6.349917,38.559833]},"properties":{"id":"es-7519","source":"ES","brand":"BALLENOIL","address":"CARRETERA N-630 KM. 665,4","municipality":"Villafranca de los Barros","province":"BADAJOZ","postalCode":"06220","schedule":"L-D: 24H","fuels":{"gasoline95":1.699,"gasoline95Premium":1.719,"diesel":1.789,"dieselPremium":1.799},"extra":{"saleType":"P","margin":"I","reportingType":"OM","ideess":"7519","idMunicipio":"780","idProvincia":"06","idCCAA":"11"}}},{"type":"Feature","geometry":{"type":"Point","coordinates":[-6.417806,38.687056]},"properties":{"id":"es-7520","source":"ES","brand":"REPSOL","address":"CARRETERA BADAJOZ KM. S/N","municipality":"Almendralejo","province":"BADAJOZ","postalCode":"06200","schedule":"L: 06:30-23:00","fuels":{"gasoline95":1.809,"gasoline98":1.959,"diesel":1.935,"dieselPremium":2.045,"dieselB":1.624},"extra":{"saleType":"P","margin":"I","reportingType":"OM","ideess":"7520","idMunicipio":"640","idProvincia":"06","idCCAA":"11"}}},{"type":"Feature","geometry":{"type":"Point","coordinates":[-6.3975,38.681083]},"properties":{"id":"es-7521","source":"ES","brand":"EESS LA FLORIDA","address":"CARRETERA GIJON-SEVILLA KM. 650,9","municipality":"Almendralejo","province":"BADAJOZ","postalCode":"06200","schedule":"L-D: 24H","fuels":{"gasoline95":1.659,"diesel":1.799},"extra":{"saleType":"P","margin":"D","reportingType":"dm","ideess":"7521","idMunicipio":"640","idProvincia":"06","idCCAA":"11"}}},{"type":"Feature","geometry":{"type":"Point","coordinates":[-6.915417,38.282778]},"properties":{"id":"es-7525","source":"ES","brand":"REPSOL","address":"AVENIDA EXTREMADURA, 192","municipality":"Oliva de la Frontera","province":"BADAJOZ","postalCode":"06120","schedule":"L-S: 08:00-22:00; D: 08:00-14:00","fuels":{"gasoline95":1.745,"diesel":1.919},"extra":{"saleType":"P","margin":"I","reportingType":"OM","ideess":"7525","idMunicipio":"722","idProvincia":"06","idCCAA":"11"}}},{"type":"Feature","geometry":{"type":"Point","coordinates":[-6.344333,38.938639]},"properties":{"id":"es-7526","source":"ES","brand":"REPSOL","address":"AUTOVIA A-5 KM. 338","municipality":"Mérida","province":"BADAJOZ","postalCode":"06800","schedule":"L-V: 07:00-22:00; S: 07:30-15:00","fuels":{"gasoline95":1.759,"gasoline95Premium":1.829,"diesel":1.949,"dieselRenewable":2.069},"extra":{"saleType":"P","margin":"D","reportingType":"OM","ideess":"7526","idMunicipio":"712","idProvincia":"06","idCCAA":"11"}}},{"type":"Feature","geometry":{"type":"Point","coordinates":[-6.322139,38.926528]},"properties":{"id":"es-7527","source":"ES","brand":"REPSOL","address":"CARRETERA A5 KM. 338,8","municipality":"Mérida","province":"BADAJOZ","postalCode":"06800","schedule":"L-D: 06:00-22:00","fuels":{"gasoline95":1.765,"gasoline95Premium":1.835,"gasoline98":1.935,"diesel":1.955,"dieselRenewable":2.075},"extra":{"saleType":"P","margin":"I","reportingType":"OM","ideess":"7527","idMunicipio":"712","idProvincia":"06","idCCAA":"11"}}},{"type":"Feature","geometry":{"type":"Point","coordinates":[-6.340472,38.910694]},"properties":{"id":"es-7532","source":"ES","brand":"REPSOL","address":"AVENIDA Reina Sofia, 3","municipality":"Mérida","province":"BADAJOZ","postalCode":"06800","schedule":"L-D: 06:00-22:00","fuels":{"gasoline95":1.765,"gasoline98":1.935,"diesel":1.955,"dieselRenewable":2.075},"extra":{"saleType":"P","margin":"I","reportingType":"OM","ideess":"7532","idMunicipio":"712","idProvincia":"06","idCCAA":"11"}}},{"type":"Feature","geometry":{"type":"Point","coordinates":[-6.358111,38.905639]},"properties":{"id":"es-7535","source":"ES","brand":"REPSOL","address":"CARRETERA E-90/N-V KM. 342,5","municipality":"Mérida","province":"BADAJOZ","postalCode":"06800","schedule":"L-V: 06:00-22:00; S: 06:00-14:00","fuels":{"gasoline95":1.759,"diesel":1.959,"dieselRenewable":2.079},"extra":{"saleType":"P","margin":"D","reportingType":"OM","ideess":"7535","idMunicipio":"712","idProvincia":"06","idCCAA":"11"}}},{"type":"Feature","geometry":{"type":"Point","coordinates":[-6.416917,38.430583]},"properties":{"id":"es-7538","source":"ES","brand":"REPSOL","address":"CR N-435 ,P.K. 5,70 D","municipality":"Zafra","province":"BADAJOZ","postalCode":"06300","schedule":"L-D: 06:00-23:00","fuels":{"gasoline95":1.779,"gasoline98":1.949,"diesel":1.995,"dieselPremium":2.045},"extra":{"saleType":"P","margin":"D","reportingType":"OM","ideess":"7538","idMunicipio":"789","idProvincia":"06","idCCAA":"11"}}},{"type":"Feature","geometry":{"type":"Point","coordinates":[-6.299917,38.246278]},"properties":{"id":"es-7546","source":"ES","brand":"REPSOL","address":"CR N-630, 702,2","municipality":"Fuente de Cantos","province":"BADAJOZ","postalCode":"06240","schedule":"L-D: 06:30-22:30","fuels":{"gasoline95":1.799,"gasoline98":1.969,"diesel":1.979,"dieselPremium":2.039,"dieselB":1.579},"extra":{"saleType":"P","margin":"D","reportingType":"dm","ideess":"7546","idMunicipio":"681","idProvincia":"06","idCCAA":"11"}}},{"type":"Feature","geometry":{"type":"Point","coordinates":[-6.820583,38.713111]},"properties":{"id":"es-7550","source":"ES","brand":"REPSOL","address":"CARRETERA CR N-435 KM. 22,50","municipality":"Albuera (La)","province":"BADAJOZ","postalCode":"06170","schedule":"L: 06:30-22:00","fuels":{"gasoline95":1.809,"diesel":1.979,"dieselPremium":2.079},"extra":{"saleType":"P","margin":"N","reportingType":"OM","ideess":"7550","idMunicipio":"634","idProvincia":"06","idCCAA":"11"}}},{"type":"Feature","geometry":{"type":"Point","coordinates":[-6.990056,38.858611]},"properties":{"id":"es-7552","source":"ES","brand":"REPSOL","address":"AVENIDA LUIS MOVILLA, 2","municipality":"Badajoz","province":"BADAJOZ","postalCode":"06010","schedule":"L-D: 06:00-23:00","fuels":{"gasoline95":1.779,"gasoline98":1.899,"diesel":1.939,"dieselRenewable":2.059},"extra":{"saleType":"P","margin":"D","reportingType":"OM","ideess":"7552","idMunicipio":"644","idProvincia":"06","idCCAA":"11"}}},{"type":"Feature","geometry":{"type":"Point","coordinates":[-6.332,38.915056]},"properties":{"id":"es-7557","source":"ES","brand":"MOEVE","address":"CARRETERA N-VA KM. 340","municipality":"Mérida","province":"BADAJOZ","postalCode":"06800","schedule":"L-D: 06:00-23:00","fuels":{"gasoline95":1.784,"gasoline95Premium":1.859,"diesel":1.964,"dieselPremium":2.034},"extra":{"saleType":"P","margin":"I","reportingType":"OM","ideess":"7557","idMunicipio":"712","idProvincia":"06","idCCAA":"11"}}},{"type":"Feature","geometry":{"type":"Point","coordinates":[-6.393417,38.676944]},"properties":{"id":"es-7558","source":"ES","brand":"REPSOL","address":"CARRETERA CR.GIJON SEVILLA KM651 KM. 651","municipality":"Almendralejo","province":"BADAJOZ","postalCode":"06200","schedule":"L-D: 06:00-23:59","fuels":{"gasoline95":1.809,"gasoline98":1.979,"diesel":1.929,"dieselRenewable":2.049},"extra":{"saleType":"P","margin":"D","reportingType":"OM","ideess":"7558","idMunicipio":"640","idProvincia":"06","idCCAA":"11"}}},{"type":"Feature","geometry":{"type":"Point","coordinates":[-6.268417,38.083528]},"properties":{"id":"es-7559","source":"ES","brand":"REPSOL","address":"CR N-630, 722,2","municipality":"Monesterio","province":"BADAJOZ","postalCode":"06260","schedule":"L-D: 07:00-23:00","fuels":{"gasoline95":1.809,"gasoline98":1.929,"diesel":1.985,"dieselPremium":2.045},"extra":{"saleType":"P","margin":"I","reportingType":"OM","ideess":"7559","idMunicipio":"714","idProvincia":"06","idCCAA":"11"}}},{"type":"Feature","geometry":{"type":"Point","coordinates":[-6.374333,38.441806]},"properties":{"id":"es-7561","source":"ES","brand":"CEPSA","address":"AVENIDA CONSTITUCION, 105","municipality":"Santos de Maimona (Los)","province":"BADAJOZ","postalCode":"06230","schedule":"L-D: 06:00-22:00","fuels":{"gasoline95":1.799,"diesel":1.969,"dieselPremium":2.029,"adblue":0.799},"extra":{"saleType":"P","margin":"D","reportingType":"dm","ideess":"7561","idMunicipio":"753","idProvincia":"06","idCCAA":"11"}}},{"type":"Feature","geometry":{"type":"Point","coordinates":[-6.233,38.553722]},"properties":{"id":"es-7566","source":"ES","brand":"CAMPSA","address":"CARRETERA EXT342 KM. 9,100","municipality":"Ribera del Fresno","province":"BADAJOZ","postalCode":"06225","schedule":"L-D: 06:00-22:00","fuels":{"gasoline95":1.765,"diesel":1.929,"dieselPremium":2.039,"dieselB":1.64},"extra":{"saleType":"P","margin":"D","reportingType":"dm","ideess":"7566","idMunicipio":"743","idProvincia":"06","idCCAA":"11"}}},{"type":"Feature","geometry":{"type":"Point","coordinates":[-6.219833,38.822111]},"properties":{"id":"es-7570","source":"ES","brand":"REPSOL","address":"CR C-423, 35,6","municipality":"Zarza (La)","province":"BADAJOZ","postalCode":"06830","schedule":"L-V: 07:00-21:00; S-D: 08:00-21:00","fuels":{"gasoline95":1.745,"diesel":1.919,"dieselPremium":2.029},"extra":{"saleType":"P","margin":"I","reportingType":"OM","ideess":"7570","idMunicipio":"792","idProvincia":"06","idCCAA":"11"}}},{"type":"Feature","geometry":{"type":"Point","coordinates":[-6.209611,38.294361]},"properties":{"id":"es-7571","source":"ES","brand":"REPSOL","address":"CR C-437 25,7","municipality":"Bienvenida","province":"BADAJOZ","postalCode":"06250","schedule":"L-S: 07:00-15:00 y 17:00-22:00; D: 09:00-14:00 y 17:00-21:00","fuels":{"gasoline95":1.745,"diesel":1.919,"dieselB":1.584},"extra":{"saleType":"P","margin":"I","reportingType":"OM","ideess":"7571","idMunicipio":"649","idProvincia":"06","idCCAA":"11"}}},{"type":"Feature","geometry":{"type":"Point","coordinates":[-6.350056,38.562694]},"properties":{"id":"es-7576","source":"ES","brand":"REPSOL","address":"CR N-630, 664,5","municipality":"Villafranca de los Barros","province":"BADAJOZ","postalCode":"06220","schedule":"L-D: 24H","fuels":{"gasoline95":1.809,"gasoline98":1.939,"diesel":1.985,"dieselRenewable":2.105},"extra":{"saleType":"P","margin":"D","reportingType":"OM","ideess":"7576","idMunicipio":"780","idProvincia":"06","idCCAA":"11"}}},{"type":"Feature","geometry":{"type":"Point","coordinates":[-6.620167,38.903083]},"properties":{"id":"es-7579","source":"ES","brand":"REPSOL","address":"AVENIDA COLON, S/N","municipality":"Montijo","province":"BADAJOZ","postalCode":"06480","schedule":"L-S: 06:00-22:00; D: 07:00-22:00","fuels":{"gasoline95":1.749,"gasoline95Premium":1.819,"diesel":1.949,"dieselRenewable":2.069},"extra":{"saleType":"P","margin":"D","reportingType":"OM","ideess":"7579","idMunicipio":"717","idProvincia":"06","idCCAA":"11"}}},{"type":"Feature","geometry":{"type":"Point","coordinates":[-6.482972,38.919972]},"properties":{"id":"es-7583","source":"ES","brand":"REPSOL","address":"CARRETERA MERIDA-MONTIJO K. 11.  100 KM. 11","municipality":"Garrovilla (La)","province":"BADAJOZ","postalCode":"06870","schedule":"L-D: 06:00-23:00","fuels":{"gasoline95":1.729,"gasoline95Premium":1.799,"diesel":1.909,"dieselPremium":1.919},"extra":{"saleType":"P","margin":"I","reportingType":"OM","ideess":"7583","idMunicipio":"687","idProvincia":"06","idCCAA":"11"}}},{"type":"Feature","geometry":{"type":"Point","coordinates":[-6.187528,38.947556]},"properties":{"id":"es-7584","source":"ES","brand":"REPSOL","address":"AUTOVIA A-5 KM. 325","municipality":"San Pedro de Mérida","province":"BADAJOZ","postalCode":"06893","schedule":"L-D: 24H","fuels":{"gasoline95":1.769,"gasoline98":1.889,"diesel":1.969,"dieselPremium":2.019,"adblue":0.82},"extra":{"saleType":"P","margin":"D","reportingType":"dm","ideess":"7584","idMunicipio":"748","idProvincia":"06","idCCAA":"11"}}},{"type":"Feature","geometry":{"type":"Point","coordinates":[-6.938556,38.848639]},"properties":{"id":"es-7590","source":"ES","brand":"ROCK & OIL","address":"CR N-432, 3,5","municipality":"Badajoz","province":"BADAJOZ","postalCode":"06011","schedule":"L-V: 06:00-22:00; S-D: 07:00-23:00","fuels":{"gasoline95":1.659,"diesel":1.789,"dieselPremium":1.829},"extra":{"saleType":"P","margin":"I","reportingType":"dm","ideess":"7590","idMunicipio":"644","idProvincia":"06","idCCAA":"11"}}},{"type":"Feature","geometry":{"type":"Point","coordinates":[-6.970194,38.893389]},"properties":{"id":"es-7594","source":"ES","brand":"GALP","address":"CARRETERA N-523 KM. 87","municipality":"Badajoz","province":"BADAJOZ","postalCode":"06005","schedule":"L-D: 06:00-22:00","fuels":{"gasoline95":1.769,"gasoline95Premium":1.819,"diesel":1.899,"dieselPremium":1.949},"extra":{"saleType":"P","margin":"N","reportingType":"OM","ideess":"7594","idMunicipio":"644","idProvincia":"06","idCCAA":"11"}}},{"type":"Feature","geometry":{"type":"Point","coordinates":[-6.390583,38.740472]},"properties":{"id":"es-7605","source":"ES","brand":"NOROIL","address":"CARRETERA N-630 KM. 643,915","municipality":"Almendralejo","province":"BADAJOZ","postalCode":"06200","schedule":"L: 24H","fuels":{"gasoline95":1.6,"diesel":1.71},"extra":{"saleType":"P","margin":"I","reportingType":"dm","ideess":"7605","idMunicipio":"640","idProvincia":"06","idCCAA":"11"}}},{"type":"Feature","geometry":{"type":"Point","coordinates":[-6.990333,38.883861]},"properties":{"id":"es-7608","source":"ES","brand":"GALP","address":"AVENIDA ADOLFO DIAZ AMBRONA, 60","municipality":"Badajoz","province":"BADAJOZ","postalCode":"06006","schedule":"L-D: 24H","fuels":{"gasoline95":1.769,"gasoline95Premium":1.819,"diesel":1.899,"dieselPremium":1.949},"extra":{"saleType":"P","margin":"N","reportingType":"OM","ideess":"7608","idMunicipio":"644","idProvincia":"06","idCCAA":"11"}}},{"type":"Feature","geometry":{"type":"Point","coordinates":[-6.94725,38.858139]},"properties":{"id":"es-7614","source":"ES","brand":"OCHO ÁREAS DE SERVICIO","address":"CARRETERA N432 KM. 2100","municipality":"Badajoz","province":"BADAJOZ","postalCode":"06009","schedule":"L-D: 24H","fuels":{"gasoline95":1.639,"diesel":1.789,"dieselPremium":1.819},"extra":{"saleType":"P","margin":"N","reportingType":"dm","ideess":"7614","idMunicipio":"644","idProvincia":"06","idCCAA":"11"}}},{"type":"Feature","geometry":{"type":"Point","coordinates":[-6.330472,38.569861]},"properties":{"id":"es-8041","source":"ES","brand":"E.S. LA CORONADA","address":"CARRETERA CARRETERA DE PALOMAS S/N KM. 1,881","municipality":"Villafranca de los Barros","province":"BADAJOZ","postalCode":"06220","schedule":"L-D: 24H","fuels":{"gasoline95":1.709,"diesel":1.789,"adblue":1.049},"extra":{"saleType":"P","margin":"N","reportingType":"dm","ideess":"8041","idMunicipio":"780","idProvincia":"06","idCCAA":"11"}}},{"type":"Feature","geometry":{"type":"Point","coordinates":[-6.763806,38.872444]},"properties":{"id":"es-8182","source":"ES","brand":"E/S TALAVERA","address":"AVDA. DE EXTREMADURA, S/N (ANTIGUA N-V)","municipality":"Talavera la Real","province":"BADAJOZ","postalCode":"06140","schedule":"L-D: 06:00-22:00","fuels":{"gasoline95":1.698,"gasoline98":1.858,"diesel":1.868,"dieselB":1.668},"extra":{"saleType":"P","margin":"N","reportingType":"dm","ideess":"8182","idMunicipio":"758","idProvincia":"06","idCCAA":"11"}}},{"type":"Feature","geometry":{"type":"Point","coordinates":[-6.370417,38.62675]},"properties":{"id":"es-8277","source":"ES","brand":"MOEVE - FIERROIL","address":"AUTOVIA A66 KM. 657","municipality":"Villafranca de los Barros","province":"BADAJOZ","postalCode":"06220","schedule":"L-D: 24H","fuels":{"gasoline95":1.799,"gasoline95Premium":1.929,"diesel":1.989,"dieselPremium":2.079,"adblue":1.049},"extra":{"saleType":"P","margin":"D","reportingType":"dm","ideess":"8277","idMunicipio":"780","idProvincia":"06","idCCAA":"11"}}},{"type":"Feature","geometry":{"type":"Point","coordinates":[-6.967556,38.850944]},"properties":{"id":"es-8388","source":"ES","brand":"BP SANCHA BRAVA","address":"CARRETERA VALVERDE DE LEGANES KM. ","municipality":"Badajoz","province":"BADAJOZ","postalCode":"06010","schedule":"L-D: 07:00-23:00","fuels":{"gasoline95":1.789,"gasoline98":1.919,"diesel":1.949,"dieselPremium":2.039},"extra":{"saleType":"P","margin":"D","reportingType":"dm","ideess":"8388","idMunicipio":"644","idProvincia":"06","idCCAA":"11"}}},{"type":"Feature","geometry":{"type":"Point","coordinates":[-6.811389,38.865306]},"properties":{"id":"es-9300","source":"ES","brand":"SHELL","address":"AUTOVIA A-5 km 384,700","municipality":"Talavera la Real","province":"BADAJOZ","postalCode":"06140","schedule":"L-D: 24H","fuels":{"gasoline95":1.779,"diesel":1.974,"dieselPremium":2.054,"dieselRenewable":2.104,"adblue":1.25},"extra":{"saleType":"P","margin":"I","reportingType":"OM","ideess":"9300","idMunicipio":"758","idProvincia":"06","idCCAA":"11"}}},{"type":"Feature","geometry":{"type":"Point","coordinates":[-6.429722,38.687389]},"properties":{"id":"es-9365","source":"ES","brand":"BP ALMENDRALEJO","address":"AVENIDA AVDA DE ARUA, 1, ","municipality":"Almendralejo","province":"BADAJOZ","postalCode":"06200","schedule":"L-D: 06:00-22:00","fuels":{"gasoline95":1.799,"diesel":1.959,"dieselPremium":2.039,"adblue":0.74},"extra":{"saleType":"P","margin":"D","reportingType":"dm","ideess":"9365","idMunicipio":"640","idProvincia":"06","idCCAA":"11"}}},{"type":"Feature","geometry":{"type":"Point","coordinates":[-6.422972,38.677528]},"properties":{"id":"es-9377","source":"ES","brand":"GASOLINERA SAN ROQUE","address":"CTRA.ACEUCHAL S/N (CTRA.DON BENITO-OLIVENZA C-243 km 71.425)","municipality":"Almendralejo","province":"BADAJOZ","postalCode":"06200","schedule":"L-D: 06:00-22:00","fuels":{"gasoline95":1.639,"diesel":1.769,"dieselPremium":1.769,"adblue":0.891},"extra":{"saleType":"P","margin":"D","reportingType":"dm","ideess":"9377","idMunicipio":"640","idProvincia":"06","idCCAA":"11"}}},{"type":"Feature","geometry":{"type":"Point","coordinates":[-6.241611,38.547111]},"properties":{"id":"es-9480","source":"ES","brand":"SDAD.COOP.OLIVAREROS Y VITICULTORES","address":"CARRETERA LOS SANTOS DE MAIMONA KM. 0,150","municipality":"Ribera del Fresno","province":"BADAJOZ","postalCode":"06225","schedule":"L-D: 24H","fuels":{"diesel":1.88,"dieselB":1.3},"extra":{"saleType":"P","margin":"I","reportingType":"dm","ideess":"9480","idMunicipio":"743","idProvincia":"06","idCCAA":"11"}}}]}