{"type":"FeatureCollection","features":[{"type":"Feature","geometry":{"type":"Point","coordinates":[-3.763361,41.929778]},"properties":{"id":"es-11691","source":"ES","brand":"BP","address":"AUTOVIA A-1 KM. 189,9","municipality":"Cilleruelo de Abajo","province":"BURGOS","postalCode":"09349","schedule":"L-D: 24H","fuels":{"gasoline95":1.79,"gasoline98":1.929,"diesel":1.849,"dieselPremium":1.938},"extra":{"saleType":"P","margin":"I","reportingType":"dm","ideess":"11691","idMunicipio":"1255","idProvincia":"09","idCCAA":"08"}}},{"type":"Feature","geometry":{"type":"Point","coordinates":[-3.725417,41.666333]},"properties":{"id":"es-11831","source":"ES","brand":"GASOLEOS ARANDA","address":"AVENIDA PORTUGAL, 21","municipality":"Aranda de Duero","province":"BURGOS","postalCode":"09400","schedule":"L-D: 24H","fuels":{"gasoline95":1.659,"diesel":1.719,"adblue":0.785},"extra":{"saleType":"P","margin":"I","reportingType":"dm","ideess":"11831","idMunicipio":"1185","idProvincia":"09","idCCAA":"08"}}},{"type":"Feature","geometry":{"type":"Point","coordinates":[-3.733361,41.665667]},"properties":{"id":"es-12039","source":"ES","brand":"NO TIENE","address":"AVENIDA PORTUGAL, 13","municipality":"Aranda de Duero","province":"BURGOS","postalCode":"09400","schedule":"L: 09:00-22:00","fuels":{"diesel":1.67},"extra":{"saleType":"P","margin":"D","reportingType":"dm","ideess":"12039","idMunicipio":"1185","idProvincia":"09","idCCAA":"08"}}},{"type":"Feature","geometry":{"type":"Point","coordinates":[-3.111806,41.573917]},"properties":{"id":"es-12503","source":"ES","brand":"CEPSA","address":"AUTOVIA A-11 KM. 218,000","municipality":"Burgo de Osma-Ciudad de Osma","province":"SORIA","postalCode":"42300","schedule":"L-D: 07:00-23:00","fuels":{"gasoline95":1.789,"gasoline95Premium":1.859,"diesel":1.899,"dieselPremium":1.989,"adblue":0.75},"extra":{"saleType":"P","margin":"I","reportingType":"dm","ideess":"12503","idMunicipio":"6199","idProvincia":"42","idCCAA":"08"}}},{"type":"Feature","geometry":{"type":"Point","coordinates":[-3.127806,41.214361]},"properties":{"id":"es-12594","source":"ES","brand":"E.S. LA RURAL","address":"CALLE CARRETERA DE GALVEZ, 41","municipality":"Condemios de Arriba","province":"GUADALAJARA","postalCode":"19275","schedule":"L-S: 09:00-21:00","fuels":{"gasoline95":1.85,"diesel":1.989,"adblue":1.9},"extra":{"saleType":"P","margin":"I","reportingType":"dm","ideess":"12594","idMunicipio":"2918","idProvincia":"19","idCCAA":"07"}}},{"type":"Feature","geometry":{"type":"Point","coordinates":[-3.142333,41.978583]},"properties":{"id":"es-13038","source":"ES","brand":"ES HERMANOS OLALLA","address":"POLIGONO POLIGONO INDUSTRIAL LAS ERAS ALTO DE LA PALOMERA, 5","municipality":"Palacios de la Sierra","province":"BURGOS","postalCode":"09680","schedule":"L-D: 06:00-00:00","fuels":{"gasoline95":1.599,"diesel":1.679,"dieselPremium":1.699,"adblue":0.65},"extra":{"saleType":"P","margin":"D","reportingType":"dm","ideess":"13038","idMunicipio":"1363","idProvincia":"09","idCCAA":"08"}}},{"type":"Feature","geometry":{"type":"Point","coordinates":[-3.711778,41.667972]},"properties":{"id":"es-13049","source":"ES","brand":"DGV","address":"AVENIDA PORTUGAL, 53","municipality":"Aranda de Duero","province":"BURGOS","postalCode":"09400","schedule":"L-D: 24H","fuels":{"diesel":1.699},"extra":{"saleType":"P","margin":"D","reportingType":"dm","ideess":"13049","idMunicipio":"1185","idProvincia":"09","idCCAA":"08"}}},{"type":"Feature","geometry":{"type":"Point","coordinates":[-3.928306,41.264]},"properties":{"id":"es-13165","source":"ES","brand":"G CANTALEJO","address":"CALLE CTRA. ARANDA, 4","municipality":"Cantalejo","province":"SEGOVIA","postalCode":"40320","schedule":"L-D: 24H","fuels":{"gasoline95":1.629,"diesel":1.689,"adblue":0.6},"extra":{"saleType":"P","margin":"D","reportingType":"dm","ideess":"13165","idMunicipio":"5881","idProvincia":"40","idCCAA":"08"}}},{"type":"Feature","geometry":{"type":"Point","coordinates":[-3.929389,41.264389]},"properties":{"id":"es-13235","source":"ES","brand":"BEROIL","address":"CALLEJA, CALLEJÓN HOSPITAL, 7","municipality":"Cantalejo","province":"SEGOVIA","postalCode":"40320","schedule":"L-D: 24H","fuels":{"gasoline95":1.629,"diesel":1.689,"adblue":0.6},"extra":{"saleType":"P","margin":"D","reportingType":"dm","ideess":"13235","idMunicipio":"5881","idProvincia":"40","idCCAA":"08"}}},{"type":"Feature","geometry":{"type":"Point","coordinates":[-3.727861,41.666444]},"properties":{"id":"es-13238","source":"ES","brand":"BEROIL","address":"AVENIDA PORTUGAL, 82","municipality":"Aranda de Duero","province":"BURGOS","postalCode":"09400","schedule":"L-D: 24H","fuels":{"gasoline95":1.599,"diesel":1.699,"dieselB":1.299,"adblue":0.6},"extra":{"saleType":"P","margin":"D","reportingType":"dm","ideess":"13238","idMunicipio":"1185","idProvincia":"09","idCCAA":"08"}}},{"type":"Feature","geometry":{"type":"Point","coordinates":[-3.878722,41.626083]},"properties":{"id":"es-13254","source":"ES","brand":"BEROIL","address":"CARRETERA N122 KM286 KM. 286","municipality":"Fuentecén","province":"BURGOS","postalCode":"09315","schedule":"L-D: 24H","fuels":{"gasoline95":1.689,"diesel":1.729,"dieselB":1.299,"lng":1.529,"adblue":0.6},"extra":{"saleType":"P","margin":"D","reportingType":"dm","ideess":"13254","idMunicipio":"1281","idProvincia":"09","idCCAA":"08"}}},{"type":"Feature","geometry":{"type":"Point","coordinates":[-3.633667,41.329417]},"properties":{"id":"es-13619","source":"ES","brand":"BEROIL","address":"CARRETERA NACIONAL 1 PARCELA 402 KM. 116,7","municipality":"Boceguillas","province":"SEGOVIA","postalCode":"40560","schedule":"L-D: 24H","fuels":{"gasoline95":1.689,"diesel":1.729,"adblue":0.6},"extra":{"saleType":"P","margin":"D","reportingType":"dm","ideess":"13619","idMunicipio":"5874","idProvincia":"40","idCCAA":"08"}}},{"type":"Feature","geometry":{"type":"Point","coordinates":[-3.584028,41.188222]},"properties":{"id":"es-13957","source":"ES","brand":"E.S. MIRASIERRA","address":"AUTOVIA A1 KM. 99","municipality":"Santo Tomé del Puerto","province":"SEGOVIA","postalCode":"40590","schedule":"L-D: 24H","fuels":{"gasoline95":1.769,"diesel":1.889,"dieselPremium":1.969,"adblue":0.959},"extra":{"saleType":"P","margin":"D","reportingType":"dm","ideess":"13957","idMunicipio":"6017","idProvincia":"40","idCCAA":"08"}}},{"type":"Feature","geometry":{"type":"Point","coordinates":[-3.684861,41.686861]},"properties":{"id":"es-14172","source":"ES","brand":"BEROIL","address":"CARRETERA NACIONAL I KM. 160,3","municipality":"Aranda de Duero","province":"BURGOS","postalCode":"09400","schedule":"L-D: 24H","fuels":{"gasoline95":1.599,"diesel":1.699},"extra":{"saleType":"P","margin":"D","reportingType":"dm","ideess":"14172","idMunicipio":"1185","idProvincia":"09","idCCAA":"08"}}},{"type":"Feature","geometry":{"type":"Point","coordinates":[-3.710611,41.665556]},"properties":{"id":"es-14458","source":"ES","brand":"PETROPRIX","address":"AVENIDA LUIS MATEOS  EN  ARANDA DE DUERO, 106","municipality":"Aranda de Duero","province":"BURGOS","postalCode":"09400","schedule":"L-D: 24H","fuels":{"gasoline95":1.549,"diesel":1.599},"extra":{"saleType":"P","margin":"D","reportingType":"dm","ideess":"14458","idMunicipio":"1185","idProvincia":"09","idCCAA":"08"}}},{"type":"Feature","geometry":{"type":"Point","coordinates":[-3.700472,41.653917]},"properties":{"id":"es-14632","source":"ES","brand":"VALCARCE","address":"CALLE VENDIMIA  EN  ARANDA DE DUERO, 2","municipality":"Aranda de Duero","province":"BURGOS","postalCode":"09400","schedule":"L-D: 05:00-23:00","fuels":{"gasoline95":1.639,"gasoline98":1.759,"diesel":1.759,"dieselPremium":1.859,"dieselB":1.559,"adblue":0.799},"extra":{"saleType":"P","margin":"D","reportingType":"dm","ideess":"14632","idMunicipio":"1185","idProvincia":"09","idCCAA":"08"}}},{"type":"Feature","geometry":{"type":"Point","coordinates":[-3.699583,41.654139]},"properties":{"id":"es-14741","source":"ES","brand":"MOLGAS","address":"CALLE VENDIMIA  EN  ARANDA DE DUERO, 2","municipality":"Aranda de Duero","province":"BURGOS","postalCode":"09400","schedule":"L-D: 07:00-23:00","fuels":{"cng":1.609,"lng":1.549},"extra":{"saleType":"P","margin":"D","reportingType":"dm","ideess":"14741","idMunicipio":"1185","idProvincia":"09","idCCAA":"08"}}},{"type":"Feature","geometry":{"type":"Point","coordinates":[-3.090556,41.555528]},"properties":{"id":"es-15393","source":"ES","brand":"BEROIL","address":"POLIGONO LA GÜERA, S/N","municipality":"Burgo de Osma-Ciudad de Osma","province":"SORIA","postalCode":"42300","schedule":"L-D: 24H","fuels":{"gasoline95":1.549,"diesel":1.669,"adblue":0.6},"extra":{"saleType":"P","margin":"D","reportingType":"dm","ideess":"15393","idMunicipio":"6199","idProvincia":"42","idCCAA":"08"}}},{"type":"Feature","geometry":{"type":"Point","coordinates":[-3.074611,41.584694]},"properties":{"id":"es-15650","source":"ES","brand":"GASHOME","address":"CALLE LA RASA, 24","municipality":"Burgo de Osma-Ciudad de Osma","province":"SORIA","postalCode":"42300","schedule":"L-D: 24H","fuels":{"gasoline95":1.589,"diesel":1.699,"adblue":0.669},"extra":{"saleType":"P","margin":"D","reportingType":"dm","ideess":"15650","idMunicipio":"6199","idProvincia":"42","idCCAA":"08"}}},{"type":"Feature","geometry":{"type":"Point","coordinates":[-3.693444,41.639778]},"properties":{"id":"es-16060","source":"ES","brand":"BUQUERIN","address":"CARRETERA CL 603 KM. 0","municipality":"Aranda de Duero","province":"BURGOS","postalCode":"09400","schedule":"L: 24H","fuels":{"gasoline95":1.598,"diesel":1.698,"adblue":0.75},"extra":{"saleType":"P","margin":"I","reportingType":"dm","ideess":"16060","idMunicipio":"1185","idProvincia":"09","idCCAA":"08"}}},{"type":"Feature","geometry":{"type":"Point","coordinates":[-3.580806,41.134917]},"properties":{"id":"es-4512","source":"ES","brand":"MOEVE","address":"AUTOVIA A-1 KM. 92,5","municipality":"Somosierra","province":"MADRID","postalCode":"28756","schedule":"L-D: 07:30-22:00","fuels":{"gasoline95":1.789,"gasoline95Premium":1.849,"gasoline98":1.929,"diesel":1.909,"dieselPremium":1.999},"extra":{"saleType":"P","margin":"D","reportingType":"dm","ideess":"4512","idMunicipio":"4413","idProvincia":"28","idCCAA":"13"}}},{"type":"Feature","geometry":{"type":"Point","coordinates":[-3.707139,41.67025]},"properties":{"id":"es-4736","source":"ES","brand":"CEPSA","address":"CALLE BEMPOSTA R-97, 97","municipality":"Aranda de Duero","province":"BURGOS","postalCode":"09400","schedule":"L-V: 07:00-21:00; S: 07:00-23:00","fuels":{"gasoline95":1.769,"gasoline95Premium":1.899,"diesel":1.869,"dieselPremium":1.969},"extra":{"saleType":"P","margin":"I","reportingType":"OM","ideess":"4736","idMunicipio":"1185","idProvincia":"09","idCCAA":"08"}}},{"type":"Feature","geometry":{"type":"Point","coordinates":[-3.468861,41.332306]},"properties":{"id":"es-4755","source":"ES","brand":"CEPSA","address":"NACIONAL 110 (SORIA-PLASENCIA) km 110,6","municipality":"Fresno de Cantespino","province":"SEGOVIA","postalCode":"40516","schedule":"L-D: 07:00-22:00","fuels":{"gasoline95":1.789,"gasoline98":1.929,"diesel":1.899,"dieselPremium":1.989},"extra":{"saleType":"P","margin":"D","reportingType":"dm","ideess":"4755","idMunicipio":"5917","idProvincia":"40","idCCAA":"08"}}},{"type":"Feature","geometry":{"type":"Point","coordinates":[-3.691944,41.677056]},"properties":{"id":"es-4969","source":"ES","brand":"ALCAMPO","address":"CARRETERA LA AGUILERA KM. 0","municipality":"Aranda de Duero","province":"BURGOS","postalCode":"09400","schedule":"L-D: 06:00-00:00","fuels":{"gasoline95":1.539,"gasoline98":1.749,"diesel":1.639},"extra":{"saleType":"P","margin":"N","reportingType":"dm","ideess":"4969","idMunicipio":"1185","idProvincia":"09","idCCAA":"08"}}},{"type":"Feature","geometry":{"type":"Point","coordinates":[-3.7055,41.573639]},"properties":{"id":"es-5007","source":"ES","brand":"CEPSA","address":"AUTOVIA A-1 KM. 146,7","municipality":"Pardilla","province":"BURGOS","postalCode":"09462","schedule":"L-D: 07:00-23:00","fuels":{"gasoline95":1.789,"gasoline95Premium":1.899,"diesel":1.869,"dieselPremium":1.969,"adblue":0.85},"extra":{"saleType":"P","margin":"D","reportingType":"dm","ideess":"5007","idMunicipio":"1369","idProvincia":"09","idCCAA":"08"}}},{"type":"Feature","geometry":{"type":"Point","coordinates":[-3.703972,41.824917]},"properties":{"id":"es-5036","source":"ES","brand":"GALP","address":"AUTOVIA A-2 KM. 176,6","municipality":"Oquillas","province":"BURGOS","postalCode":"09350","schedule":"L-V: 08:00-22:00; S: 09:30-19:30; D: 10:30-20:30","fuels":{"gasoline95":1.739,"gasoline95Premium":1.789,"diesel":1.789,"dieselPremium":1.879,"adblue":0.799},"extra":{"saleType":"P","margin":"D","reportingType":"OM","ideess":"5036","idMunicipio":"1358","idProvincia":"09","idCCAA":"08"}}},{"type":"Feature","geometry":{"type":"Point","coordinates":[-3.041972,41.972694]},"properties":{"id":"es-5038","source":"ES","brand":"GALP","address":"CTRA. DE SORIA, S/N (CRTA. DE SORIA, S/N)","municipality":"Quintanar de la Sierra","province":"BURGOS","postalCode":"09670","schedule":"L-S: 08:00-22:00; D: 09:00-22:00","fuels":{"gasoline95":1.709,"diesel":1.739,"dieselPremium":1.789},"extra":{"saleType":"P","margin":"D","reportingType":"OM","ideess":"5038","idMunicipio":"1395","idProvincia":"09","idCCAA":"08"}}},{"type":"Feature","geometry":{"type":"Point","coordinates":[-3.697222,41.593833]},"properties":{"id":"es-5041","source":"ES","brand":"CEPSA","address":"AUTOVIA A-1 KM. 149,3","municipality":"Milagros","province":"BURGOS","postalCode":"09460","schedule":"L-D: 07:00-23:00","fuels":{"gasoline95":1.789,"gasoline95Premium":1.899,"diesel":1.869,"dieselPremium":1.969,"adblue":0.85},"extra":{"saleType":"P","margin":"I","reportingType":"dm","ideess":"5041","idMunicipio":"1341","idProvincia":"09","idCCAA":"08"}}},{"type":"Feature","geometry":{"type":"Point","coordinates":[-3.751139,41.916222]},"properties":{"id":"es-5054","source":"ES","brand":"REPSOL","address":"CARRETERA A-1 KM. 187,800","municipality":"Fontioso","province":"BURGOS","postalCode":"09349","schedule":"L-V: 07:00-23:00; S: 08:00-22:00; D: 08:00-23:00","fuels":{"gasoline95":1.775,"diesel":1.825,"dieselB":1.529,"dieselRenewable":1.945,"cng":1.464,"lng":1.419},"extra":{"saleType":"P","margin":"I","reportingType":"OM","ideess":"5054","idMunicipio":"1272","idProvincia":"09","idCCAA":"08"}}},{"type":"Feature","geometry":{"type":"Point","coordinates":[-3.684833,41.616306]},"properties":{"id":"es-5059","source":"ES","brand":"CEPSA","address":"A-1 km 152,8","municipality":"Fuentespina","province":"BURGOS","postalCode":"09471","schedule":"L-D: 07:00-23:00","fuels":{"gasoline95":1.789,"gasoline95Premium":1.859,"gasoline98":1.929,"diesel":1.839,"dieselPremium":1.879},"extra":{"saleType":"P","margin":"D","reportingType":"OM","ideess":"5059","idMunicipio":"1286","idProvincia":"09","idCCAA":"08"}}},{"type":"Feature","geometry":{"type":"Point","coordinates":[-3.686,41.674944]},"properties":{"id":"es-5070","source":"ES","brand":"BP ARANDA DE DUERO","address":"CALLE SAN FRANCISCO, 39","municipality":"Aranda de Duero","province":"BURGOS","postalCode":"09400","schedule":"L-D: 24H","fuels":{"gasoline95":1.739,"gasoline98":1.879,"diesel":1.825,"dieselPremium":1.915},"extra":{"saleType":"P","margin":"D","reportingType":"OM","ideess":"5070","idMunicipio":"1185","idProvincia":"09","idCCAA":"08"}}},{"type":"Feature","geometry":{"type":"Point","coordinates":[-3.49025,41.823167]},"properties":{"id":"es-5544","source":"ES","brand":"MOEVE","address":"CARRETERA BU-910 KM. 24","municipality":"Caleruega","province":"BURGOS","postalCode":"09451","schedule":"L-D: 08:00-21:00","fuels":{"gasoline95":1.809,"gasoline98":1.979,"diesel":1.929,"dieselPremium":1.959},"extra":{"saleType":"P","margin":"I","reportingType":"dm","ideess":"5544","idMunicipio":"1224","idProvincia":"09","idCCAA":"08"}}},{"type":"Feature","geometry":{"type":"Point","coordinates":[-3.578028,41.633528]},"properties":{"id":"es-5545","source":"ES","brand":"REPSOL","address":"CR N-122, 257","municipality":"Vadocondes","province":"BURGOS","postalCode":"09491","schedule":"L: 07:00-22:00","fuels":{"gasoline95":1.739,"gasoline98":1.909,"diesel":1.825,"dieselRenewable":1.945},"extra":{"saleType":"P","margin":"I","reportingType":"OM","ideess":"5545","idMunicipio":"1475","idProvincia":"09","idCCAA":"08"}}},{"type":"Feature","geometry":{"type":"Point","coordinates":[-3.695667,41.78025]},"properties":{"id":"es-6011","source":"ES","brand":"PETRONOR","address":"AUTOVIA A-1 KM. 171","municipality":"Gumiel de Izán","province":"BURGOS","postalCode":"09370","schedule":"L-J: 08:00-21:00; V: 08:00-22:00; S: 08:00-21:00; D: 10:00-22:00","fuels":{"gasoline95":1.775,"gasoline98":1.935,"diesel":1.825,"dieselPremium":1.935},"extra":{"saleType":"P","margin":"D","reportingType":"OM","ideess":"6011","idMunicipio":"1291","idProvincia":"09","idCCAA":"08"}}},{"type":"Feature","geometry":{"type":"Point","coordinates":[-3.929972,41.781611]},"properties":{"id":"es-6028","source":"ES","brand":"REPSOL","address":"CR BU-619, 26,1","municipality":"Olmedillo de Roa","province":"BURGOS","postalCode":"09311","schedule":"L-V: 07:00-22:00; S: 08:00-22:00; D: 09:00-22:00","fuels":{"gasoline95":1.739,"diesel":1.825,"dieselB":1.519,"dieselRenewable":1.945},"extra":{"saleType":"P","margin":"D","reportingType":"OM","ideess":"6028","idMunicipio":"1355","idProvincia":"09","idCCAA":"08"}}},{"type":"Feature","geometry":{"type":"Point","coordinates":[-3.691861,41.662583]},"properties":{"id":"es-6038","source":"ES","brand":"REPSOL","address":"AVENIDA CASTILLA, 64","municipality":"Aranda de Duero","province":"BURGOS","postalCode":"09400","schedule":"L-D: 24H","fuels":{"gasoline95":1.749,"gasoline98":1.889,"diesel":1.835,"dieselRenewable":1.955,"lpg":1.155},"extra":{"saleType":"P","margin":"D","reportingType":"OM","ideess":"6038","idMunicipio":"1185","idProvincia":"09","idCCAA":"08"}}},{"type":"Feature","geometry":{"type":"Point","coordinates":[-3.923194,41.6985]},"properties":{"id":"es-6042","source":"ES","brand":"REPSOL","address":"CARRETERA BU-111 CTRA. LERMA-S.MARIN RUBIALES KM. 28,500","municipality":"Roa","province":"BURGOS","postalCode":"09300","schedule":"L-D: 07:00-23:00","fuels":{"gasoline95":1.739,"gasoline98":1.909,"diesel":1.829,"dieselB":1.515,"dieselRenewable":1.949},"extra":{"saleType":"P","margin":"D","reportingType":"OM","ideess":"6042","idMunicipio":"1418","idProvincia":"09","idCCAA":"08"}}},{"type":"Feature","geometry":{"type":"Point","coordinates":[-3.345889,41.835056]},"properties":{"id":"es-6054","source":"ES","brand":"REPSOL","address":"CARRETERA C-111 (ARANDA DE DUERO - SALAS) KM. 40,9","municipality":"Huerta de Rey","province":"BURGOS","postalCode":"09430","schedule":"L-V: 08:30-20:30; S: 08:30-14:30 y 16:00-20:30; D: 10:00-14:30 y 16:00-20:30","fuels":{"gasoline95":1.739,"diesel":1.825,"dieselPremium":1.925},"extra":{"saleType":"P","margin":"D","reportingType":"OM","ideess":"6054","idMunicipio":"1307","idProvincia":"09","idCCAA":"08"}}},{"type":"Feature","geometry":{"type":"Point","coordinates":[-3.78275,41.648417]},"properties":{"id":"es-6071","source":"ES","brand":"CEPSA","address":"CARRETERA N-122 KM. 278,160","municipality":"Castrillo de la Vega","province":"BURGOS","postalCode":"09391","schedule":"L-D: 07:00-22:00","fuels":{"gasoline95":1.789,"gasoline95Premium":1.859,"diesel":1.899,"dieselB":1.499,"adblue":0.75},"extra":{"saleType":"P","margin":"D","reportingType":"dm","ideess":"6071","idMunicipio":"1242","idProvincia":"09","idCCAA":"08"}}},{"type":"Feature","geometry":{"type":"Point","coordinates":[-3.705444,41.665194]},"properties":{"id":"es-6075","source":"ES","brand":"MOEVE","address":"AVENIDA LUIS MATEOS, 84","municipality":"Aranda de Duero","province":"BURGOS","postalCode":"09400","schedule":"L-D: 06:00-22:00","fuels":{"gasoline95":1.649,"diesel":1.699,"dieselPremium":1.759,"adblue":0.85},"extra":{"saleType":"P","margin":"D","reportingType":"dm","ideess":"6075","idMunicipio":"1185","idProvincia":"09","idCCAA":"08"}}},{"type":"Feature","geometry":{"type":"Point","coordinates":[-3.591194,41.259278]},"properties":{"id":"es-6193","source":"ES","brand":"REPSOL","address":"AUTOVIA AUTOVIA DEL NORTE MADRID-IRUN A-1 KM. 107,4","municipality":"Castillejo de Mesleón","province":"SEGOVIA","postalCode":"40593","schedule":"L-D: 24H","fuels":{"gasoline95":1.808,"gasoline98":1.928,"diesel":1.908,"dieselB":1.648,"dieselRenewable":2.008,"lpg":1.088,"adblue":0.885},"extra":{"saleType":"P","margin":"D","reportingType":"dm","ideess":"6193","idMunicipio":"5886","idProvincia":"40","idCCAA":"08"}}},{"type":"Feature","geometry":{"type":"Point","coordinates":[-3.744833,41.298722]},"properties":{"id":"es-6218","source":"ES","brand":"BEROIL","address":"CALLE ALFONSO VI, 29","municipality":"Sepúlveda","province":"SEGOVIA","postalCode":"40300","schedule":"L-D: 24H","fuels":{"gasoline95":1.689,"diesel":1.729},"extra":{"saleType":"P","margin":"I","reportingType":"dm","ideess":"6218","idMunicipio":"6021","idProvincia":"40","idCCAA":"08"}}},{"type":"Feature","geometry":{"type":"Point","coordinates":[-3.952194,41.397417]},"properties":{"id":"es-6226","source":"ES","brand":"BRAVOIL","address":"CR C-603, 65","municipality":"San Miguel de Bernuy","province":"SEGOVIA","postalCode":"40332","schedule":"L-S: 07:00-22:00; D: 08:00-15:00","fuels":{"gasoline95":1.759,"diesel":1.778,"dieselPremium":1.779,"dieselB":1.528},"extra":{"saleType":"P","margin":"I","reportingType":"dm","ideess":"6226","idMunicipio":"6008","idProvincia":"40","idCCAA":"08"}}},{"type":"Feature","geometry":{"type":"Point","coordinates":[-3.383889,41.417472]},"properties":{"id":"es-6235","source":"ES","brand":"BUQUERIN","address":"CR N-110, 97,8  D","municipality":"Ayllón","province":"SEGOVIA","postalCode":"40520","schedule":"L-D: 07:00-22:00","fuels":{"gasoline95":1.729,"diesel":1.799,"dieselPremium":1.849,"dieselB":1.499,"adblue":0.75},"extra":{"saleType":"P","margin":"D","reportingType":"dm","ideess":"6235","idMunicipio":"5867","idProvincia":"40","idCCAA":"08"}}},{"type":"Feature","geometry":{"type":"Point","coordinates":[-3.485139,41.276917]},"properties":{"id":"es-6237","source":"ES","brand":"BUQUERIN","address":"CARRETERA NACIONAL 110 KM. 117,800","municipality":"Riaza","province":"SEGOVIA","postalCode":"40500","schedule":"L-D: 07:00-22:00","fuels":{"gasoline95":1.729,"gasoline98":1.809,"diesel":1.799,"dieselPremium":1.849},"extra":{"saleType":"P","margin":"D","reportingType":"dm","ideess":"6237","idMunicipio":"5997","idProvincia":"40","idCCAA":"08"}}},{"type":"Feature","geometry":{"type":"Point","coordinates":[-3.921861,41.037222]},"properties":{"id":"es-6258","source":"ES","brand":"REPSOL","address":"CR N-110, 171","municipality":"Collado Hermoso","province":"SEGOVIA","postalCode":"40170","schedule":"L-J: 07:00-22:00; V: 07:00-23:00; S: 08:00-23:00; D: 08:00-22:00","fuels":{"gasoline95":1.798,"gasoline98":1.958,"diesel":1.928,"dieselRenewable":2.028},"extra":{"saleType":"P","margin":"D","reportingType":"dm","ideess":"6258","idMunicipio":"5899","idProvincia":"40","idCCAA":"08"}}},{"type":"Feature","geometry":{"type":"Point","coordinates":[-3.056222,41.83125]},"properties":{"id":"es-6261","source":"ES","brand":"REPSOL","address":"CARRETERA NACIONAL 234 KM. 401","municipality":"San Leonardo de Yagüe","province":"SORIA","postalCode":"42140","schedule":"L-D: 08:00-22:00","fuels":{"gasoline95":1.729,"diesel":1.875,"dieselRenewable":1.995},"extra":{"saleType":"P","margin":"I","reportingType":"OM","ideess":"6261","idMunicipio":"6296","idProvincia":"42","idCCAA":"08"}}},{"type":"Feature","geometry":{"type":"Point","coordinates":[-3.595722,41.258]},"properties":{"id":"es-6281","source":"ES","brand":"CEPSA","address":"AUTOVIA AUTOVIA DEL NORTE MADRID-IRUN A-1 KM. 107","municipality":"Castillejo de Mesleón","province":"SEGOVIA","postalCode":"40593","schedule":"L-D: 06:30-22:30","fuels":{"gasoline95":1.789,"gasoline98":1.929,"diesel":1.899,"dieselPremium":1.989,"lpg":1.087,"adblue":0.75},"extra":{"saleType":"P","margin":"I","reportingType":"dm","ideess":"6281","idMunicipio":"5886","idProvincia":"40","idCCAA":"08"}}},{"type":"Feature","geometry":{"type":"Point","coordinates":[-3.058417,41.586833]},"properties":{"id":"es-6310","source":"ES","brand":"REPSOL","address":"CR N-122, 210","municipality":"Burgo de Osma-Ciudad de Osma","province":"SORIA","postalCode":"42300","schedule":"L-D: 07:00-23:00","fuels":{"gasoline95":1.738,"gasoline98":1.918,"diesel":1.898,"dieselRenewable":1.998,"adblue":0.808},"extra":{"saleType":"P","margin":"D","reportingType":"dm","ideess":"6310","idMunicipio":"6199","idProvincia":"42","idCCAA":"08"}}},{"type":"Feature","geometry":{"type":"Point","coordinates":[-3.929,41.255389]},"properties":{"id":"es-6329","source":"ES","brand":"G CANTALEJO","address":"CARRETERA SEGOVIA KM. 4","municipality":"Cantalejo","province":"SEGOVIA","postalCode":"40320","schedule":"L-D: 24H","fuels":{"gasoline95":1.629,"gasoline98":1.769,"diesel":1.689,"dieselPremium":1.739,"dieselB":1.589,"adblue":0.6},"extra":{"saleType":"P","margin":"D","reportingType":"dm","ideess":"6329","idMunicipio":"5881","idProvincia":"40","idCCAA":"08"}}},{"type":"Feature","geometry":{"type":"Point","coordinates":[-3.192556,41.569]},"properties":{"id":"es-6353","source":"ES","brand":"REPSOL","address":"CARRETERA N-122 KM. 222","municipality":"San Esteban de Gormaz","province":"SORIA","postalCode":"42330","schedule":"L-D: 07:00-23:00","fuels":{"gasoline95":1.739,"gasoline98":1.909,"diesel":1.889,"dieselPremium":1.949},"extra":{"saleType":"P","margin":"I","reportingType":"OM","ideess":"6353","idMunicipio":"6294","idProvincia":"42","idCCAA":"08"}}},{"type":"Feature","geometry":{"type":"Point","coordinates":[-3.678028,41.439806]},"properties":{"id":"es-6395","source":"ES","brand":"REPSOL","address":"CARRERA CARABIAS, 130","municipality":"Pradales","province":"SEGOVIA","postalCode":"40540","schedule":"L-D: 07:00-23:00","fuels":{"gasoline95":1.799,"gasoline98":1.997,"diesel":1.919,"dieselRenewable":2.048,"adblue":1.2},"extra":{"saleType":"P","margin":"D","reportingType":"dm","ideess":"6395","idMunicipio":"5990","idProvincia":"40","idCCAA":"08"}}},{"type":"Feature","geometry":{"type":"Point","coordinates":[-3.591083,41.219083]},"properties":{"id":"es-6396","source":"ES","brand":"PETRONOR","address":"CR N-1, 103","municipality":"Cerezo de Abajo","province":"SEGOVIA","postalCode":"40591","schedule":"L-D: 07:00-23:00","fuels":{"gasoline95":1.769,"gasoline98":1.919,"diesel":1.879,"dieselRenewable":1.989},"extra":{"saleType":"P","margin":"I","reportingType":"dm","ideess":"6396","idMunicipio":"5892","idProvincia":"40","idCCAA":"08"}}},{"type":"Feature","geometry":{"type":"Point","coordinates":[-3.641806,41.367417]},"properties":{"id":"es-6402","source":"ES","brand":"REPSOL","address":"CARRETERA CARRETERA DE ENCINAS KM. 121,1","municipality":"Grajera","province":"SEGOVIA","postalCode":"40569","schedule":"L-D: 07:00-23:00","fuels":{"gasoline95":1.958,"gasoline98":1.978,"diesel":1.978,"dieselRenewable":2.068,"adblue":1.305},"extra":{"saleType":"P","margin":"I","reportingType":"dm","ideess":"6402","idMunicipio":"5932","idProvincia":"40","idCCAA":"08"}}},{"type":"Feature","geometry":{"type":"Point","coordinates":[-3.631417,41.325139]},"properties":{"id":"es-6404","source":"ES","brand":"REPSOL","address":"AT  A-1 P.K. 116,0 D","municipality":"Boceguillas","province":"SEGOVIA","postalCode":"40560","schedule":"L-D: 07:00-23:00","fuels":{"gasoline95":1.799,"gasoline95Premium":1.859,"gasoline98":1.959,"diesel":1.929,"dieselRenewable":2.049},"extra":{"saleType":"P","margin":"D","reportingType":"OM","ideess":"6404","idMunicipio":"5874","idProvincia":"40","idCCAA":"08"}}},{"type":"Feature","geometry":{"type":"Point","coordinates":[-3.617222,41.034972]},"properties":{"id":"es-8105","source":"ES","brand":"BP LAS NAVAS","address":"AUTOVIA N-1 KM. 80,200","municipality":"Serna del Monte (La)","province":"MADRID","postalCode":"28737","schedule":"L-D: 24H","fuels":{"gasoline95":1.759,"diesel":1.875,"dieselPremium":1.965,"adblue":0.935},"extra":{"saleType":"P","margin":"D","reportingType":"OM","ideess":"8105","idMunicipio":"4410","idProvincia":"28","idCCAA":"13"}}},{"type":"Feature","geometry":{"type":"Point","coordinates":[-3.759889,41.930556]},"properties":{"id":"es-8403","source":"ES","brand":"SHELL","address":"AUTV.A-1 km 190","municipality":"Fontioso","province":"BURGOS","postalCode":"09349","schedule":"L-V: 24H; S: 00:00-23:00; D: 07:00-23:00","fuels":{"gasoline95":1.789,"gasoline98":1.929,"diesel":1.889,"dieselPremium":1.949,"adblue":0.979},"extra":{"saleType":"P","margin":"D","reportingType":"dm","ideess":"8403","idMunicipio":"1272","idProvincia":"09","idCCAA":"08"}}},{"type":"Feature","geometry":{"type":"Point","coordinates":[-3.617861,41.040139]},"properties":{"id":"es-8457","source":"ES","brand":"SHELL","address":"AUTOVIA A-I KM. 81","municipality":"Serna del Monte (La)","province":"MADRID","postalCode":"28737","schedule":"L-D: 06:00-00:00","fuels":{"gasoline95":1.769,"gasoline98":1.909,"diesel":1.889,"dieselPremium":1.969,"adblue":1.25},"extra":{"saleType":"P","margin":"I","reportingType":"OM","ideess":"8457","idMunicipio":"4410","idProvincia":"28","idCCAA":"13"}}},{"type":"Feature","geometry":{"type":"Point","coordinates":[-3.594139,41.097111]},"properties":{"id":"es-8962","source":"ES","brand":"Q8","address":"N-1 km 87","municipality":"Horcajo de la Sierra","province":"MADRID","postalCode":"28755","schedule":"L-M: 24H; J-D: 24H","fuels":{"gasoline95":1.799,"gasoline98":1.939,"diesel":1.899},"extra":{"saleType":"P","margin":"I","reportingType":"dm","ideess":"8962","idMunicipio":"4345","idProvincia":"28","idCCAA":"13"}}},{"type":"Feature","geometry":{"type":"Point","coordinates":[-3.925778,41.690528]},"properties":{"id":"es-9215","source":"ES","brand":"CORIDU","address":"CARRETERA SAN MARTIN DE RUBIALES KM. 1","municipality":"Roa","province":"BURGOS","postalCode":"09300","schedule":"L-V: 09:00-14:00 y 16:00-19:00","fuels":{"gasoline95":1.719,"diesel":1.777,"dieselB":1.439,"adblue":0.69},"extra":{"saleType":"P","margin":"D","reportingType":"dm","ideess":"9215","idMunicipio":"1418","idProvincia":"09","idCCAA":"08"}}},{"type":"Feature","geometry":{"type":"Point","coordinates":[-3.671944,41.149167]},"properties":{"id":"es-9326","source":"ES","brand":"REPSOL","address":"CTRA N-110 PK 144,600","municipality":"Prádena","province":"SEGOVIA","postalCode":"40165","schedule":"L-D: 07:00-23:00","fuels":{"gasoline95":1.778,"gasoline98":1.958,"diesel":1.888,"dieselRenewable":1.998},"extra":{"saleType":"P","margin":"D","reportingType":"dm","ideess":"9326","idMunicipio":"5991","idProvincia":"40","idCCAA":"08"}}}]}