{"type":"FeatureCollection","features":[{"type":"Feature","geometry":{"type":"Point","coordinates":[-0.773944,41.822944]},"properties":{"id":"es-10285","source":"ES","brand":"COOP. VIRGEN DEL ROSARIO","address":"CARRETERA SANTA ISABEL - SAN MATEO KM. 19,1","municipality":"San Mateo de Gállego","province":"ZARAGOZA","postalCode":"50840","schedule":"L-D: 24H","fuels":{"gasoline95":1.467,"diesel":1.593,"dieselPremium":1.653,"dieselB":1.27},"extra":{"saleType":"P","margin":"N","reportingType":"dm","ideess":"10285","idMunicipio":"8046","idProvincia":"50","idCCAA":"02"}}},{"type":"Feature","geometry":{"type":"Point","coordinates":[-0.756556,41.633611]},"properties":{"id":"es-10682","source":"ES","brand":"REPSOL","address":"CARRETERA NACIONAL II  P.K. 335","municipality":"Puebla de Alfindén (La)","province":"ZARAGOZA","postalCode":"50171","schedule":"L: 06:30-22:30; M-S: 06:30-22:30; D: 09:00-20:00","fuels":{"gasoline95":1.785,"gasoline98":1.955,"diesel":1.859,"dieselRenewable":1.979},"extra":{"saleType":"P","margin":"D","reportingType":"OM","ideess":"10682","idMunicipio":"8030","idProvincia":"50","idCCAA":"02"}}},{"type":"Feature","geometry":{"type":"Point","coordinates":[-0.367722,41.948306]},"properties":{"id":"es-11056","source":"ES","brand":"SECADERO SANTIAGO","address":"C/ AFUERAS S/N","municipality":"Grañén","province":"HUESCA","postalCode":"22260","schedule":"L-D: 24H","fuels":{"diesel":1.7,"dieselB":1.42},"extra":{"saleType":"P","margin":"N","reportingType":"dm","ideess":"11056","idMunicipio":"3388","idProvincia":"22","idCCAA":"02"}}},{"type":"Feature","geometry":{"type":"Point","coordinates":[-0.941361,41.595167]},"properties":{"id":"es-11105","source":"ES","brand":"CEPSA","address":"CARRETERA VALENCIA KM. 8","municipality":"Cuarte de Huerva","province":"ZARAGOZA","postalCode":"50410","schedule":"L-S: 06:00-23:00; D: 07:00-23:00","fuels":{"gasoline95":1.759,"gasoline98":1.889,"diesel":1.839,"dieselPremium":1.969},"extra":{"saleType":"P","margin":"I","reportingType":"dm","ideess":"11105","idMunicipio":"7907","idProvincia":"50","idCCAA":"02"}}},{"type":"Feature","geometry":{"type":"Point","coordinates":[-0.939389,41.622972]},"properties":{"id":"es-11275","source":"ES","brand":"REPSOL","address":"AVENIDA CASABLANCA, 11","municipality":"Zaragoza","province":"ZARAGOZA","postalCode":"50013","schedule":"L-D: 06:00-22:00","fuels":{"gasoline95":1.779,"gasolineRenewable":1.899,"diesel":1.845,"dieselRenewable":1.965},"extra":{"saleType":"P","margin":"I","reportingType":"OM","ideess":"11275","idMunicipio":"8108","idProvincia":"50","idCCAA":"02"}}},{"type":"Feature","geometry":{"type":"Point","coordinates":[-0.991167,41.636028]},"properties":{"id":"es-11276","source":"ES","brand":"REPSOL","address":"AVENIDA DIAGONAL PLAZA, 13, 13","municipality":"Zaragoza","province":"ZARAGOZA","postalCode":"50197","schedule":"L-D: 24H","fuels":{"gasoline95":1.759,"gasoline98":1.929,"diesel":1.865,"dieselB":1.649,"dieselRenewable":1.985},"extra":{"saleType":"P","margin":"I","reportingType":"OM","ideess":"11276","idMunicipio":"8108","idProvincia":"50","idCCAA":"02"}}},{"type":"Feature","geometry":{"type":"Point","coordinates":[-0.835,41.611111]},"properties":{"id":"es-11371","source":"ES","brand":"SHELL","address":"CRTA.A-68 km 231,170","municipality":"Zaragoza","province":"ZARAGOZA","postalCode":"50720","schedule":"L-D: 06:00-22:00","fuels":{"gasoline95":1.749,"gasoline98":1.889,"diesel":1.829,"dieselPremium":1.909,"adblue":1.25},"extra":{"saleType":"P","margin":"D","reportingType":"OM","ideess":"11371","idMunicipio":"8108","idProvincia":"50","idCCAA":"02"}}},{"type":"Feature","geometry":{"type":"Point","coordinates":[-0.254583,41.844833]},"properties":{"id":"es-11409","source":"ES","brand":"REPSOL","address":"CARRETERA A-1210 KM. 41","municipality":"Lalueza","province":"HUESCA","postalCode":"22214","schedule":"L-V: 07:00-20:30; S: 08:00-14:00","fuels":{"gasoline95":1.679,"gasoline98":1.869,"diesel":1.809,"dieselPremium":1.869,"dieselB":1.499},"extra":{"saleType":"P","margin":"D","reportingType":"dm","ideess":"11409","idMunicipio":"3403","idProvincia":"22","idCCAA":"02"}}},{"type":"Feature","geometry":{"type":"Point","coordinates":[-0.156528,41.053639]},"properties":{"id":"es-11413","source":"ES","brand":"ALCAMPO","address":"CARRETERA ZARAGOZA KM. 117","municipality":"Alcañiz","province":"TERUEL","postalCode":"44600","schedule":"L-D: 24H","fuels":{"gasoline95":1.53,"gasoline98":1.54,"diesel":1.709,"dieselPremium":1.771},"extra":{"saleType":"P","margin":"N","reportingType":"dm","ideess":"11413","idMunicipio":"6538","idProvincia":"44","idCCAA":"02"}}},{"type":"Feature","geometry":{"type":"Point","coordinates":[-0.981111,41.651444]},"properties":{"id":"es-11519","source":"ES","brand":"FAMILY ENERGY","address":"RONDA CANAL IMPERIAL DE ARAGON, 8","municipality":"Zaragoza","province":"ZARAGOZA","postalCode":"50190","schedule":"L-V: 08:00-22:30; S: 10:00-22:30","fuels":{"gasoline95":1.459,"gasoline98":1.559,"diesel":1.619,"dieselPremium":1.719},"extra":{"saleType":"P","margin":"N","reportingType":"dm","ideess":"11519","idMunicipio":"8108","idProvincia":"50","idCCAA":"02"}}},{"type":"Feature","geometry":{"type":"Point","coordinates":[-0.440056,41.804194]},"properties":{"id":"es-11713","source":"ES","brand":"SC SIERRA DE ALCUBIERRE","address":"CARRETERA A-129 KM. 41,150","municipality":"Alcubierre","province":"HUESCA","postalCode":"22251","schedule":"L-D: 24H","fuels":{"gasoline95":1.559,"diesel":1.659,"dieselB":1.249,"adblue":0.59},"extra":{"saleType":"P","margin":"D","reportingType":"dm","ideess":"11713","idMunicipio":"3310","idProvincia":"22","idCCAA":"02"}}},{"type":"Feature","geometry":{"type":"Point","coordinates":[-0.922778,41.626667]},"properties":{"id":"es-11786","source":"ES","brand":"REPSOL","address":"AVENIDA LA ILUSTRACION, 1","municipality":"Zaragoza","province":"ZARAGOZA","postalCode":"50012","schedule":"L-D: 06:30-22:30","fuels":{"gasoline95":1.779,"gasoline98":1.919,"gasolineRenewable":1.899,"diesel":1.849,"dieselRenewable":1.969},"extra":{"saleType":"P","margin":"I","reportingType":"OM","ideess":"11786","idMunicipio":"8108","idProvincia":"50","idCCAA":"02"}}},{"type":"Feature","geometry":{"type":"Point","coordinates":[-0.918972,41.659278]},"properties":{"id":"es-11816","source":"ES","brand":"CARREFOUR","address":"AVENIDA NAVARRA, 180","municipality":"Zaragoza","province":"ZARAGOZA","postalCode":"50011","schedule":"L-D: 24H","fuels":{"gasoline95":1.729,"gasoline98":1.879,"diesel":1.819,"dieselPremium":1.859},"extra":{"saleType":"P","margin":"N","reportingType":"dm","ideess":"11816","idMunicipio":"8108","idProvincia":"50","idCCAA":"02"}}},{"type":"Feature","geometry":{"type":"Point","coordinates":[-0.845917,41.623167]},"properties":{"id":"es-12002","source":"ES","brand":"BP","address":"AUTOVIA CTRA. CASTELLON ( A 68) KM. 233,150","municipality":"Zaragoza","province":"ZARAGOZA","postalCode":"50720","schedule":"L-D: 06:00-22:00","fuels":{"gasoline95":1.829,"gasoline98":1.929,"diesel":1.939,"dieselPremium":2.039,"lpg":0.849,"adblue":0.869},"extra":{"saleType":"P","margin":"I","reportingType":"dm","ideess":"12002","idMunicipio":"8108","idProvincia":"50","idCCAA":"02"}}},{"type":"Feature","geometry":{"type":"Point","coordinates":[-0.032806,41.500778]},"properties":{"id":"es-12073","source":"ES","brand":"COOPERATIVA LA VALCUERNA","address":"CARRETERA N-II KM. 401,200","municipality":"Peñalba","province":"HUESCA","postalCode":"22592","schedule":"L-V: 09:00-18:00","fuels":{"gasoline95":1.476,"diesel":1.621,"dieselB":1.242},"extra":{"saleType":"P","margin":"I","reportingType":"dm","ideess":"12073","idMunicipio":"3426","idProvincia":"22","idCCAA":"02"}}},{"type":"Feature","geometry":{"type":"Point","coordinates":[-0.887417,41.662111]},"properties":{"id":"es-12120","source":"ES","brand":"REPSOL","address":"AVENIDA RANILLAS, 18","municipality":"Zaragoza","province":"ZARAGOZA","postalCode":"50015","schedule":"L-D: 06:00-22:00","fuels":{"gasoline95":1.775,"diesel":1.855,"dieselRenewable":1.975},"extra":{"saleType":"P","margin":"D","reportingType":"OM","ideess":"12120","idMunicipio":"8108","idProvincia":"50","idCCAA":"02"}}},{"type":"Feature","geometry":{"type":"Point","coordinates":[-0.028778,41.226778]},"properties":{"id":"es-12244","source":"ES","brand":"COOP. SAN LAMBERTO","address":"CALLE POLIGONO INDUSTRIAL EL CASTILLO, S/N","municipality":"Caspe","province":"ZARAGOZA","postalCode":"50700","schedule":"L-D: 24H","fuels":{"dieselB":1.36},"extra":{"saleType":"P","margin":"N","reportingType":"dm","ideess":"12244","idMunicipio":"7890","idProvincia":"50","idCCAA":"02"}}},{"type":"Feature","geometry":{"type":"Point","coordinates":[-0.948944,41.587722]},"properties":{"id":"es-12257","source":"ES","brand":"PLENERGY","address":"CARRETERA VALENCIA KM. 8,8","municipality":"Cuarte de Huerva","province":"ZARAGOZA","postalCode":"50410","schedule":"L-D: 24H","fuels":{"gasoline95":1.499,"diesel":1.687},"extra":{"saleType":"P","margin":"D","reportingType":"dm","ideess":"12257","idMunicipio":"7907","idProvincia":"50","idCCAA":"02"}}},{"type":"Feature","geometry":{"type":"Point","coordinates":[-0.990111,41.636528]},"properties":{"id":"es-12289","source":"ES","brand":"REPSOL/ CASA COSME","address":"AVENIDA DIAGONAL PLAZA, 22","municipality":"Zaragoza","province":"ZARAGOZA","postalCode":"50197","schedule":"L-V: 06:00-22:00; S: 08:00-15:00","fuels":{"gasoline95":1.759,"diesel":1.865,"dieselRenewable":1.985,"adblue":1.049},"extra":{"saleType":"P","margin":"D","reportingType":"dm","ideess":"12289","idMunicipio":"8108","idProvincia":"50","idCCAA":"02"}}},{"type":"Feature","geometry":{"type":"Point","coordinates":[-0.881944,41.609722]},"properties":{"id":"es-12396","source":"ES","brand":"REPSOL","address":"CALLE ISLA DE MURANO, S/N","municipality":"Zaragoza","province":"ZARAGOZA","postalCode":"50020","schedule":"L-D: 07:00-23:00","fuels":{"gasoline95":1.779,"gasoline98":1.899,"diesel":1.849,"dieselRenewable":1.969,"lpg":1.075},"extra":{"saleType":"P","margin":"I","reportingType":"OM","ideess":"12396","idMunicipio":"8108","idProvincia":"50","idCCAA":"02"}}},{"type":"Feature","geometry":{"type":"Point","coordinates":[-0.8375,41.754444]},"properties":{"id":"es-12408","source":"ES","brand":"US SAN MIGUEL","address":"POLIGONO SAN MIGUEL, 512","municipality":"Villanueva de Gállego","province":"ZARAGOZA","postalCode":"50820","schedule":"L-D: 24H","fuels":{"gasoline95":1.543,"diesel":1.699,"adblue":0.576},"extra":{"saleType":"P","margin":"N","reportingType":"dm","ideess":"12408","idMunicipio":"8098","idProvincia":"50","idCCAA":"02"}}},{"type":"Feature","geometry":{"type":"Point","coordinates":[-0.506944,41.681028]},"properties":{"id":"es-12415","source":"ES","brand":"COOPERATIVA","address":"CALLE HORNO (DEL), 1","municipality":"Farlete","province":"ZARAGOZA","postalCode":"50163","schedule":"L-D: 24H","fuels":{"diesel":1.876,"dieselB":1.54},"extra":{"saleType":"P","margin":"D","reportingType":"dm","ideess":"12415","idMunicipio":"7918","idProvincia":"50","idCCAA":"02"}}},{"type":"Feature","geometry":{"type":"Point","coordinates":[-0.029944,41.227694]},"properties":{"id":"es-1247","source":"ES","brand":"GANAR, S. COOP.","address":"AVENIDA MAELLA, 56,5","municipality":"Caspe","province":"ZARAGOZA","postalCode":"50700","schedule":"L-D: 24H","fuels":{"gasoline95":1.465,"diesel":1.62},"extra":{"saleType":"P","margin":"N","reportingType":"dm","ideess":"1247","idMunicipio":"7890","idProvincia":"50","idCCAA":"02"}}},{"type":"Feature","geometry":{"type":"Point","coordinates":[-0.986389,41.637944]},"properties":{"id":"es-12472","source":"ES","brand":"IDS","address":"RONDA FERIA DE MUESTRAS, DE LA, 20","municipality":"Zaragoza","province":"ZARAGOZA","postalCode":"50197","schedule":"L-D: 24H","fuels":{"diesel":1.803,"dieselB":1.567,"adblue":1.105},"extra":{"saleType":"P","margin":"D","reportingType":"dm","ideess":"12472","idMunicipio":"8108","idProvincia":"50","idCCAA":"02"}}},{"type":"Feature","geometry":{"type":"Point","coordinates":[-0.960417,41.5755]},"properties":{"id":"es-1248","source":"ES","brand":"HAXX","address":"CARRETERA N-330 KM. 485,410","municipality":"Zaragoza","province":"ZARAGOZA","postalCode":"50012","schedule":"L: 07:00-22:00","fuels":{"gasoline95":1.629,"diesel":1.729,"dieselPremium":1.739,"adblue":0.899},"extra":{"saleType":"P","margin":"D","reportingType":"dm","ideess":"1248","idMunicipio":"8108","idProvincia":"50","idCCAA":"02"}}},{"type":"Feature","geometry":{"type":"Point","coordinates":[-0.936028,41.644083]},"properties":{"id":"es-12516","source":"ES","brand":"ALCAMPO","address":"CARRETERA MADRID KM. 315,2","municipality":"Zaragoza","province":"ZARAGOZA","postalCode":"50012","schedule":"L-D: 24H","fuels":{"gasoline95":1.462,"gasoline98":1.579,"diesel":1.599,"dieselPremium":1.679},"extra":{"saleType":"P","margin":"N","reportingType":"dm","ideess":"12516","idMunicipio":"8108","idProvincia":"50","idCCAA":"02"}}},{"type":"Feature","geometry":{"type":"Point","coordinates":[-0.967,41.561667]},"properties":{"id":"es-12549","source":"ES","brand":"MG","address":"AVENIDA ZARAGOZA, 35","municipality":"Cadrete","province":"ZARAGOZA","postalCode":"50420","schedule":"L-D: 24H","fuels":{"gasoline95":1.629,"gasoline98":1.799,"diesel":1.699,"dieselB":1.609},"extra":{"saleType":"P","margin":"N","reportingType":"dm","ideess":"12549","idMunicipio":"7882","idProvincia":"50","idCCAA":"02"}}},{"type":"Feature","geometry":{"type":"Point","coordinates":[-0.801806,41.750806]},"properties":{"id":"es-1259","source":"ES","brand":"MOEVE","address":"CARRETERA A123 KM. 10,4","municipality":"Zaragoza","province":"ZARAGOZA","postalCode":"50193","schedule":"L-V: 07:00-21:00; S-D: 08:00-14:00","fuels":{"gasoline95":1.789,"diesel":1.875,"dieselPremium":1.951,"dieselB":1.45,"adblue":0.98},"extra":{"saleType":"P","margin":"I","reportingType":"dm","ideess":"1259","idMunicipio":"8108","idProvincia":"50","idCCAA":"02"}}},{"type":"Feature","geometry":{"type":"Point","coordinates":[-0.153111,41.475944]},"properties":{"id":"es-1260","source":"ES","brand":"BONAREA","address":"CTRA. DE SASTAGO, S/N","municipality":"Bujaraloz","province":"ZARAGOZA","postalCode":"50177","schedule":"L-D: 24H","fuels":{"gasoline95":1.461,"diesel":1.601,"dieselB":1.417,"adblue":0.528},"extra":{"saleType":"P","margin":"I","reportingType":"dm","ideess":"1260","idMunicipio":"7875","idProvincia":"50","idCCAA":"02"}}},{"type":"Feature","geometry":{"type":"Point","coordinates":[-0.851083,41.667556]},"properties":{"id":"es-1267","source":"ES","brand":"SHELL","address":"AVENIDA CATALUÑA 254-258","municipality":"Zaragoza","province":"ZARAGOZA","postalCode":"50014","schedule":"L-D: 06:00-22:00","fuels":{"gasoline95":1.754,"gasoline98":1.894,"diesel":1.844,"dieselPremium":1.924},"extra":{"saleType":"P","margin":"N","reportingType":"OM","ideess":"1267","idMunicipio":"8108","idProvincia":"50","idCCAA":"02"}}},{"type":"Feature","geometry":{"type":"Point","coordinates":[-0.744667,41.310306]},"properties":{"id":"es-12836","source":"ES","brand":"COOPERATIVA SAN MARTIN","address":"CAMINO LAS LAVANDERAS, S/N","municipality":"Belchite","province":"ZARAGOZA","postalCode":"50130","schedule":"L-D: 24H","fuels":{"gasoline95":1.649,"diesel":1.789,"dieselB":1.43},"extra":{"saleType":"P","margin":"D","reportingType":"dm","ideess":"12836","idMunicipio":"7861","idProvincia":"50","idCCAA":"02"}}},{"type":"Feature","geometry":{"type":"Point","coordinates":[-0.860556,41.668694]},"properties":{"id":"es-12882","source":"ES","brand":"NAFTE","address":"CALLE JUAN DE LA CIERVA, 21","municipality":"Zaragoza","province":"ZARAGOZA","postalCode":"50014","schedule":"L-D: 24H","fuels":{"gasoline95":1.599,"diesel":1.709,"dieselPremium":1.759,"adblue":0.899},"extra":{"saleType":"P","margin":"D","reportingType":"dm","ideess":"12882","idMunicipio":"8108","idProvincia":"50","idCCAA":"02"}}},{"type":"Feature","geometry":{"type":"Point","coordinates":[-0.923278,41.634222]},"properties":{"id":"es-12944","source":"ES","brand":"GASOLPRIME","address":"AVENIDA GOMEZ LAGUNA, 151","municipality":"Zaragoza","province":"ZARAGOZA","postalCode":"50012","schedule":"L-D: 24H","fuels":{"gasoline95":1.579,"diesel":1.729,"dieselPremium":1.769,"lpg":0.909,"cng":1.609},"extra":{"saleType":"P","margin":"N","reportingType":"dm","ideess":"12944","idMunicipio":"8108","idProvincia":"50","idCCAA":"02"}}},{"type":"Feature","geometry":{"type":"Point","coordinates":[-0.049111,41.7145]},"properties":{"id":"es-1311","source":"ES","brand":"MOEVE","address":"CARRETERA A-131 KM. 40,800","municipality":"Sena","province":"HUESCA","postalCode":"22230","schedule":"L-D: 24H","fuels":{"gasoline95":1.719,"diesel":1.859,"dieselPremium":1.919,"dieselB":1.559,"adblue":0.95},"extra":{"saleType":"P","margin":"I","reportingType":"dm","ideess":"1311","idMunicipio":"3462","idProvincia":"22","idCCAA":"02"}}},{"type":"Feature","geometry":{"type":"Point","coordinates":[-0.913139,41.621972]},"properties":{"id":"es-13122","source":"ES","brand":"NAFTE","address":"CALLE IBERICA, VIA, 89","municipality":"Zaragoza","province":"ZARAGOZA","postalCode":"50012","schedule":"L-D: 24H","fuels":{"gasoline95":1.599,"diesel":1.739,"dieselPremium":1.789,"adblue":0.899},"extra":{"saleType":"P","margin":"D","reportingType":"dm","ideess":"13122","idMunicipio":"8108","idProvincia":"50","idCCAA":"02"}}},{"type":"Feature","geometry":{"type":"Point","coordinates":[-0.369333,41.939611]},"properties":{"id":"es-1319","source":"ES","brand":"REPSOL","address":"AVENIDA RAMON Y CAJAL, 4","municipality":"Grañén","province":"HUESCA","postalCode":"22260","schedule":"L-V: 07:30-21:00; S: 07:30-14:00","fuels":{"gasoline95":1.679,"gasoline98":1.829,"diesel":1.809,"dieselB":1.469,"dieselRenewable":1.899},"extra":{"saleType":"P","margin":"N","reportingType":"dm","ideess":"1319","idMunicipio":"3388","idProvincia":"22","idCCAA":"02"}}},{"type":"Feature","geometry":{"type":"Point","coordinates":[-0.860917,41.633222]},"properties":{"id":"es-13218","source":"ES","brand":"NAFTE","address":"CALLE MIGUEL SERVET, 280","municipality":"Zaragoza","province":"ZARAGOZA","postalCode":"50013","schedule":"L-D: 24H","fuels":{"gasoline95":1.639,"diesel":1.749,"dieselPremium":1.799,"adblue":0.899},"extra":{"saleType":"P","margin":"D","reportingType":"dm","ideess":"13218","idMunicipio":"8108","idProvincia":"50","idCCAA":"02"}}},{"type":"Feature","geometry":{"type":"Point","coordinates":[-0.153222,41.792333]},"properties":{"id":"es-1325","source":"ES","brand":"REPSOL","address":"AVENIDA FRAGA, 21","municipality":"Sariñena","province":"HUESCA","postalCode":"22200","schedule":"L-S: 06:30-21:00; D: 07:00-21:00","fuels":{"gasoline95":1.699,"gasoline98":1.869,"diesel":1.849,"dieselRenewable":1.969},"extra":{"saleType":"P","margin":"N","reportingType":"OM","ideess":"1325","idMunicipio":"3459","idProvincia":"22","idCCAA":"02"}}},{"type":"Feature","geometry":{"type":"Point","coordinates":[-0.327639,41.769472]},"properties":{"id":"es-1327","source":"ES","brand":"REPSOL","address":"CALLE PALLARUELO, 5","municipality":"Lanaja","province":"HUESCA","postalCode":"22250","schedule":"L-V: 07:00-21:00; S: 07:00-14:00","fuels":{"gasoline95":1.699,"diesel":1.849,"dieselPremium":1.929},"extra":{"saleType":"P","margin":"I","reportingType":"OM","ideess":"1327","idMunicipio":"3404","idProvincia":"22","idCCAA":"02"}}},{"type":"Feature","geometry":{"type":"Point","coordinates":[-0.983889,41.632583]},"properties":{"id":"es-13290","source":"ES","brand":"BONAREA","address":"AUTOVIA A-2 KM. 311","municipality":"Zaragoza","province":"ZARAGOZA","postalCode":"50010","schedule":"L-D: 24H","fuels":{"gasoline95":1.462,"diesel":1.601,"adblue":0.528},"extra":{"saleType":"P","margin":"I","reportingType":"dm","ideess":"13290","idMunicipio":"8108","idProvincia":"50","idCCAA":"02"}}},{"type":"Feature","geometry":{"type":"Point","coordinates":[-0.859833,41.667417]},"properties":{"id":"es-13368","source":"ES","brand":"CONFORT AUTO","address":"CALLE JUAN DE LA CIERVA, 15","municipality":"Zaragoza","province":"ZARAGOZA","postalCode":"50014","schedule":"L-V: 06:00-22:00; S: 08:00-15:00","fuels":{"gasoline95":1.619,"gasoline98":1.749,"diesel":1.728,"dieselPremium":1.828,"adblue":0.9},"extra":{"saleType":"P","margin":"D","reportingType":"dm","ideess":"13368","idMunicipio":"8108","idProvincia":"50","idCCAA":"02"}}},{"type":"Feature","geometry":{"type":"Point","coordinates":[-0.925667,41.599139]},"properties":{"id":"es-13416","source":"ES","brand":"LOW COST REPOST","address":"AVENIDA SAN JOSE, 69","municipality":"Cuarte de Huerva","province":"ZARAGOZA","postalCode":"50410","schedule":"L-D: 24H","fuels":{"gasoline95":1.729,"diesel":1.849},"extra":{"saleType":"P","margin":"D","reportingType":"dm","ideess":"13416","idMunicipio":"7907","idProvincia":"50","idCCAA":"02"}}},{"type":"Feature","geometry":{"type":"Point","coordinates":[-0.667444,41.992]},"properties":{"id":"es-1348","source":"ES","brand":"REPSOL","address":"AUTOVIA A-23 KM. 333","municipality":"Gurrea de Gállego","province":"HUESCA","postalCode":"22280","schedule":"L-D: 24H","fuels":{"gasoline95":1.749,"gasoline98":1.869,"diesel":1.875,"dieselRenewable":1.995},"extra":{"saleType":"P","margin":"D","reportingType":"OM","ideess":"1348","idMunicipio":"3390","idProvincia":"22","idCCAA":"02"}}},{"type":"Feature","geometry":{"type":"Point","coordinates":[-0.953611,41.661222]},"properties":{"id":"es-13482","source":"ES","brand":"NAFTE","address":"CALLE CARRETERA DEL AEROPUERTO, 236","municipality":"Zaragoza","province":"ZARAGOZA","postalCode":"50011","schedule":"L-D: 24H","fuels":{"gasoline95":1.639,"diesel":1.749,"dieselPremium":1.799,"adblue":0.899},"extra":{"saleType":"P","margin":"D","reportingType":"dm","ideess":"13482","idMunicipio":"8108","idProvincia":"50","idCCAA":"02"}}},{"type":"Feature","geometry":{"type":"Point","coordinates":[-0.442194,41.170611]},"properties":{"id":"es-1358","source":"ES","brand":"Q8","address":"CARRETERA HIJAR, N-232 KM. KM 164,4","municipality":"Híjar","province":"TERUEL","postalCode":"44530","schedule":"L-D: 06:00-22:00","fuels":{"gasoline95":1.699,"gasoline98":1.799,"diesel":1.839,"dieselPremium":1.909},"extra":{"saleType":"P","margin":"D","reportingType":"dm","ideess":"1358","idMunicipio":"6632","idProvincia":"44","idCCAA":"02"}}},{"type":"Feature","geometry":{"type":"Point","coordinates":[-0.806722,41.028194]},"properties":{"id":"es-1361","source":"ES","brand":"GASOLEOS TERUEL","address":"PARCELA LA VARIANTE S/N km 64510","municipality":"Muniesa","province":"TERUEL","postalCode":"44780","schedule":"L-D: 24H","fuels":{"gasoline95":1.519,"diesel":1.679,"dieselB":1.149},"extra":{"saleType":"P","margin":"D","reportingType":"dm","ideess":"1361","idMunicipio":"6668","idProvincia":"44","idCCAA":"02"}}},{"type":"Feature","geometry":{"type":"Point","coordinates":[-0.844917,41.738667]},"properties":{"id":"es-1362","source":"ES","brand":"IDS","address":"CARRETERA N-330 KM. S/N","municipality":"Zaragoza","province":"ZARAGOZA","postalCode":"50820","schedule":"L-D: 24H","fuels":{"diesel":1.804,"adblue":1.105},"extra":{"saleType":"P","margin":"N","reportingType":"dm","ideess":"1362","idMunicipio":"8108","idProvincia":"50","idCCAA":"02"}}},{"type":"Feature","geometry":{"type":"Point","coordinates":[-0.152722,41.0525]},"properties":{"id":"es-1365","source":"ES","brand":"REPSOL","address":"AVENIDA ZARAGOZA, 100","municipality":"Alcañiz","province":"TERUEL","postalCode":"44600","schedule":"L-D: 06:00-22:45","fuels":{"gasoline95":1.739,"gasoline98":1.859,"diesel":1.855,"dieselB":1.539,"dieselRenewable":1.975,"lpg":1.149},"extra":{"saleType":"P","margin":"D","reportingType":"OM","ideess":"1365","idMunicipio":"6538","idProvincia":"44","idCCAA":"02"}}},{"type":"Feature","geometry":{"type":"Point","coordinates":[-0.067917,41.249056]},"properties":{"id":"es-1370","source":"ES","brand":"REPSOL","address":"CARRETERA A-230 KM. 1,8","municipality":"Caspe","province":"ZARAGOZA","postalCode":"50700","schedule":"L-D: 06:00-22:00","fuels":{"gasoline95":1.799,"gasoline98":1.899,"diesel":1.929,"dieselRenewable":1.999},"extra":{"saleType":"P","margin":"D","reportingType":"dm","ideess":"1370","idMunicipio":"7890","idProvincia":"50","idCCAA":"02"}}},{"type":"Feature","geometry":{"type":"Point","coordinates":[-0.861833,41.634528]},"properties":{"id":"es-1378","source":"ES","brand":"REPSOL","address":"AVENIDA MIGUEL SERVET, 254","municipality":"Zaragoza","province":"ZARAGOZA","postalCode":"50013","schedule":"L-D: 06:00-22:00","fuels":{"gasoline95":1.789,"gasolineRenewable":1.909,"diesel":1.849,"dieselRenewable":1.969},"extra":{"saleType":"P","margin":"D","reportingType":"OM","ideess":"1378","idMunicipio":"8108","idProvincia":"50","idCCAA":"02"}}},{"type":"Feature","geometry":{"type":"Point","coordinates":[-0.888389,41.625472]},"properties":{"id":"es-1379","source":"ES","brand":"PETRONOR","address":"AVENIDA FRAY JULIAN GARCES, 112","municipality":"Zaragoza","province":"ZARAGOZA","postalCode":"50007","schedule":"L-D: 06:00-22:00","fuels":{"gasoline95":1.779,"gasoline98":1.949,"diesel":1.845,"dieselRenewable":1.965},"extra":{"saleType":"P","margin":"D","reportingType":"OM","ideess":"1379","idMunicipio":"8108","idProvincia":"50","idCCAA":"02"}}},{"type":"Feature","geometry":{"type":"Point","coordinates":[-0.857667,41.644972]},"properties":{"id":"es-1381","source":"ES","brand":"REPSOL","address":"AVENIDA 3ER CINTURON, S/N","municipality":"Zaragoza","province":"ZARAGOZA","postalCode":"50002","schedule":"L-D: 06:00-22:00","fuels":{"gasoline95":1.785,"gasoline98":1.955,"diesel":1.859,"dieselRenewable":1.969},"extra":{"saleType":"P","margin":"D","reportingType":"OM","ideess":"1381","idMunicipio":"8108","idProvincia":"50","idCCAA":"02"}}},{"type":"Feature","geometry":{"type":"Point","coordinates":[-0.780861,41.681361]},"properties":{"id":"es-1383","source":"ES","brand":"REPSOL","address":"CARRETERA A-129 KM. 4,1","municipality":"Zaragoza","province":"ZARAGOZA","postalCode":"50162","schedule":"L-D: 06:00-22:00","fuels":{"gasoline95":1.755,"gasoline98":1.925,"diesel":1.835,"dieselRenewable":1.955},"extra":{"saleType":"P","margin":"I","reportingType":"OM","ideess":"1383","idMunicipio":"8108","idProvincia":"50","idCCAA":"02"}}},{"type":"Feature","geometry":{"type":"Point","coordinates":[-0.974194,41.645722]},"properties":{"id":"es-13917","source":"ES","brand":"NOIL","address":"POLIGONO CALLE TURIASO, 31","municipality":"Zaragoza","province":"ZARAGOZA","postalCode":"50197","schedule":"L-D: 24H","fuels":{"dieselPremium":1.922,"adblue":0.811},"extra":{"saleType":"P","margin":"D","reportingType":"dm","ideess":"13917","idMunicipio":"8108","idProvincia":"50","idCCAA":"02"}}},{"type":"Feature","geometry":{"type":"Point","coordinates":[-0.861139,41.670917]},"properties":{"id":"es-1398","source":"ES","brand":"REPSOL","address":"AVENIDA ALCALDE CABALLERO, 22","municipality":"Zaragoza","province":"ZARAGOZA","postalCode":"50014","schedule":"L-S: 06:00-22:00; D: 08:00-22:00","fuels":{"gasoline95":1.775,"gasoline98":1.915,"diesel":1.855,"dieselPremium":1.935},"extra":{"saleType":"P","margin":"D","reportingType":"OM","ideess":"1398","idMunicipio":"8108","idProvincia":"50","idCCAA":"02"}}},{"type":"Feature","geometry":{"type":"Point","coordinates":[-0.863222,41.707889]},"properties":{"id":"es-1399","source":"ES","brand":"REPSOL","address":"CR A-23, 506,5","municipality":"Zaragoza","province":"ZARAGOZA","postalCode":"50015","schedule":"L-V: 24H; S: 00:00-22:00; D: 06:00-00:00","fuels":{"gasoline95":1.785,"gasoline95Premium":1.855,"gasoline98":1.905,"diesel":1.859,"dieselRenewable":1.979},"extra":{"saleType":"P","margin":"D","reportingType":"OM","ideess":"1399","idMunicipio":"8108","idProvincia":"50","idCCAA":"02"}}},{"type":"Feature","geometry":{"type":"Point","coordinates":[-0.754611,41.640722]},"properties":{"id":"es-1409","source":"ES","brand":"REPSOL","address":"CR A-2, 333,8","municipality":"Puebla de Alfindén (La)","province":"ZARAGOZA","postalCode":"50171","schedule":"L-D: 24H","fuels":{"gasoline95":1.775,"diesel":1.839,"dieselB":1.649,"dieselRenewable":1.959,"lpg":1.075},"extra":{"saleType":"P","margin":"D","reportingType":"OM","ideess":"1409","idMunicipio":"8030","idProvincia":"50","idCCAA":"02"}}},{"type":"Feature","geometry":{"type":"Point","coordinates":[-0.754694,41.640639]},"properties":{"id":"es-1410","source":"ES","brand":"REPSOL","address":"CARRETERA A-2 KM. 333,8","municipality":"Puebla de Alfindén (La)","province":"ZARAGOZA","postalCode":"50171","schedule":"L-D: 24H","fuels":{"gasoline95":1.775,"gasoline95Premium":1.845,"gasoline98":1.895,"diesel":1.839,"dieselB":1.645,"dieselRenewable":1.959,"lpg":1.075},"extra":{"saleType":"P","margin":"I","reportingType":"OM","ideess":"1410","idMunicipio":"8030","idProvincia":"50","idCCAA":"02"}}},{"type":"Feature","geometry":{"type":"Point","coordinates":[-0.940194,41.5865]},"properties":{"id":"es-14127","source":"ES","brand":"MONTE ALUMA","address":"CALLE FONTANA DE TREVI, 247","municipality":"Cuarte de Huerva","province":"ZARAGOZA","postalCode":"50410","schedule":"L-D: 24H","fuels":{"gasoline95":1.725,"diesel":1.845},"extra":{"saleType":"P","margin":"D","reportingType":"dm","ideess":"14127","idMunicipio":"7907","idProvincia":"50","idCCAA":"02"}}},{"type":"Feature","geometry":{"type":"Point","coordinates":[-0.813833,41.667167]},"properties":{"id":"es-1417","source":"ES","brand":"OILPRIX","address":"AUTOVIA A-2 KM. 328","municipality":"Zaragoza","province":"ZARAGOZA","postalCode":"50016","schedule":"L-D: 24H","fuels":{"gasoline95":1.601,"diesel":1.723,"adblue":0.867},"extra":{"saleType":"P","margin":"D","reportingType":"OM","ideess":"1417","idMunicipio":"8108","idProvincia":"50","idCCAA":"02"}}},{"type":"Feature","geometry":{"type":"Point","coordinates":[-0.130056,41.043972]},"properties":{"id":"es-1420","source":"ES","brand":"CEPSA","address":"AVENIDA MAESTRAZGO, 4","municipality":"Alcañiz","province":"TERUEL","postalCode":"44600","schedule":"L-D: 07:00-22:45","fuels":{"gasoline95":1.769,"gasoline98":1.899,"diesel":1.929,"dieselPremium":2.029,"dieselB":1.599},"extra":{"saleType":"P","margin":"I","reportingType":"dm","ideess":"1420","idMunicipio":"6538","idProvincia":"44","idCCAA":"02"}}},{"type":"Feature","geometry":{"type":"Point","coordinates":[-0.7085,41.202194]},"properties":{"id":"es-14212","source":"ES","brand":"AN ENERGETICOS S.L. - LECERA","address":"CALLE DULA, SN","municipality":"Lécera","province":"ZARAGOZA","postalCode":"50131","schedule":"L-D: 24H","fuels":{"gasoline95":1.549,"diesel":1.679,"dieselB":1.387},"extra":{"saleType":"P","margin":"D","reportingType":"dm","ideess":"14212","idMunicipio":"7948","idProvincia":"50","idCCAA":"02"}}},{"type":"Feature","geometry":{"type":"Point","coordinates":[-0.510583,41.128361]},"properties":{"id":"es-1422","source":"ES","brand":"MOEVE","address":"CARRETERA A-224 KM. 0,200","municipality":"Albalate del Arzobispo","province":"TERUEL","postalCode":"44540","schedule":"L-V: 07:00-21:00; S: 07:00-14:00","fuels":{"gasoline95":1.739,"gasoline98":1.869,"diesel":1.879,"dieselPremium":1.979,"dieselB":1.549},"extra":{"saleType":"P","margin":"D","reportingType":"dm","ideess":"1422","idMunicipio":"6533","idProvincia":"44","idCCAA":"02"}}},{"type":"Feature","geometry":{"type":"Point","coordinates":[-0.9085,41.634222]},"properties":{"id":"es-1429","source":"ES","brand":"REPSOL","address":"CL AVENIDA HISPANIDAD, 16","municipality":"Zaragoza","province":"ZARAGOZA","postalCode":"50009","schedule":"L-D: 06:00-22:00","fuels":{"gasoline95":1.765,"gasoline95Premium":1.835,"gasoline98":1.885,"diesel":1.829,"dieselRenewable":1.949,"lpg":1.099},"extra":{"saleType":"P","margin":"D","reportingType":"OM","ideess":"1429","idMunicipio":"8108","idProvincia":"50","idCCAA":"02"}}},{"type":"Feature","geometry":{"type":"Point","coordinates":[-0.908694,41.633389]},"properties":{"id":"es-1430","source":"ES","brand":"REPSOL","address":"CL AVENIDA HISPANIDAD, 15","municipality":"Zaragoza","province":"ZARAGOZA","postalCode":"50009","schedule":"L-D: 24H","fuels":{"gasoline95":1.765,"gasoline95Premium":1.835,"gasoline98":1.885,"diesel":1.829,"dieselRenewable":1.949},"extra":{"saleType":"P","margin":"I","reportingType":"OM","ideess":"1430","idMunicipio":"8108","idProvincia":"50","idCCAA":"02"}}},{"type":"Feature","geometry":{"type":"Point","coordinates":[-0.63675,41.514972]},"properties":{"id":"es-1431","source":"ES","brand":"REPSOL","address":"PASEO JUSTICIA (DEL), 1","municipality":"Fuentes de Ebro","province":"ZARAGOZA","postalCode":"50740","schedule":"L-D: 06:00-22:00","fuels":{"gasoline95":1.769,"gasoline98":1.949,"diesel":1.839,"dieselB":1.559,"dieselRenewable":1.969,"adblue":1.319},"extra":{"saleType":"P","margin":"I","reportingType":"dm","ideess":"1431","idMunicipio":"7928","idProvincia":"50","idCCAA":"02"}}},{"type":"Feature","geometry":{"type":"Point","coordinates":[-0.868889,41.660278]},"properties":{"id":"es-1432","source":"ES","brand":"DAGO","address":"AVENIDA CATALUÑA, 44","municipality":"Zaragoza","province":"ZARAGOZA","postalCode":"50014","schedule":"L-D: 24H","fuels":{"gasoline95":1.778,"gasoline98":1.928,"diesel":1.858,"dieselPremium":1.958},"extra":{"saleType":"P","margin":"N","reportingType":"dm","ideess":"1432","idMunicipio":"8108","idProvincia":"50","idCCAA":"02"}}},{"type":"Feature","geometry":{"type":"Point","coordinates":[-0.866639,41.665417]},"properties":{"id":"es-14327","source":"ES","brand":"AUTONETOIL","address":"CALLE MARQUES DE LA CADENA, 68","municipality":"Zaragoza","province":"ZARAGOZA","postalCode":"50001","schedule":"L-D: 24H","fuels":{"gasoline95":1.599,"diesel":1.709,"dieselPremium":1.759,"adblue":0.899},"extra":{"saleType":"P","margin":"D","reportingType":"dm","ideess":"14327","idMunicipio":"8108","idProvincia":"50","idCCAA":"02"}}},{"type":"Feature","geometry":{"type":"Point","coordinates":[-0.504083,41.432722]},"properties":{"id":"es-1433","source":"ES","brand":"REPSOL","address":"CARRETERA N-232A KM. 194","municipality":"Quinto","province":"ZARAGOZA","postalCode":"50770","schedule":"L-D: 06:00-22:00","fuels":{"gasoline95":1.769,"diesel":1.829,"dieselB":1.599,"dieselRenewable":1.949},"extra":{"saleType":"P","margin":"D","reportingType":"OM","ideess":"1433","idMunicipio":"8033","idProvincia":"50","idCCAA":"02"}}},{"type":"Feature","geometry":{"type":"Point","coordinates":[-0.689778,41.6045]},"properties":{"id":"es-14387","source":"ES","brand":"HAM","address":"POLIGONO EL SACO, S/N","municipality":"Alfajarín","province":"ZARAGOZA","postalCode":"50172","schedule":"L-D: 24H","fuels":{"cng":1.574,"lng":1.529,"bioCng":1.554,"bioLng":1.499},"extra":{"saleType":"P","margin":"D","reportingType":"dm","ideess":"14387","idMunicipio":"7833","idProvincia":"50","idCCAA":"02"}}},{"type":"Feature","geometry":{"type":"Point","coordinates":[-0.689139,41.604778]},"properties":{"id":"es-14416","source":"ES","brand":"ALFA ENERGY","address":"CARRETERA NACIONAL II KM. 341,2","municipality":"Alfajarín","province":"ZARAGOZA","postalCode":"50172","schedule":"L-D: 24H","fuels":{"gasoline95":1.699,"diesel":1.799,"adblue":0.849},"extra":{"saleType":"P","margin":"D","reportingType":"dm","ideess":"14416","idMunicipio":"7833","idProvincia":"50","idCCAA":"02"}}},{"type":"Feature","geometry":{"type":"Point","coordinates":[-0.469806,41.219833]},"properties":{"id":"es-1447","source":"ES","brand":"REPSOL","address":"CARRETERA N-232    P.KM. 170.2 KM. ","municipality":"Puebla de Híjar (La)","province":"TERUEL","postalCode":"44510","schedule":"L-V: 06:00-22:00; S-D: 07:00-22:00","fuels":{"gasoline95":1.809,"gasoline98":1.905,"diesel":1.915,"dieselB":1.607,"dieselRenewable":2.005,"adblue":0.99},"extra":{"saleType":"P","margin":"I","reportingType":"dm","ideess":"1447","idMunicipio":"6693","idProvincia":"44","idCCAA":"02"}}},{"type":"Feature","geometry":{"type":"Point","coordinates":[-0.831278,41.761472]},"properties":{"id":"es-1449","source":"ES","brand":"REPSOL","address":"CARRETERA CARRETERA N-330 KM. 513","municipality":"Villanueva de Gállego","province":"ZARAGOZA","postalCode":"50830","schedule":"L-V: 06:00-22:00; S-D: 08:00-22:00","fuels":{"gasoline95":1.789,"gasoline98":1.909,"diesel":1.875,"dieselRenewable":1.995},"extra":{"saleType":"P","margin":"I","reportingType":"OM","ideess":"1449","idMunicipio":"8098","idProvincia":"50","idCCAA":"02"}}},{"type":"Feature","geometry":{"type":"Point","coordinates":[-0.794,41.857]},"properties":{"id":"es-1452","source":"ES","brand":"REPSOL","address":"CARRETERA N-330A KM. 24,000","municipality":"Zuera","province":"ZARAGOZA","postalCode":"50800","schedule":"L-D: 06:00-22:00","fuels":{"gasoline95":1.769,"gasoline98":1.939,"diesel":1.855,"dieselB":1.595,"dieselRenewable":1.975},"extra":{"saleType":"P","margin":"D","reportingType":"OM","ideess":"1452","idMunicipio":"8109","idProvincia":"50","idCCAA":"02"}}},{"type":"Feature","geometry":{"type":"Point","coordinates":[-0.913694,41.621972]},"properties":{"id":"es-1454","source":"ES","brand":"REPSOL","address":"CARRETERA N-330 KM. 491,9","municipality":"Zaragoza","province":"ZARAGOZA","postalCode":"50012","schedule":"L-D: 07:00-22:00","fuels":{"gasoline95":1.775,"gasoline98":1.945,"diesel":1.845,"dieselRenewable":1.965},"extra":{"saleType":"P","margin":"I","reportingType":"OM","ideess":"1454","idMunicipio":"8108","idProvincia":"50","idCCAA":"02"}}},{"type":"Feature","geometry":{"type":"Point","coordinates":[-0.919139,41.649944]},"properties":{"id":"es-1460","source":"ES","brand":"MOEVE","address":"AVENIDA HISPANIDAD, 87,89","municipality":"Zaragoza","province":"ZARAGOZA","postalCode":"50011","schedule":"L-D: 24H","fuels":{"gasoline95":1.769,"gasoline95Premium":1.879,"diesel":1.854,"dieselPremium":1.954,"lpg":1.199},"extra":{"saleType":"P","margin":"I","reportingType":"OM","ideess":"1460","idMunicipio":"8108","idProvincia":"50","idCCAA":"02"}}},{"type":"Feature","geometry":{"type":"Point","coordinates":[-0.869,41.259111]},"properties":{"id":"es-1462","source":"ES","brand":"CEPSA","address":"CARRETERA A1506 KM. 59","municipality":"Azuara","province":"ZARAGOZA","postalCode":"50140","schedule":"L-S: 08:00-13:30 y 15:00-21:00; D: 09:00-13:00 y 16:00-20:00","fuels":{"gasoline95":1.809,"diesel":1.909,"dieselPremium":1.999},"extra":{"saleType":"P","margin":"I","reportingType":"dm","ideess":"1462","idMunicipio":"7855","idProvincia":"50","idCCAA":"02"}}},{"type":"Feature","geometry":{"type":"Point","coordinates":[-0.8305,41.778472]},"properties":{"id":"es-14652","source":"ES","brand":"MOEVE","address":"CARRETERA A23 PG IND 28 PARCELA 49 KM. 304","municipality":"Villanueva de Gállego","province":"ZARAGOZA","postalCode":"50830","schedule":"L-V: 05:30-22:00; S-D: 06:00-22:00","fuels":{"gasoline95":1.779,"gasoline98":1.889,"diesel":1.919,"dieselPremium":1.989,"dieselB":1.699},"extra":{"saleType":"P","margin":"D","reportingType":"dm","ideess":"14652","idMunicipio":"8098","idProvincia":"50","idCCAA":"02"}}},{"type":"Feature","geometry":{"type":"Point","coordinates":[-0.343889,41.322528]},"properties":{"id":"es-1467","source":"ES","brand":"CEPSA","address":"CALLE SAN ROQUE, 126","municipality":"Sástago","province":"ZARAGOZA","postalCode":"50780","schedule":"L-S: 06:00-21:00; D: 07:00-14:00","fuels":{"gasoline95":1.62,"diesel":1.77,"dieselPremium":1.83},"extra":{"saleType":"P","margin":"I","reportingType":"dm","ideess":"1467","idMunicipio":"8051","idProvincia":"50","idCCAA":"02"}}},{"type":"Feature","geometry":{"type":"Point","coordinates":[-0.927083,41.660778]},"properties":{"id":"es-14697","source":"ES","brand":"REPSOL","address":"AUTOVIA LOGROÑO KM. 243","municipality":"Zaragoza","province":"ZARAGOZA","postalCode":"50011","schedule":"L-V: 07:00-23:00; S-D: 08:00-22:00","fuels":{"gasoline95":1.789,"gasoline98":1.899,"diesel":1.899,"dieselRenewable":1.999},"extra":{"saleType":"P","margin":"I","reportingType":"dm","ideess":"14697","idMunicipio":"8108","idProvincia":"50","idCCAA":"02"}}},{"type":"Feature","geometry":{"type":"Point","coordinates":[-0.090472,41.01775]},"properties":{"id":"es-14735","source":"ES","brand":"GBA","address":"POLIGONO LAS HORCAS  FINCA 4 1/A-9, 4","municipality":"Alcañiz","province":"TERUEL","postalCode":"44600","schedule":"L-D: 24H","fuels":{"gasoline95":1.569,"diesel":1.699},"extra":{"saleType":"P","margin":"D","reportingType":"dm","ideess":"14735","idMunicipio":"6538","idProvincia":"44","idCCAA":"02"}}},{"type":"Feature","geometry":{"type":"Point","coordinates":[-0.989639,41.695694]},"properties":{"id":"es-1474","source":"ES","brand":"REPSOL","address":"AUTOVIA CARRETERA NACIONAL  232 KM. 249,5","municipality":"Utebo","province":"ZARAGOZA","postalCode":"50180","schedule":"L-D: 05:00-22:00","fuels":{"gasoline95":1.755,"gasoline98":1.925,"diesel":1.845,"dieselRenewable":1.965},"extra":{"saleType":"P","margin":"D","reportingType":"OM","ideess":"1474","idMunicipio":"8082","idProvincia":"50","idCCAA":"02"}}},{"type":"Feature","geometry":{"type":"Point","coordinates":[-0.990167,41.695306]},"properties":{"id":"es-1475","source":"ES","brand":"REPSOL","address":"N-232 km 249,4","municipality":"Zaragoza","province":"ZARAGOZA","postalCode":"50190","schedule":"L: 06:00-22:00; S: 08:00-14:00","fuels":{"gasoline95":1.755,"diesel":1.845,"dieselB":1.605,"dieselRenewable":1.965},"extra":{"saleType":"P","margin":"I","reportingType":"OM","ideess":"1475","idMunicipio":"8108","idProvincia":"50","idCCAA":"02"}}},{"type":"Feature","geometry":{"type":"Point","coordinates":[-0.839722,41.670278]},"properties":{"id":"es-1477","source":"ES","brand":"MOEVE","address":"AVENIDA SANTA ISABEL, 7","municipality":"Zaragoza","province":"ZARAGOZA","postalCode":"50016","schedule":"L-D: 06:00-22:00","fuels":{"gasoline95":1.779,"gasoline98":1.889,"diesel":1.859,"dieselPremium":1.959,"adblue":0.999},"extra":{"saleType":"P","margin":"I","reportingType":"dm","ideess":"1477","idMunicipio":"8108","idProvincia":"50","idCCAA":"02"}}},{"type":"Feature","geometry":{"type":"Point","coordinates":[-0.885917,41.661389]},"properties":{"id":"es-1478","source":"ES","brand":"REPSOL","address":"AVENIDA RANILLAS, 20","municipality":"Zaragoza","province":"ZARAGOZA","postalCode":"50015","schedule":"L-D: 06:00-22:00","fuels":{"gasoline95":1.775,"gasoline98":1.895,"diesel":1.855,"dieselRenewable":1.975},"extra":{"saleType":"P","margin":"I","reportingType":"OM","ideess":"1478","idMunicipio":"8108","idProvincia":"50","idCCAA":"02"}}},{"type":"Feature","geometry":{"type":"Point","coordinates":[-0.04375,41.235944]},"properties":{"id":"es-1479","source":"ES","brand":"CEPSA","address":"AVENIDA COSTA JOAQUIN, 3","municipality":"Caspe","province":"ZARAGOZA","postalCode":"50700","schedule":"L-D: 06:00-22:00","fuels":{"gasoline95":1.769,"gasoline98":1.869,"diesel":1.854,"dieselPremium":1.954,"dieselB":1.544},"extra":{"saleType":"P","margin":"N","reportingType":"dm","ideess":"1479","idMunicipio":"7890","idProvincia":"50","idCCAA":"02"}}},{"type":"Feature","geometry":{"type":"Point","coordinates":[-0.930833,41.663389]},"properties":{"id":"es-1480","source":"ES","brand":"ES MIRALBUENO CEPSA","address":"CARRETERA CTRA.LOGROÑO 42 KM. 243,420","municipality":"Zaragoza","province":"ZARAGOZA","postalCode":"50011","schedule":"L-D: 24H","fuels":{"gasoline95":1.778,"gasoline98":1.928,"diesel":1.858,"dieselPremium":1.958,"adblue":1.24},"extra":{"saleType":"P","margin":"D","reportingType":"dm","ideess":"1480","idMunicipio":"8108","idProvincia":"50","idCCAA":"02"}}},{"type":"Feature","geometry":{"type":"Point","coordinates":[-0.983306,41.663639]},"properties":{"id":"es-1483","source":"ES","brand":"MOEVE","address":"CARRETERA N-125 KM. 5,6","municipality":"Zaragoza","province":"ZARAGOZA","postalCode":"50190","schedule":"L-D: 06:00-22:00","fuels":{"gasoline95":1.779,"gasoline98":1.909,"diesel":1.859,"dieselPremium":1.959,"dieselB":1.689,"adblue":0.999},"extra":{"saleType":"P","margin":"D","reportingType":"dm","ideess":"1483","idMunicipio":"8108","idProvincia":"50","idCCAA":"02"}}},{"type":"Feature","geometry":{"type":"Point","coordinates":[-0.639972,41.74825]},"properties":{"id":"es-1484","source":"ES","brand":"SIN ROTULO","address":"CARRETERA A-129 KM. 18,500","municipality":"Perdiguera","province":"ZARAGOZA","postalCode":"50161","schedule":"L-D: 06:00-22:00","fuels":{"gasoline95":1.755,"gasoline98":1.925,"diesel":1.835,"dieselPremium":1.889},"extra":{"saleType":"P","margin":"D","reportingType":"dm","ideess":"1484","idMunicipio":"8017","idProvincia":"50","idCCAA":"02"}}},{"type":"Feature","geometry":{"type":"Point","coordinates":[-0.853361,41.682333]},"properties":{"id":"es-1487","source":"ES","brand":"MOEVE","address":"POLIGONO INDUSTRIAL MERCAZARAGOZA-CTRA COGULLADA S/N (A-2 KM 351), 1","municipality":"Zaragoza","province":"ZARAGOZA","postalCode":"50014","schedule":"L-D: 24H","fuels":{"gasoline95":1.769,"diesel":1.854,"dieselB":1.674,"dieselRenewable":2.019},"extra":{"saleType":"P","margin":"I","reportingType":"OM","ideess":"1487","idMunicipio":"8108","idProvincia":"50","idCCAA":"02"}}},{"type":"Feature","geometry":{"type":"Point","coordinates":[-0.889917,41.678917]},"properties":{"id":"es-1491","source":"ES","brand":"CEPSA","address":"CALLE POETA MARIA ZAMBRANO, 2","municipality":"Zaragoza","province":"ZARAGOZA","postalCode":"50018","schedule":"L-V: 07:00-22:00; S-D: 08:00-15:00 y 18:00-21:00","fuels":{"gasoline95":1.799,"diesel":1.869,"dieselPremium":1.929},"extra":{"saleType":"P","margin":"D","reportingType":"dm","ideess":"1491","idMunicipio":"8108","idProvincia":"50","idCCAA":"02"}}},{"type":"Feature","geometry":{"type":"Point","coordinates":[-0.782333,41.656861]},"properties":{"id":"es-1492","source":"ES","brand":"CEPSA","address":"POLIGONO INDUSTRIAL MALPICA CALLE A, 3","municipality":"Zaragoza","province":"ZARAGOZA","postalCode":"50016","schedule":"L-V: 06:00-22:00","fuels":{"gasoline95":1.768,"diesel":1.854,"dieselPremium":1.954,"adblue":0.949},"extra":{"saleType":"P","margin":"D","reportingType":"dm","ideess":"1492","idMunicipio":"8108","idProvincia":"50","idCCAA":"02"}}},{"type":"Feature","geometry":{"type":"Point","coordinates":[-0.828444,41.777417]},"properties":{"id":"es-14924","source":"ES","brand":"BONAREA","address":"CALLE CARRETERA ZARAGOZA, PG 29, PARCELA 183, S/N","municipality":"Villanueva de Gállego","province":"ZARAGOZA","postalCode":"50830","schedule":"L-D: 24H","fuels":{"gasoline95":1.461,"diesel":1.601,"adblue":0.528},"extra":{"saleType":"P","margin":"D","reportingType":"dm","ideess":"14924","idMunicipio":"8098","idProvincia":"50","idCCAA":"02"}}},{"type":"Feature","geometry":{"type":"Point","coordinates":[-0.868222,41.648556]},"properties":{"id":"es-1493","source":"ES","brand":"MOEVE","address":"AVENIDA CAMINO DE LOS TORRES, 2","municipality":"Zaragoza","province":"ZARAGOZA","postalCode":"50008","schedule":"L-V: 06:00-22:00; S-D: 07:00-22:00","fuels":{"gasoline95":1.748,"diesel":1.828,"dieselPremium":1.928},"extra":{"saleType":"P","margin":"D","reportingType":"dm","ideess":"1493","idMunicipio":"8108","idProvincia":"50","idCCAA":"02"}}},{"type":"Feature","geometry":{"type":"Point","coordinates":[-0.869194,41.65375]},"properties":{"id":"es-1494","source":"ES","brand":"BALLENOIL","address":"PASEO ECHEGARAY Y CABALLERO, 99","municipality":"Zaragoza","province":"ZARAGOZA","postalCode":"50001","schedule":"L-D: 24H","fuels":{"gasoline95":1.66,"gasoline95Premium":1.67,"diesel":1.74,"dieselPremium":1.75},"extra":{"saleType":"P","margin":"I","reportingType":"OM","ideess":"1494","idMunicipio":"8108","idProvincia":"50","idCCAA":"02"}}},{"type":"Feature","geometry":{"type":"Point","coordinates":[-0.862111,41.672528]},"properties":{"id":"es-1495","source":"ES","brand":"MOEVE","address":"AVENIDA ALCALDE CABALLERO-JUAN DE LA CIERVA, 60","municipality":"Zaragoza","province":"ZARAGOZA","postalCode":"50014","schedule":"L-V: 06:00-21:00; S: 09:00-14:00","fuels":{"gasoline95":1.748,"diesel":1.838,"dieselPremium":1.928,"adblue":0.949},"extra":{"saleType":"P","margin":"I","reportingType":"dm","ideess":"1495","idMunicipio":"8108","idProvincia":"50","idCCAA":"02"}}},{"type":"Feature","geometry":{"type":"Point","coordinates":[-0.80725,41.658944]},"properties":{"id":"es-1496","source":"ES","brand":"MOEVE","address":"CARRETERA N-II A KM. 329,647","municipality":"Zaragoza","province":"ZARAGOZA","postalCode":"50194","schedule":"L-V: 05:30-22:00; S: 07:00-15:00; D: 08:00-15:00","fuels":{"gasoline95":1.769,"gasoline95Premium":1.879,"diesel":1.854,"dieselPremium":1.954,"adblue":0.999},"extra":{"saleType":"P","margin":"D","reportingType":"dm","ideess":"1496","idMunicipio":"8108","idProvincia":"50","idCCAA":"02"}}},{"type":"Feature","geometry":{"type":"Point","coordinates":[-0.816361,41.60075]},"properties":{"id":"es-1497","source":"ES","brand":"CEPSA","address":"CARRETERA N-232 KM. 229,2","municipality":"Zaragoza","province":"ZARAGOZA","postalCode":"50720","schedule":"L-V: 06:00-22:00","fuels":{"gasoline95":1.799,"gasoline95Premium":1.859,"diesel":1.869,"dieselPremium":1.899},"extra":{"saleType":"P","margin":"I","reportingType":"dm","ideess":"1497","idMunicipio":"8108","idProvincia":"50","idCCAA":"02"}}},{"type":"Feature","geometry":{"type":"Point","coordinates":[-0.867667,41.698889]},"properties":{"id":"es-1501","source":"ES","brand":"CEPSA","address":"AUTOVIA A-23 KM. 505","municipality":"Zaragoza","province":"ZARAGOZA","postalCode":"50015","schedule":"L-D: 24H","fuels":{"gasoline95":1.769,"gasoline95Premium":1.879,"diesel":1.854,"dieselPremium":1.954},"extra":{"saleType":"P","margin":"D","reportingType":"OM","ideess":"1501","idMunicipio":"8108","idProvincia":"50","idCCAA":"02"}}},{"type":"Feature","geometry":{"type":"Point","coordinates":[-0.846444,41.622861]},"properties":{"id":"es-1505","source":"ES","brand":"BP AVELLANAS","address":"CARRETERA CASTELLON KM. 3,7","municipality":"Zaragoza","province":"ZARAGOZA","postalCode":"50013","schedule":"L-D: 24H","fuels":{"gasoline95":1.809,"gasoline98":1.929,"diesel":1.899,"dieselPremium":1.999,"dieselB":1.609},"extra":{"saleType":"P","margin":"D","reportingType":"dm","ideess":"1505","idMunicipio":"8108","idProvincia":"50","idCCAA":"02"}}},{"type":"Feature","geometry":{"type":"Point","coordinates":[-0.742333,41.309667]},"properties":{"id":"es-1513","source":"ES","brand":"REPSOL","address":"CARRETERA A 222 KM. 28,800","municipality":"Belchite","province":"ZARAGOZA","postalCode":"50130","schedule":"L-D: 07:00-22:00","fuels":{"gasoline95":1.749,"gasoline98":1.879,"diesel":1.839,"dieselRenewable":1.929},"extra":{"saleType":"P","margin":"I","reportingType":"dm","ideess":"1513","idMunicipio":"7861","idProvincia":"50","idCCAA":"02"}}},{"type":"Feature","geometry":{"type":"Point","coordinates":[-0.710861,41.208861]},"properties":{"id":"es-1515","source":"ES","brand":"ES NTRA SRA OLIVAR","address":"CARRETERA A-222 KM. 40,700","municipality":"Lécera","province":"ZARAGOZA","postalCode":"50131","schedule":"L-D: 07:00-22:00","fuels":{"gasoline95":1.749,"gasoline98":1.859,"diesel":1.869,"dieselB":1.519,"dieselRenewable":1.939},"extra":{"saleType":"P","margin":"D","reportingType":"dm","ideess":"1515","idMunicipio":"7948","idProvincia":"50","idCCAA":"02"}}},{"type":"Feature","geometry":{"type":"Point","coordinates":[-0.996556,41.539889]},"properties":{"id":"es-1516","source":"ES","brand":"REPSOL","address":"CR N-330, 480,3","municipality":"María de Huerva","province":"ZARAGOZA","postalCode":"50430","schedule":"L-V: 06:00-22:00; S-D: 07:00-22:00","fuels":{"gasoline95":1.789,"gasoline98":1.959,"diesel":1.869,"dieselRenewable":1.989},"extra":{"saleType":"P","margin":"D","reportingType":"OM","ideess":"1516","idMunicipio":"7973","idProvincia":"50","idCCAA":"02"}}},{"type":"Feature","geometry":{"type":"Point","coordinates":[-0.448389,41.948306]},"properties":{"id":"es-15203","source":"ES","brand":"MAZANA","address":"CARRETERA TARDIENTA-GRAÑEN   PNGO 2 PARCELA 93 KM. 2","municipality":"Torres de Barbués","province":"HUESCA","postalCode":"22255","schedule":"L: 00:00-23:59","fuels":{"gasoline95":1.479,"diesel":1.682,"adblue":0.699},"extra":{"saleType":"P","margin":"D","reportingType":"dm","ideess":"15203","idMunicipio":"3479","idProvincia":"22","idCCAA":"02"}}},{"type":"Feature","geometry":{"type":"Point","coordinates":[-0.957889,41.677167]},"properties":{"id":"es-1521","source":"ES","brand":"REPSOL","address":"AUTOPISTA A-68 KM. 246","municipality":"Utebo","province":"ZARAGOZA","postalCode":"50180","schedule":"L-V: 07:00-21:00; S: 08:00-15:00","fuels":{"gasoline95":1.755,"gasoline98":1.925,"diesel":1.845,"dieselRenewable":1.965},"extra":{"saleType":"P","margin":"D","reportingType":"OM","ideess":"1521","idMunicipio":"8082","idProvincia":"50","idCCAA":"02"}}},{"type":"Feature","geometry":{"type":"Point","coordinates":[-0.961806,41.678639]},"properties":{"id":"es-1522","source":"ES","brand":"REPSOL","address":"AUTOPISTA AUTOPISTA A-68 KM. 246","municipality":"Utebo","province":"ZARAGOZA","postalCode":"50180","schedule":"L-D: 06:00-22:00","fuels":{"gasoline95":1.755,"gasoline98":1.925,"diesel":1.845,"dieselRenewable":1.965},"extra":{"saleType":"P","margin":"I","reportingType":"OM","ideess":"1522","idMunicipio":"8082","idProvincia":"50","idCCAA":"02"}}},{"type":"Feature","geometry":{"type":"Point","coordinates":[-0.893778,41.640833]},"properties":{"id":"es-1523","source":"ES","brand":"REPSOL","address":"PLAZA SAN FRANCISCO, 5","municipality":"Zaragoza","province":"ZARAGOZA","postalCode":"50006","schedule":"L-V: 07:00-21:00; S: 08:00-14:30","fuels":{"gasoline95":1.769,"diesel":1.839},"extra":{"saleType":"P","margin":"D","reportingType":"OM","ideess":"1523","idMunicipio":"8108","idProvincia":"50","idCCAA":"02"}}},{"type":"Feature","geometry":{"type":"Point","coordinates":[-0.520222,41.492778]},"properties":{"id":"es-1528","source":"ES","brand":"REPSOL","address":"CALLE FERNANDO EL CATOLICO, 56","municipality":"Pina de Ebro","province":"ZARAGOZA","postalCode":"50750","schedule":"L-V: 07:00-21:00; S: 08:00-14:00; D: 08:00-13:00","fuels":{"gasoline95":1.749,"diesel":1.815,"dieselB":1.609,"dieselRenewable":1.935},"extra":{"saleType":"P","margin":"D","reportingType":"OM","ideess":"1528","idMunicipio":"8019","idProvincia":"50","idCCAA":"02"}}},{"type":"Feature","geometry":{"type":"Point","coordinates":[-0.419389,41.637972]},"properties":{"id":"es-1531","source":"ES","brand":"REPSOL","address":"CARRETERA A-1104 KM. 26,1","municipality":"Monegrillo","province":"ZARAGOZA","postalCode":"50164","schedule":"L-V: 07:00-14:00; S: 08:00-15:00","fuels":{"gasoline95":1.729,"diesel":1.815,"dieselB":1.609},"extra":{"saleType":"P","margin":"I","reportingType":"OM","ideess":"1531","idMunicipio":"7981","idProvincia":"50","idCCAA":"02"}}},{"type":"Feature","geometry":{"type":"Point","coordinates":[-0.774694,41.583361]},"properties":{"id":"es-1535","source":"ES","brand":"REPSOL","address":"AUTOVIA A-68 KM. 225,2","municipality":"Burgo de Ebro (El)","province":"ZARAGOZA","postalCode":"50730","schedule":"L-V: 06:00-22:00; S-D: 07:00-21:00","fuels":{"gasoline95":1.775,"gasoline98":1.945,"diesel":1.849,"dieselRenewable":1.969},"extra":{"saleType":"P","margin":"I","reportingType":"OM","ideess":"1535","idMunicipio":"7878","idProvincia":"50","idCCAA":"02"}}},{"type":"Feature","geometry":{"type":"Point","coordinates":[-0.47075,41.950778]},"properties":{"id":"es-15516","source":"ES","brand":"VSA SOCIEDAD COOPERATIVA LIMITADA","address":"CARRETERA TORRALBA, S/N KM. 0","municipality":"Torres de Barbués","province":"HUESCA","postalCode":"22255","schedule":"L-S: 08:00-13:00 y 15:00-18:00","fuels":{"dieselB":1.25},"extra":{"saleType":"P","margin":"D","reportingType":"dm","ideess":"15516","idMunicipio":"3479","idProvincia":"22","idCCAA":"02"}}},{"type":"Feature","geometry":{"type":"Point","coordinates":[-0.168583,41.928722]},"properties":{"id":"es-15530","source":"ES","brand":"ESTACION SERVICIO MUNICIPAL","address":"CALLE BALSA FRONTON, S/N","municipality":"Huerto","province":"HUESCA","postalCode":"22210","schedule":"L-D: 24H","fuels":{"gasoline95":1.609,"diesel":1.709,"dieselB":1.489},"extra":{"saleType":"P","margin":"D","reportingType":"dm","ideess":"15530","idMunicipio":"3393","idProvincia":"22","idCCAA":"02"}}},{"type":"Feature","geometry":{"type":"Point","coordinates":[-0.391194,41.884278]},"properties":{"id":"es-15616","source":"ES","brand":"SAT 3068","address":"RONDA LEVANTE, S/N","municipality":"Grañén","province":"HUESCA","postalCode":"22269","schedule":"L-D: 24H","fuels":{"diesel":1.648,"dieselB":1.356,"adblue":0.778},"extra":{"saleType":"P","margin":"N","reportingType":"dm","ideess":"15616","idMunicipio":"3388","idProvincia":"22","idCCAA":"02"}}},{"type":"Feature","geometry":{"type":"Point","coordinates":[-0.987833,41.638361]},"properties":{"id":"es-15747","source":"ES","brand":"MOLGAS","address":"RONDA RONDA DE LA FERIA DE MUESTRAS, 10","municipality":"Zaragoza","province":"ZARAGOZA","postalCode":"50197","schedule":"L-D: 24H","fuels":{"cng":1.609,"lng":1.549},"extra":{"saleType":"P","margin":"D","reportingType":"dm","ideess":"15747","idMunicipio":"8108","idProvincia":"50","idCCAA":"02"}}},{"type":"Feature","geometry":{"type":"Point","coordinates":[-0.148361,41.052389]},"properties":{"id":"es-15890","source":"ES","brand":"BONAREA","address":"AVENIDA ZARAGOZA, 75","municipality":"Alcañiz","province":"TERUEL","postalCode":"44600","schedule":"L-D: 24H","fuels":{"gasoline95":1.464,"gasoline98":1.535,"diesel":1.604,"adblue":0.528},"extra":{"saleType":"P","margin":"N","reportingType":"dm","ideess":"15890","idMunicipio":"6538","idProvincia":"44","idCCAA":"02"}}},{"type":"Feature","geometry":{"type":"Point","coordinates":[-0.076389,41.930972]},"properties":{"id":"es-16071","source":"ES","brand":"ESTACIÓN DE SERVICIO PERALTA DE ALCOFEA","address":"CARRETERA BARBASTRO KM. 22","municipality":"Peralta de Alcofea","province":"HUESCA","postalCode":"22130","schedule":"L-D: 24H","fuels":{"gasoline95":1.579,"diesel":1.69,"dieselB":1.449,"adblue":0.65},"extra":{"saleType":"P","margin":"D","reportingType":"dm","ideess":"16071","idMunicipio":"3428","idProvincia":"22","idCCAA":"02"}}},{"type":"Feature","geometry":{"type":"Point","coordinates":[-0.977472,41.637639]},"properties":{"id":"es-16078","source":"ES","brand":"COSTCO","address":"CALLE ISLA DE PANTELARIA, 38","municipality":"Zaragoza","province":"ZARAGOZA","postalCode":"50197","schedule":"L-D: 06:00-23:00","fuels":{"gasoline95":1.599,"diesel":1.754},"extra":{"saleType":"P","margin":"N","reportingType":"dm","ideess":"16078","idMunicipio":"8108","idProvincia":"50","idCCAA":"02"}}},{"type":"Feature","geometry":{"type":"Point","coordinates":[-0.058694,41.232778]},"properties":{"id":"es-16082","source":"ES","brand":"BONAREA","address":"POLIGONO IND- LOS ARCOS, S/N","municipality":"Caspe","province":"ZARAGOZA","postalCode":"50700","schedule":"L-D: 24H","fuels":{"gasoline95":1.463,"diesel":1.603,"adblue":0.528},"extra":{"saleType":"P","margin":"N","reportingType":"dm","ideess":"16082","idMunicipio":"7890","idProvincia":"50","idCCAA":"02"}}},{"type":"Feature","geometry":{"type":"Point","coordinates":[-0.992556,41.638639]},"properties":{"id":"es-16258","source":"ES","brand":"NIEVES","address":"AVENIDA DIAGONAL, 19","municipality":"Zaragoza","province":"ZARAGOZA","postalCode":"50197","schedule":"L-D: 24H","fuels":{"gasoline95":1.609,"diesel":1.788,"dieselB":1.639,"adblue":0.929},"extra":{"saleType":"P","margin":"D","reportingType":"dm","ideess":"16258","idMunicipio":"8108","idProvincia":"50","idCCAA":"02"}}},{"type":"Feature","geometry":{"type":"Point","coordinates":[-0.989722,41.635528]},"properties":{"id":"es-16379","source":"ES","brand":"PLENERGY","address":"AVENIDA DE LA DIAGONAL, 12","municipality":"Zaragoza","province":"ZARAGOZA","postalCode":"50197","schedule":"L-D: 24H","fuels":{"gasoline95":1.449,"diesel":1.589},"extra":{"saleType":"P","margin":"D","reportingType":"dm","ideess":"16379","idMunicipio":"8108","idProvincia":"50","idCCAA":"02"}}},{"type":"Feature","geometry":{"type":"Point","coordinates":[-0.886083,41.610694]},"properties":{"id":"es-16494","source":"ES","brand":"GASEXPRESS PUERTO VENECIA","address":"PASEO GRAN CANAL, 11","municipality":"Zaragoza","province":"ZARAGOZA","postalCode":"50021","schedule":"L: 24H","fuels":{"gasoline95":1.619,"diesel":1.729},"extra":{"saleType":"P","margin":"D","reportingType":"dm","ideess":"16494","idMunicipio":"8108","idProvincia":"50","idCCAA":"02"}}},{"type":"Feature","geometry":{"type":"Point","coordinates":[-0.691639,41.606417]},"properties":{"id":"es-1976","source":"ES","brand":"REPSOL","address":"CARRETERA NACIONAL II KM. 341","municipality":"Alfajarín","province":"ZARAGOZA","postalCode":"50172","schedule":"L-D: 24H","fuels":{"gasoline95":1.755,"gasoline98":1.875,"diesel":1.829,"dieselB":1.635,"dieselRenewable":1.949},"extra":{"saleType":"P","margin":"D","reportingType":"OM","ideess":"1976","idMunicipio":"7833","idProvincia":"50","idCCAA":"02"}}},{"type":"Feature","geometry":{"type":"Point","coordinates":[-0.691167,41.606806]},"properties":{"id":"es-1977","source":"ES","brand":"REPSOL","address":"CARRETERA NACIONAL II KM. 341","municipality":"Alfajarín","province":"ZARAGOZA","postalCode":"50172","schedule":"L-D: 06:00-22:00","fuels":{"gasoline95":1.755,"gasoline98":1.875,"diesel":1.829,"dieselB":1.635,"dieselRenewable":1.949},"extra":{"saleType":"P","margin":"I","reportingType":"OM","ideess":"1977","idMunicipio":"7833","idProvincia":"50","idCCAA":"02"}}},{"type":"Feature","geometry":{"type":"Point","coordinates":[-0.895194,41.647083]},"properties":{"id":"es-1979","source":"ES","brand":"REPSOL","address":"AVENIDA VALENCIA, 20","municipality":"Zaragoza","province":"ZARAGOZA","postalCode":"50005","schedule":"L-D: 06:00-22:00","fuels":{"gasoline95":1.758,"gasoline98":1.928,"diesel":1.858,"dieselRenewable":1.998},"extra":{"saleType":"P","margin":"D","reportingType":"dm","ideess":"1979","idMunicipio":"8108","idProvincia":"50","idCCAA":"02"}}},{"type":"Feature","geometry":{"type":"Point","coordinates":[-0.925194,41.660139]},"properties":{"id":"es-1980","source":"ES","brand":"REPSOL","address":"AUTOVIA LOGROÑO KM. 0,3","municipality":"Zaragoza","province":"ZARAGOZA","postalCode":"50011","schedule":"L-D: 24H","fuels":{"gasoline95":1.789,"gasoline98":1.899,"diesel":1.899,"dieselRenewable":1.999,"lpg":1.139},"extra":{"saleType":"P","margin":"D","reportingType":"dm","ideess":"1980","idMunicipio":"8108","idProvincia":"50","idCCAA":"02"}}},{"type":"Feature","geometry":{"type":"Point","coordinates":[-0.935167,41.647278]},"properties":{"id":"es-1984","source":"ES","brand":"REPSOL","address":"RONDA OLIVER, S/N","municipality":"Zaragoza","province":"ZARAGOZA","postalCode":"50012","schedule":"L-D: 24H","fuels":{"gasoline95":1.758,"gasoline95Premium":1.818,"gasoline98":1.938,"diesel":1.848,"dieselRenewable":2.018,"adblue":0.99},"extra":{"saleType":"P","margin":"I","reportingType":"dm","ideess":"1984","idMunicipio":"8108","idProvincia":"50","idCCAA":"02"}}},{"type":"Feature","geometry":{"type":"Point","coordinates":[-0.877444,41.647444]},"properties":{"id":"es-1986","source":"ES","brand":"REPSOL","address":"PASEO DE LA MINA, 12","municipality":"Zaragoza","province":"ZARAGOZA","postalCode":"50001","schedule":"L-D: 06:00-22:00","fuels":{"gasoline95":1.779,"gasoline95Premium":1.849,"gasoline98":1.899,"diesel":1.845,"dieselRenewable":1.965},"extra":{"saleType":"P","margin":"D","reportingType":"OM","ideess":"1986","idMunicipio":"8108","idProvincia":"50","idCCAA":"02"}}},{"type":"Feature","geometry":{"type":"Point","coordinates":[-0.876944,41.666222]},"properties":{"id":"es-1988","source":"ES","brand":"GALP","address":"CALLE VALLE DE BROTO, S/N","municipality":"Zaragoza","province":"ZARAGOZA","postalCode":"50015","schedule":"L-V: 06:00-23:00; S-D: 07:00-23:00","fuels":{"gasoline95":1.759,"gasoline98":1.899,"diesel":1.839,"dieselPremium":1.889},"extra":{"saleType":"P","margin":"N","reportingType":"OM","ideess":"1988","idMunicipio":"8108","idProvincia":"50","idCCAA":"02"}}},{"type":"Feature","geometry":{"type":"Point","coordinates":[-0.397806,41.525889]},"properties":{"id":"es-1991","source":"ES","brand":"CEPSA","address":"AUTOPISTA AP-2(MRG.IZDO.) KM. 47,7","municipality":"Pina de Ebro","province":"ZARAGOZA","postalCode":"50750","schedule":"L-D: 24H","fuels":{"gasoline95":1.769,"gasoline98":1.929,"diesel":1.854,"dieselPremium":1.954},"extra":{"saleType":"P","margin":"I","reportingType":"OM","ideess":"1991","idMunicipio":"8019","idProvincia":"50","idCCAA":"02"}}},{"type":"Feature","geometry":{"type":"Point","coordinates":[-0.395306,41.52425]},"properties":{"id":"es-1992","source":"ES","brand":"CEPSA","address":"AUTOPISTA AP-2(MRG.DCHO.) KM. 47,7","municipality":"Pina de Ebro","province":"ZARAGOZA","postalCode":"50750","schedule":"L-D: 24H","fuels":{"gasoline95":1.769,"gasoline98":1.929,"diesel":1.854,"dieselPremium":1.954},"extra":{"saleType":"P","margin":"D","reportingType":"OM","ideess":"1992","idMunicipio":"8019","idProvincia":"50","idCCAA":"02"}}},{"type":"Feature","geometry":{"type":"Point","coordinates":[-0.166139,41.799611]},"properties":{"id":"es-8085","source":"ES","brand":"COMBUSTIBLES  MONEGROS, S.L.","address":"CARRETERA CARRETERA A 129 KM. 66,5","municipality":"Sariñena","province":"HUESCA","postalCode":"22200","schedule":"L-D: 24H","fuels":{"gasoline95":1.579,"diesel":1.679,"dieselPremium":1.709,"dieselB":1.459,"adblue":0.65},"extra":{"saleType":"P","margin":"I","reportingType":"dm","ideess":"8085","idMunicipio":"3459","idProvincia":"22","idCCAA":"02"}}},{"type":"Feature","geometry":{"type":"Point","coordinates":[-0.905583,41.64675]},"properties":{"id":"es-8183","source":"ES","brand":"Q8","address":"CALLE DUQUESA DE VILLAHERMOSA, S/N","municipality":"Zaragoza","province":"ZARAGOZA","postalCode":"50009","schedule":"L-V: 06:30-21:00; S: 07:00-14:00","fuels":{"diesel":1.899},"extra":{"saleType":"P","margin":"N","reportingType":"dm","ideess":"8183","idMunicipio":"8108","idProvincia":"50","idCCAA":"02"}}},{"type":"Feature","geometry":{"type":"Point","coordinates":[-0.89,41.677889]},"properties":{"id":"es-8317","source":"ES","brand":"CARREFOUR","address":"CALLE MARIA ZAMBRANO, S/N","municipality":"Zaragoza","province":"ZARAGOZA","postalCode":"50018","schedule":"L-D: 24H","fuels":{"gasoline95":1.729,"gasoline98":1.879,"diesel":1.819,"dieselPremium":1.859},"extra":{"saleType":"P","margin":"N","reportingType":"dm","ideess":"8317","idMunicipio":"8108","idProvincia":"50","idCCAA":"02"}}},{"type":"Feature","geometry":{"type":"Point","coordinates":[-0.775972,41.692917]},"properties":{"id":"es-8984","source":"ES","brand":"EL PUEYO","address":"CAMINO MOLINO, DEL, 105","municipality":"Villamayor de Gállego","province":"ZARAGOZA","postalCode":"50162","schedule":"L-D: 24H","fuels":{"gasoline95":1.717,"diesel":1.807,"dieselB":1.275,"adblue":0.5},"extra":{"saleType":"P","margin":"I","reportingType":"dm","ideess":"8984","idMunicipio":"8097","idProvincia":"50","idCCAA":"02"}}},{"type":"Feature","geometry":{"type":"Point","coordinates":[-0.615167,41.793333]},"properties":{"id":"es-8986","source":"ES","brand":"COOP. SAN ISIDRO LECIÑENA","address":"CARRETERA SAN MATEO Nº 5 KM. ","municipality":"Leciñena","province":"ZARAGOZA","postalCode":"50160","schedule":"L-V: 08:00-13:00 y 15:00-18:00","fuels":{"gasoline95":1.52,"diesel":1.65,"dieselB":1.24},"extra":{"saleType":"P","margin":"D","reportingType":"dm","ideess":"8986","idMunicipio":"7950","idProvincia":"50","idCCAA":"02"}}},{"type":"Feature","geometry":{"type":"Point","coordinates":[-0.148083,41.498333]},"properties":{"id":"es-9016","source":"ES","brand":"SENERSA S.L","address":"CALLE EXTRAMUROS, 0","municipality":"Bujaraloz","province":"ZARAGOZA","postalCode":"50177","schedule":"L-D: 24H","fuels":{"gasoline95":1.49,"diesel":1.635,"adblue":0.58},"extra":{"saleType":"P","margin":"D","reportingType":"dm","ideess":"9016","idMunicipio":"7875","idProvincia":"50","idCCAA":"02"}}},{"type":"Feature","geometry":{"type":"Point","coordinates":[-0.852556,41.681972]},"properties":{"id":"es-9034","source":"ES","brand":"COOPERATIVA SAN LAMBERTO","address":"CARRETERA COGULLADA KM. S/N","municipality":"Zaragoza","province":"ZARAGOZA","postalCode":"50014","schedule":"L-D: 24H","fuels":{"gasoline95":1.559,"diesel":1.749,"dieselB":1.342,"adblue":0.825},"extra":{"saleType":"P","margin":"D","reportingType":"dm","ideess":"9034","idMunicipio":"8108","idProvincia":"50","idCCAA":"02"}}},{"type":"Feature","geometry":{"type":"Point","coordinates":[-0.507806,41.435583]},"properties":{"id":"es-9036","source":"ES","brand":"SOCIEDAD COOPERATIVA AGRARIA SANTA ANA","address":"CARRETERA CASTELLON KM. 197","municipality":"Quinto","province":"ZARAGOZA","postalCode":"50770","schedule":"L-D: 24H","fuels":{"gasoline95":1.529,"diesel":1.659,"dieselB":1.329},"extra":{"saleType":"P","margin":"I","reportingType":"dm","ideess":"9036","idMunicipio":"8033","idProvincia":"50","idCCAA":"02"}}},{"type":"Feature","geometry":{"type":"Point","coordinates":[-0.512944,41.495222]},"properties":{"id":"es-9061","source":"ES","brand":"PINA DE EBRO - AN ENERGETICOS","address":"CARRETERA A1107 KM. 2,51","municipality":"Pina de Ebro","province":"ZARAGOZA","postalCode":"50750","schedule":"L-D: 24H","fuels":{"gasoline95":1.599,"diesel":1.699,"dieselB":1.399},"extra":{"saleType":"P","margin":"D","reportingType":"dm","ideess":"9061","idMunicipio":"8019","idProvincia":"50","idCCAA":"02"}}},{"type":"Feature","geometry":{"type":"Point","coordinates":[-0.757611,41.93875]},"properties":{"id":"es-9068","source":"ES","brand":"COOPERATIVA SAN ISIDRO","address":"CALLE COOPERATIVA, 2","municipality":"Zuera","province":"ZARAGOZA","postalCode":"50810","schedule":"L-D: 24H","fuels":{"gasoline95":1.52,"diesel":1.67,"dieselPremium":1.7,"dieselB":1.37},"extra":{"saleType":"P","margin":"D","reportingType":"dm","ideess":"9068","idMunicipio":"8109","idProvincia":"50","idCCAA":"02"}}},{"type":"Feature","geometry":{"type":"Point","coordinates":[-0.782833,41.883583]},"properties":{"id":"es-9085","source":"ES","brand":"AN ENERGETICOS - ZUERA","address":"CALLE AUSTRIA, 11,17","municipality":"Zuera","province":"ZARAGOZA","postalCode":"50800","schedule":"L-D: 24H","fuels":{"gasoline95":1.629,"diesel":1.739,"dieselPremium":1.779,"dieselB":1.27},"extra":{"saleType":"P","margin":"D","reportingType":"dm","ideess":"9085","idMunicipio":"8109","idProvincia":"50","idCCAA":"02"}}},{"type":"Feature","geometry":{"type":"Point","coordinates":[-0.32975,41.77575]},"properties":{"id":"es-9139","source":"ES","brand":"AN ENERGÉTICOS - LANAJA","address":"ACCESO PARTIDA SASO BAJO, S/N","municipality":"Lanaja","province":"HUESCA","postalCode":"22250","schedule":"L-D: 24H","fuels":{"diesel":1.709,"dieselB":1.459,"adblue":0.735},"extra":{"saleType":"P","margin":"I","reportingType":"dm","ideess":"9139","idMunicipio":"3404","idProvincia":"22","idCCAA":"02"}}},{"type":"Feature","geometry":{"type":"Point","coordinates":[-0.615611,41.50675]},"properties":{"id":"es-9604","source":"ES","brand":"COVA","address":"N-232 km 209,100","municipality":"Fuentes de Ebro","province":"ZARAGOZA","postalCode":"50740","schedule":"L-D: 24H","fuels":{"diesel":1.7,"adblue":0.7},"extra":{"saleType":"P","margin":"I","reportingType":"dm","ideess":"9604","idMunicipio":"7928","idProvincia":"50","idCCAA":"02"}}},{"type":"Feature","geometry":{"type":"Point","coordinates":[-0.795111,41.651722]},"properties":{"id":"es-9844","source":"ES","brand":"REPSOL","address":"CARRETERA BARCELONA,NACIONAL II A KM. 331","municipality":"Zaragoza","province":"ZARAGOZA","postalCode":"50016","schedule":"L-V: 06:00-21:00; S-D: 08:00-15:00","fuels":{"gasoline95":1.779,"gasoline98":1.949,"diesel":1.859,"dieselRenewable":1.959},"extra":{"saleType":"P","margin":"D","reportingType":"dm","ideess":"9844","idMunicipio":"8108","idProvincia":"50","idCCAA":"02"}}},{"type":"Feature","geometry":{"type":"Point","coordinates":[-0.832944,41.6725]},"properties":{"id":"es-9847","source":"ES","brand":"REPSOL","address":"AVENIDA INDUSTRIS, S/N","municipality":"Zaragoza","province":"ZARAGOZA","postalCode":"50016","schedule":"L-D: 06:00-22:00","fuels":{"gasoline95":1.779,"gasoline95Premium":1.879,"gasoline98":1.949,"diesel":1.859,"dieselRenewable":1.959},"extra":{"saleType":"P","margin":"D","reportingType":"dm","ideess":"9847","idMunicipio":"8108","idProvincia":"50","idCCAA":"02"}}}]}