{"type":"FeatureCollection","features":[{"type":"Feature","geometry":{"type":"Point","coordinates":[-7.092167,38.692111]},"properties":{"id":"es-13019","source":"ES","brand":"M&D","address":"CARRETERA EX-107 KM. 23,4","municipality":"Olivenza","province":"BADAJOZ","postalCode":"06100","schedule":"L-D: 24H","fuels":{"gasoline95":1.599,"diesel":1.799,"adblue":0.79},"extra":{"saleType":"P","margin":"D","reportingType":"dm","ideess":"13019","idMunicipio":"724","idProvincia":"06","idCCAA":"11"}}},{"type":"Feature","geometry":{"type":"Point","coordinates":[-7.094111,38.688306]},"properties":{"id":"es-15317","source":"ES","brand":"EXPLOTACIONES GASOAL","address":"CARRETERA EX-107 BADAJOZ-VILLANUEVA DEL FRESNO KM. 24","municipality":"Olivenza","province":"BADAJOZ","postalCode":"06100","schedule":"L-D: 06:30-22:30","fuels":{"gasoline95":1.679,"diesel":1.839,"dieselB":1.54},"extra":{"saleType":"P","margin":"I","reportingType":"dm","ideess":"15317","idMunicipio":"724","idProvincia":"06","idCCAA":"11"}}},{"type":"Feature","geometry":{"type":"Point","coordinates":[-7.021889,38.884389]},"properties":{"id":"es-15968","source":"ES","brand":"BALLENOIL","address":"AVENIDA ELVAS, 38","municipality":"Badajoz","province":"BADAJOZ","postalCode":"06006","schedule":"L-D: 24H","fuels":{"gasoline95":1.599,"diesel":1.729,"dieselPremium":1.739},"extra":{"saleType":"P","margin":"N","reportingType":"OM","ideess":"15968","idMunicipio":"644","idProvincia":"06","idCCAA":"11"}}},{"type":"Feature","geometry":{"type":"Point","coordinates":[-7.168028,38.379139]},"properties":{"id":"es-5823","source":"ES","brand":"IBERDOEX","address":"CARRETERA EX-107 KM. 107","municipality":"Villanueva del Fresno","province":"BADAJOZ","postalCode":"06110","schedule":"L-S: 07:00-21:00","fuels":{"gasoline95":1.739,"diesel":1.869,"dieselPremium":1.919},"extra":{"saleType":"P","margin":"I","reportingType":"dm","ideess":"5823","idMunicipio":"785","idProvincia":"06","idCCAA":"11"}}},{"type":"Feature","geometry":{"type":"Point","coordinates":[-7.111917,38.706111]},"properties":{"id":"es-5827","source":"ES","brand":"GALP OLIVENZA","address":"CARRETERA EXT 105 KM. 141,4","municipality":"Olivenza","province":"BADAJOZ","postalCode":"06100","schedule":"L-D: 07:00-22:00","fuels":{"gasoline95":1.609,"diesel":1.709,"dieselPremium":1.729},"extra":{"saleType":"P","margin":"I","reportingType":"dm","ideess":"5827","idMunicipio":"724","idProvincia":"06","idCCAA":"11"}}},{"type":"Feature","geometry":{"type":"Point","coordinates":[-7.121778,38.239472]},"properties":{"id":"es-5829","source":"ES","brand":"GALP","address":"CARRETERA BAV-2122 KM. 0,1","municipality":"Valencia del Mombuey","province":"BADAJOZ","postalCode":"06134","schedule":"L-S: 07:00-22:00","fuels":{"gasoline95":1.749,"diesel":1.899,"dieselPremium":1.949,"dieselB":1.599},"extra":{"saleType":"P","margin":"D","reportingType":"dm","ideess":"5829","idMunicipio":"771","idProvincia":"06","idCCAA":"11"}}},{"type":"Feature","geometry":{"type":"Point","coordinates":[-7.027194,38.883583]},"properties":{"id":"es-5868","source":"ES","brand":"DST","address":"CARRETERA N-V (MADRID-LISBOA) KM. 409,820","municipality":"Badajoz","province":"BADAJOZ","postalCode":"06006","schedule":"L-D: 06:00-00:00","fuels":{"gasoline95":1.639,"diesel":1.769,"dieselPremium":1.829},"extra":{"saleType":"P","margin":"D","reportingType":"dm","ideess":"5868","idMunicipio":"644","idProvincia":"06","idCCAA":"11"}}},{"type":"Feature","geometry":{"type":"Point","coordinates":[-7.026722,38.883167]},"properties":{"id":"es-5869","source":"ES","brand":"DST","address":"CARRETERA N-V (MADRID-LISBOA) KM. 409,820","municipality":"Badajoz","province":"BADAJOZ","postalCode":"06006","schedule":"L-D: 00:00-23:59","fuels":{"diesel":1.769,"adblue":0.829},"extra":{"saleType":"P","margin":"I","reportingType":"dm","ideess":"5869","idMunicipio":"644","idProvincia":"06","idCCAA":"11"}}},{"type":"Feature","geometry":{"type":"Point","coordinates":[-7.095694,38.665556]},"properties":{"id":"es-5900","source":"ES","brand":"REPSOL","address":"CARRETERA EX-107 BADAJOZ-VILLANUEVA DEL FRESNO KM. 26,6","municipality":"Olivenza","province":"BADAJOZ","postalCode":"06100","schedule":"L-D: 06:00-23:00","fuels":{"gasoline95":1.699,"gasoline98":1.879,"diesel":1.909,"dieselPremium":1.999},"extra":{"saleType":"P","margin":"I","reportingType":"OM","ideess":"5900","idMunicipio":"724","idProvincia":"06","idCCAA":"11"}}},{"type":"Feature","geometry":{"type":"Point","coordinates":[-7.094972,38.68775]},"properties":{"id":"es-5926","source":"ES","brand":"REPSOL","address":"CARRETERA EX107 KM. 23,5","municipality":"Olivenza","province":"BADAJOZ","postalCode":"06100","schedule":"L-D: 08:00-21:00","fuels":{"gasoline95":1.699,"diesel":1.905},"extra":{"saleType":"P","margin":"D","reportingType":"OM","ideess":"5926","idMunicipio":"724","idProvincia":"06","idCCAA":"11"}}},{"type":"Feature","geometry":{"type":"Point","coordinates":[-7.06775,38.516333]},"properties":{"id":"es-5965","source":"ES","brand":"CEPSA","address":"EX-107 km 43,5","municipality":"Alconchel","province":"BADAJOZ","postalCode":"06131","schedule":"L-D: 06:30-21:30","fuels":{"gasoline95":1.779,"diesel":1.969,"dieselPremium":2.069,"dieselB":1.629},"extra":{"saleType":"P","margin":"I","reportingType":"dm","ideess":"5965","idMunicipio":"636","idProvincia":"06","idCCAA":"11"}}},{"type":"Feature","geometry":{"type":"Point","coordinates":[-7.154972,38.383028]},"properties":{"id":"es-7573","source":"ES","brand":"REPSOL","address":"CR C-436 BADAJOZ-VVA. FRESNO, 62,7","municipality":"Villanueva del Fresno","province":"BADAJOZ","postalCode":"06110","schedule":"L-S: 07:00-21:00; D: 07:00-14:00","fuels":{"gasoline95":1.735,"gasoline98":1.915,"diesel":1.935},"extra":{"saleType":"P","margin":"I","reportingType":"OM","ideess":"7573","idMunicipio":"785","idProvincia":"06","idCCAA":"11"}}},{"type":"Feature","geometry":{"type":"Point","coordinates":[-7.014056,38.89075]},"properties":{"id":"es-7615","source":"ES","brand":"GALP","address":"AUTOVIA MADRID LISBOA KM. 0","municipality":"Badajoz","province":"BADAJOZ","postalCode":"06006","schedule":"L-D: 24H","fuels":{"gasoline95":1.779,"gasoline98":1.949,"diesel":1.939,"dieselPremium":2.029,"adblue":1.099},"extra":{"saleType":"P","margin":"D","reportingType":"dm","ideess":"7615","idMunicipio":"644","idProvincia":"06","idCCAA":"11"}}}]}