{"type":"FeatureCollection","features":[{"type":"Feature","geometry":{"type":"Point","coordinates":[-6.438833,43.499917]},"properties":{"id":"es-10113","source":"ES","brand":"VALCOR SOCIEDAD COOPERATIVA ASTURIANA","address":"PLAZA DE LA COOPERATIVA, S/N","municipality":"Valdés","province":"ASTURIAS","postalCode":"33780","schedule":"L-D: 24H","fuels":{"diesel":1.679,"dieselB":1.259},"extra":{"saleType":"P","margin":"D","reportingType":"dm","ideess":"10113","idMunicipio":"5036","idProvincia":"33","idCCAA":"03"}}},{"type":"Feature","geometry":{"type":"Point","coordinates":[-6.327306,43.390167]},"properties":{"id":"es-10116","source":"ES","brand":"VALCOR SOCIEDAD COOPERATIVA ASTURIANA","address":"POLIGONO INDUSTRIAL EL ZARRIN, S/N","municipality":"Salas","province":"ASTURIAS","postalCode":"33891","schedule":"L-D: 24H","fuels":{"diesel":1.679,"dieselB":1.259},"extra":{"saleType":"P","margin":"D","reportingType":"dm","ideess":"10116","idMunicipio":"5021","idProvincia":"33","idCCAA":"03"}}},{"type":"Feature","geometry":{"type":"Point","coordinates":[-6.57025,43.151556]},"properties":{"id":"es-10569","source":"ES","brand":"CAMPOASTUR","address":"PENLES LA REGLA DE PERANDONES (AS-15 CORNELLANA-PUERTO DE CERREDO km 63)","municipality":"Cangas del Narcea","province":"ASTURIAS","postalCode":"33800","schedule":"L-D: 24H","fuels":{"diesel":1.679,"dieselB":1.259},"extra":{"saleType":"P","margin":"N","reportingType":"dm","ideess":"10569","idMunicipio":"4975","idProvincia":"33","idCCAA":"03"}}},{"type":"Feature","geometry":{"type":"Point","coordinates":[-6.010306,43.258222]},"properties":{"id":"es-10705","source":"ES","brand":"ESTACION DE SERVICIO VALLE DE TRUBIA S.L.","address":"CARRETERA AS-228 KM. 13","municipality":"Proaza","province":"ASTURIAS","postalCode":"33114","schedule":"L-D: 07:00-22:00","fuels":{"gasoline95":1.69,"gasoline98":1.81,"diesel":1.79,"dieselPremium":1.85,"dieselB":1.4,"lpg":0.98},"extra":{"saleType":"P","margin":"N","reportingType":"dm","ideess":"10705","idMunicipio":"5014","idProvincia":"33","idCCAA":"03"}}},{"type":"Feature","geometry":{"type":"Point","coordinates":[-6.764556,43.541778]},"properties":{"id":"es-10757","source":"ES","brand":"REPSOL","address":"POLIGONO INDUSTRIAL RIO PINTO, 102","municipality":"Coaña","province":"ASTURIAS","postalCode":"33719","schedule":"L-D: 07:00-23:00","fuels":{"gasoline95":1.826,"gasoline98":1.966,"diesel":1.966,"dieselPremium":2.036,"lpg":1.119},"extra":{"saleType":"P","margin":"D","reportingType":"OM","ideess":"10757","idMunicipio":"4981","idProvincia":"33","idCCAA":"03"}}},{"type":"Feature","geometry":{"type":"Point","coordinates":[-6.096833,43.164806]},"properties":{"id":"es-11008","source":"ES","brand":"PETRONOR","address":"AS-228 km 28","municipality":"Teverga","province":"ASTURIAS","postalCode":"33110","schedule":"L-D: 07:00-15:00","fuels":{"gasoline95":1.796,"diesel":1.936,"dieselB":1.752,"dieselRenewable":2.056},"extra":{"saleType":"P","margin":"D","reportingType":"OM","ideess":"11008","idMunicipio":"5034","idProvincia":"33","idCCAA":"03"}}},{"type":"Feature","geometry":{"type":"Point","coordinates":[-6.106194,43.488472]},"properties":{"id":"es-11157","source":"ES","brand":"MOEVE","address":"CALLE LA FONTANA, S/N","municipality":"Pravia","province":"ASTURIAS","postalCode":"33120","schedule":"L-D: 07:00-22:00","fuels":{"gasoline95":1.789,"diesel":1.909,"dieselPremium":1.979,"dieselB":1.749},"extra":{"saleType":"P","margin":"D","reportingType":"dm","ideess":"11157","idMunicipio":"5013","idProvincia":"33","idCCAA":"03"}}},{"type":"Feature","geometry":{"type":"Point","coordinates":[-6.693417,43.535194]},"properties":{"id":"es-11225","source":"ES","brand":"MOEVE","address":"AUTOVIA A-8 KM. 521","municipality":"Navia","province":"ASTURIAS","postalCode":"33710","schedule":"L-D: 06:00-23:59","fuels":{"gasoline95":1.809,"gasoline98":1.959,"diesel":1.969,"dieselPremium":2.069},"extra":{"saleType":"P","margin":"D","reportingType":"OM","ideess":"11225","idMunicipio":"5003","idProvincia":"33","idCCAA":"03"}}},{"type":"Feature","geometry":{"type":"Point","coordinates":[-6.4095,43.480417]},"properties":{"id":"es-11469","source":"ES","brand":"CAMPOASTUR","address":"LUGAR MUÑAS, 0","municipality":"Valdés","province":"ASTURIAS","postalCode":"33784","schedule":"L-D: 24H","fuels":{"diesel":1.679,"dieselB":1.259},"extra":{"saleType":"P","margin":"I","reportingType":"dm","ideess":"11469","idMunicipio":"5036","idProvincia":"33","idCCAA":"03"}}},{"type":"Feature","geometry":{"type":"Point","coordinates":[-6.232806,43.40475]},"properties":{"id":"es-12397","source":"ES","brand":"REPSOL","address":"ALDEA POLIGONO INDUSTRIAL, 1","municipality":"Salas","province":"ASTURIAS","postalCode":"33868","schedule":"L-D: 06:00-22:00","fuels":{"gasoline95":1.839,"diesel":1.939,"dieselPremium":1.999,"dieselB":1.729,"adblue":1.289},"extra":{"saleType":"P","margin":"D","reportingType":"dm","ideess":"12397","idMunicipio":"5021","idProvincia":"33","idCCAA":"03"}}},{"type":"Feature","geometry":{"type":"Point","coordinates":[-6.545111,43.183417]},"properties":{"id":"es-12718","source":"ES","brand":"FLOREZ COSMEN, S.L.","address":"AVENIDA ALEJANDRO CASONA, 35","municipality":"Cangas del Narcea","province":"ASTURIAS","postalCode":"33800","schedule":"L-D: 24H","fuels":{"diesel":1.8,"lpg":1.1},"extra":{"saleType":"P","margin":"N","reportingType":"dm","ideess":"12718","idMunicipio":"4975","idProvincia":"33","idCCAA":"03"}}},{"type":"Feature","geometry":{"type":"Point","coordinates":[-6.923111,43.561861]},"properties":{"id":"es-13523","source":"ES","brand":"AVIA","address":"POLIGONO CORTAFICIO, CALLE A, PARCELA I, 8","municipality":"Tapia de Casariego","province":"ASTURIAS","postalCode":"33746","schedule":"L-D: 06:00-22:00","fuels":{"gasoline95":1.719,"diesel":1.859},"extra":{"saleType":"P","margin":"D","reportingType":"dm","ideess":"13523","idMunicipio":"5032","idProvincia":"33","idCCAA":"03"}}},{"type":"Feature","geometry":{"type":"Point","coordinates":[-6.983167,43.532833]},"properties":{"id":"es-13831","source":"ES","brand":"MP","address":"POLIGONO POL. IND. BARRES, PARCELA 11/7, 1","municipality":"Castropol","province":"ASTURIAS","postalCode":"33794","schedule":"L-D: 07:00-22:00","fuels":{"gasoline95":1.708,"diesel":1.868,"adblue":0.799},"extra":{"saleType":"P","margin":"D","reportingType":"dm","ideess":"13831","idMunicipio":"4980","idProvincia":"33","idCCAA":"03"}}},{"type":"Feature","geometry":{"type":"Point","coordinates":[-6.259222,43.099417]},"properties":{"id":"es-14369","source":"ES","brand":"EE SS SOMIEDO","address":"CARRETERA CARRETERA GENERAL S/N KM. 38","municipality":"Somiedo","province":"ASTURIAS","postalCode":"33840","schedule":"L-S: 09:00-13:30 y 15:00-20:00","fuels":{"gasoline95":1.858,"diesel":1.978},"extra":{"saleType":"P","margin":"D","reportingType":"dm","ideess":"14369","idMunicipio":"5030","idProvincia":"33","idCCAA":"03"}}},{"type":"Feature","geometry":{"type":"Point","coordinates":[-6.054528,43.39625]},"properties":{"id":"es-14913","source":"ES","brand":"FAST FUEL","address":"CALLE RECTA DE PEÑAFLOR, 12","municipality":"Grado","province":"ASTURIAS","postalCode":"33820","schedule":"L-D: 24H","fuels":{"gasoline95":1.649,"diesel":1.759},"extra":{"saleType":"P","margin":"D","reportingType":"dm","ideess":"14913","idMunicipio":"4989","idProvincia":"33","idCCAA":"03"}}},{"type":"Feature","geometry":{"type":"Point","coordinates":[-6.922694,43.562472]},"properties":{"id":"es-15254","source":"ES","brand":"ALIMERKA","address":"POLIGONO POLIG.IND CORTAFICIO 103, PARCELA I-2, 103","municipality":"Tapia de Casariego","province":"ASTURIAS","postalCode":"33746","schedule":"L-S: 09:00-21:30","fuels":{"gasoline95":1.699,"gasoline98":1.819,"diesel":1.799,"dieselPremium":1.919},"extra":{"saleType":"P","margin":"D","reportingType":"dm","ideess":"15254","idMunicipio":"5032","idProvincia":"33","idCCAA":"03"}}},{"type":"Feature","geometry":{"type":"Point","coordinates":[-6.964361,43.267889]},"properties":{"id":"es-15477","source":"ES","brand":"VALCOR SOCIEDAD COOPERATIVA ASTURIANA","address":"POBLADO SAN MARTIN DE OSCOS, 115","municipality":"San Martín de Oscos","province":"ASTURIAS","postalCode":"33777","schedule":"L-S: 10:00-14:00 y 15:00-19:00","fuels":{"gasoline95":1.6,"diesel":1.679,"dieselB":1.259},"extra":{"saleType":"P","margin":"D","reportingType":"dm","ideess":"15477","idMunicipio":"5022","idProvincia":"33","idCCAA":"03"}}},{"type":"Feature","geometry":{"type":"Point","coordinates":[-6.845194,43.543667]},"properties":{"id":"es-16074","source":"ES","brand":"GASOLINERA CEPSA LA CARIDAD","address":"AUTOVIA AUTOVIA DEL CANTABRICO A-8 KM. 490","municipality":"Franco (El)","province":"ASTURIAS","postalCode":"33750","schedule":"L-D: 24H","fuels":{"gasoline95E10":1.809,"gasoline95Premium":1.879,"gasoline98":1.959,"diesel":1.969,"dieselPremium":2.019,"lpg":1.095},"extra":{"saleType":"P","margin":"I","reportingType":"dm","ideess":"16074","idMunicipio":"4986","idProvincia":"33","idCCAA":"03"}}},{"type":"Feature","geometry":{"type":"Point","coordinates":[-6.379417,43.355861]},"properties":{"id":"es-16390","source":"ES","brand":"BEROIL","address":"POLIGONO CURISCADA INDUSTRIAL, 1","municipality":"Tineo","province":"ASTURIAS","postalCode":"33879","schedule":"L-D: 00:00-23:59","fuels":{"gasoline95":1.599,"diesel":1.669,"adblue":0.6},"extra":{"saleType":"P","margin":"D","reportingType":"dm","ideess":"16390","idMunicipio":"5035","idProvincia":"33","idCCAA":"03"}}},{"type":"Feature","geometry":{"type":"Point","coordinates":[-6.534333,43.541111]},"properties":{"id":"es-373","source":"ES","brand":"REPSOL","address":"AVENIDA BUENAVISTA, 6","municipality":"Valdés","province":"ASTURIAS","postalCode":"33700","schedule":"L-D: 06:00-22:00","fuels":{"gasoline95":1.798,"diesel":1.918,"dieselPremium":1.998},"extra":{"saleType":"P","margin":"N","reportingType":"dm","ideess":"373","idMunicipio":"5036","idProvincia":"33","idCCAA":"03"}}},{"type":"Feature","geometry":{"type":"Point","coordinates":[-6.4175,43.335]},"properties":{"id":"es-374","source":"ES","brand":"REPSOL","address":"CL GONZALEZ MAYO S.N.","municipality":"Tineo","province":"ASTURIAS","postalCode":"33870","schedule":"L-D: 08:00-20:00","fuels":{"gasoline95":1.796,"diesel":1.95},"extra":{"saleType":"P","margin":"D","reportingType":"OM","ideess":"374","idMunicipio":"5035","idProvincia":"33","idCCAA":"03"}}},{"type":"Feature","geometry":{"type":"Point","coordinates":[-6.157278,43.412778]},"properties":{"id":"es-376","source":"ES","brand":"REPSOL","address":"CARRETERA NACIONAL 634 KM. 443,6","municipality":"Salas","province":"ASTURIAS","postalCode":"33850","schedule":"L-D: 06:30-22:30","fuels":{"gasoline95":1.839,"gasoline98":1.979,"diesel":1.939,"dieselPremium":1.989},"extra":{"saleType":"P","margin":"D","reportingType":"dm","ideess":"376","idMunicipio":"5021","idProvincia":"33","idCCAA":"03"}}},{"type":"Feature","geometry":{"type":"Point","coordinates":[-6.724611,43.536417]},"properties":{"id":"es-380","source":"ES","brand":"PETRONOR","address":"AVENIDA DE LOS EMIGRANTES, 34","municipality":"Navia","province":"ASTURIAS","postalCode":"33710","schedule":"L-D: 07:00-23:00","fuels":{"gasoline95":1.826,"gasoline98":2.006,"diesel":1.966,"dieselPremium":2.076,"dieselB":1.702},"extra":{"saleType":"P","margin":"I","reportingType":"OM","ideess":"380","idMunicipio":"5003","idProvincia":"33","idCCAA":"03"}}},{"type":"Feature","geometry":{"type":"Point","coordinates":[-6.546389,43.180833]},"properties":{"id":"es-392","source":"ES","brand":"REPSOL","address":"AVENIDA DE OVIEDO, 3","municipality":"Cangas del Narcea","province":"ASTURIAS","postalCode":"33800","schedule":"L-D: 06:00-22:00","fuels":{"gasoline95":1.798,"gasoline98":1.958,"diesel":1.898,"dieselB":1.67,"dieselRenewable":1.998},"extra":{"saleType":"P","margin":"D","reportingType":"dm","ideess":"392","idMunicipio":"4975","idProvincia":"33","idCCAA":"03"}}},{"type":"Feature","geometry":{"type":"Point","coordinates":[-6.871306,43.038139]},"properties":{"id":"es-399","source":"ES","brand":"CAMPSA","address":"ALDEA AV AURELIO MENENDEZ, SN","municipality":"Ibias","province":"ASTURIAS","postalCode":"33810","schedule":"L-D: 08:00-14:00 y 15:00-21:00","fuels":{"gasoline95":1.796,"diesel":1.936},"extra":{"saleType":"P","margin":"D","reportingType":"OM","ideess":"399","idMunicipio":"4991","idProvincia":"33","idCCAA":"03"}}},{"type":"Feature","geometry":{"type":"Point","coordinates":[-6.815833,43.431056]},"properties":{"id":"es-401","source":"ES","brand":"REPSOL","address":"CALLE ISIDORO FONTANA, S/N","municipality":"Boal","province":"ASTURIAS","postalCode":"33720","schedule":"S-D: 24H","fuels":{"gasoline95":1.796,"diesel":1.95,"dieselPremium":2.07,"dieselB":1.752},"extra":{"saleType":"P","margin":"D","reportingType":"OM","ideess":"401","idMunicipio":"4970","idProvincia":"33","idCCAA":"03"}}},{"type":"Feature","geometry":{"type":"Point","coordinates":[-6.759778,43.541056]},"properties":{"id":"es-8490","source":"ES","brand":"SHELL","address":"CTRA.N-634 km 528","municipality":"Coaña","province":"ASTURIAS","postalCode":"33719","schedule":"L-D: 06:00-00:00","fuels":{"gasoline95":1.809,"gasoline98":1.949,"diesel":1.909,"dieselPremium":1.989,"adblue":1.25},"extra":{"saleType":"P","margin":"D","reportingType":"OM","ideess":"8490","idMunicipio":"4981","idProvincia":"33","idCCAA":"03"}}},{"type":"Feature","geometry":{"type":"Point","coordinates":[-6.721167,43.545083]},"properties":{"id":"es-867","source":"ES","brand":"EROSKI","address":"TRAVESÍA DE LA GRANJA, S/N","municipality":"Navia","province":"ASTURIAS","postalCode":"33710","schedule":"L-S: 09:00-22:00","fuels":{"gasoline95":1.609,"gasoline98":1.859,"diesel":1.679},"extra":{"saleType":"P","margin":"N","reportingType":"dm","ideess":"867","idMunicipio":"5003","idProvincia":"33","idCCAA":"03"}}},{"type":"Feature","geometry":{"type":"Point","coordinates":[-6.283778,43.557583]},"properties":{"id":"es-884","source":"ES","brand":"REPSOL","address":"AUTOVIA DEL CANTABRICO  A8 KM. 134,2","municipality":"Cudillero","province":"ASTURIAS","postalCode":"33157","schedule":"L-D: 24H","fuels":{"gasoline95":1.828,"gasoline98":1.988,"diesel":1.968,"dieselPremium":2.018},"extra":{"saleType":"P","margin":"N","reportingType":"dm","ideess":"884","idMunicipio":"4984","idProvincia":"33","idCCAA":"03"}}},{"type":"Feature","geometry":{"type":"Point","coordinates":[-6.783639,43.544278]},"properties":{"id":"es-890","source":"ES","brand":"REPSOL","address":"CR N-634, 530,1 (N-634 km 530,13)","municipality":"Coaña","province":"ASTURIAS","postalCode":"33719","schedule":"L-D: 07:00-23:00","fuels":{"gasoline95":1.819,"gasoline98":1.999,"diesel":1.959,"dieselB":1.729,"dieselRenewable":2.079,"adblue":1.29},"extra":{"saleType":"P","margin":"I","reportingType":"dm","ideess":"890","idMunicipio":"4981","idProvincia":"33","idCCAA":"03"}}},{"type":"Feature","geometry":{"type":"Point","coordinates":[-6.845083,43.555028]},"properties":{"id":"es-895","source":"ES","brand":"REPSOL","address":"CR N-634, 535,8","municipality":"Franco (El)","province":"ASTURIAS","postalCode":"33746","schedule":"L-D: 07:00-23:00","fuels":{"gasoline95":1.82,"gasoline98":2.0,"diesel":1.96,"dieselPremium":2.08,"dieselB":1.706},"extra":{"saleType":"P","margin":"D","reportingType":"OM","ideess":"895","idMunicipio":"4986","idProvincia":"33","idCCAA":"03"}}},{"type":"Feature","geometry":{"type":"Point","coordinates":[-6.499444,43.243083]},"properties":{"id":"es-897","source":"ES","brand":"CEPSA","address":"CARRETERA CORNELLANA-PUERTO DE CERREDO KM. 15,4","municipality":"Cangas del Narcea","province":"ASTURIAS","postalCode":"33816","schedule":"L-D: 06:30-22:30","fuels":{"gasoline95":1.798,"gasoline98":1.958,"diesel":1.898,"dieselPremium":1.968,"dieselB":1.67},"extra":{"saleType":"P","margin":"D","reportingType":"dm","ideess":"897","idMunicipio":"4975","idProvincia":"33","idCCAA":"03"}}},{"type":"Feature","geometry":{"type":"Point","coordinates":[-6.151944,43.376639]},"properties":{"id":"es-902","source":"ES","brand":"PETRONOR","address":"CR AS-15, 4,5","municipality":"Salas","province":"ASTURIAS","postalCode":"33848","schedule":"L-D: 06:30-23:00","fuels":{"gasoline95":1.809,"gasoline98":1.939,"diesel":1.909,"dieselRenewable":2.009,"adblue":1.029},"extra":{"saleType":"P","margin":"D","reportingType":"dm","ideess":"902","idMunicipio":"5021","idProvincia":"33","idCCAA":"03"}}},{"type":"Feature","geometry":{"type":"Point","coordinates":[-6.426667,43.488611]},"properties":{"id":"es-903","source":"ES","brand":"PANDORA BIOENERGY SL","address":"CARRETERA N-634 (OVIEDO-RIBADEO) KM. 485","municipality":"Valdés","province":"ASTURIAS","postalCode":"33784","schedule":"L-S: 07:30-21:30","fuels":{"gasoline95":1.599,"diesel":1.699},"extra":{"saleType":"P","margin":"D","reportingType":"dm","ideess":"903","idMunicipio":"5036","idProvincia":"33","idCCAA":"03"}}},{"type":"Feature","geometry":{"type":"Point","coordinates":[-6.944278,43.56825]},"properties":{"id":"es-905","source":"ES","brand":"REPSOL","address":"AVENIDA GENERAL PRIMO DE RIVERA, 31","municipality":"Tapia de Casariego","province":"ASTURIAS","postalCode":"33740","schedule":"L-D: 07:00-23:00","fuels":{"gasoline95":1.799,"gasoline98":1.949,"diesel":1.969,"dieselPremium":2.019},"extra":{"saleType":"P","margin":"N","reportingType":"dm","ideess":"905","idMunicipio":"5032","idProvincia":"33","idCCAA":"03"}}},{"type":"Feature","geometry":{"type":"Point","coordinates":[-6.138361,43.546333]},"properties":{"id":"es-914","source":"ES","brand":"SOLRAS","address":"CARRETERA CTRA ANT. N 632 KM 123,7 KM. 123,7","municipality":"Cudillero","province":"ASTURIAS","postalCode":"33154","schedule":"L: 08:00-22:00","fuels":{"gasoline95":1.798,"diesel":1.798},"extra":{"saleType":"P","margin":"D","reportingType":"dm","ideess":"914","idMunicipio":"4984","idProvincia":"33","idCCAA":"03"}}},{"type":"Feature","geometry":{"type":"Point","coordinates":[-6.074333,43.38725]},"properties":{"id":"es-925","source":"ES","brand":"REPSOL","address":"CL FLOREZ ESTRADA, 46","municipality":"Grado","province":"ASTURIAS","postalCode":"33820","schedule":"L-D: 06:00-22:00","fuels":{"gasoline95":1.796,"diesel":1.946,"dieselPremium":2.066},"extra":{"saleType":"P","margin":"D","reportingType":"OM","ideess":"925","idMunicipio":"4989","idProvincia":"33","idCCAA":"03"}}},{"type":"Feature","geometry":{"type":"Point","coordinates":[-6.412361,43.543083]},"properties":{"id":"es-928","source":"ES","brand":"CEPSA","address":"CARRETERA N-632 KM. 146,8","municipality":"Valdés","province":"ASTURIAS","postalCode":"33700","schedule":"L-V: 07:00-21:00; S-D: 09:00-20:00","fuels":{"gasoline95":1.82,"diesel":1.976,"dieselPremium":2.074,"dieselB":1.794,"adblue":1.29},"extra":{"saleType":"P","margin":"D","reportingType":"dm","ideess":"928","idMunicipio":"5036","idProvincia":"33","idCCAA":"03"}}},{"type":"Feature","geometry":{"type":"Point","coordinates":[-6.982472,43.542694]},"properties":{"id":"es-930","source":"ES","brand":"GALP","address":"CARRETERA N-634 KM. 548","municipality":"Tapia de Casariego","province":"ASTURIAS","postalCode":"33740","schedule":"L-V: 06:00-23:00; S-D: 07:00-23:00","fuels":{"gasoline95":1.809,"diesel":1.939,"dieselPremium":2.009,"adblue":0.85},"extra":{"saleType":"P","margin":"D","reportingType":"dm","ideess":"930","idMunicipio":"5032","idProvincia":"33","idCCAA":"03"}}},{"type":"Feature","geometry":{"type":"Point","coordinates":[-6.982722,43.543361]},"properties":{"id":"es-931","source":"ES","brand":"CHIQUÍN II","address":"CARRETERA NACIONAL 634 KM. 548","municipality":"Tapia de Casariego","province":"ASTURIAS","postalCode":"33740","schedule":"L-D: 07:00-22:00","fuels":{"gasoline95":1.749,"diesel":1.879},"extra":{"saleType":"P","margin":"I","reportingType":"dm","ideess":"931","idMunicipio":"5032","idProvincia":"33","idCCAA":"03"}}},{"type":"Feature","geometry":{"type":"Point","coordinates":[-6.023917,43.542667]},"properties":{"id":"es-935","source":"ES","brand":"BP - CARCEDO - SOTO BARCO","address":"CARRETERA N-632 KM. 109","municipality":"Soto del Barco","province":"ASTURIAS","postalCode":"33459","schedule":"L: 07:00-23:00","fuels":{"gasoline95":1.839,"gasoline98":1.979,"diesel":1.999,"dieselPremium":2.089},"extra":{"saleType":"P","margin":"D","reportingType":"OM","ideess":"935","idMunicipio":"5031","idProvincia":"33","idCCAA":"03"}}},{"type":"Feature","geometry":{"type":"Point","coordinates":[-6.614222,43.271667]},"properties":{"id":"es-938","source":"ES","brand":"PETRONOR","address":"CL AVENIDA DE GALICIA, 44","municipality":"Allande","province":"ASTURIAS","postalCode":"33880","schedule":"L-D: 07:00-22:00","fuels":{"gasoline95":1.798,"diesel":1.898,"dieselPremium":1.968,"dieselB":1.658},"extra":{"saleType":"P","margin":"I","reportingType":"dm","ideess":"938","idMunicipio":"4964","idProvincia":"33","idCCAA":"03"}}},{"type":"Feature","geometry":{"type":"Point","coordinates":[-6.166056,43.554528]},"properties":{"id":"es-944","source":"ES","brand":"AVIA","address":"CARRETERA NACIONAL 632 KM 123.700 KM. ","municipality":"Cudillero","province":"ASTURIAS","postalCode":"33150","schedule":"L-V: 07:00-22:00; S-D: 08:00-22:00","fuels":{"gasoline95":1.779,"gasoline98":1.939,"diesel":1.889,"dieselPremium":1.939,"adblue":0.999},"extra":{"saleType":"P","margin":"N","reportingType":"dm","ideess":"944","idMunicipio":"4984","idProvincia":"33","idCCAA":"03"}}},{"type":"Feature","geometry":{"type":"Point","coordinates":[-6.570333,43.533611]},"properties":{"id":"es-947","source":"ES","brand":"GALP","address":" N-634, 509,120","municipality":"Valdés","province":"ASTURIAS","postalCode":"33700","schedule":"L-D: 07:00-21:00","fuels":{"gasoline95":1.789,"gasoline98":1.929,"diesel":1.929,"dieselPremium":1.979},"extra":{"saleType":"P","margin":"I","reportingType":"OM","ideess":"947","idMunicipio":"5036","idProvincia":"33","idCCAA":"03"}}},{"type":"Feature","geometry":{"type":"Point","coordinates":[-6.705833,43.535611]},"properties":{"id":"es-9507","source":"ES","brand":"E.S.LA COLORADA","address":"POL. LA COLORADA","municipality":"Navia","province":"ASTURIAS","postalCode":"33710","schedule":"L-D: 07:30-22:00","fuels":{"gasoline95":1.749,"gasoline98":1.909,"diesel":1.899},"extra":{"saleType":"P","margin":"N","reportingType":"dm","ideess":"9507","idMunicipio":"5003","idProvincia":"33","idCCAA":"03"}}},{"type":"Feature","geometry":{"type":"Point","coordinates":[-6.258917,43.408667]},"properties":{"id":"es-951","source":"ES","brand":"GALP","address":"AVENIDA GALICIA, S/N","municipality":"Salas","province":"ASTURIAS","postalCode":"33860","schedule":"L-S: 08:00-21:00; D: 08:00-14:00","fuels":{"gasoline95":1.769,"diesel":1.889},"extra":{"saleType":"P","margin":"D","reportingType":"OM","ideess":"951","idMunicipio":"5021","idProvincia":"33","idCCAA":"03"}}},{"type":"Feature","geometry":{"type":"Point","coordinates":[-6.063667,43.393417]},"properties":{"id":"es-955","source":"ES","brand":"CEPSA","address":"CARRETERA NACIONAL 634 KM. 431,3","municipality":"Grado","province":"ASTURIAS","postalCode":"33820","schedule":"L-V: 07:00-22:00; S: 07:00-23:00; D: 08:00-23:00","fuels":{"gasoline95":1.796,"gasoline98":1.899,"diesel":1.926,"dieselPremium":2.056,"dieselB":1.629,"adblue":1.169},"extra":{"saleType":"P","margin":"D","reportingType":"dm","ideess":"955","idMunicipio":"4989","idProvincia":"33","idCCAA":"03"}}},{"type":"Feature","geometry":{"type":"Point","coordinates":[-6.377472,43.356]},"properties":{"id":"es-9593","source":"ES","brand":"CAMPOASTUR","address":"POLIGONO INDUSTRIAL LA CURISCADA S/N","municipality":"Tineo","province":"ASTURIAS","postalCode":"33870","schedule":"L-D: 24H","fuels":{"diesel":1.679,"dieselB":1.259},"extra":{"saleType":"P","margin":"D","reportingType":"dm","ideess":"9593","idMunicipio":"5035","idProvincia":"33","idCCAA":"03"}}},{"type":"Feature","geometry":{"type":"Point","coordinates":[-6.517778,43.364667]},"properties":{"id":"es-9600","source":"ES","brand":"CAMPOASTUR","address":"BARCENA DEL MONASTERIO S/N","municipality":"Tineo","province":"ASTURIAS","postalCode":"33870","schedule":"L-D: 24H","fuels":{"gasoline95":1.609,"diesel":1.679},"extra":{"saleType":"P","margin":"D","reportingType":"dm","ideess":"9600","idMunicipio":"5035","idProvincia":"33","idCCAA":"03"}}},{"type":"Feature","geometry":{"type":"Point","coordinates":[-6.380139,43.355944]},"properties":{"id":"es-963","source":"ES","brand":"MOEVE","address":"CARRETERA AS-219 KM. 5,200","municipality":"Tineo","province":"ASTURIAS","postalCode":"33870","schedule":"L-V: 07:00-22:00; S-D: 09:00-22:00","fuels":{"gasoline95E10":1.809,"gasoline95Premium":1.909,"diesel":1.969,"dieselPremium":2.069},"extra":{"saleType":"P","margin":"D","reportingType":"dm","ideess":"963","idMunicipio":"5035","idProvincia":"33","idCCAA":"03"}}},{"type":"Feature","geometry":{"type":"Point","coordinates":[-6.078194,43.498278]},"properties":{"id":"es-966","source":"ES","brand":"GALP","address":"CARRETERA AS16 KM. 4,140","municipality":"Soto del Barco","province":"ASTURIAS","postalCode":"33126","schedule":"L-D: 07:00-23:00","fuels":{"gasoline95":1.779,"gasoline98":1.899,"diesel":1.879,"dieselPremium":1.949},"extra":{"saleType":"P","margin":"D","reportingType":"dm","ideess":"966","idMunicipio":"5031","idProvincia":"33","idCCAA":"03"}}},{"type":"Feature","geometry":{"type":"Point","coordinates":[-6.879361,43.219472]},"properties":{"id":"es-967","source":"ES","brand":"EL SALVADOR","address":"AVENIDA GALICIA, S/N","municipality":"Grandas de Salime","province":"ASTURIAS","postalCode":"33730","schedule":"L-D: 24H","fuels":{"gasoline95":1.769,"diesel":1.879,"dieselPremium":1.939,"dieselB":1.679},"extra":{"saleType":"P","margin":"N","reportingType":"dm","ideess":"967","idMunicipio":"4990","idProvincia":"33","idCCAA":"03"}}},{"type":"Feature","geometry":{"type":"Point","coordinates":[-6.60475,43.546139]},"properties":{"id":"es-9706","source":"ES","brand":"CAMPOASTUR","address":"RIO MAYOR S/N (N-634 km 512)","municipality":"Valdés","province":"ASTURIAS","postalCode":"33792","schedule":"L-D: 24H","fuels":{"gasoline95":1.609,"diesel":1.679,"dieselB":1.259},"extra":{"saleType":"P","margin":"D","reportingType":"dm","ideess":"9706","idMunicipio":"5036","idProvincia":"33","idCCAA":"03"}}},{"type":"Feature","geometry":{"type":"Point","coordinates":[-6.101111,43.541]},"properties":{"id":"es-971","source":"ES","brand":"GALP","address":"AVENIDA RIEGO, 5","municipality":"Muros de Nalón","province":"ASTURIAS","postalCode":"33138","schedule":"L: 07:00-22:00","fuels":{"gasoline95":1.785,"gasoline98":1.895,"diesel":1.825,"dieselPremium":1.905},"extra":{"saleType":"P","margin":"D","reportingType":"dm","ideess":"971","idMunicipio":"5001","idProvincia":"33","idCCAA":"03"}}},{"type":"Feature","geometry":{"type":"Point","coordinates":[-6.518917,43.535]},"properties":{"id":"es-974","source":"ES","brand":"GALP","address":"CARRETERA CRTA N 634 KM. 502","municipality":"Valdés","province":"ASTURIAS","postalCode":"33700","schedule":"L-D: 07:00-23:00","fuels":{"gasoline95":1.784,"gasoline98":1.924,"diesel":1.939,"dieselPremium":1.989},"extra":{"saleType":"P","margin":"D","reportingType":"OM","ideess":"974","idMunicipio":"5036","idProvincia":"33","idCCAA":"03"}}},{"type":"Feature","geometry":{"type":"Point","coordinates":[-6.110667,43.487833]},"properties":{"id":"es-975","source":"ES","brand":"GALP","address":"CALLE AGUSTIN BRAVO, S/N","municipality":"Pravia","province":"ASTURIAS","postalCode":"33120","schedule":"L-D: 07:00-22:00","fuels":{"gasoline95":1.789,"gasoline98":1.919,"diesel":1.909,"dieselB":1.749},"extra":{"saleType":"P","margin":"I","reportingType":"dm","ideess":"975","idMunicipio":"5013","idProvincia":"33","idCCAA":"03"}}},{"type":"Feature","geometry":{"type":"Point","coordinates":[-6.409306,43.425917]},"properties":{"id":"es-9767","source":"ES","brand":"CAMPOASTUR","address":"VA-5 km 5.200","municipality":"Valdés","province":"ASTURIAS","postalCode":"33782","schedule":"L-D: 24H","fuels":{"diesel":1.679,"dieselB":1.259},"extra":{"saleType":"P","margin":"D","reportingType":"dm","ideess":"9767","idMunicipio":"5036","idProvincia":"33","idCCAA":"03"}}},{"type":"Feature","geometry":{"type":"Point","coordinates":[-6.218333,43.286861]},"properties":{"id":"es-9917","source":"ES","brand":"GALP","address":"CARRETERA CTRA DEL PUERTO S/N KM. 1","municipality":"Belmonte de Miranda","province":"ASTURIAS","postalCode":"33830","schedule":"L: 24H","fuels":{"gasoline95":1.759,"diesel":1.809},"extra":{"saleType":"P","margin":"I","reportingType":"dm","ideess":"9917","idMunicipio":"4968","idProvincia":"33","idCCAA":"03"}}}]}