{"type":"FeatureCollection","features":[{"type":"Feature","geometry":{"type":"Point","coordinates":[3.1475,39.370778]},"properties":{"id":"es-11945","source":"ES","brand":"REPSOL","address":"CARRETERA C-717 KM. 53,7","municipality":"Santanyí","province":"BALEARS (ILLES)","postalCode":"07650","schedule":"L-D: 06:00-22:00","fuels":{"gasoline95":1.859,"gasoline98":2.009,"diesel":1.989,"dieselRenewable":2.109},"extra":{"saleType":"P","margin":"D","reportingType":"dm","ideess":"11945","idMunicipio":"853","idProvincia":"07","idCCAA":"04"}}},{"type":"Feature","geometry":{"type":"Point","coordinates":[3.446389,39.703889]},"properties":{"id":"es-13569","source":"ES","brand":"GALP","address":"AVENIDA JUAN CARLOS I, 68","municipality":"Capdepera","province":"BALEARS (ILLES)","postalCode":"07580","schedule":"L-S: 06:00-22:00; D: 07:00-22:00","fuels":{"gasoline95":1.848,"diesel":1.948,"dieselPremium":2.048,"adblue":1.288},"extra":{"saleType":"P","margin":"D","reportingType":"dm","ideess":"13569","idMunicipio":"808","idProvincia":"07","idCCAA":"04"}}},{"type":"Feature","geometry":{"type":"Point","coordinates":[3.030611,39.885639]},"properties":{"id":"es-13588","source":"ES","brand":"GALP","address":"CALLE FUSTER, 35","municipality":"Pollença","province":"BALEARS (ILLES)","postalCode":"07460","schedule":"L-D: 06:00-22:00","fuels":{"gasoline95":1.805,"dieselPremium":1.935,"adblue":1.01},"extra":{"saleType":"P","margin":"D","reportingType":"dm","ideess":"13588","idMunicipio":"839","idProvincia":"07","idCCAA":"04"}}},{"type":"Feature","geometry":{"type":"Point","coordinates":[3.373417,39.643333]},"properties":{"id":"es-14144","source":"ES","brand":"REPSOL","address":"CARRETERA MA-4040 KM. 2,5","municipality":"Son Servera","province":"BALEARS (ILLES)","postalCode":"07550","schedule":"L-V: 08:00-17:00","fuels":{"lpg":0.949},"extra":{"saleType":"P","margin":"I","reportingType":"dm","ideess":"14144","idMunicipio":"858","idProvincia":"07","idCCAA":"04"}}},{"type":"Feature","geometry":{"type":"Point","coordinates":[3.023944,39.775028]},"properties":{"id":"es-14388","source":"ES","brand":"EROSKI","address":"CALLE JOAN PIZA I MASSANET, 5","municipality":"Pobla (Sa)","province":"BALEARS (ILLES)","postalCode":"07420","schedule":"L-D: 24H","fuels":{"gasoline95":1.639,"diesel":1.8},"extra":{"saleType":"P","margin":"N","reportingType":"dm","ideess":"14388","idMunicipio":"838","idProvincia":"07","idCCAA":"04"}}},{"type":"Feature","geometry":{"type":"Point","coordinates":[3.194417,39.572111]},"properties":{"id":"es-14906","source":"ES","brand":"REPSOL","address":"CALLE VIA MAJORICA, SN","municipality":"Manacor","province":"BALEARS (ILLES)","postalCode":"07500","schedule":"L-D: 06:00-22:00","fuels":{"gasoline95":1.849,"gasoline98":1.999,"diesel":1.979,"dieselRenewable":2.099,"lpg":1.039,"adblue":1.219},"extra":{"saleType":"P","margin":"D","reportingType":"dm","ideess":"14906","idMunicipio":"827","idProvincia":"07","idCCAA":"04"}}},{"type":"Feature","geometry":{"type":"Point","coordinates":[3.029611,39.886222]},"properties":{"id":"es-15079","source":"ES","brand":"JUST FUEL","address":"CALLE FUSTER DEL, 47","municipality":"Pollença","province":"BALEARS (ILLES)","postalCode":"07460","schedule":"L-D: 24H","fuels":{"gasoline95":1.679,"diesel":1.779},"extra":{"saleType":"P","margin":"I","reportingType":"dm","ideess":"15079","idMunicipio":"839","idProvincia":"07","idCCAA":"04"}}},{"type":"Feature","geometry":{"type":"Point","coordinates":[3.140944,39.465111]},"properties":{"id":"es-15093","source":"ES","brand":"JUST FUEL","address":"CALLE PUIG DE SANT NICOLAU, 1","municipality":"Felanitx","province":"BALEARS (ILLES)","postalCode":"07200","schedule":"L-D: 24H","fuels":{"gasoline95":1.669,"diesel":1.829},"extra":{"saleType":"P","margin":"I","reportingType":"dm","ideess":"15093","idMunicipio":"818","idProvincia":"07","idCCAA":"04"}}},{"type":"Feature","geometry":{"type":"Point","coordinates":[3.333417,39.546806]},"properties":{"id":"es-15122","source":"ES","brand":"JUST FUEL","address":"RONDA OEST, 25","municipality":"Manacor","province":"BALEARS (ILLES)","postalCode":"07680","schedule":"L-D: 24H","fuels":{"gasoline95":1.679,"diesel":1.809},"extra":{"saleType":"P","margin":"I","reportingType":"dm","ideess":"15122","idMunicipio":"827","idProvincia":"07","idCCAA":"04"}}},{"type":"Feature","geometry":{"type":"Point","coordinates":[3.207972,39.560028]},"properties":{"id":"es-15958","source":"ES","brand":"AUTONET&OIL","address":"CALLE DE LES PAGESES, 8","municipality":"Manacor","province":"BALEARS (ILLES)","postalCode":"07500","schedule":"L-D: 24H","fuels":{"gasoline95":1.699,"diesel":1.829,"dieselPremium":1.859,"adblue":0.999},"extra":{"saleType":"P","margin":"D","reportingType":"dm","ideess":"15958","idMunicipio":"827","idProvincia":"07","idCCAA":"04"}}},{"type":"Feature","geometry":{"type":"Point","coordinates":[3.02475,39.775861]},"properties":{"id":"es-15969","source":"ES","brand":"PLENERGY","address":"ROTONDA ALBUFERA, 2","municipality":"Pobla (Sa)","province":"BALEARS (ILLES)","postalCode":"07420","schedule":"L-D: 24H","fuels":{"gasoline95":1.689,"diesel":1.775},"extra":{"saleType":"P","margin":"D","reportingType":"dm","ideess":"15969","idMunicipio":"838","idProvincia":"07","idCCAA":"04"}}},{"type":"Feature","geometry":{"type":"Point","coordinates":[3.011639,39.437111]},"properties":{"id":"es-16146","source":"ES","brand":"PLENERGY","address":"CARRETERA MA-19 KM. 9","municipality":"Campos","province":"BALEARS (ILLES)","postalCode":"07630","schedule":"L-D: 24H","fuels":{"gasoline95":1.669,"diesel":1.749},"extra":{"saleType":"P","margin":"D","reportingType":"dm","ideess":"16146","idMunicipio":"807","idProvincia":"07","idCCAA":"04"}}},{"type":"Feature","geometry":{"type":"Point","coordinates":[3.006889,39.43625]},"properties":{"id":"es-16416","source":"ES","brand":"JUST FUEL","address":"CAMINO DE CIUTAT VELL, 40","municipality":"Campos","province":"BALEARS (ILLES)","postalCode":"07630","schedule":"L-D: 24H","fuels":{"gasoline95":1.679,"diesel":1.749},"extra":{"saleType":"P","margin":"D","reportingType":"dm","ideess":"16416","idMunicipio":"807","idProvincia":"07","idCCAA":"04"}}},{"type":"Feature","geometry":{"type":"Point","coordinates":[3.157806,39.755389]},"properties":{"id":"es-16458","source":"ES","brand":"JUST FUEL","address":"CALLE SES PEDRERES, 7","municipality":"Santa Margalida","province":"BALEARS (ILLES)","postalCode":"07458","schedule":"L-D: 24H","fuels":{"gasoline95":1.679,"diesel":1.789},"extra":{"saleType":"P","margin":"D","reportingType":"dm","ideess":"16458","idMunicipio":"851","idProvincia":"07","idCCAA":"04"}}},{"type":"Feature","geometry":{"type":"Point","coordinates":[3.152361,39.762]},"properties":{"id":"es-2411","source":"ES","brand":"BP CA SESTRELLA","address":" CARRETERA ARTA-PTO.ALCUDIA,99, ","municipality":"Santa Margalida","province":"BALEARS (ILLES)","postalCode":"07458","schedule":"L-S: 06:30-21:00","fuels":{"gasoline95":1.799,"gasoline98":1.97,"diesel":1.929,"dieselPremium":2.03},"extra":{"saleType":"P","margin":"N","reportingType":"dm","ideess":"2411","idMunicipio":"851","idProvincia":"07","idCCAA":"04"}}},{"type":"Feature","geometry":{"type":"Point","coordinates":[3.270694,39.600722]},"properties":{"id":"es-2566","source":"ES","brand":"REPSOL","address":"CARRETERA MA15 KM. 54,800","municipality":"Sant Llorenç des Cardassar","province":"BALEARS (ILLES)","postalCode":"07530","schedule":"L: 06:00-21:50","fuels":{"gasoline95":1.838,"gasoline98":1.998,"diesel":1.978,"dieselRenewable":2.098},"extra":{"saleType":"P","margin":"I","reportingType":"dm","ideess":"2566","idMunicipio":"847","idProvincia":"07","idCCAA":"04"}}},{"type":"Feature","geometry":{"type":"Point","coordinates":[3.361611,39.5805]},"properties":{"id":"es-2567","source":"ES","brand":"REPSOL","address":"CARRETERA CARRET.PORTO CRISTO-SON SERVERA,KM.5,200 KM. 5,200","municipality":"Sant Llorenç des Cardassar","province":"BALEARS (ILLES)","postalCode":"07530","schedule":"L-D: 07:00-21:00","fuels":{"gasoline95":1.82,"gasoline98":2.0,"diesel":1.96,"dieselRenewable":2.08},"extra":{"saleType":"P","margin":"I","reportingType":"OM","ideess":"2567","idMunicipio":"847","idProvincia":"07","idCCAA":"04"}}},{"type":"Feature","geometry":{"type":"Point","coordinates":[3.052639,39.7415]},"properties":{"id":"es-2568","source":"ES","brand":"REPSOL","address":"CARRETERA MA-3431 KM. 0,200","municipality":"Muro","province":"BALEARS (ILLES)","postalCode":"07440","schedule":"L-S: 06:30-21:30; D: 08:00-14:00","fuels":{"gasoline95":1.799,"gasoline98":1.959,"diesel":1.979,"dieselPremium":2.03},"extra":{"saleType":"P","margin":"I","reportingType":"dm","ideess":"2568","idMunicipio":"835","idProvincia":"07","idCCAA":"04"}}},{"type":"Feature","geometry":{"type":"Point","coordinates":[3.382056,39.59625]},"properties":{"id":"es-2575","source":"ES","brand":"MOEVE","address":"CALLE ES CARRERO, 0","municipality":"Sant Llorenç des Cardassar","province":"BALEARS (ILLES)","postalCode":"07560","schedule":"L-D: 24H","fuels":{"gasoline95":1.839,"gasoline95Premium":1.939,"diesel":1.989,"dieselPremium":2.079},"extra":{"saleType":"P","margin":"D","reportingType":"OM","ideess":"2575","idMunicipio":"847","idProvincia":"07","idCCAA":"04"}}},{"type":"Feature","geometry":{"type":"Point","coordinates":[3.227056,39.378722]},"properties":{"id":"es-2589","source":"ES","brand":"REPSOL","address":"AVINGUDA BENVINGUTS, 64","municipality":"Santanyí","province":"BALEARS (ILLES)","postalCode":"07660","schedule":"L-D: 07:30-21:00","fuels":{"gasoline95":1.799,"diesel":1.969},"extra":{"saleType":"P","margin":"D","reportingType":"dm","ideess":"2589","idMunicipio":"853","idProvincia":"07","idCCAA":"04"}}},{"type":"Feature","geometry":{"type":"Point","coordinates":[3.109972,39.81425]},"properties":{"id":"es-2593","source":"ES","brand":"LAS GAVIOTAS","address":"CALLE CRUCERO, 12","municipality":"Muro","province":"BALEARS (ILLES)","postalCode":"07408","schedule":"L-D: 06:00-20:00","fuels":{"gasoline95":1.869,"gasoline98":1.999,"diesel":1.999,"dieselRenewable":2.119},"extra":{"saleType":"P","margin":"D","reportingType":"dm","ideess":"2593","idMunicipio":"835","idProvincia":"07","idCCAA":"04"}}},{"type":"Feature","geometry":{"type":"Point","coordinates":[3.004667,39.437611]},"properties":{"id":"es-2594","source":"ES","brand":"MOEVE","address":"CARRETERA C-717 PALMA - PORTO PETRO KM. 34,5","municipality":"Campos","province":"BALEARS (ILLES)","postalCode":"07630","schedule":"L-D: 24H","fuels":{"gasoline95":1.839,"gasoline95Premium":1.929,"diesel":1.969,"dieselPremium":2.049,"dieselB":1.779},"extra":{"saleType":"P","margin":"D","reportingType":"OM","ideess":"2594","idMunicipio":"807","idProvincia":"07","idCCAA":"04"}}},{"type":"Feature","geometry":{"type":"Point","coordinates":[3.158722,39.473667]},"properties":{"id":"es-2596","source":"ES","brand":"PETRONOR","address":"CR PM-401, 0,4","municipality":"Felanitx","province":"BALEARS (ILLES)","postalCode":"07200","schedule":"L-D: 00:00-23:59","fuels":{"gasoline95":1.779,"gasoline98":1.949,"diesel":1.889,"dieselPremium":1.969},"extra":{"saleType":"P","margin":"I","reportingType":"dm","ideess":"2596","idMunicipio":"818","idProvincia":"07","idCCAA":"04"}}},{"type":"Feature","geometry":{"type":"Point","coordinates":[3.134056,39.575611]},"properties":{"id":"es-2599","source":"ES","brand":"CEPSA","address":"CARRETERA C-715 KM. 42,5","municipality":"Vilafranca de Bonany","province":"BALEARS (ILLES)","postalCode":"07250","schedule":"L-D: 07:00-23:00","fuels":{"gasoline95":1.856,"gasoline95E10":1.967,"diesel":2.015,"dieselPremium":2.098,"dieselB":1.804},"extra":{"saleType":"P","margin":"D","reportingType":"dm","ideess":"2599","idMunicipio":"860","idProvincia":"07","idCCAA":"04"}}},{"type":"Feature","geometry":{"type":"Point","coordinates":[3.262972,39.561028]},"properties":{"id":"es-2601","source":"ES","brand":"AUTONET&OIL","address":"CARRETERA PM-402 KM. 5,6","municipality":"Manacor","province":"BALEARS (ILLES)","postalCode":"07500","schedule":"L-D: 24H","fuels":{"gasoline95":1.679,"diesel":1.809,"dieselPremium":1.839},"extra":{"saleType":"P","margin":"D","reportingType":"dm","ideess":"2601","idMunicipio":"827","idProvincia":"07","idCCAA":"04"}}},{"type":"Feature","geometry":{"type":"Point","coordinates":[3.220667,39.566944]},"properties":{"id":"es-2607","source":"ES","brand":"REPSOL","address":"CR PM-402, 1,6","municipality":"Manacor","province":"BALEARS (ILLES)","postalCode":"07500","schedule":"L-V: 06:00-22:00; S-D: 07:00-22:00","fuels":{"gasoline95":1.85,"gasoline98":1.98,"diesel":1.996,"dieselRenewable":2.116},"extra":{"saleType":"P","margin":"D","reportingType":"OM","ideess":"2607","idMunicipio":"827","idProvincia":"07","idCCAA":"04"}}},{"type":"Feature","geometry":{"type":"Point","coordinates":[3.006083,39.646083]},"properties":{"id":"es-2616","source":"ES","brand":"REPSOL","address":"CARRETERA PM-324 KM. 11,5","municipality":"Sineu","province":"BALEARS (ILLES)","postalCode":"07510","schedule":"L-D: 06:00-22:00","fuels":{"gasoline95":1.84,"diesel":1.99,"dieselB":1.696,"dieselRenewable":2.11},"extra":{"saleType":"P","margin":"D","reportingType":"OM","ideess":"2616","idMunicipio":"856","idProvincia":"07","idCCAA":"04"}}},{"type":"Feature","geometry":{"type":"Point","coordinates":[3.000056,39.320111]},"properties":{"id":"es-2624","source":"ES","brand":"REPSOL","address":"CALLE GABRIEL ROCA, 129","municipality":"Salines (Ses)","province":"BALEARS (ILLES)","postalCode":"07638","schedule":"L-D: 06:00-22:00","fuels":{"gasoline95":1.869,"gasoline98":1.999,"diesel":1.999,"dieselRenewable":2.109,"adblue":1.16},"extra":{"saleType":"P","margin":"D","reportingType":"dm","ideess":"2624","idMunicipio":"842","idProvincia":"07","idCCAA":"04"}}},{"type":"Feature","geometry":{"type":"Point","coordinates":[3.210528,39.577833]},"properties":{"id":"es-2634","source":"ES","brand":"REPSOL","address":"VÍA VIA PALMA, 87 (ROTONDA HOSPITAL), 87","municipality":"Manacor","province":"BALEARS (ILLES)","postalCode":"07500","schedule":"L: 24H","fuels":{"gasoline95":1.849,"gasoline98":1.999,"diesel":1.979,"dieselB":1.649,"dieselRenewable":2.099,"adblue":1.219},"extra":{"saleType":"P","margin":"I","reportingType":"dm","ideess":"2634","idMunicipio":"827","idProvincia":"07","idCCAA":"04"}}},{"type":"Feature","geometry":{"type":"Point","coordinates":[3.207,39.561306]},"properties":{"id":"es-2638","source":"ES","brand":"REPSOL","address":"CALLE JUAN MIRO, S/N","municipality":"Manacor","province":"BALEARS (ILLES)","postalCode":"07500","schedule":"L-D: 24H","fuels":{"gasoline95":1.849,"gasoline98":1.999,"diesel":1.979,"dieselB":1.659,"dieselRenewable":2.099},"extra":{"saleType":"P","margin":"D","reportingType":"dm","ideess":"2638","idMunicipio":"827","idProvincia":"07","idCCAA":"04"}}},{"type":"Feature","geometry":{"type":"Point","coordinates":[3.029667,39.765472]},"properties":{"id":"es-2639","source":"ES","brand":"BP SA POBLA","address":"CARRETERA MURO KM. 0","municipality":"Pobla (Sa)","province":"BALEARS (ILLES)","postalCode":"07420","schedule":"L-S: 06:00-21:00; D: 07:00-14:00","fuels":{"gasoline95":1.829,"gasoline98":1.969,"diesel":1.989,"dieselPremium":2.079,"adblue":1.235},"extra":{"saleType":"P","margin":"I","reportingType":"OM","ideess":"2639","idMunicipio":"838","idProvincia":"07","idCCAA":"04"}}},{"type":"Feature","geometry":{"type":"Point","coordinates":[3.143472,39.474778]},"properties":{"id":"es-2646","source":"ES","brand":"BP FELANITX","address":"CR PM-510, 12,1","municipality":"Felanitx","province":"BALEARS (ILLES)","postalCode":"07200","schedule":"L-V: 06:00-21:00; S: 07:00-21:00","fuels":{"gasoline95":1.779,"gasoline98":1.919,"diesel":1.899,"dieselPremium":1.989},"extra":{"saleType":"P","margin":"I","reportingType":"dm","ideess":"2646","idMunicipio":"818","idProvincia":"07","idCCAA":"04"}}},{"type":"Feature","geometry":{"type":"Point","coordinates":[3.235472,39.443611]},"properties":{"id":"es-2647","source":"ES","brand":"REPSOL","address":"CARRETERA CARRETERA FELANITX-PORTO COLOM, KM.8,200 KM. 8,200","municipality":"Felanitx","province":"BALEARS (ILLES)","postalCode":"07200","schedule":"L-D: 06:30-22:00","fuels":{"gasoline95":1.849,"gasoline98":1.999,"diesel":1.979,"dieselB":1.649,"dieselRenewable":2.099},"extra":{"saleType":"P","margin":"I","reportingType":"dm","ideess":"2647","idMunicipio":"818","idProvincia":"07","idCCAA":"04"}}},{"type":"Feature","geometry":{"type":"Point","coordinates":[3.016083,39.873722]},"properties":{"id":"es-2650","source":"ES","brand":"REPSOL","address":"CL CECILIO METELO-ESQ.PUIG MARI, S.","municipality":"Pollença","province":"BALEARS (ILLES)","postalCode":"07460","schedule":"L-D: 06:00-22:00","fuels":{"gasoline95":1.83,"gasoline98":1.96,"diesel":1.96,"dieselRenewable":2.08},"extra":{"saleType":"P","margin":"D","reportingType":"OM","ideess":"2650","idMunicipio":"839","idProvincia":"07","idCCAA":"04"}}},{"type":"Feature","geometry":{"type":"Point","coordinates":[3.226556,39.703111]},"properties":{"id":"es-2652","source":"ES","brand":"REPSOL","address":"CARRETERA MA-12 KM. 11,600","municipality":"Artà","province":"BALEARS (ILLES)","postalCode":"07570","schedule":"L-S: 06:00-22:00; D: 06:00-14:00","fuels":{"gasoline95":1.859,"gasoline98":2.009,"diesel":1.989,"dieselB":1.659,"dieselRenewable":2.109},"extra":{"saleType":"P","margin":"I","reportingType":"dm","ideess":"2652","idMunicipio":"800","idProvincia":"07","idCCAA":"04"}}},{"type":"Feature","geometry":{"type":"Point","coordinates":[3.2615,39.421]},"properties":{"id":"es-2658","source":"ES","brand":"REPSOL","address":"CALLE CRISTOFOR COLOM   P.COLOM, 33","municipality":"Felanitx","province":"BALEARS (ILLES)","postalCode":"07670","schedule":"L-S: 07:00-20:00; D: 08:00-13:00","fuels":{"gasoline95":1.807,"diesel":1.923},"extra":{"saleType":"P","margin":"I","reportingType":"dm","ideess":"2658","idMunicipio":"818","idProvincia":"07","idCCAA":"04"}}},{"type":"Feature","geometry":{"type":"Point","coordinates":[3.016944,39.771472]},"properties":{"id":"es-2672","source":"ES","brand":"BALLENOIL","address":"CALLE TRAJINERS, SN","municipality":"Pobla (Sa)","province":"BALEARS (ILLES)","postalCode":"07420","schedule":"L-D: 24H","fuels":{"gasoline95":1.689,"gasoline95Premium":1.709,"diesel":1.775,"dieselPremium":1.795},"extra":{"saleType":"P","margin":"N","reportingType":"OM","ideess":"2672","idMunicipio":"838","idProvincia":"07","idCCAA":"04"}}},{"type":"Feature","geometry":{"type":"Point","coordinates":[3.019583,39.520056]},"properties":{"id":"es-2673","source":"ES","brand":"BP","address":"CARRERA PM-503 KM. 5,5, ","municipality":"Porreres","province":"BALEARS (ILLES)","postalCode":"07260","schedule":"L-V: 06:00-22:00; S: 06:00-21:00; D: 07:00-22:00","fuels":{"gasoline95":1.869,"gasoline98":2.019,"diesel":1.999,"dieselPremium":2.109,"dieselB":1.709},"extra":{"saleType":"P","margin":"N","reportingType":"dm","ideess":"2673","idMunicipio":"840","idProvincia":"07","idCCAA":"04"}}},{"type":"Feature","geometry":{"type":"Point","coordinates":[3.10075,39.701556]},"properties":{"id":"es-2676","source":"ES","brand":"BP MUNAR CAPO","address":"CR STA. MARGARITA-PETRA KM  10,7","municipality":"Santa Margalida","province":"BALEARS (ILLES)","postalCode":"07450","schedule":"L-S: 07:00-21:00","fuels":{"gasoline95":1.799,"diesel":1.929,"dieselPremium":2.05},"extra":{"saleType":"P","margin":"N","reportingType":"dm","ideess":"2676","idMunicipio":"851","idProvincia":"07","idCCAA":"04"}}},{"type":"Feature","geometry":{"type":"Point","coordinates":[3.339444,39.547667]},"properties":{"id":"es-2678","source":"ES","brand":"REPSOL","address":"RONDA RONDA DEL OESTE, 123","municipality":"Manacor","province":"BALEARS (ILLES)","postalCode":"07680","schedule":"L-D: 06:00-22:00","fuels":{"gasoline95":1.849,"gasoline98":1.999,"diesel":1.979,"dieselB":1.649,"dieselRenewable":2.099,"adblue":1.219},"extra":{"saleType":"P","margin":"I","reportingType":"dm","ideess":"2678","idMunicipio":"827","idProvincia":"07","idCCAA":"04"}}},{"type":"Feature","geometry":{"type":"Point","coordinates":[3.046389,39.341333]},"properties":{"id":"es-2679","source":"ES","brand":"CEPSA","address":"AVENIDA FRANCESC DE BORJA MOLL, 61","municipality":"Salines (Ses)","province":"BALEARS (ILLES)","postalCode":"07640","schedule":"L-S: 08:00-20:00","fuels":{"gasoline95":1.869,"gasoline95Premium":1.969,"diesel":2.019,"dieselPremium":2.109},"extra":{"saleType":"P","margin":"I","reportingType":"dm","ideess":"2679","idMunicipio":"842","idProvincia":"07","idCCAA":"04"}}},{"type":"Feature","geometry":{"type":"Point","coordinates":[3.166778,39.383944]},"properties":{"id":"es-2680","source":"ES","brand":"CEPSA","address":"CARRER CONVENT, 29","municipality":"Santanyí","province":"BALEARS (ILLES)","postalCode":"07650","schedule":"L-S: 07:00-19:00","fuels":{"gasoline95":1.859,"gasoline95Premium":1.969,"diesel":2.019,"dieselPremium":2.109,"dieselB":1.859},"extra":{"saleType":"P","margin":"I","reportingType":"dm","ideess":"2680","idMunicipio":"853","idProvincia":"07","idCCAA":"04"}}},{"type":"Feature","geometry":{"type":"Point","coordinates":[3.133833,39.576111]},"properties":{"id":"es-2684","source":"ES","brand":"CEPSA","address":"CARRETERA C-715 KM. 42,5","municipality":"Petra","province":"BALEARS (ILLES)","postalCode":"07520","schedule":"L-D: 06:30-21:30","fuels":{"gasoline95":1.799,"gasoline95Premium":1.889,"diesel":1.929,"dieselPremium":1.999},"extra":{"saleType":"P","margin":"I","reportingType":"dm","ideess":"2684","idMunicipio":"837","idProvincia":"07","idCCAA":"04"}}},{"type":"Feature","geometry":{"type":"Point","coordinates":[3.200528,39.574167]},"properties":{"id":"es-2687","source":"ES","brand":"REPSOL","address":"CR C-715, 48","municipality":"Manacor","province":"BALEARS (ILLES)","postalCode":"07500","schedule":"L-V: 06:00-22:00; S-D: 07:00-22:00","fuels":{"gasoline95":1.85,"gasoline98":2.01,"diesel":1.996,"dieselRenewable":2.116},"extra":{"saleType":"P","margin":"I","reportingType":"OM","ideess":"2687","idMunicipio":"827","idProvincia":"07","idCCAA":"04"}}},{"type":"Feature","geometry":{"type":"Point","coordinates":[3.346972,39.68975]},"properties":{"id":"es-2690","source":"ES","brand":"REPSOL","address":"CALLE CIUTAT, SN","municipality":"Artà","province":"BALEARS (ILLES)","postalCode":"07570","schedule":"L-D: 06:00-22:00","fuels":{"gasoline95":1.816,"gasoline98":1.946,"diesel":1.98,"dieselRenewable":2.1},"extra":{"saleType":"P","margin":"D","reportingType":"OM","ideess":"2690","idMunicipio":"800","idProvincia":"07","idCCAA":"04"}}},{"type":"Feature","geometry":{"type":"Point","coordinates":[3.077333,39.904694]},"properties":{"id":"es-2698","source":"ES","brand":"BP PUERTO POLLENSA","address":"CALLE JUAN XXIII, 133","municipality":"Pollença","province":"BALEARS (ILLES)","postalCode":"07460","schedule":"L-D: 06:00-22:00","fuels":{"gasoline95":1.829,"gasoline98":1.969,"diesel":1.989,"dieselPremium":2.079},"extra":{"saleType":"P","margin":"I","reportingType":"OM","ideess":"2698","idMunicipio":"839","idProvincia":"07","idCCAA":"04"}}},{"type":"Feature","geometry":{"type":"Point","coordinates":[3.15075,39.763139]},"properties":{"id":"es-2699","source":"ES","brand":"REPSOL","address":"C-712 km 22,3","municipality":"Santa Margalida","province":"BALEARS (ILLES)","postalCode":"07458","schedule":"L-V: 06:00-22:00; S: 06:30-22:00","fuels":{"gasoline95":1.839,"gasoline98":1.999,"diesel":1.999,"dieselRenewable":2.099},"extra":{"saleType":"P","margin":"I","reportingType":"dm","ideess":"2699","idMunicipio":"851","idProvincia":"07","idCCAA":"04"}}},{"type":"Feature","geometry":{"type":"Point","coordinates":[3.02425,39.426361]},"properties":{"id":"es-2700","source":"ES","brand":"REPSOL","address":"CARRETERA C-717 KM. 38","municipality":"Campos","province":"BALEARS (ILLES)","postalCode":"07630","schedule":"L-S: 06:00-22:30; D: 07:00-22:30","fuels":{"gasoline95":1.866,"gasoline98":1.996,"diesel":2.01,"dieselB":1.712,"dieselRenewable":2.13},"extra":{"saleType":"P","margin":"I","reportingType":"OM","ideess":"2700","idMunicipio":"807","idProvincia":"07","idCCAA":"04"}}},{"type":"Feature","geometry":{"type":"Point","coordinates":[3.059583,39.729306]},"properties":{"id":"es-2701","source":"ES","brand":"ECONOMIC FUEL","address":"AVENIDA SANTA MARGARITA, 49","municipality":"Muro","province":"BALEARS (ILLES)","postalCode":"07440","schedule":"L-D: 24H","fuels":{"gasoline95":1.709,"gasoline98":1.799,"diesel":1.829,"dieselB":1.659},"extra":{"saleType":"P","margin":"D","reportingType":"dm","ideess":"2701","idMunicipio":"835","idProvincia":"07","idCCAA":"04"}}},{"type":"Feature","geometry":{"type":"Point","coordinates":[3.099,39.847]},"properties":{"id":"es-2703","source":"ES","brand":"MOEVE","address":"CARRETERA C-713 KM. 51,1","municipality":"Alcúdia","province":"BALEARS (ILLES)","postalCode":"07400","schedule":"L-D: 06:00-22:00","fuels":{"gasoline95":1.799,"gasoline95Premium":1.879,"diesel":1.899,"dieselPremium":1.959},"extra":{"saleType":"P","margin":"I","reportingType":"dm","ideess":"2703","idMunicipio":"796","idProvincia":"07","idCCAA":"04"}}},{"type":"Feature","geometry":{"type":"Point","coordinates":[3.024111,39.426417]},"properties":{"id":"es-2707","source":"ES","brand":"REPSOL","address":"CARRETERA C-717 KM. 38","municipality":"Santanyí","province":"BALEARS (ILLES)","postalCode":"07650","schedule":"L-D: 06:00-22:30","fuels":{"gasoline95":1.87,"gasoline95Premium":1.94,"gasoline98":2.0,"diesel":2.01,"dieselB":1.676,"dieselRenewable":2.13},"extra":{"saleType":"P","margin":"I","reportingType":"OM","ideess":"2707","idMunicipio":"853","idProvincia":"07","idCCAA":"04"}}},{"type":"Feature","geometry":{"type":"Point","coordinates":[3.138222,39.465639]},"properties":{"id":"es-2710","source":"ES","brand":"REPSOL","address":"CARRETERA CAMPOS KM. 11,1","municipality":"Felanitx","province":"BALEARS (ILLES)","postalCode":"07200","schedule":"L-V: 06:00-22:00; S: 06:30-22:00; D: 07:00-22:00","fuels":{"gasoline95":1.82,"gasoline98":1.95,"diesel":1.986,"dieselB":1.712,"dieselRenewable":2.106},"extra":{"saleType":"P","margin":"D","reportingType":"OM","ideess":"2710","idMunicipio":"818","idProvincia":"07","idCCAA":"04"}}},{"type":"Feature","geometry":{"type":"Point","coordinates":[3.451667,39.705278]},"properties":{"id":"es-2713","source":"ES","brand":"REPSOL","address":"AVENIDA JUAN CARLOS I, S/N","municipality":"Capdepera","province":"BALEARS (ILLES)","postalCode":"07580","schedule":"L-D: 06:00-22:00","fuels":{"gasoline95":1.866,"gasoline95Premium":1.946,"gasoline98":1.996,"diesel":1.96,"dieselRenewable":2.08},"extra":{"saleType":"P","margin":"D","reportingType":"OM","ideess":"2713","idMunicipio":"808","idProvincia":"07","idCCAA":"04"}}},{"type":"Feature","geometry":{"type":"Point","coordinates":[3.263111,39.561]},"properties":{"id":"es-2716","source":"ES","brand":"MOEVE","address":"CARRETERA PM 402 KM. 9","municipality":"Manacor","province":"BALEARS (ILLES)","postalCode":"07680","schedule":"L-D: 06:00-22:00","fuels":{"gasoline95":1.769,"gasoline98":1.869,"diesel":1.869,"dieselPremium":1.969,"adblue":1.149},"extra":{"saleType":"P","margin":"I","reportingType":"dm","ideess":"2716","idMunicipio":"827","idProvincia":"07","idCCAA":"04"}}},{"type":"Feature","geometry":{"type":"Point","coordinates":[3.109028,39.625889]},"properties":{"id":"es-2718","source":"ES","brand":"REPSOL","address":"CARRETERA PM-334 KM. 1,1","municipality":"Petra","province":"BALEARS (ILLES)","postalCode":"07520","schedule":"L-S: 06:30-21:00; D: 07:00-21:00","fuels":{"gasoline95":1.859,"gasoline98":2.039,"diesel":1.989,"dieselB":1.779,"dieselRenewable":2.119},"extra":{"saleType":"P","margin":"D","reportingType":"dm","ideess":"2718","idMunicipio":"837","idProvincia":"07","idCCAA":"04"}}},{"type":"Feature","geometry":{"type":"Point","coordinates":[3.067806,39.569833]},"properties":{"id":"es-2723","source":"ES","brand":"REPSOL","address":"CARRETERA MA-15 KM. 36,6","municipality":"Sant Joan","province":"BALEARS (ILLES)","postalCode":"07240","schedule":"L-D: 06:00-22:00","fuels":{"gasoline95":1.849,"gasoline98":1.999,"diesel":1.979,"dieselB":1.659,"dieselRenewable":2.099,"adblue":1.219},"extra":{"saleType":"P","margin":"D","reportingType":"dm","ideess":"2723","idMunicipio":"844","idProvincia":"07","idCCAA":"04"}}},{"type":"Feature","geometry":{"type":"Point","coordinates":[3.005889,39.698694]},"properties":{"id":"es-2724","source":"ES","brand":"CEPSA","address":"CARRER LA CARRETERA, 69","municipality":"Llubí","province":"BALEARS (ILLES)","postalCode":"07430","schedule":"L-S: 07:00-13:00 y 16:00-20:00","fuels":{"gasoline95":1.779,"diesel":1.906},"extra":{"saleType":"P","margin":"D","reportingType":"dm","ideess":"2724","idMunicipio":"825","idProvincia":"07","idCCAA":"04"}}},{"type":"Feature","geometry":{"type":"Point","coordinates":[3.226833,39.379917]},"properties":{"id":"es-2727","source":"ES","brand":"MOEVE","address":"AVENIDA BIENVENIDOS, 36","municipality":"Santanyí","province":"BALEARS (ILLES)","postalCode":"07660","schedule":"L-D: 24H","fuels":{"gasoline95":1.839,"gasoline95Premium":1.939,"gasoline98":1.959,"diesel":1.979,"dieselPremium":2.059},"extra":{"saleType":"P","margin":"D","reportingType":"OM","ideess":"2727","idMunicipio":"853","idProvincia":"07","idCCAA":"04"}}},{"type":"Feature","geometry":{"type":"Point","coordinates":[3.360278,39.696194]},"properties":{"id":"es-2728","source":"ES","brand":"PETRONOR","address":"CL ABEVRADERO-ESQUINA CR C-715, S.N (C-715 km 2)","municipality":"Artà","province":"BALEARS (ILLES)","postalCode":"07570","schedule":"L-D: 06:30-22:00","fuels":{"gasoline95":1.816,"gasoline98":1.936,"diesel":1.97,"dieselPremium":2.06},"extra":{"saleType":"P","margin":"D","reportingType":"OM","ideess":"2728","idMunicipio":"800","idProvincia":"07","idCCAA":"04"}}},{"type":"Feature","geometry":{"type":"Point","coordinates":[3.113806,39.821333]},"properties":{"id":"es-2731","source":"ES","brand":"REPSOL","address":"AVENIDA JUAN CARLOS I, 109","municipality":"Alcúdia","province":"BALEARS (ILLES)","postalCode":"07408","schedule":"L-D: 07:00-21:00","fuels":{"gasoline95":1.859,"gasoline98":2.009,"diesel":1.989,"dieselRenewable":2.109},"extra":{"saleType":"P","margin":"I","reportingType":"dm","ideess":"2731","idMunicipio":"796","idProvincia":"07","idCCAA":"04"}}},{"type":"Feature","geometry":{"type":"Point","coordinates":[3.127083,39.850056]},"properties":{"id":"es-2733","source":"ES","brand":"REPSOL","address":"CL POLLENTIA ESQ. CL. L,ESTEL, S.N.","municipality":"Alcúdia","province":"BALEARS (ILLES)","postalCode":"07400","schedule":"L-D: 07:00-21:00","fuels":{"gasoline95":1.84,"gasoline98":1.97,"diesel":1.97,"dieselRenewable":2.09},"extra":{"saleType":"P","margin":"I","reportingType":"OM","ideess":"2733","idMunicipio":"796","idProvincia":"07","idCCAA":"04"}}},{"type":"Feature","geometry":{"type":"Point","coordinates":[3.370222,39.614028]},"properties":{"id":"es-2739","source":"ES","brand":"REPSOL","address":"CARRETERA SON SERVERA KM. 1,5","municipality":"Son Servera","province":"BALEARS (ILLES)","postalCode":"07550","schedule":"L-D: 24H","fuels":{"gasoline95":1.838,"gasoline98":1.998,"diesel":1.978,"dieselRenewable":2.098},"extra":{"saleType":"P","margin":"D","reportingType":"dm","ideess":"2739","idMunicipio":"858","idProvincia":"07","idCCAA":"04"}}},{"type":"Feature","geometry":{"type":"Point","coordinates":[3.123333,39.843333]},"properties":{"id":"es-9182","source":"ES","brand":"REPSOL","address":"VÍA CORNELI ATIC, 5","municipality":"Alcúdia","province":"BALEARS (ILLES)","postalCode":"07410","schedule":"L-D: 24H","fuels":{"gasoline95":1.869,"gasoline95Premium":1.929,"gasoline98":1.999,"diesel":1.999,"dieselRenewable":2.119,"lpg":1.139},"extra":{"saleType":"P","margin":"D","reportingType":"dm","ideess":"9182","idMunicipio":"796","idProvincia":"07","idCCAA":"04"}}},{"type":"Feature","geometry":{"type":"Point","coordinates":[3.02825,39.641944]},"properties":{"id":"es-9870","source":"ES","brand":"SHELL","address":"CARRETERA 3301 KM. 1,5","municipality":"Sineu","province":"BALEARS (ILLES)","postalCode":"07510","schedule":"L-D: 24H","fuels":{"gasoline95":1.789,"gasoline98":1.909,"diesel":1.909,"dieselPremium":1.989,"dieselB":1.639},"extra":{"saleType":"P","margin":"D","reportingType":"dm","ideess":"9870","idMunicipio":"856","idProvincia":"07","idCCAA":"04"}}}]}