{"type":"FeatureCollection","features":[{"type":"Feature","geometry":{"type":"Point","coordinates":[0.140306,41.119806]},"properties":{"id":"es-10012","source":"ES","brand":"MAGALIA ENERGIA, S.L.","address":"AVENIDA ARAGON, 110","municipality":"Maella","province":"ZARAGOZA","postalCode":"50710","schedule":"L-D: 24H","fuels":{"diesel":1.75,"dieselB":1.4},"extra":{"saleType":"P","margin":"N","reportingType":"dm","ideess":"10012","idMunicipio":"7963","idProvincia":"50","idCCAA":"02"}}},{"type":"Feature","geometry":{"type":"Point","coordinates":[0.516889,41.577667]},"properties":{"id":"es-10510","source":"ES","brand":"BONAREA","address":"CTRA L-800 km 1.85","municipality":"Alcarràs","province":"LLEIDA","postalCode":"25180","schedule":"L-D: 24H","fuels":{"gasoline95":1.526,"diesel":1.703,"adblue":0.499},"extra":{"saleType":"P","margin":"D","reportingType":"dm","ideess":"10510","idMunicipio":"3815","idProvincia":"25","idCCAA":"09"}}},{"type":"Feature","geometry":{"type":"Point","coordinates":[0.775028,41.371639]},"properties":{"id":"es-10852","source":"ES","brand":"COOP.JUNCOSA","address":"PLAZA MAJOR, 8","municipality":"Juncosa","province":"LLEIDA","postalCode":"25165","schedule":"L-S: 08:00-19:00","fuels":{"diesel":1.596},"extra":{"saleType":"P","margin":"N","reportingType":"dm","ideess":"10852","idMunicipio":"3908","idProvincia":"25","idCCAA":"09"}}},{"type":"Feature","geometry":{"type":"Point","coordinates":[0.775028,41.371639]},"properties":{"id":"es-10853","source":"ES","brand":"COOP.JUNCOSA","address":"PLAZA MAJOR, 8","municipality":"Juncosa","province":"LLEIDA","postalCode":"25165","schedule":"L-S: 08:00-19:00","fuels":{"dieselB":1.206},"extra":{"saleType":"P","margin":"D","reportingType":"dm","ideess":"10853","idMunicipio":"3908","idProvincia":"25","idCCAA":"09"}}},{"type":"Feature","geometry":{"type":"Point","coordinates":[0.616111,41.607889]},"properties":{"id":"es-10866","source":"ES","brand":"REPSOL","address":"AVENIDA DEL EJERCITO, 2","municipality":"Lleida","province":"LLEIDA","postalCode":"25194","schedule":"L-D: 06:00-22:00","fuels":{"gasoline95":1.775,"gasoline98":1.895,"diesel":1.975,"dieselPremium":2.015,"lpg":1.2},"extra":{"saleType":"P","margin":"I","reportingType":"dm","ideess":"10866","idMunicipio":"3916","idProvincia":"25","idCCAA":"09"}}},{"type":"Feature","geometry":{"type":"Point","coordinates":[0.413639,41.798639]},"properties":{"id":"es-10901","source":"ES","brand":"CSC","address":"CTRA A-2217 km 4,7","municipality":"Altorricón","province":"HUESCA","postalCode":"22540","schedule":"L-D: 24H","fuels":{"gasoline95":1.71,"gasoline98":1.949,"diesel":1.85},"extra":{"saleType":"P","margin":"I","reportingType":"dm","ideess":"10901","idMunicipio":"3317","idProvincia":"22","idCCAA":"02"}}},{"type":"Feature","geometry":{"type":"Point","coordinates":[0.877528,41.639444]},"properties":{"id":"es-10946","source":"ES","brand":"MOEVE","address":"AUTOVIA A-2 KM. 485,1","municipality":"Fondarella","province":"LLEIDA","postalCode":"25244","schedule":"L-D: 06:00-22:00","fuels":{"gasoline95":1.754,"gasoline98":1.864,"diesel":1.904,"dieselPremium":1.994},"extra":{"saleType":"P","margin":"D","reportingType":"dm","ideess":"10946","idMunicipio":"3886","idProvincia":"25","idCCAA":"09"}}},{"type":"Feature","geometry":{"type":"Point","coordinates":[0.206861,41.829417]},"properties":{"id":"es-11042","source":"ES","brand":"CENTRO DE SERVICIOS AGRICOLAS, S.A.","address":"CAMPA SAN ESTEBAN, S/N","municipality":"Binaced","province":"HUESCA","postalCode":"22510","schedule":"L-D: 24H","fuels":{"gasoline95":1.675,"gasoline98":1.795,"diesel":1.805},"extra":{"saleType":"P","margin":"I","reportingType":"dm","ideess":"11042","idMunicipio":"3345","idProvincia":"22","idCCAA":"02"}}},{"type":"Feature","geometry":{"type":"Point","coordinates":[0.762472,41.715556]},"properties":{"id":"es-11062","source":"ES","brand":"NO","address":"CARRETERA C-13 KM. 14","municipality":"Térmens","province":"LLEIDA","postalCode":"25670","schedule":"L-D: 24H","fuels":{"gasoline95":1.699,"diesel":1.789},"extra":{"saleType":"P","margin":"I","reportingType":"dm","ideess":"11062","idMunicipio":"4000","idProvincia":"25","idCCAA":"09"}}},{"type":"Feature","geometry":{"type":"Point","coordinates":[0.344,41.516083]},"properties":{"id":"es-11216","source":"ES","brand":"AGROPECUARIA","address":"CAMINO TORRENTE, S/N","municipality":"Fraga","province":"HUESCA","postalCode":"22520","schedule":"L-S: 08:00-13:00 y 16:00-19:10","fuels":{"diesel":1.825},"extra":{"saleType":"P","margin":"D","reportingType":"dm","ideess":"11216","idMunicipio":"3384","idProvincia":"22","idCCAA":"02"}}},{"type":"Feature","geometry":{"type":"Point","coordinates":[0.625278,41.084972]},"properties":{"id":"es-11266","source":"ES","brand":"BONAREA","address":"POLIGONO CAMINS NOUS, 1","municipality":"Móra d'Ebre","province":"TARRAGONA","postalCode":"43740","schedule":"L-D: 24H","fuels":{"gasoline95":1.524,"diesel":1.702,"adblue":0.499},"extra":{"saleType":"P","margin":"N","reportingType":"dm","ideess":"11266","idMunicipio":"6436","idProvincia":"43","idCCAA":"09"}}},{"type":"Feature","geometry":{"type":"Point","coordinates":[0.547639,41.221639]},"properties":{"id":"es-11355","source":"ES","brand":"BONAREA","address":"CARRETERA C-12 ENCREUAMENT C-233 KM. 1","municipality":"Flix","province":"TARRAGONA","postalCode":"43750","schedule":"L-D: 24H","fuels":{"gasoline95":1.525,"diesel":1.703,"adblue":0.499},"extra":{"saleType":"P","margin":"I","reportingType":"dm","ideess":"11355","idMunicipio":"6404","idProvincia":"43","idCCAA":"09"}}},{"type":"Feature","geometry":{"type":"Point","coordinates":[0.283,41.855167]},"properties":{"id":"es-11387","source":"ES","brand":"BONAREA","address":"CARRETERA N-240 KM. 133","municipality":"Binéfar","province":"HUESCA","postalCode":"22500","schedule":"L-D: 24H","fuels":{"gasoline95":1.527,"diesel":1.705,"adblue":0.499},"extra":{"saleType":"P","margin":"D","reportingType":"dm","ideess":"11387","idMunicipio":"3346","idProvincia":"22","idCCAA":"02"}}},{"type":"Feature","geometry":{"type":"Point","coordinates":[0.085472,41.672528]},"properties":{"id":"es-11395","source":"ES","brand":"COOP.  LAS ONTINAS","address":"CARRETERA HU-861 KM. 2,550","municipality":"Ontiñena","province":"HUESCA","postalCode":"22232","schedule":"L-D: 24H","fuels":{"diesel":1.73,"dieselB":1.32},"extra":{"saleType":"P","margin":"D","reportingType":"dm","ideess":"11395","idMunicipio":"3422","idProvincia":"22","idCCAA":"02"}}},{"type":"Feature","geometry":{"type":"Point","coordinates":[0.751361,41.707778]},"properties":{"id":"es-11406","source":"ES","brand":"SAV SERVEIS","address":"AVINGUDA DE LA PAU, 1","municipality":"Térmens","province":"LLEIDA","postalCode":"25670","schedule":"L-D: 24H","fuels":{"gasoline95":1.599,"diesel":1.709},"extra":{"saleType":"P","margin":"D","reportingType":"dm","ideess":"11406","idMunicipio":"4000","idProvincia":"25","idCCAA":"09"}}},{"type":"Feature","geometry":{"type":"Point","coordinates":[0.708139,41.703056]},"properties":{"id":"es-11426","source":"ES","brand":"SIN ROTULO","address":"DISEMINADO AFORES, S/N","municipality":"Torrelameu","province":"LLEIDA","postalCode":"25138","schedule":"L-D: 24H","fuels":{"diesel":1.701,"dieselB":1.393},"extra":{"saleType":"P","margin":"D","reportingType":"dm","ideess":"11426","idMunicipio":"4011","idProvincia":"25","idCCAA":"09"}}},{"type":"Feature","geometry":{"type":"Point","coordinates":[0.612194,41.566083]},"properties":{"id":"es-11433","source":"ES","brand":"COOP ALBATARREC","address":"CARRETERA L-700 KM. 1","municipality":"Albatàrrec","province":"LLEIDA","postalCode":"25171","schedule":"L-D: 24H","fuels":{"diesel":1.703},"extra":{"saleType":"P","margin":"I","reportingType":"dm","ideess":"11433","idMunicipio":"3811","idProvincia":"25","idCCAA":"09"}}},{"type":"Feature","geometry":{"type":"Point","coordinates":[0.914083,41.630528]},"properties":{"id":"es-11550","source":"ES","brand":"BONAREA","address":"POLIGONO COLOMER, C/ LLEIDA, 35","municipality":"Golmés","province":"LLEIDA","postalCode":"25241","schedule":"L-D: 24H","fuels":{"gasoline95":1.526,"diesel":1.704,"adblue":0.499},"extra":{"saleType":"P","margin":"D","reportingType":"dm","ideess":"11550","idMunicipio":"3892","idProvincia":"25","idCCAA":"09"}}},{"type":"Feature","geometry":{"type":"Point","coordinates":[0.661667,41.624333]},"properties":{"id":"es-11666","source":"ES","brand":"LACICAR","address":"CARRER ENGINYER MIAS, 509","municipality":"Lleida","province":"LLEIDA","postalCode":"25191","schedule":"L: 08:00-20:00","fuels":{"diesel":1.934},"extra":{"saleType":"P","margin":"I","reportingType":"dm","ideess":"11666","idMunicipio":"3916","idProvincia":"25","idCCAA":"09"}}},{"type":"Feature","geometry":{"type":"Point","coordinates":[0.628194,41.665306]},"properties":{"id":"es-11778","source":"ES","brand":"BP AREA 463","address":"AUTOVIA A-2 KM. 463,63","municipality":"Lleida","province":"LLEIDA","postalCode":"25195","schedule":"L-D: 06:00-22:00","fuels":{"gasoline95":1.789,"gasoline98":1.909,"diesel":1.907,"adblue":0.899},"extra":{"saleType":"P","margin":"I","reportingType":"dm","ideess":"11778","idMunicipio":"3916","idProvincia":"25","idCCAA":"09"}}},{"type":"Feature","geometry":{"type":"Point","coordinates":[0.250611,41.208861]},"properties":{"id":"es-11820","source":"ES","brand":"CARBURANTES NONASPE, SL","address":"AVENIDA ORBE CANO, 1","municipality":"Nonaspe","province":"ZARAGOZA","postalCode":"50794","schedule":"L-D: 24H","fuels":{"diesel":1.77,"dieselB":1.42},"extra":{"saleType":"P","margin":"D","reportingType":"dm","ideess":"11820","idMunicipio":"8000","idProvincia":"50","idCCAA":"02"}}},{"type":"Feature","geometry":{"type":"Point","coordinates":[0.655417,41.613611]},"properties":{"id":"es-11823","source":"ES","brand":"REPSOL","address":"CALLE COGUL, 1","municipality":"Lleida","province":"LLEIDA","postalCode":"25001","schedule":"L-D: 06:00-22:00","fuels":{"gasoline95":1.749,"gasoline98":1.919,"diesel":1.919,"dieselPremium":1.979},"extra":{"saleType":"P","margin":"I","reportingType":"OM","ideess":"11823","idMunicipio":"3916","idProvincia":"25","idCCAA":"09"}}},{"type":"Feature","geometry":{"type":"Point","coordinates":[0.6045,41.664028]},"properties":{"id":"es-11869","source":"ES","brand":"BONAREA","address":"CALLE C/MARINADA, S/N","municipality":"Torrefarrera","province":"LLEIDA","postalCode":"25123","schedule":"L-D: 24H","fuels":{"gasoline95":1.525,"gasoline98":1.563,"diesel":1.703,"adblue":0.499},"extra":{"saleType":"P","margin":"D","reportingType":"dm","ideess":"11869","idMunicipio":"4008","idProvincia":"25","idCCAA":"09"}}},{"type":"Feature","geometry":{"type":"Point","coordinates":[0.566139,41.645306]},"properties":{"id":"es-11881","source":"ES","brand":"GALP","address":"CARRETERA N-240 KM. 100","municipality":"Lleida","province":"LLEIDA","postalCode":"25195","schedule":"L-D: 06:00-22:00","fuels":{"gasoline95":1.609,"gasoline98":1.719,"diesel":1.759,"dieselPremium":1.809},"extra":{"saleType":"P","margin":"D","reportingType":"OM","ideess":"11881","idMunicipio":"3916","idProvincia":"25","idCCAA":"09"}}},{"type":"Feature","geometry":{"type":"Point","coordinates":[0.32,41.820278]},"properties":{"id":"es-11936","source":"ES","brand":"AGROPIENSO","address":"CARRETERA N-240 KM. 128,100","municipality":"Esplús","province":"HUESCA","postalCode":"22535","schedule":"L-D: 24H","fuels":{"gasoline95":1.529,"diesel":1.678,"dieselB":1.338,"adblue":0.55},"extra":{"saleType":"P","margin":"D","reportingType":"dm","ideess":"11936","idMunicipio":"3375","idProvincia":"22","idCCAA":"02"}}},{"type":"Feature","geometry":{"type":"Point","coordinates":[0.646472,41.106167]},"properties":{"id":"es-11944","source":"ES","brand":"ESCLATOIL","address":"POLIGONO AUBALS, 3","municipality":"Móra la Nova","province":"TARRAGONA","postalCode":"43770","schedule":"L-D: 24H","fuels":{"gasoline95":1.579,"diesel":1.749},"extra":{"saleType":"P","margin":"N","reportingType":"dm","ideess":"11944","idMunicipio":"6437","idProvincia":"43","idCCAA":"09"}}},{"type":"Feature","geometry":{"type":"Point","coordinates":[0.365417,41.524139]},"properties":{"id":"es-11952","source":"ES","brand":"BONAREA","address":"POLIGONO SUB 7 BIS, ANTIGUA NII, S/N","municipality":"Fraga","province":"HUESCA","postalCode":"22520","schedule":"L-D: 24H","fuels":{"gasoline95":1.527,"diesel":1.704,"adblue":0.499},"extra":{"saleType":"P","margin":"I","reportingType":"dm","ideess":"11952","idMunicipio":"3384","idProvincia":"22","idCCAA":"02"}}},{"type":"Feature","geometry":{"type":"Point","coordinates":[0.187028,41.91875]},"properties":{"id":"es-12057","source":"ES","brand":"BONAREA","address":"POLIGONO LAS PAULES,C/EUGENIO DE UZANDIZAGA, 38","municipality":"Monzón","province":"HUESCA","postalCode":"22400","schedule":"L-D: 24H","fuels":{"gasoline95":1.528,"diesel":1.706,"adblue":0.499},"extra":{"saleType":"P","margin":"D","reportingType":"dm","ideess":"12057","idMunicipio":"3417","idProvincia":"22","idCCAA":"02"}}},{"type":"Feature","geometry":{"type":"Point","coordinates":[0.566444,41.645917]},"properties":{"id":"es-12351","source":"ES","brand":"REPSOL","address":"CARRETERA A-22 KM. 0","municipality":"Alpicat","province":"LLEIDA","postalCode":"25110","schedule":"L-D: 06:00-22:00","fuels":{"gasoline95":1.769,"gasoline98":1.879,"diesel":1.929,"dieselPremium":1.979},"extra":{"saleType":"P","margin":"I","reportingType":"OM","ideess":"12351","idMunicipio":"3826","idProvincia":"25","idCCAA":"09"}}},{"type":"Feature","geometry":{"type":"Point","coordinates":[0.19025,41.918667]},"properties":{"id":"es-1245","source":"ES","brand":"ORANGUTAN","address":"AVENIDA DE FONZ, 8,10","municipality":"Monzón","province":"HUESCA","postalCode":"22400","schedule":"L-D: 24H","fuels":{"gasoline95":1.579,"diesel":1.749,"dieselPremium":1.799,"adblue":0.529},"extra":{"saleType":"P","margin":"N","reportingType":"dm","ideess":"1245","idMunicipio":"3417","idProvincia":"22","idCCAA":"02"}}},{"type":"Feature","geometry":{"type":"Point","coordinates":[0.632167,41.602444]},"properties":{"id":"es-12490","source":"ES","brand":"ESCLATOIL","address":"CALLE ENGINYER ANTONI LLOBET, S/N","municipality":"Lleida","province":"LLEIDA","postalCode":"25001","schedule":"L-D: 24H","fuels":{"gasoline95":1.589,"diesel":1.769,"adblue":0.529},"extra":{"saleType":"P","margin":"N","reportingType":"dm","ideess":"12490","idMunicipio":"3916","idProvincia":"25","idCCAA":"09"}}},{"type":"Feature","geometry":{"type":"Point","coordinates":[0.269639,41.605944]},"properties":{"id":"es-1251","source":"ES","brand":"MOEVE","address":"CARRETERA FRAGA-MONZON KM. 12,3","municipality":"Zaidín","province":"HUESCA","postalCode":"22530","schedule":"L-D: 24H","fuels":{"gasoline95":1.779,"diesel":1.929,"dieselPremium":1.999,"dieselB":1.469,"adblue":0.95},"extra":{"saleType":"P","margin":"D","reportingType":"dm","ideess":"1251","idMunicipio":"3495","idProvincia":"22","idCCAA":"02"}}},{"type":"Feature","geometry":{"type":"Point","coordinates":[0.194139,41.624333]},"properties":{"id":"es-1252","source":"ES","brand":"MOEVE","address":"A-131 km 16,8","municipality":"Ballobar","province":"HUESCA","postalCode":"22234","schedule":"L-D: 24H","fuels":{"gasoline95":1.779,"diesel":1.949,"dieselPremium":1.979,"dieselB":1.469,"adblue":0.96},"extra":{"saleType":"P","margin":"D","reportingType":"dm","ideess":"1252","idMunicipio":"3332","idProvincia":"22","idCCAA":"02"}}},{"type":"Feature","geometry":{"type":"Point","coordinates":[0.383417,41.487194]},"properties":{"id":"es-1253","source":"ES","brand":"MONTLLOBE, S.A.","address":"CARRETERA DE SERÓS KM. 5","municipality":"Fraga","province":"HUESCA","postalCode":"22520","schedule":"L-V: 07:00-21:00; S-D: 07:00-14:00","fuels":{"gasoline95":1.8,"diesel":1.92,"dieselB":1.33,"adblue":0.93},"extra":{"saleType":"P","margin":"I","reportingType":"dm","ideess":"1253","idMunicipio":"3384","idProvincia":"22","idCCAA":"02"}}},{"type":"Feature","geometry":{"type":"Point","coordinates":[0.660722,41.626361]},"properties":{"id":"es-12590","source":"ES","brand":"REPSOL BUTANO","address":"AVINGUDA INDUSTRIA, P. 504","municipality":"Lleida","province":"LLEIDA","postalCode":"25191","schedule":"L-V: 10:00-13:30 y 16:00-19:00; S: 09:00-13:00","fuels":{"lpg":1.19},"extra":{"saleType":"P","margin":"N","reportingType":"dm","ideess":"12590","idMunicipio":"3916","idProvincia":"25","idCCAA":"09"}}},{"type":"Feature","geometry":{"type":"Point","coordinates":[0.419222,41.863667]},"properties":{"id":"es-1262","source":"ES","brand":"ESC","address":"A-140 km 13,5","municipality":"Tamarite de Litera","province":"HUESCA","postalCode":"22550","schedule":"L-D: 24H","fuels":{"gasoline95":1.71,"gasoline98":1.949,"diesel":1.85,"adblue":0.889},"extra":{"saleType":"P","margin":"I","reportingType":"dm","ideess":"1262","idMunicipio":"3469","idProvincia":"22","idCCAA":"02"}}},{"type":"Feature","geometry":{"type":"Point","coordinates":[0.649917,41.613806]},"properties":{"id":"es-12757","source":"ES","brand":"GASOLINERA LOW COST","address":"CARRETERA NACIONAL II L11 KM. 467,6","municipality":"Lleida","province":"LLEIDA","postalCode":"25191","schedule":"L-D: 24H","fuels":{"gasoline95":1.572,"diesel":1.768},"extra":{"saleType":"P","margin":"D","reportingType":"dm","ideess":"12757","idMunicipio":"3916","idProvincia":"25","idCCAA":"09"}}},{"type":"Feature","geometry":{"type":"Point","coordinates":[0.861694,41.523167]},"properties":{"id":"es-12767","source":"ES","brand":"E.S SANT ISIDRE","address":"AVINGUDA JAUME SEGARRA, S/N","municipality":"Borges Blanques (Les)","province":"LLEIDA","postalCode":"25400","schedule":"L-D: 24H","fuels":{"gasoline95":1.625,"diesel":1.76,"dieselB":1.37},"extra":{"saleType":"P","margin":"D","reportingType":"dm","ideess":"12767","idMunicipio":"3853","idProvincia":"25","idCCAA":"09"}}},{"type":"Feature","geometry":{"type":"Point","coordinates":[0.188167,41.672583]},"properties":{"id":"es-1277","source":"ES","brand":"REPSOL-E.S.JAIME I","address":"CR A-1234, 22.25  I (A-1234 km 22,25)","municipality":"Osso de Cinca","province":"HUESCA","postalCode":"22532","schedule":"L-D: 24H","fuels":{"gasoline95":1.749,"gasoline98":1.889,"diesel":1.919,"dieselPremium":1.999,"dieselB":1.589},"extra":{"saleType":"P","margin":"I","reportingType":"dm","ideess":"1277","idMunicipio":"3423","idProvincia":"22","idCCAA":"02"}}},{"type":"Feature","geometry":{"type":"Point","coordinates":[0.412333,41.533889]},"properties":{"id":"es-1279","source":"ES","brand":"REPSOL","address":"CR A-2, 441,4","municipality":"Fraga","province":"HUESCA","postalCode":"22520","schedule":"L-D: 24H","fuels":{"gasoline95":1.835,"gasoline98":1.945,"diesel":1.933,"dieselPremium":1.975,"dieselB":1.594,"adblue":0.892},"extra":{"saleType":"P","margin":"D","reportingType":"dm","ideess":"1279","idMunicipio":"3384","idProvincia":"22","idCCAA":"02"}}},{"type":"Feature","geometry":{"type":"Point","coordinates":[0.311167,41.827972]},"properties":{"id":"es-1282","source":"ES","brand":"REPSOL","address":"CARRETERA N-240 KM. 129,8","municipality":"Binéfar","province":"HUESCA","postalCode":"22500","schedule":"L-V: 06:00-21:00; S: 08:00-14:00","fuels":{"gasoline95":1.849,"gasoline98":1.939,"diesel":1.919,"dieselRenewable":2.029},"extra":{"saleType":"P","margin":"I","reportingType":"dm","ideess":"1282","idMunicipio":"3346","idProvincia":"22","idCCAA":"02"}}},{"type":"Feature","geometry":{"type":"Point","coordinates":[0.911,41.007028]},"properties":{"id":"es-12831","source":"ES","brand":"BONAREA","address":"POLIGONO LES TAPIES II, S/N","municipality":"Vandellòs i l'Hospitalet de l'Infant","province":"TARRAGONA","postalCode":"43890","schedule":"L-D: 24H","fuels":{"gasoline95":1.523,"diesel":1.7,"adblue":0.499},"extra":{"saleType":"P","margin":"I","reportingType":"dm","ideess":"12831","idMunicipio":"6508","idProvincia":"43","idCCAA":"09"}}},{"type":"Feature","geometry":{"type":"Point","coordinates":[0.362,41.524056]},"properties":{"id":"es-1285","source":"ES","brand":"MOEVE","address":"CARRETERA N-IIA KM KM. 437,2","municipality":"Fraga","province":"HUESCA","postalCode":"22520","schedule":"L-D: 07:00-21:30","fuels":{"gasoline95":1.815,"diesel":1.948,"dieselPremium":1.994},"extra":{"saleType":"P","margin":"I","reportingType":"dm","ideess":"1285","idMunicipio":"3384","idProvincia":"22","idCCAA":"02"}}},{"type":"Feature","geometry":{"type":"Point","coordinates":[0.332806,41.413417]},"properties":{"id":"es-1288","source":"ES","brand":"REPSOL","address":"CR N-211, 318,8","municipality":"Torrente de Cinca","province":"HUESCA","postalCode":"22590","schedule":"L-D: 07:00-21:30","fuels":{"gasoline95":1.745,"gasoline98":1.915,"diesel":1.909,"dieselPremium":2.019},"extra":{"saleType":"P","margin":"I","reportingType":"OM","ideess":"1288","idMunicipio":"3477","idProvincia":"22","idCCAA":"02"}}},{"type":"Feature","geometry":{"type":"Point","coordinates":[0.19675,41.911056]},"properties":{"id":"es-1291","source":"ES","brand":"REPSOL","address":"CL AVENIDA LERIDA, 31 (N-240 km 143)","municipality":"Monzón","province":"HUESCA","postalCode":"22400","schedule":"L-D: 24H","fuels":{"gasoline95":1.745,"gasoline98":1.865,"diesel":1.905,"dieselPremium":1.965,"dieselB":1.609},"extra":{"saleType":"P","margin":"D","reportingType":"OM","ideess":"1291","idMunicipio":"3417","idProvincia":"22","idCCAA":"02"}}},{"type":"Feature","geometry":{"type":"Point","coordinates":[0.347444,41.525333]},"properties":{"id":"es-1294","source":"ES","brand":"REPSOL","address":"AVENIDA BARCELONA, 6","municipality":"Fraga","province":"HUESCA","postalCode":"22520","schedule":"L-V: 05:00-23:00; S: 07:00-13:00","fuels":{"gasoline95":1.85,"diesel":1.926,"dieselPremium":1.966,"dieselB":1.59,"adblue":1.1},"extra":{"saleType":"P","margin":"D","reportingType":"dm","ideess":"1294","idMunicipio":"3384","idProvincia":"22","idCCAA":"02"}}},{"type":"Feature","geometry":{"type":"Point","coordinates":[0.672833,41.494083]},"properties":{"id":"es-12943","source":"ES","brand":"COOP.ASPA","address":"CARRETERA COGUL KM. S/N","municipality":"Aspa","province":"LLEIDA","postalCode":"25151","schedule":"L-D: 24H","fuels":{"gasoline95":1.57,"diesel":1.75,"dieselB":1.36},"extra":{"saleType":"P","margin":"N","reportingType":"dm","ideess":"12943","idMunicipio":"3834","idProvincia":"25","idCCAA":"09"}}},{"type":"Feature","geometry":{"type":"Point","coordinates":[0.490083,41.978278]},"properties":{"id":"es-1300","source":"ES","brand":"MOEVE (ANTERIORMENTE CEPSA) PENDIENTE DE CANVIAR TODA LA IMAGEN","address":"CARRETERA N-230 KM 48,300 KM. 48,300","municipality":"Estopiñán del Castillo","province":"HUESCA","postalCode":"22589","schedule":"L-V: 07:00-20:00","fuels":{"gasoline95":1.774,"gasoline98":1.929,"diesel":1.911,"dieselPremium":1.98},"extra":{"saleType":"P","margin":"D","reportingType":"dm","ideess":"1300","idMunicipio":"3378","idProvincia":"22","idCCAA":"02"}}},{"type":"Feature","geometry":{"type":"Point","coordinates":[0.205889,41.901222]},"properties":{"id":"es-1318","source":"ES","brand":"REPSOL","address":"CARRETERA N-240 KM. 141,400","municipality":"Monzón","province":"HUESCA","postalCode":"22400","schedule":"L-S: 06:00-22:00; D: 07:00-21:00","fuels":{"gasoline95":1.745,"gasoline98":1.865,"diesel":1.905,"dieselB":1.569,"dieselRenewable":2.025},"extra":{"saleType":"P","margin":"I","reportingType":"OM","ideess":"1318","idMunicipio":"3417","idProvincia":"22","idCCAA":"02"}}},{"type":"Feature","geometry":{"type":"Point","coordinates":[0.284778,41.842139]},"properties":{"id":"es-13183","source":"ES","brand":"MAZANA","address":"CARRETERA BINACED  (REGIONAL A-140) KM. 1","municipality":"Binéfar","province":"HUESCA","postalCode":"22500","schedule":"L-V: 07:00-21:00","fuels":{"diesel":1.736,"adblue":0.699},"extra":{"saleType":"P","margin":"I","reportingType":"dm","ideess":"13183","idMunicipio":"3346","idProvincia":"22","idCCAA":"02"}}},{"type":"Feature","geometry":{"type":"Point","coordinates":[0.295694,41.845722]},"properties":{"id":"es-1320","source":"ES","brand":"REPSOL","address":"CARRETERA N-240 KM. 131,7","municipality":"Binéfar","province":"HUESCA","postalCode":"22500","schedule":"L-D: 24H","fuels":{"gasoline95":1.745,"gasoline95Premium":1.815,"gasoline98":1.915,"diesel":1.905,"dieselPremium":1.965,"dieselB":1.605},"extra":{"saleType":"P","margin":"I","reportingType":"OM","ideess":"1320","idMunicipio":"3346","idProvincia":"22","idCCAA":"02"}}},{"type":"Feature","geometry":{"type":"Point","coordinates":[0.146667,41.721833]},"properties":{"id":"es-1322","source":"ES","brand":"REPSOL","address":"CR A-1234, 28 (A-1234 km 28,9)","municipality":"Albalate de Cinca","province":"HUESCA","postalCode":"22534","schedule":"L-D: 24H","fuels":{"gasoline95":1.745,"gasoline98":1.915,"diesel":1.905,"dieselPremium":2.015,"dieselB":1.569},"extra":{"saleType":"P","margin":"D","reportingType":"OM","ideess":"1322","idMunicipio":"3300","idProvincia":"22","idCCAA":"02"}}},{"type":"Feature","geometry":{"type":"Point","coordinates":[0.895139,41.761389]},"properties":{"id":"es-13305","source":"ES","brand":"COOP BELLCAIRE","address":"CARRETERA CARRETERA COMARCAL C-53 KM. 137,3","municipality":"Bellcaire d'Urgell","province":"LLEIDA","postalCode":"25337","schedule":"L-D: 24H","fuels":{"diesel":1.682},"extra":{"saleType":"P","margin":"D","reportingType":"dm","ideess":"13305","idMunicipio":"3844","idProvincia":"25","idCCAA":"09"}}},{"type":"Feature","geometry":{"type":"Point","coordinates":[0.334333,41.520139]},"properties":{"id":"es-1338","source":"ES","brand":"REPSOL","address":"AVENIDA ARAGON, 79","municipality":"Fraga","province":"HUESCA","postalCode":"22520","schedule":"L-J: 05:00-23:00; V-D: 24H","fuels":{"gasoline95":1.853,"gasoline98":1.958,"diesel":1.926,"dieselRenewable":2.026},"extra":{"saleType":"P","margin":"D","reportingType":"dm","ideess":"1338","idMunicipio":"3384","idProvincia":"22","idCCAA":"02"}}},{"type":"Feature","geometry":{"type":"Point","coordinates":[0.153611,41.950139]},"properties":{"id":"es-1351","source":"ES","brand":"MOEVE-E.S.JAIME I","address":"N-240 km 149,5","municipality":"Castejón del Puente","province":"HUESCA","postalCode":"22310","schedule":"L-D: 24H","fuels":{"gasoline95":1.755,"gasoline95Premium":1.825,"diesel":1.929,"dieselPremium":1.985},"extra":{"saleType":"P","margin":"D","reportingType":"dm","ideess":"1351","idMunicipio":"3365","idProvincia":"22","idCCAA":"02"}}},{"type":"Feature","geometry":{"type":"Point","coordinates":[0.39475,41.497389]},"properties":{"id":"es-1352","source":"ES","brand":"BP AP2 FRAGA (MI)","address":"AUTOPISTA AP-2 (MRG.IZDO.) KM. 119","municipality":"Fraga","province":"HUESCA","postalCode":"22520","schedule":"L-D: 24H","fuels":{"gasoline95":1.799,"gasoline98":1.939,"diesel":1.889,"dieselPremium":1.979,"adblue":0.935},"extra":{"saleType":"P","margin":"I","reportingType":"OM","ideess":"1352","idMunicipio":"3384","idProvincia":"22","idCCAA":"02"}}},{"type":"Feature","geometry":{"type":"Point","coordinates":[0.397194,41.496861]},"properties":{"id":"es-1353","source":"ES","brand":"BP AP2 FRAGA (MD)","address":"AUTOPISTA AP-2 (MRG.DCHO.) KM. 119","municipality":"Fraga","province":"HUESCA","postalCode":"22520","schedule":"L-D: 24H","fuels":{"gasoline95":1.799,"gasoline98":1.939,"diesel":1.889,"dieselPremium":1.979,"adblue":0.935},"extra":{"saleType":"P","margin":"D","reportingType":"OM","ideess":"1353","idMunicipio":"3384","idProvincia":"22","idCCAA":"02"}}},{"type":"Feature","geometry":{"type":"Point","coordinates":[0.042028,41.518139]},"properties":{"id":"es-1354","source":"ES","brand":"GALP","address":"AUTOPISTA AP-2 (MRG.DCHO.) KM. 85,5","municipality":"Candasnos","province":"HUESCA","postalCode":"22591","schedule":"L-D: 24H","fuels":{"gasoline95":1.789,"gasoline98":1.919,"diesel":1.879,"dieselPremium":1.969,"adblue":0.799},"extra":{"saleType":"P","margin":"D","reportingType":"OM","ideess":"1354","idMunicipio":"3358","idProvincia":"22","idCCAA":"02"}}},{"type":"Feature","geometry":{"type":"Point","coordinates":[0.039361,41.518222]},"properties":{"id":"es-1355","source":"ES","brand":"GALP","address":"AUTOPISTA AP-2 (MRG.IZDO.) KM. 85,5","municipality":"Candasnos","province":"HUESCA","postalCode":"22591","schedule":"L-D: 24H","fuels":{"gasoline95":1.789,"gasoline98":1.919,"diesel":1.879,"dieselPremium":1.969,"adblue":0.799},"extra":{"saleType":"P","margin":"I","reportingType":"OM","ideess":"1355","idMunicipio":"3358","idProvincia":"22","idCCAA":"02"}}},{"type":"Feature","geometry":{"type":"Point","coordinates":[0.815583,41.7515]},"properties":{"id":"es-13640","source":"ES","brand":"VALLFOGONINA","address":"CARRER PAU CASALS, 2","municipality":"Vallfogona de Balaguer","province":"LLEIDA","postalCode":"25680","schedule":"L-D: 24H","fuels":{"gasoline95":1.719,"diesel":1.901,"dieselB":1.55},"extra":{"saleType":"P","margin":"D","reportingType":"dm","ideess":"13640","idMunicipio":"4018","idProvincia":"25","idCCAA":"09"}}},{"type":"Feature","geometry":{"type":"Point","coordinates":[0.507167,41.365083]},"properties":{"id":"es-13721","source":"ES","brand":"AUTOSERVEI 24 H","address":"CARRETERA C45-CTRA. MAIALS A SERÒS KM. 0,5","municipality":"Maials","province":"LLEIDA","postalCode":"25179","schedule":"L-V: 08:00-13:00 y 15:00-19:00; S-D: 24H","fuels":{"gasoline95":1.599,"diesel":1.732,"dieselB":1.282},"extra":{"saleType":"P","margin":"I","reportingType":"dm","ideess":"13721","idMunicipio":"3920","idProvincia":"25","idCCAA":"09"}}},{"type":"Feature","geometry":{"type":"Point","coordinates":[0.1085,41.780111]},"properties":{"id":"es-13907","source":"ES","brand":"SANTALECINAGANADERA","address":"CALLE ZARAGOZA, 20","municipality":"San Miguel del Cinca","province":"HUESCA","postalCode":"22411","schedule":"L-D: 24H","fuels":{"diesel":1.594,"dieselB":1.341},"extra":{"saleType":"P","margin":"D","reportingType":"dm","ideess":"13907","idMunicipio":"3453","idProvincia":"22","idCCAA":"02"}}},{"type":"Feature","geometry":{"type":"Point","coordinates":[0.816889,41.77275]},"properties":{"id":"es-13911","source":"ES","brand":"BLTR","address":"POLIGONO CAMPLLONG C/MARINADA, 7","municipality":"Balaguer","province":"LLEIDA","postalCode":"25600","schedule":"L-D: 24H","fuels":{"diesel":1.805},"extra":{"saleType":"P","margin":"D","reportingType":"dm","ideess":"13911","idMunicipio":"3837","idProvincia":"25","idCCAA":"09"}}},{"type":"Feature","geometry":{"type":"Point","coordinates":[0.887306,41.605417]},"properties":{"id":"es-13941","source":"ES","brand":"AGRARIA DE MIRALCAMP","address":"POLIGONO POLIGON 12, PARC, 9, 1","municipality":"Miralcamp","province":"LLEIDA","postalCode":"25242","schedule":"L-D: 24H","fuels":{"gasoline95":1.527,"diesel":1.698,"dieselB":1.404,"adblue":0.49},"extra":{"saleType":"P","margin":"D","reportingType":"dm","ideess":"13941","idMunicipio":"3925","idProvincia":"25","idCCAA":"09"}}},{"type":"Feature","geometry":{"type":"Point","coordinates":[0.764556,41.754639]},"properties":{"id":"es-14836","source":"ES","brand":"SORIGUE","address":"CARRETERA C12 KM. 162","municipality":"Balaguer","province":"LLEIDA","postalCode":"25600","schedule":"L-V: 06:00-22:00","fuels":{"diesel":1.74,"dieselB":1.49,"adblue":0.9},"extra":{"saleType":"P","margin":"D","reportingType":"dm","ideess":"14836","idMunicipio":"3837","idProvincia":"25","idCCAA":"09"}}},{"type":"Feature","geometry":{"type":"Point","coordinates":[0.408194,41.119333]},"properties":{"id":"es-14847","source":"ES","brand":"COVILALBA","address":"CALLE CERVANTES, 5","municipality":"Vilalba dels Arcs","province":"TARRAGONA","postalCode":"43782","schedule":"L-D: 24H","fuels":{"diesel":1.69,"dieselB":1.46},"extra":{"saleType":"P","margin":"I","reportingType":"dm","ideess":"14847","idMunicipio":"6512","idProvincia":"43","idCCAA":"09"}}},{"type":"Feature","geometry":{"type":"Point","coordinates":[0.55775,41.662833]},"properties":{"id":"es-14927","source":"ES","brand":"ESCLATOIL","address":"CALLE ENRIC GRANADOS S/N, S/N","municipality":"Alpicat","province":"LLEIDA","postalCode":"25110","schedule":"L-D: 24H","fuels":{"gasoline95":1.589,"diesel":1.769,"dieselPremium":1.819,"adblue":0.529},"extra":{"saleType":"P","margin":"D","reportingType":"dm","ideess":"14927","idMunicipio":"3826","idProvincia":"25","idCCAA":"09"}}},{"type":"Feature","geometry":{"type":"Point","coordinates":[0.327889,41.508833]},"properties":{"id":"es-14971","source":"ES","brand":"AREA DEL BAJO CINCA","address":"CARRETERA FRAGA A TORRENTE DE CINCA, POL.88 PARC. 22-25 KM. 41.508847, 0.327902","municipality":"Fraga","province":"HUESCA","postalCode":"22520","schedule":"L-D: 24H","fuels":{"gasoline95":1.899,"gasoline98":2.049,"diesel":1.909,"dieselPremium":2.135,"dieselB":1.699},"extra":{"saleType":"P","margin":"D","reportingType":"dm","ideess":"14971","idMunicipio":"3384","idProvincia":"22","idCCAA":"02"}}},{"type":"Feature","geometry":{"type":"Point","coordinates":[0.192972,41.016083]},"properties":{"id":"es-1507","source":"ES","brand":"REPSOL","address":"CARRETERA N-420 KM. 418,50","municipality":"Calaceite","province":"TERUEL","postalCode":"44610","schedule":"L-S: 07:00-21:00; D: 07:00-14:00","fuels":{"gasoline95":1.759,"gasoline98":1.889,"diesel":1.879,"dieselB":1.579},"extra":{"saleType":"P","margin":"D","reportingType":"dm","ideess":"1507","idMunicipio":"6572","idProvincia":"44","idCCAA":"02"}}},{"type":"Feature","geometry":{"type":"Point","coordinates":[0.910639,41.00725]},"properties":{"id":"es-15083","source":"ES","brand":"ALAS CENTRAL","address":"CARRER DE JOAN ORÓ, 2","municipality":"Vandellòs i l'Hospitalet de l'Infant","province":"TARRAGONA","postalCode":"43891","schedule":"L: 24H","fuels":{"gasoline95":1.559,"gasoline95Premium":1.599,"diesel":1.709,"dieselPremium":1.749,"dieselB":1.49,"lpg":0.935,"cng":1.459,"lng":1.409,"adblue":0.6},"extra":{"saleType":"P","margin":"N","reportingType":"dm","ideess":"15083","idMunicipio":"6508","idProvincia":"43","idCCAA":"09"}}},{"type":"Feature","geometry":{"type":"Point","coordinates":[0.606889,41.663917]},"properties":{"id":"es-15143","source":"ES","brand":"MOLGAS","address":"CARRETERA 230 KM. 6,5","municipality":"Lleida","province":"LLEIDA","postalCode":"25195","schedule":"L-D: 24H","fuels":{"cng":1.739,"lng":1.649},"extra":{"saleType":"P","margin":"I","reportingType":"dm","ideess":"15143","idMunicipio":"3916","idProvincia":"25","idCCAA":"09"}}},{"type":"Feature","geometry":{"type":"Point","coordinates":[0.103917,41.719333]},"properties":{"id":"es-15310","source":"ES","brand":"COOPERATIVA OSCA","address":"POLIGONO PARCELA 33, 33","municipality":"Alcolea de Cinca","province":"HUESCA","postalCode":"22410","schedule":"L-D: 24H","fuels":{"gasoline95":1.609,"diesel":1.779,"dieselB":1.359,"adblue":0.599},"extra":{"saleType":"P","margin":"N","reportingType":"dm","ideess":"15310","idMunicipio":"3309","idProvincia":"22","idCCAA":"02"}}},{"type":"Feature","geometry":{"type":"Point","coordinates":[0.606889,41.663917]},"properties":{"id":"es-15498","source":"ES","brand":"RENOVA OIL","address":"CARRETERA N-230 KM. 6.5 KM. 6,5","municipality":"Torrefarrera","province":"LLEIDA","postalCode":"25123","schedule":"L: 24H","fuels":{"gasoline95":1.715,"diesel":1.845,"adblue":0.7},"extra":{"saleType":"P","margin":"D","reportingType":"dm","ideess":"15498","idMunicipio":"4008","idProvincia":"25","idCCAA":"09"}}},{"type":"Feature","geometry":{"type":"Point","coordinates":[0.653639,41.617583]},"properties":{"id":"es-15558","source":"ES","brand":"TRANSEGRE","address":"POLIGONO INDUSTRIAL EL SEGRE, PARCELA, 206","municipality":"Lleida","province":"LLEIDA","postalCode":"25191","schedule":"L-D: 24H","fuels":{"diesel":1.849,"adblue":0.7},"extra":{"saleType":"P","margin":"D","reportingType":"dm","ideess":"15558","idMunicipio":"3916","idProvincia":"25","idCCAA":"09"}}},{"type":"Feature","geometry":{"type":"Point","coordinates":[0.78825,41.564333]},"properties":{"id":"es-1559","source":"ES","brand":"GALP","address":"CARRETERA N-240 KM. 77,800","municipality":"Torregrossa","province":"LLEIDA","postalCode":"25141","schedule":"L-D: 24H","fuels":{"gasoline95":1.689,"gasoline98":1.749,"diesel":1.799},"extra":{"saleType":"P","margin":"D","reportingType":"dm","ideess":"1559","idMunicipio":"4010","idProvincia":"25","idCCAA":"09"}}},{"type":"Feature","geometry":{"type":"Point","coordinates":[0.573361,41.800417]},"properties":{"id":"es-15601","source":"ES","brand":"CEREALES TORREMORELL","address":"CAMINO PONT D'ESPADOS, 0","municipality":"Almenar","province":"LLEIDA","postalCode":"25126","schedule":"L-V: 08:00-20:00","fuels":{"diesel":1.721},"extra":{"saleType":"P","margin":"D","reportingType":"dm","ideess":"15601","idMunicipio":"3824","idProvincia":"25","idCCAA":"09"}}},{"type":"Feature","geometry":{"type":"Point","coordinates":[0.6495,41.615583]},"properties":{"id":"es-1568","source":"ES","brand":"BONAREA","address":"POLIGONO INDUSTRIAL EL SEGRE,PARCELA 202","municipality":"Lleida","province":"LLEIDA","postalCode":"25191","schedule":"L-D: 24H","fuels":{"gasoline95":1.524,"diesel":1.702,"adblue":0.499},"extra":{"saleType":"P","margin":"D","reportingType":"dm","ideess":"1568","idMunicipio":"3916","idProvincia":"25","idCCAA":"09"}}},{"type":"Feature","geometry":{"type":"Point","coordinates":[0.573111,41.793]},"properties":{"id":"es-1570","source":"ES","brand":"E.S. SEGRIÀ","address":"CARRETERA N-230 LLEIDA - VIELLA KM. 22","municipality":"Almenar","province":"LLEIDA","postalCode":"25126","schedule":"L-D: 24H","fuels":{"gasoline95":1.728,"gasoline98":1.858,"diesel":1.888,"dieselB":1.398},"extra":{"saleType":"P","margin":"D","reportingType":"dm","ideess":"1570","idMunicipio":"3824","idProvincia":"25","idCCAA":"09"}}},{"type":"Feature","geometry":{"type":"Point","coordinates":[0.633,41.687917]},"properties":{"id":"es-1574","source":"ES","brand":"PONENT ENERGIA","address":"CTRA. LP-9221 km 6.80000","municipality":"Benavent de Segrià","province":"LLEIDA","postalCode":"25132","schedule":"L-S: 07:00-23:00; D: 07:00-14:00","fuels":{"gasoline95":1.583,"diesel":1.732,"dieselPremium":1.792,"dieselB":1.388},"extra":{"saleType":"P","margin":"D","reportingType":"dm","ideess":"1574","idMunicipio":"3850","idProvincia":"25","idCCAA":"09"}}},{"type":"Feature","geometry":{"type":"Point","coordinates":[0.681361,41.680417]},"properties":{"id":"es-15779","source":"ES","brand":"SEROIL  ENERGY","address":"CARRETERA C-12 KM. 150,5","municipality":"Corbins","province":"LLEIDA","postalCode":"25137","schedule":"L-D: 24H","fuels":{"gasoline95":1.528,"diesel":1.698},"extra":{"saleType":"P","margin":"D","reportingType":"dm","ideess":"15779","idMunicipio":"3875","idProvincia":"25","idCCAA":"09"}}},{"type":"Feature","geometry":{"type":"Point","coordinates":[0.118194,41.815444]},"properties":{"id":"es-15784","source":"ES","brand":"CEREALES RAMIRO GRUAS","address":"POLIGONO POLIGONO 11, 94","municipality":"San Miguel del Cinca","province":"HUESCA","postalCode":"22412","schedule":"L-D: 24H","fuels":{"gasoline95":1.556,"diesel":1.786,"dieselB":1.377},"extra":{"saleType":"P","margin":"D","reportingType":"dm","ideess":"15784","idMunicipio":"3453","idProvincia":"22","idCCAA":"02"}}},{"type":"Feature","geometry":{"type":"Point","coordinates":[0.762639,41.716028]},"properties":{"id":"es-1600","source":"ES","brand":"E.S.TERMENS","address":"CALLE CARRETERA, 29","municipality":"Térmens","province":"LLEIDA","postalCode":"25670","schedule":"L-D: 07:00-21:00","fuels":{"gasoline95":1.749,"gasoline98":1.869,"diesel":1.919,"dieselB":1.565,"adblue":0.854},"extra":{"saleType":"P","margin":"I","reportingType":"dm","ideess":"1600","idMunicipio":"4000","idProvincia":"25","idCCAA":"09"}}},{"type":"Feature","geometry":{"type":"Point","coordinates":[0.842694,41.532889]},"properties":{"id":"es-1605","source":"ES","brand":"BONAREA","address":"N-240  (C. C. BON AREA) km 71,15","municipality":"Borges Blanques (Les)","province":"LLEIDA","postalCode":"25400","schedule":"L-D: 24H","fuels":{"gasoline95":1.525,"diesel":1.702,"adblue":0.499},"extra":{"saleType":"P","margin":"I","reportingType":"dm","ideess":"1605","idMunicipio":"3853","idProvincia":"25","idCCAA":"09"}}},{"type":"Feature","geometry":{"type":"Point","coordinates":[0.628167,41.665083]},"properties":{"id":"es-16068","source":"ES","brand":"HAM","address":"CALLE A2, 463","municipality":"Lleida","province":"LLEIDA","postalCode":"25195","schedule":"L-D: 24H","fuels":{"cng":1.644,"lng":1.599,"bioCng":1.624,"bioLng":1.569},"extra":{"saleType":"P","margin":"D","reportingType":"dm","ideess":"16068","idMunicipio":"3916","idProvincia":"25","idCCAA":"09"}}},{"type":"Feature","geometry":{"type":"Point","coordinates":[0.788028,41.563944]},"properties":{"id":"es-1607","source":"ES","brand":"GALP","address":"CARRETERA N240 KM. 77,8","municipality":"Torregrossa","province":"LLEIDA","postalCode":"25141","schedule":"L-D: 24H","fuels":{"gasoline95":1.689,"gasoline98":1.749,"diesel":1.799},"extra":{"saleType":"P","margin":"I","reportingType":"dm","ideess":"1607","idMunicipio":"4010","idProvincia":"25","idCCAA":"09"}}},{"type":"Feature","geometry":{"type":"Point","coordinates":[0.041417,41.517333]},"properties":{"id":"es-16228","source":"ES","brand":"HAM","address":"AUTOPISTA AP2 KM. 86","municipality":"Candasnos","province":"HUESCA","postalCode":"22591","schedule":"L-D: 24H","fuels":{"cng":1.644,"lng":1.599,"bioCng":1.624,"bioLng":1.569},"extra":{"saleType":"P","margin":"D","reportingType":"dm","ideess":"16228","idMunicipio":"3358","idProvincia":"22","idCCAA":"02"}}},{"type":"Feature","geometry":{"type":"Point","coordinates":[0.635944,41.814361]},"properties":{"id":"es-1629","source":"ES","brand":"ES ALGERRI","address":"CARRETERA C-26 KM. 7","municipality":"Algerri","province":"LLEIDA","postalCode":"25130","schedule":"L-D: 07:00-21:00","fuels":{"gasoline95":1.744,"gasoline98":1.819,"diesel":1.849,"dieselPremium":1.849,"dieselB":1.549},"extra":{"saleType":"P","margin":"D","reportingType":"dm","ideess":"1629","idMunicipio":"3819","idProvincia":"25","idCCAA":"09"}}},{"type":"Feature","geometry":{"type":"Point","coordinates":[0.819278,41.790306]},"properties":{"id":"es-16396","source":"ES","brand":"BONAREA","address":"CALLE URGELL, 115,121","municipality":"Balaguer","province":"LLEIDA","postalCode":"25600","schedule":"L-D: 24H","fuels":{"gasoline95":1.526,"diesel":1.704,"adblue":0.499},"extra":{"saleType":"P","margin":"N","reportingType":"dm","ideess":"16396","idMunicipio":"3837","idProvincia":"25","idCCAA":"09"}}},{"type":"Feature","geometry":{"type":"Point","coordinates":[0.5365,41.568722]},"properties":{"id":"es-1647","source":"ES","brand":"Q8","address":"CARRETERA CTRA N-II KM. KM 452,2","municipality":"Alcarràs","province":"LLEIDA","postalCode":"25180","schedule":"L-D: 06:00-22:00","fuels":{"gasoline95":1.699,"gasoline98":1.819,"diesel":1.839},"extra":{"saleType":"P","margin":"I","reportingType":"dm","ideess":"1647","idMunicipio":"3815","idProvincia":"25","idCCAA":"09"}}},{"type":"Feature","geometry":{"type":"Point","coordinates":[0.82675,41.788139]},"properties":{"id":"es-1718","source":"ES","brand":"GADCAR","address":" C/ TARREGA, 4, ","municipality":"Vallfogona de Balaguer","province":"LLEIDA","postalCode":"25680","schedule":"L-S: 09:30-21:30","fuels":{"gasoline95":1.529,"gasoline98":1.659,"diesel":1.699,"dieselPremium":1.739},"extra":{"saleType":"P","margin":"N","reportingType":"dm","ideess":"1718","idMunicipio":"4018","idProvincia":"25","idCCAA":"09"}}},{"type":"Feature","geometry":{"type":"Point","coordinates":[0.898806,41.650833]},"properties":{"id":"es-1730","source":"ES","brand":"IDS","address":"CTRA. N-II km 484","municipality":"Vila-sana","province":"LLEIDA","postalCode":"25245","schedule":"L-D: 24H","fuels":{"diesel":1.93,"adblue":1.105},"extra":{"saleType":"P","margin":"N","reportingType":"dm","ideess":"1730","idMunicipio":"4032","idProvincia":"25","idCCAA":"09"}}},{"type":"Feature","geometry":{"type":"Point","coordinates":[0.908972,41.628333]},"properties":{"id":"es-1767","source":"ES","brand":"PETROLIS INDEPENDENTS - PETRO7","address":"CRTA.N II, KM 486 POL.IND.GOLDPARK","municipality":"Golmés","province":"LLEIDA","postalCode":"25241","schedule":"L-S: 08:00-21:00; D: 09:00-14:00","fuels":{"gasoline95":1.546,"diesel":1.724,"dieselPremium":1.784},"extra":{"saleType":"P","margin":"N","reportingType":"dm","ideess":"1767","idMunicipio":"3892","idProvincia":"25","idCCAA":"09"}}},{"type":"Feature","geometry":{"type":"Point","coordinates":[0.652278,41.618944]},"properties":{"id":"es-1768","source":"ES","brand":"MOEVE","address":"POLIGONO INDUSTRIAL EL SEGRE, 202R, 202","municipality":"Lleida","province":"LLEIDA","postalCode":"25191","schedule":"L-D: 24H","fuels":{"diesel":1.939,"dieselB":1.649},"extra":{"saleType":"P","margin":"D","reportingType":"OM","ideess":"1768","idMunicipio":"3916","idProvincia":"25","idCCAA":"09"}}},{"type":"Feature","geometry":{"type":"Point","coordinates":[0.886944,41.627528]},"properties":{"id":"es-1769","source":"ES","brand":"PETROLIS","address":"RONDA DE PONENT, 1","municipality":"Mollerussa","province":"LLEIDA","postalCode":"25230","schedule":"L-D: 24H","fuels":{"gasoline95":1.599,"gasoline98":1.759,"diesel":1.719,"dieselPremium":1.769},"extra":{"saleType":"P","margin":"N","reportingType":"dm","ideess":"1769","idMunicipio":"3926","idProvincia":"25","idCCAA":"09"}}},{"type":"Feature","geometry":{"type":"Point","coordinates":[0.95675,41.853028]},"properties":{"id":"es-1773","source":"ES","brand":"SEROIL ENERGY","address":"CTRA.LLEIDA-PUIGUERD","municipality":"Cubells","province":"LLEIDA","postalCode":"25737","schedule":"L-D: 24H","fuels":{"gasoline95":1.578,"diesel":1.718},"extra":{"saleType":"P","margin":"D","reportingType":"dm","ideess":"1773","idMunicipio":"3876","idProvincia":"25","idCCAA":"09"}}},{"type":"Feature","geometry":{"type":"Point","coordinates":[0.878778,41.880222]},"properties":{"id":"es-1799","source":"ES","brand":"SEGRE OIL","address":"CARRETERA C-13 KM. 9,6","municipality":"Camarasa","province":"LLEIDA","postalCode":"25613","schedule":"L-D: 24H","fuels":{"gasoline95":1.699,"diesel":1.799},"extra":{"saleType":"P","margin":"I","reportingType":"dm","ideess":"1799","idMunicipio":"3858","idProvincia":"25","idCCAA":"09"}}},{"type":"Feature","geometry":{"type":"Point","coordinates":[0.894917,41.6425]},"properties":{"id":"es-1825","source":"ES","brand":"REPSOL","address":"CR A-2, 486,4 (A-2 km 486,5)","municipality":"Vila-sana","province":"LLEIDA","postalCode":"25245","schedule":"L-D: 24H","fuels":{"gasoline95":1.759,"diesel":1.905,"dieselPremium":1.965},"extra":{"saleType":"P","margin":"I","reportingType":"OM","ideess":"1825","idMunicipio":"4032","idProvincia":"25","idCCAA":"09"}}},{"type":"Feature","geometry":{"type":"Point","coordinates":[0.818694,41.775472]},"properties":{"id":"es-1998","source":"ES","brand":"BONAREA","address":"POL.IND.CAMPLLONG,19","municipality":"Balaguer","province":"LLEIDA","postalCode":"25600","schedule":"L-D: 24H","fuels":{"gasoline95":1.526,"diesel":1.704,"adblue":0.499},"extra":{"saleType":"P","margin":"N","reportingType":"dm","ideess":"1998","idMunicipio":"3837","idProvincia":"25","idCCAA":"09"}}},{"type":"Feature","geometry":{"type":"Point","coordinates":[0.816222,41.772806]},"properties":{"id":"es-2012","source":"ES","brand":"LOW COST 24","address":"CALLE MARINADA, S/N.POL.IND.CAMP LLONG, ","municipality":"Balaguer","province":"LLEIDA","postalCode":"25600","schedule":"L-D: 24H","fuels":{"gasoline95":1.699,"diesel":1.799},"extra":{"saleType":"P","margin":"N","reportingType":"dm","ideess":"2012","idMunicipio":"3837","idProvincia":"25","idCCAA":"09"}}},{"type":"Feature","geometry":{"type":"Point","coordinates":[0.658056,41.749833]},"properties":{"id":"es-2048","source":"ES","brand":"COOPERATIVA SANT ROC","address":"C/ CAMI DEL RIU, S/N","municipality":"Albesa","province":"LLEIDA","postalCode":"25135","schedule":"L-D: 24H","fuels":{"gasoline95":1.59,"gasoline98":1.7,"diesel":1.75,"dieselB":1.42},"extra":{"saleType":"P","margin":"N","reportingType":"dm","ideess":"2048","idMunicipio":"3812","idProvincia":"25","idCCAA":"09"}}},{"type":"Feature","geometry":{"type":"Point","coordinates":[0.568806,41.824]},"properties":{"id":"es-2082","source":"ES","brand":"PETRONOR","address":"CL AVENIDA LERIDA, 75","municipality":"Alfarràs","province":"LLEIDA","postalCode":"25120","schedule":"L-D: 24H","fuels":{"gasoline95":1.819,"diesel":1.939,"dieselPremium":1.999,"dieselB":1.589},"extra":{"saleType":"P","margin":"D","reportingType":"dm","ideess":"2082","idMunicipio":"3817","idProvincia":"25","idCCAA":"09"}}},{"type":"Feature","geometry":{"type":"Point","coordinates":[0.823722,41.548806]},"properties":{"id":"es-2087","source":"ES","brand":"REPSOL","address":"CARRER PRAT DE LA RIBA, 83","municipality":"Juneda","province":"LLEIDA","postalCode":"25430","schedule":"L-S: 00:07-21:00; D: 00:08-14:00","fuels":{"gasoline95":1.798,"gasoline98":1.978,"diesel":1.938,"dieselPremium":1.998},"extra":{"saleType":"P","margin":"D","reportingType":"dm","ideess":"2087","idMunicipio":"3909","idProvincia":"25","idCCAA":"09"}}},{"type":"Feature","geometry":{"type":"Point","coordinates":[0.591306,41.733222]},"properties":{"id":"es-2099","source":"ES","brand":"REPSOL","address":"CARRETERA N-230 KM. 15","municipality":"Alguaire","province":"LLEIDA","postalCode":"25125","schedule":"L-D: 06:00-22:00","fuels":{"gasoline95":1.735,"gasoline98":1.905,"diesel":1.899,"dieselPremium":1.959},"extra":{"saleType":"P","margin":"D","reportingType":"OM","ideess":"2099","idMunicipio":"3820","idProvincia":"25","idCCAA":"09"}}},{"type":"Feature","geometry":{"type":"Point","coordinates":[0.618139,41.611111]},"properties":{"id":"es-2212","source":"ES","brand":"REPSOL","address":"CALLE ACADEMIA, 28","municipality":"Lleida","province":"LLEIDA","postalCode":"25002","schedule":"L-D: 24H","fuels":{"gasoline95":1.759,"gasoline98":1.869,"diesel":1.889,"dieselPremium":2.009},"extra":{"saleType":"P","margin":"D","reportingType":"dm","ideess":"2212","idMunicipio":"3916","idProvincia":"25","idCCAA":"09"}}},{"type":"Feature","geometry":{"type":"Point","coordinates":[0.662972,41.61075]},"properties":{"id":"es-2222","source":"ES","brand":"REPSOL","address":"CARRETERA N-240 KM. 89","municipality":"Lleida","province":"LLEIDA","postalCode":"25001","schedule":"L-D: 06:00-22:00","fuels":{"gasoline95":1.749,"diesel":1.929,"dieselPremium":1.979},"extra":{"saleType":"P","margin":"I","reportingType":"OM","ideess":"2222","idMunicipio":"3916","idProvincia":"25","idCCAA":"09"}}},{"type":"Feature","geometry":{"type":"Point","coordinates":[0.738083,41.694667]},"properties":{"id":"es-2239","source":"ES","brand":"REPSOL","address":"CARRETERA C-13 KM. 11","municipality":"Alcoletge","province":"LLEIDA","postalCode":"25560","schedule":"L-D: 06:00-22:00","fuels":{"gasoline95":1.755,"gasoline98":1.925,"diesel":1.909,"dieselPremium":1.969},"extra":{"saleType":"P","margin":"D","reportingType":"OM","ideess":"2239","idMunicipio":"3816","idProvincia":"25","idCCAA":"09"}}},{"type":"Feature","geometry":{"type":"Point","coordinates":[0.887806,41.629694]},"properties":{"id":"es-2256","source":"ES","brand":"REPSOL","address":"AVENIDA JAIME I, 24","municipality":"Mollerussa","province":"LLEIDA","postalCode":"25230","schedule":"L-D: 24H","fuels":{"gasoline95":1.755,"gasoline98":1.885,"diesel":1.925},"extra":{"saleType":"P","margin":"D","reportingType":"OM","ideess":"2256","idMunicipio":"3926","idProvincia":"25","idCCAA":"09"}}},{"type":"Feature","geometry":{"type":"Point","coordinates":[0.887778,41.630056]},"properties":{"id":"es-2257","source":"ES","brand":"REPSOL","address":"AVENIDA JAIME I, 24","municipality":"Mollerussa","province":"LLEIDA","postalCode":"25230","schedule":"L-D: 06:00-22:00","fuels":{"gasoline95":1.755,"gasoline98":1.875,"diesel":1.905,"dieselRenewable":2.025},"extra":{"saleType":"P","margin":"I","reportingType":"OM","ideess":"2257","idMunicipio":"3926","idProvincia":"25","idCCAA":"09"}}},{"type":"Feature","geometry":{"type":"Point","coordinates":[0.931306,41.643444]},"properties":{"id":"es-2276","source":"ES","brand":"MOEVE","address":"CARRETERA A-2 KM. 489,5","municipality":"Vila-sana","province":"LLEIDA","postalCode":"25245","schedule":"L-D: 06:00-22:00","fuels":{"gasoline95":1.794,"gasoline95Premium":1.889,"diesel":1.929,"dieselPremium":2.009},"extra":{"saleType":"P","margin":"I","reportingType":"OM","ideess":"2276","idMunicipio":"4032","idProvincia":"25","idCCAA":"09"}}},{"type":"Feature","geometry":{"type":"Point","coordinates":[0.814167,41.670278]},"properties":{"id":"es-2280","source":"ES","brand":"SHELL - E.S. BELLVIS","address":"LV-3311 km 5,2","municipality":"Bellvís","province":"LLEIDA","postalCode":"25142","schedule":"L-D: 24H","fuels":{"gasoline95":1.777,"diesel":1.936,"dieselPremium":1.986,"dieselB":1.645,"lpg":1.122},"extra":{"saleType":"P","margin":"D","reportingType":"dm","ideess":"2280","idMunicipio":"3849","idProvincia":"25","idCCAA":"09"}}},{"type":"Feature","geometry":{"type":"Point","coordinates":[0.637083,41.609056]},"properties":{"id":"es-2283","source":"ES","brand":"BALLENOIL","address":"AVENIDA BARCELONA (N-IIA PK 463,5), 17","municipality":"Lleida","province":"LLEIDA","postalCode":"25001","schedule":"L-D: 24H","fuels":{"gasoline95":1.599,"gasoline95Premium":1.609,"diesel":1.799,"dieselPremium":1.809},"extra":{"saleType":"P","margin":"D","reportingType":"OM","ideess":"2283","idMunicipio":"3916","idProvincia":"25","idCCAA":"09"}}},{"type":"Feature","geometry":{"type":"Point","coordinates":[0.636222,41.609306]},"properties":{"id":"es-2284","source":"ES","brand":"BALLENOIL","address":"AVENIDA BARCELONA (N-IIA PK 463,5), 17","municipality":"Lleida","province":"LLEIDA","postalCode":"25001","schedule":"L-D: 24H","fuels":{"gasoline95":1.599,"gasoline95Premium":1.609,"diesel":1.799,"dieselPremium":1.809},"extra":{"saleType":"P","margin":"I","reportingType":"OM","ideess":"2284","idMunicipio":"3916","idProvincia":"25","idCCAA":"09"}}},{"type":"Feature","geometry":{"type":"Point","coordinates":[0.823056,41.633333]},"properties":{"id":"es-2287","source":"ES","brand":"REPSOL","address":"CARRETERA N-II A KM. 480","municipality":"Sidamon","province":"LLEIDA","postalCode":"25222","schedule":"L-D: 06:00-22:00","fuels":{"gasoline95":1.799,"gasoline98":1.929,"diesel":1.919,"dieselPremium":1.979,"adblue":0.77},"extra":{"saleType":"P","margin":"D","reportingType":"dm","ideess":"2287","idMunicipio":"3987","idProvincia":"25","idCCAA":"09"}}},{"type":"Feature","geometry":{"type":"Point","coordinates":[0.604722,41.671361]},"properties":{"id":"es-2298","source":"ES","brand":"PETROCAT","address":"CR N-230, 7","municipality":"Torrefarrera","province":"LLEIDA","postalCode":"25123","schedule":"L-D: 05:00-23:00","fuels":{"gasoline95":1.789,"gasoline98":1.909,"diesel":1.905,"dieselPremium":1.965},"extra":{"saleType":"P","margin":"I","reportingType":"OM","ideess":"2298","idMunicipio":"4008","idProvincia":"25","idCCAA":"09"}}},{"type":"Feature","geometry":{"type":"Point","coordinates":[0.619667,41.517667]},"properties":{"id":"es-2328","source":"ES","brand":"REPSOL","address":"CR C-12  P.K. 128,20 (C-12 km 127)","municipality":"Alfés","province":"LLEIDA","postalCode":"25161","schedule":"L-D: 07:00-22:00","fuels":{"gasoline95":1.739,"gasoline98":1.909,"diesel":1.909,"dieselPremium":1.969},"extra":{"saleType":"P","margin":"I","reportingType":"OM","ideess":"2328","idMunicipio":"3818","idProvincia":"25","idCCAA":"09"}}},{"type":"Feature","geometry":{"type":"Point","coordinates":[0.628889,41.625444]},"properties":{"id":"es-2336","source":"ES","brand":"REPSOL","address":"AVENIDA ALCALDE RECASENS, 25","municipality":"Lleida","province":"LLEIDA","postalCode":"25005","schedule":"L: 07:00-22:00","fuels":{"gasoline95":1.749,"gasoline98":1.869,"diesel":1.885,"dieselPremium":1.945},"extra":{"saleType":"P","margin":"D","reportingType":"dm","ideess":"2336","idMunicipio":"3916","idProvincia":"25","idCCAA":"09"}}},{"type":"Feature","geometry":{"type":"Point","coordinates":[0.810972,41.793083]},"properties":{"id":"es-2350","source":"ES","brand":"REPSOL","address":"CALLE URGELL, 11","municipality":"Balaguer","province":"LLEIDA","postalCode":"25600","schedule":"L-D: 06:00-22:00","fuels":{"gasoline95":1.735,"gasoline95Premium":1.805,"gasoline98":1.855,"diesel":1.905,"dieselB":1.555,"dieselRenewable":2.015},"extra":{"saleType":"P","margin":"D","reportingType":"OM","ideess":"2350","idMunicipio":"3837","idProvincia":"25","idCCAA":"09"}}},{"type":"Feature","geometry":{"type":"Point","coordinates":[0.633139,41.599417]},"properties":{"id":"es-2353","source":"ES","brand":"MOEVE","address":"AVDA. FLIX, 41","municipality":"Lleida","province":"LLEIDA","postalCode":"25001","schedule":"L-D: 06:00-23:00","fuels":{"gasoline95":1.824,"gasoline98":1.944,"diesel":1.964,"dieselPremium":2.054,"adblue":0.753},"extra":{"saleType":"P","margin":"D","reportingType":"dm","ideess":"2353","idMunicipio":"3916","idProvincia":"25","idCCAA":"09"}}},{"type":"Feature","geometry":{"type":"Point","coordinates":[0.77475,41.628667]},"properties":{"id":"es-2450","source":"ES","brand":"REPSOL","address":"CARRETERA NII KM. 475","municipality":"Bell-lloc d'Urgell","province":"LLEIDA","postalCode":"25220","schedule":"L-D: 24H","fuels":{"gasoline95":1.895,"gasoline98":1.93,"diesel":1.905,"dieselPremium":1.945},"extra":{"saleType":"P","margin":"D","reportingType":"dm","ideess":"2450","idMunicipio":"3845","idProvincia":"25","idCCAA":"09"}}},{"type":"Feature","geometry":{"type":"Point","coordinates":[0.44175,41.727667]},"properties":{"id":"es-2453","source":"ES","brand":"REPSOL","address":"CALLE MAJOR, 94","municipality":"Almacelles","province":"LLEIDA","postalCode":"25100","schedule":"L-D: 24H","fuels":{"gasoline95":1.769,"gasoline98":1.939,"diesel":1.899,"dieselPremium":1.959,"dieselB":1.555},"extra":{"saleType":"P","margin":"D","reportingType":"OM","ideess":"2453","idMunicipio":"3822","idProvincia":"25","idCCAA":"09"}}},{"type":"Feature","geometry":{"type":"Point","coordinates":[0.643667,41.611222]},"properties":{"id":"es-2458","source":"ES","brand":"REPSOL","address":"CARRETERA LL-11 KM. 10,00","municipality":"Lleida","province":"LLEIDA","postalCode":"25001","schedule":"L-D: 06:00-23:00","fuels":{"gasoline95":1.759,"gasoline98":1.879,"diesel":1.915,"dieselPremium":1.975},"extra":{"saleType":"P","margin":"D","reportingType":"OM","ideess":"2458","idMunicipio":"3916","idProvincia":"25","idCCAA":"09"}}},{"type":"Feature","geometry":{"type":"Point","coordinates":[0.511667,41.558861]},"properties":{"id":"es-2483","source":"ES","brand":"REPSOL","address":"CARRETERA N-2 KM. 450","municipality":"Torres de Segre","province":"LLEIDA","postalCode":"25170","schedule":"L-D: 06:00-22:00","fuels":{"gasoline95":1.749,"gasoline98":1.919,"diesel":1.909,"dieselPremium":1.969,"dieselB":1.595},"extra":{"saleType":"P","margin":"D","reportingType":"OM","ideess":"2483","idMunicipio":"4012","idProvincia":"25","idCCAA":"09"}}},{"type":"Feature","geometry":{"type":"Point","coordinates":[0.61225,41.605806]},"properties":{"id":"es-2487","source":"ES","brand":"CEPSA","address":"AVINGUDA EXERCIT, 44","municipality":"Lleida","province":"LLEIDA","postalCode":"25002","schedule":"L-D: 06:00-22:00","fuels":{"gasoline95":1.66,"gasoline98":1.78,"diesel":1.83,"dieselPremium":1.88},"extra":{"saleType":"P","margin":"I","reportingType":"dm","ideess":"2487","idMunicipio":"3916","idProvincia":"25","idCCAA":"09"}}},{"type":"Feature","geometry":{"type":"Point","coordinates":[0.393,41.652611]},"properties":{"id":"es-2500","source":"ES","brand":"REPSOL","address":"CARRETERA DE LERIDA, S/N KM. 23","municipality":"Gimenells i el Pla de la Font","province":"LLEIDA","postalCode":"25112","schedule":"L-D: 24H","fuels":{"gasoline95":1.785,"diesel":1.905,"dieselPremium":1.955,"dieselB":1.495,"adblue":0.995},"extra":{"saleType":"P","margin":"D","reportingType":"dm","ideess":"2500","idMunicipio":"3891","idProvincia":"25","idCCAA":"09"}}},{"type":"Feature","geometry":{"type":"Point","coordinates":[0.829917,41.785583]},"properties":{"id":"es-2504","source":"ES","brand":"CAMPSA EXPRESS","address":"CR C-148  (A), 0,8","municipality":"Vallfogona de Balaguer","province":"LLEIDA","postalCode":"25680","schedule":"L-D: 06:00-22:00","fuels":{"gasoline95":1.565,"gasoline98":1.705,"diesel":1.705,"dieselPremium":1.815,"dieselB":1.555},"extra":{"saleType":"P","margin":"I","reportingType":"OM","ideess":"2504","idMunicipio":"4018","idProvincia":"25","idCCAA":"09"}}},{"type":"Feature","geometry":{"type":"Point","coordinates":[0.610333,41.576111]},"properties":{"id":"es-2514","source":"ES","brand":"PETRONOR","address":"CARRETERA COMARCAL 230A KM. 6,100","municipality":"Albatàrrec","province":"LLEIDA","postalCode":"25171","schedule":"L-V: 07:00-15:00","fuels":{"gasoline95":1.739,"gasoline98":1.909,"diesel":1.899,"dieselPremium":1.959,"dieselB":1.575},"extra":{"saleType":"P","margin":"I","reportingType":"dm","ideess":"2514","idMunicipio":"3811","idProvincia":"25","idCCAA":"09"}}},{"type":"Feature","geometry":{"type":"Point","coordinates":[0.421056,41.468806]},"properties":{"id":"es-2544","source":"ES","brand":"SEROIL ENERGY","address":"CR L-7042, 12","municipality":"Seròs","province":"LLEIDA","postalCode":"25183","schedule":"L-D: 24H","fuels":{"gasoline95":1.579,"diesel":1.719},"extra":{"saleType":"P","margin":"D","reportingType":"dm","ideess":"2544","idMunicipio":"3985","idProvincia":"25","idCCAA":"09"}}},{"type":"Feature","geometry":{"type":"Point","coordinates":[0.475611,41.544528]},"properties":{"id":"es-2551","source":"ES","brand":"REPSOL","address":"CARRETERA A-2 KM. 447","municipality":"Soses","province":"LLEIDA","postalCode":"25181","schedule":"L-D: 06:00-22:00","fuels":{"gasoline95":1.759,"diesel":1.905,"dieselPremium":1.965,"dieselB":1.575},"extra":{"saleType":"P","margin":"I","reportingType":"OM","ideess":"2551","idMunicipio":"3992","idProvincia":"25","idCCAA":"09"}}},{"type":"Feature","geometry":{"type":"Point","coordinates":[0.87425,41.638722]},"properties":{"id":"es-2834","source":"ES","brand":"REPSOL","address":"CR A-2, 484,5","municipality":"Fondarella","province":"LLEIDA","postalCode":"25244","schedule":"L-D: 24H","fuels":{"gasoline95":1.759,"diesel":1.905,"dieselPremium":1.965},"extra":{"saleType":"P","margin":"D","reportingType":"dm","ideess":"2834","idMunicipio":"3886","idProvincia":"25","idCCAA":"09"}}},{"type":"Feature","geometry":{"type":"Point","coordinates":[0.765083,41.751111]},"properties":{"id":"es-2847","source":"ES","brand":"BP EL CORB - TORRE DE NOVEL","address":"CR C-12,  P.K. 161.83","municipality":"Balaguer","province":"LLEIDA","postalCode":"25600","schedule":"L-S: 06:00-22:00; D: 08:00-22:00","fuels":{"gasoline95":1.729,"gasoline98":1.869,"diesel":1.919},"extra":{"saleType":"P","margin":"N","reportingType":"dm","ideess":"2847","idMunicipio":"3837","idProvincia":"25","idCCAA":"09"}}},{"type":"Feature","geometry":{"type":"Point","coordinates":[0.890389,41.621556]},"properties":{"id":"es-2944","source":"ES","brand":"PETROPRIX","address":"CARRETERA L-200 KM. 1,370","municipality":"Mollerussa","province":"LLEIDA","postalCode":"25230","schedule":"L-D: 24H","fuels":{"gasoline95":1.525,"diesel":1.699},"extra":{"saleType":"P","margin":"D","reportingType":"dm","ideess":"2944","idMunicipio":"3926","idProvincia":"25","idCCAA":"09"}}},{"type":"Feature","geometry":{"type":"Point","coordinates":[0.6135,41.643889]},"properties":{"id":"es-2947","source":"ES","brand":"CEPSA","address":"CARRETERA N-230 KM. 3,2","municipality":"Lleida","province":"LLEIDA","postalCode":"25005","schedule":"L-D: 05:00-23:00","fuels":{"gasoline95":1.784,"gasoline95Premium":1.884,"diesel":1.944,"dieselPremium":2.004},"extra":{"saleType":"P","margin":"D","reportingType":"dm","ideess":"2947","idMunicipio":"3916","idProvincia":"25","idCCAA":"09"}}},{"type":"Feature","geometry":{"type":"Point","coordinates":[0.592611,41.631944]},"properties":{"id":"es-2948","source":"ES","brand":"CEPSA","address":"CARRETERA N-240A KM. 96,4","municipality":"Lleida","province":"LLEIDA","postalCode":"25198","schedule":"L-D: 07:00-22:00","fuels":{"gasoline95":1.824,"gasoline95Premium":1.909,"gasoline98":1.954,"diesel":1.969,"dieselPremium":2.059},"extra":{"saleType":"P","margin":"D","reportingType":"dm","ideess":"2948","idMunicipio":"3916","idProvincia":"25","idCCAA":"09"}}},{"type":"Feature","geometry":{"type":"Point","coordinates":[0.62675,41.630778]},"properties":{"id":"es-2949","source":"ES","brand":"CEPSA","address":"CALLE CORTS CATALANES, 60","municipality":"Lleida","province":"LLEIDA","postalCode":"25005","schedule":"L-D: 07:00-22:00","fuels":{"gasoline95":1.804,"gasoline95Premium":1.889,"diesel":1.949,"dieselPremium":2.039},"extra":{"saleType":"P","margin":"D","reportingType":"dm","ideess":"2949","idMunicipio":"3916","idProvincia":"25","idCCAA":"09"}}},{"type":"Feature","geometry":{"type":"Point","coordinates":[0.8655,41.487417]},"properties":{"id":"es-3038","source":"ES","brand":"GALP","address":"AUTOPISTA AP-2 (MRG.DCHO.) KM. 164","municipality":"Borges Blanques (Les)","province":"LLEIDA","postalCode":"25400","schedule":"L-D: 07:00-23:00","fuels":{"gasoline95":1.798,"gasoline98":1.959,"diesel":1.929,"dieselPremium":2.014},"extra":{"saleType":"P","margin":"D","reportingType":"dm","ideess":"3038","idMunicipio":"3853","idProvincia":"25","idCCAA":"09"}}},{"type":"Feature","geometry":{"type":"Point","coordinates":[0.8655,41.489389]},"properties":{"id":"es-3039","source":"ES","brand":"GALP","address":"AUTOPISTA AP-2 (MRG.IZDO.) KM. 164","municipality":"Borges Blanques (Les)","province":"LLEIDA","postalCode":"25400","schedule":"L-D: 07:00-23:00","fuels":{"gasoline95":1.798,"gasoline98":1.959,"diesel":1.929,"dieselPremium":2.014},"extra":{"saleType":"P","margin":"I","reportingType":"dm","ideess":"3039","idMunicipio":"3853","idProvincia":"25","idCCAA":"09"}}},{"type":"Feature","geometry":{"type":"Point","coordinates":[0.637222,41.543361]},"properties":{"id":"es-3040","source":"ES","brand":"VALCARCE","address":"AUTOPISTA AP-2 (MRG.IZDO.) KM. 142","municipality":"Alfés","province":"LLEIDA","postalCode":"25161","schedule":"L-D: 24H","fuels":{"gasoline95":1.798,"gasoline98":1.959,"diesel":1.929,"dieselPremium":2.014},"extra":{"saleType":"P","margin":"I","reportingType":"dm","ideess":"3040","idMunicipio":"3818","idProvincia":"25","idCCAA":"09"}}},{"type":"Feature","geometry":{"type":"Point","coordinates":[0.639222,41.541306]},"properties":{"id":"es-3041","source":"ES","brand":"VALCARCE","address":"AUTOPISTA AP-2 (MRG.DCHO.) KM. 142","municipality":"Alfés","province":"LLEIDA","postalCode":"25161","schedule":"L-D: 24H","fuels":{"gasoline95":1.798,"gasoline98":1.959,"diesel":1.929,"dieselPremium":2.014},"extra":{"saleType":"P","margin":"D","reportingType":"dm","ideess":"3041","idMunicipio":"3818","idProvincia":"25","idCCAA":"09"}}},{"type":"Feature","geometry":{"type":"Point","coordinates":[0.611083,41.012444]},"properties":{"id":"es-3236","source":"ES","brand":"REPSOL","address":"CARRETERA 230 KM. 50","municipality":"Rasquera","province":"TARRAGONA","postalCode":"43513","schedule":"L-D: 06:00-22:00","fuels":{"gasoline95":1.799,"gasoline98":1.935,"diesel":1.899,"dieselPremium":1.999},"extra":{"saleType":"P","margin":"D","reportingType":"dm","ideess":"3236","idMunicipio":"6465","idProvincia":"43","idCCAA":"09"}}},{"type":"Feature","geometry":{"type":"Point","coordinates":[0.904917,41.263889]},"properties":{"id":"es-3239","source":"ES","brand":"REPSOL","address":"CALLE COMPTE DE RIUS, S/N","municipality":"Cornudella de Montsant","province":"TARRAGONA","postalCode":"43360","schedule":"L-D: 8:00-21:00","fuels":{"gasoline95":1.869,"diesel":1.969,"dieselB":1.689},"extra":{"saleType":"P","margin":"D","reportingType":"dm","ideess":"3239","idMunicipio":"6393","idProvincia":"43","idCCAA":"09"}}},{"type":"Feature","geometry":{"type":"Point","coordinates":[0.729667,41.047806]},"properties":{"id":"es-3242","source":"ES","brand":"REPSOL","address":"CARRETERA C-44 KM. 20,200","municipality":"Tivissa","province":"TARRAGONA","postalCode":"43746","schedule":"L-S: 07:30-15:30","fuels":{"gasoline95":1.769,"gasoline98":1.939,"diesel":1.879,"dieselPremium":1.989,"dieselB":1.655},"extra":{"saleType":"P","margin":"N","reportingType":"OM","ideess":"3242","idMunicipio":"6496","idProvincia":"43","idCCAA":"09"}}},{"type":"Feature","geometry":{"type":"Point","coordinates":[0.593444,41.180833]},"properties":{"id":"es-3245","source":"ES","brand":"PETRONOR","address":"CR C-12, 77,8","municipality":"Vinebre","province":"TARRAGONA","postalCode":"43792","schedule":"L-S: 09:00-21:00","fuels":{"gasoline95":1.769,"gasoline98":1.939,"diesel":1.879,"dieselPremium":1.989},"extra":{"saleType":"P","margin":"D","reportingType":"OM","ideess":"3245","idMunicipio":"6523","idProvincia":"43","idCCAA":"09"}}},{"type":"Feature","geometry":{"type":"Point","coordinates":[0.661917,41.0795]},"properties":{"id":"es-3257","source":"ES","brand":"REPSOL","address":"CARRETERA C 12 KM. 60,900","municipality":"Móra la Nova","province":"TARRAGONA","postalCode":"43770","schedule":"L-V: 07:30-13:30 y 16:00-19:00; S-D: 08:00-14:00","fuels":{"gasoline95":1.769,"gasoline98":1.939,"diesel":1.879,"dieselPremium":1.989},"extra":{"saleType":"P","margin":"D","reportingType":"OM","ideess":"3257","idMunicipio":"6437","idProvincia":"43","idCCAA":"09"}}},{"type":"Feature","geometry":{"type":"Point","coordinates":[0.986667,41.313083]},"properties":{"id":"es-3259","source":"ES","brand":"PETRONOR","address":"CARRETERA T-700 KM. 21,9","municipality":"Prades","province":"TARRAGONA","postalCode":"43364","schedule":"L-D: 8:00-16:00","fuels":{"gasoline95":1.869,"gasoline98":1.989,"diesel":1.969,"dieselB":1.689},"extra":{"saleType":"P","margin":"D","reportingType":"dm","ideess":"3259","idMunicipio":"6460","idProvincia":"43","idCCAA":"09"}}},{"type":"Feature","geometry":{"type":"Point","coordinates":[0.82725,41.020139]},"properties":{"id":"es-3261","source":"ES","brand":"ALAS","address":"ACCESO NORTE A VANDELLÒS (C-233 km 9,8)","municipality":"Vandellòs i l'Hospitalet de l'Infant","province":"TARRAGONA","postalCode":"43891","schedule":"L-D: 07:00-13:00 y 15:00-21:00","fuels":{"gasoline95":1.559,"diesel":1.709,"dieselPremium":1.769},"extra":{"saleType":"P","margin":"I","reportingType":"dm","ideess":"3261","idMunicipio":"6508","idProvincia":"43","idCCAA":"09"}}},{"type":"Feature","geometry":{"type":"Point","coordinates":[0.535528,41.109722]},"properties":{"id":"es-3287","source":"ES","brand":"PETRONOR","address":"CARRETERA N-420 KM. 455,5","municipality":"Fatarella (La)","province":"TARRAGONA","postalCode":"43781","schedule":"L: 06:30-21:30","fuels":{"gasoline95":1.769,"diesel":1.879,"dieselPremium":1.989,"dieselB":1.599},"extra":{"saleType":"P","margin":"I","reportingType":"OM","ideess":"3287","idMunicipio":"6400","idProvincia":"43","idCCAA":"09"}}},{"type":"Feature","geometry":{"type":"Point","coordinates":[0.43625,41.053694]},"properties":{"id":"es-3298","source":"ES","brand":"REPSOL","address":"AVENIDA ARAGON, 7","municipality":"Gandesa","province":"TARRAGONA","postalCode":"43780","schedule":"L-D: 06:00-22:00","fuels":{"gasoline95":1.785,"gasoline98":1.895,"diesel":1.895,"dieselB":1.615,"dieselRenewable":2.005},"extra":{"saleType":"P","margin":"D","reportingType":"OM","ideess":"3298","idMunicipio":"6408","idProvincia":"43","idCCAA":"09"}}},{"type":"Feature","geometry":{"type":"Point","coordinates":[0.999778,41.049333]},"properties":{"id":"es-3304","source":"ES","brand":"GALP","address":"CARRETERA N-340 KM. 1139","municipality":"Mont-roig del Camp","province":"TARRAGONA","postalCode":"43300","schedule":"L-D: 06:00-21:00","fuels":{"gasoline95":1.829,"gasoline98":1.949,"diesel":1.909,"dieselPremium":1.959},"extra":{"saleType":"P","margin":"D","reportingType":"OM","ideess":"3304","idMunicipio":"6435","idProvincia":"43","idCCAA":"09"}}},{"type":"Feature","geometry":{"type":"Point","coordinates":[0.965278,41.091528]},"properties":{"id":"es-3308","source":"ES","brand":"QOIL","address":"AVDA.DE REUS ESQUINA C/.KLAUS FISCHER, 2 (A.REUS ESQ.C/.KLAUS FISCHER,2)","municipality":"Mont-roig del Camp","province":"TARRAGONA","postalCode":"43300","schedule":"L-D: 24H","fuels":{"gasoline95":1.599,"gasoline98":1.739,"diesel":1.699,"dieselPremium":1.739},"extra":{"saleType":"P","margin":"N","reportingType":"dm","ideess":"3308","idMunicipio":"6435","idProvincia":"43","idCCAA":"09"}}},{"type":"Feature","geometry":{"type":"Point","coordinates":[0.816222,41.143472]},"properties":{"id":"es-3313","source":"ES","brand":"REPSOL","address":"CARRETERA N-420 KM. 841","municipality":"Falset","province":"TARRAGONA","postalCode":"43730","schedule":"L-D: 06:00-22:00","fuels":{"gasoline95":1.825,"gasoline98":1.945,"diesel":1.879,"dieselPremium":1.939},"extra":{"saleType":"P","margin":"D","reportingType":"OM","ideess":"3313","idMunicipio":"6399","idProvincia":"43","idCCAA":"09"}}},{"type":"Feature","geometry":{"type":"Point","coordinates":[0.547722,41.22175]},"properties":{"id":"es-3324","source":"ES","brand":"REPSOL","address":"CARRERA C-12, 101","municipality":"Flix","province":"TARRAGONA","postalCode":"43750","schedule":"L-V: 08:00-20:00; S: 08:00-13:00","fuels":{"gasoline95":1.769,"gasoline98":1.939,"diesel":1.879,"dieselPremium":1.989},"extra":{"saleType":"P","margin":"I","reportingType":"OM","ideess":"3324","idMunicipio":"6404","idProvincia":"43","idCCAA":"09"}}},{"type":"Feature","geometry":{"type":"Point","coordinates":[0.647917,41.093722]},"properties":{"id":"es-3326","source":"ES","brand":"REPSOL","address":"CARRETERA CTRA. N-420 KM. 467,100","municipality":"Móra la Nova","province":"TARRAGONA","postalCode":"43770","schedule":"L-D: 06:00-22:00","fuels":{"gasoline95":1.775,"gasoline98":1.895,"diesel":1.885,"dieselB":1.625,"dieselRenewable":2.005},"extra":{"saleType":"P","margin":"N","reportingType":"OM","ideess":"3326","idMunicipio":"6437","idProvincia":"43","idCCAA":"09"}}},{"type":"Feature","geometry":{"type":"Point","coordinates":[0.936222,41.007083]},"properties":{"id":"es-3335","source":"ES","brand":"REPSOL","address":"CR N-340, 1132","municipality":"Mont-roig del Camp","province":"TARRAGONA","postalCode":"43892","schedule":"L-D: 06:00-22:00","fuels":{"gasoline95":1.835,"gasoline95Premium":1.895,"gasoline98":1.945,"diesel":1.919,"dieselRenewable":2.029},"extra":{"saleType":"P","margin":"I","reportingType":"OM","ideess":"3335","idMunicipio":"6435","idProvincia":"43","idCCAA":"09"}}},{"type":"Feature","geometry":{"type":"Point","coordinates":[0.597861,41.599222]},"properties":{"id":"es-8103","source":"ES","brand":"NIEVES","address":"PARTIDA CTRA NACIONL II, N","municipality":"Lleida","province":"LLEIDA","postalCode":"25192","schedule":"L-D: 24H","fuels":{"gasoline95":1.589,"diesel":1.769,"adblue":0.969},"extra":{"saleType":"P","margin":"I","reportingType":"dm","ideess":"8103","idMunicipio":"3916","idProvincia":"25","idCCAA":"09"}}},{"type":"Feature","geometry":{"type":"Point","coordinates":[0.135444,41.12525]},"properties":{"id":"es-8195","source":"ES","brand":"E.S.MAELLA","address":"AVENIDA CASPE, 1","municipality":"Maella","province":"ZARAGOZA","postalCode":"50710","schedule":"L-D: 06:00-23:00","fuels":{"gasoline95":1.682,"gasoline98":1.867,"diesel":1.836,"dieselB":1.424},"extra":{"saleType":"P","margin":"I","reportingType":"dm","ideess":"8195","idMunicipio":"7963","idProvincia":"50","idCCAA":"02"}}},{"type":"Feature","geometry":{"type":"Point","coordinates":[0.517194,41.57575]},"properties":{"id":"es-8243","source":"ES","brand":"PONENT ENERGIA","address":"CTRA. VALLMANYA km 1,5","municipality":"Alcarràs","province":"LLEIDA","postalCode":"25180","schedule":"L-D: 24H","fuels":{"gasoline95":1.583,"gasoline98":1.609,"diesel":1.732,"dieselPremium":1.792,"dieselB":1.388,"adblue":0.894},"extra":{"saleType":"P","margin":"I","reportingType":"dm","ideess":"8243","idMunicipio":"3815","idProvincia":"25","idCCAA":"09"}}},{"type":"Feature","geometry":{"type":"Point","coordinates":[0.559333,41.579472]},"properties":{"id":"es-8440","source":"ES","brand":"SHELL","address":"CTRA.N-II km 454,9","municipality":"Alcarràs","province":"LLEIDA","postalCode":"25180","schedule":"L-D: 24H","fuels":{"gasoline95":1.649,"gasoline98":1.849,"diesel":1.799,"dieselPremium":1.899},"extra":{"saleType":"P","margin":"N","reportingType":"OM","ideess":"8440","idMunicipio":"3815","idProvincia":"25","idCCAA":"09"}}},{"type":"Feature","geometry":{"type":"Point","coordinates":[0.8625,41.522778]},"properties":{"id":"es-8441","source":"ES","brand":"SHELL","address":"CARRER RAVAL DE LLEIDA, S/N","municipality":"Borges Blanques (Les)","province":"LLEIDA","postalCode":"25400","schedule":"L-D: 06:00-22:00","fuels":{"gasoline95":1.699,"gasoline98":1.839,"diesel":1.779,"dieselPremium":1.859},"extra":{"saleType":"P","margin":"I","reportingType":"OM","ideess":"8441","idMunicipio":"3853","idProvincia":"25","idCCAA":"09"}}},{"type":"Feature","geometry":{"type":"Point","coordinates":[0.328167,41.514944]},"properties":{"id":"es-8964","source":"ES","brand":"SHELL","address":"N-211 km 330.78","municipality":"Fraga","province":"HUESCA","postalCode":"22520","schedule":"L-D: 07:00-23:00","fuels":{"gasoline95":1.769,"diesel":1.899,"dieselPremium":1.979,"adblue":1.25},"extra":{"saleType":"P","margin":"D","reportingType":"OM","ideess":"8964","idMunicipio":"3384","idProvincia":"22","idCCAA":"02"}}},{"type":"Feature","geometry":{"type":"Point","coordinates":[0.519,41.533722]},"properties":{"id":"es-8979","source":"ES","brand":"PONENT ENERGIA","address":"CALLE ESTATUT DE SAU, 0","municipality":"Torres de Segre","province":"LLEIDA","postalCode":"25170","schedule":"L-D: 24H","fuels":{"gasoline95":1.583,"diesel":1.732,"dieselB":1.388},"extra":{"saleType":"P","margin":"D","reportingType":"dm","ideess":"8979","idMunicipio":"4012","idProvincia":"25","idCCAA":"09"}}},{"type":"Feature","geometry":{"type":"Point","coordinates":[0.205,41.828639]},"properties":{"id":"es-8995","source":"ES","brand":"COOP. SAN MARCOS","address":"CALLE SAN MARCOS, 7","municipality":"Binaced","province":"HUESCA","postalCode":"22510","schedule":"L-D: 24H","fuels":{"gasoline95":1.54,"diesel":1.706,"dieselB":1.386},"extra":{"saleType":"P","margin":"D","reportingType":"dm","ideess":"8995","idMunicipio":"3345","idProvincia":"22","idCCAA":"02"}}},{"type":"Feature","geometry":{"type":"Point","coordinates":[0.551222,41.372444]},"properties":{"id":"es-9055","source":"ES","brand":"VERGE LORETO","address":"CALLE FLIX, 0","municipality":"Llardecans","province":"LLEIDA","postalCode":"25186","schedule":"L-D: 24H","fuels":{"diesel":1.73,"dieselB":1.39},"extra":{"saleType":"P","margin":"D","reportingType":"dm","ideess":"9055","idMunicipio":"3914","idProvincia":"25","idCCAA":"09"}}},{"type":"Feature","geometry":{"type":"Point","coordinates":[0.906,41.629694]},"properties":{"id":"es-9077","source":"ES","brand":"AUTOSERVEI M3","address":"CALLE DE LA CATALUNYA NORD, 21","municipality":"Golmés","province":"LLEIDA","postalCode":"25241","schedule":"L-D: 24H","fuels":{"gasoline95":1.579,"diesel":1.729},"extra":{"saleType":"P","margin":"D","reportingType":"dm","ideess":"9077","idMunicipio":"3892","idProvincia":"25","idCCAA":"09"}}},{"type":"Feature","geometry":{"type":"Point","coordinates":[0.424222,41.860306]},"properties":{"id":"es-9127","source":"ES","brand":"COMBUSTIBLES LA LITERA","address":"AVENIDA LA PAZ S/N, S/N","municipality":"Tamarite de Litera","province":"HUESCA","postalCode":"22550","schedule":"L-D: 24H","fuels":{"gasoline95":1.705,"diesel":1.845,"dieselB":1.525,"adblue":0.85},"extra":{"saleType":"P","margin":"D","reportingType":"dm","ideess":"9127","idMunicipio":"3469","idProvincia":"22","idCCAA":"02"}}},{"type":"Feature","geometry":{"type":"Point","coordinates":[0.8295,41.541139]},"properties":{"id":"es-9280","source":"ES","brand":"AGROPECUARIA DE JUNEDA","address":"CARRETERA N-240 km 73","municipality":"Juneda","province":"LLEIDA","postalCode":"25430","schedule":"L-D: 24H","fuels":{"gasoline95":1.522,"diesel":1.688,"dieselB":1.32},"extra":{"saleType":"P","margin":"D","reportingType":"dm","ideess":"9280","idMunicipio":"3909","idProvincia":"25","idCCAA":"09"}}},{"type":"Feature","geometry":{"type":"Point","coordinates":[0.765472,41.494306]},"properties":{"id":"es-9283","source":"ES","brand":"CASTELL-OIL","address":"CAMI ERMITA, S/N","municipality":"Castelldans","province":"LLEIDA","postalCode":"25154","schedule":"L-D: 24H","fuels":{"gasoline95":1.6,"diesel":1.78,"dieselB":1.36},"extra":{"saleType":"P","margin":"D","reportingType":"dm","ideess":"9283","idMunicipio":"3862","idProvincia":"25","idCCAA":"09"}}},{"type":"Feature","geometry":{"type":"Point","coordinates":[0.552222,41.671278]},"properties":{"id":"es-9295","source":"ES","brand":"TOTAL","address":"PTDA. BARRANC S. ANTONI, 1","municipality":"Alpicat","province":"LLEIDA","postalCode":"25110","schedule":"L-V: 09:00-14:00","fuels":{"dieselB":1.425},"extra":{"saleType":"P","margin":"N","reportingType":"dm","ideess":"9295","idMunicipio":"3826","idProvincia":"25","idCCAA":"09"}}},{"type":"Feature","geometry":{"type":"Point","coordinates":[0.90275,41.718417]},"properties":{"id":"es-9301","source":"ES","brand":"COOPERATIVA LINYOLA","address":"C/ PRAT DE LA RIBA , S/N","municipality":"Linyola","province":"LLEIDA","postalCode":"25240","schedule":"L-D: 24H","fuels":{"gasoline95":1.565,"diesel":1.735,"dieselB":1.435,"adblue":0.77},"extra":{"saleType":"P","margin":"D","reportingType":"dm","ideess":"9301","idMunicipio":"3911","idProvincia":"25","idCCAA":"09"}}},{"type":"Feature","geometry":{"type":"Point","coordinates":[0.920917,41.542889]},"properties":{"id":"es-9313","source":"ES","brand":"ARBEQUINA","address":"CALLE SANTIAGO RUSSINYOL, S/N","municipality":"Arbeca","province":"LLEIDA","postalCode":"25140","schedule":"L-D: 24H","fuels":{"gasoline95":1.529,"diesel":1.709,"dieselB":1.389},"extra":{"saleType":"P","margin":"I","reportingType":"dm","ideess":"9313","idMunicipio":"3829","idProvincia":"25","idCCAA":"09"}}},{"type":"Feature","geometry":{"type":"Point","coordinates":[0.837417,41.579139]},"properties":{"id":"es-9393","source":"ES","brand":"F.A.LES PLANES","address":"CAMI GILIBLAU, S/N","municipality":"Torregrossa","province":"LLEIDA","postalCode":"25141","schedule":"L-D: 24H","fuels":{"gasoline95":1.539,"diesel":1.679,"dieselB":1.359},"extra":{"saleType":"P","margin":"N","reportingType":"dm","ideess":"9393","idMunicipio":"4010","idProvincia":"25","idCCAA":"09"}}},{"type":"Feature","geometry":{"type":"Point","coordinates":[0.706306,41.553139]},"properties":{"id":"es-9499","source":"ES","brand":"REPSOL","address":"CALLE LLEIDA, 2","municipality":"Artesa de Lleida","province":"LLEIDA","postalCode":"25150","schedule":"L: 06:00-22:00","fuels":{"gasoline95":1.739,"diesel":1.905,"dieselPremium":1.965,"dieselB":1.599},"extra":{"saleType":"P","margin":"D","reportingType":"OM","ideess":"9499","idMunicipio":"3832","idProvincia":"25","idCCAA":"09"}}},{"type":"Feature","geometry":{"type":"Point","coordinates":[0.594194,41.691556]},"properties":{"id":"es-9518","source":"ES","brand":"FRU-ROSE, SCCL","address":"AVGDA.DE LA FRUITA, 11","municipality":"Rosselló","province":"LLEIDA","postalCode":"25124","schedule":"L-D: 24H","fuels":{"gasoline95":1.696,"diesel":1.778,"dieselB":1.298},"extra":{"saleType":"P","margin":"N","reportingType":"dm","ideess":"9518","idMunicipio":"3972","idProvincia":"25","idCCAA":"09"}}},{"type":"Feature","geometry":{"type":"Point","coordinates":[0.652472,41.61475]},"properties":{"id":"es-9521","source":"ES","brand":"REPSOL","address":"CARRETERA LL-11 KM. 9,000","municipality":"Lleida","province":"LLEIDA","postalCode":"25191","schedule":"L-D: 24H","fuels":{"gasoline95":1.749,"gasoline98":1.869,"diesel":1.875,"dieselB":1.599,"dieselRenewable":1.995},"extra":{"saleType":"P","margin":"D","reportingType":"OM","ideess":"9521","idMunicipio":"3916","idProvincia":"25","idCCAA":"09"}}},{"type":"Feature","geometry":{"type":"Point","coordinates":[0.794611,41.786]},"properties":{"id":"es-9962","source":"ES","brand":"REPSOL","address":"CASTELLO 37","municipality":"Balaguer","province":"LLEIDA","postalCode":"25600","schedule":"L-V: 06:00-22:00; S-D: 07:00-21:00","fuels":{"gasoline95":1.735,"diesel":1.889,"dieselPremium":1.949,"dieselB":1.555},"extra":{"saleType":"P","margin":"I","reportingType":"OM","ideess":"9962","idMunicipio":"3837","idProvincia":"25","idCCAA":"09"}}}]}