{"type":"FeatureCollection","features":[{"type":"Feature","geometry":{"type":"Point","coordinates":[0.178667,38.784944]},"properties":{"id":"es-11685","source":"ES","brand":"MOEVE","address":"AVENIDA DEL PLA, 77","municipality":"Jávea/Xàbia","province":"ALICANTE","postalCode":"03730","schedule":"L-D: 06:00-22:00","fuels":{"gasoline95":1.799,"gasoline95Premium":1.849,"diesel":1.864,"dieselPremium":1.954},"extra":{"saleType":"P","margin":"I","reportingType":"OM","ideess":"11685","idMunicipio":"219","idProvincia":"03","idCCAA":"10"}}},{"type":"Feature","geometry":{"type":"Point","coordinates":[0.130194,38.712056]},"properties":{"id":"es-12134","source":"ES","brand":"CEPSA","address":"CARRETERA CV-743 KM. 4","municipality":"Teulada","province":"ALICANTE","postalCode":"03724","schedule":"L-D: 06:00-22:00","fuels":{"gasoline95":1.779,"gasoline95Premium":1.889,"gasoline98":1.929,"diesel":1.864,"dieselPremium":1.954},"extra":{"saleType":"P","margin":"I","reportingType":"OM","ideess":"12134","idMunicipio":"267","idProvincia":"03","idCCAA":"10"}}},{"type":"Feature","geometry":{"type":"Point","coordinates":[0.020833,38.817917]},"properties":{"id":"es-12384","source":"ES","brand":"CARREFOUR","address":"CALLE ELS POBLETS, 10","municipality":"Ondara","province":"ALICANTE","postalCode":"03760","schedule":"L-D: 24H","fuels":{"gasoline95":1.749,"diesel":1.839,"dieselPremium":1.879},"extra":{"saleType":"P","margin":"N","reportingType":"dm","ideess":"12384","idMunicipio":"232","idProvincia":"03","idCCAA":"10"}}},{"type":"Feature","geometry":{"type":"Point","coordinates":[0.09375,38.835694]},"properties":{"id":"es-12469","source":"ES","brand":"REPSOL COMERCIAL","address":"PARTIDA MADRIGUERES SUD, 61","municipality":"Dénia","province":"ALICANTE","postalCode":"03700","schedule":"L-D: 24H","fuels":{"gasoline95":1.81,"diesel":1.89},"extra":{"saleType":"P","margin":"D","reportingType":"dm","ideess":"12469","idMunicipio":"201","idProvincia":"03","idCCAA":"10"}}},{"type":"Feature","geometry":{"type":"Point","coordinates":[0.102111,38.832667]},"properties":{"id":"es-13036","source":"ES","brand":"BP","address":"AVENIDA MONTGO, 34","municipality":"Dénia","province":"ALICANTE","postalCode":"03700","schedule":"L-D: 06:00-23:00","fuels":{"gasoline95":1.779,"gasoline98":1.919,"diesel":1.849,"dieselPremium":1.989},"extra":{"saleType":"P","margin":"N","reportingType":"dm","ideess":"13036","idMunicipio":"201","idProvincia":"03","idCCAA":"10"}}},{"type":"Feature","geometry":{"type":"Point","coordinates":[0.040333,38.798667]},"properties":{"id":"es-13192","source":"ES","brand":"COMBUSELLA","address":"CALLE BARRANC DEL MARX, 4","municipality":"Pedreguer","province":"ALICANTE","postalCode":"03750","schedule":"L-D: 24H","fuels":{"gasoline95":1.729,"diesel":1.829},"extra":{"saleType":"P","margin":"D","reportingType":"dm","ideess":"13192","idMunicipio":"238","idProvincia":"03","idCCAA":"10"}}},{"type":"Feature","geometry":{"type":"Point","coordinates":[0.084556,38.837306]},"properties":{"id":"es-13231","source":"ES","brand":"TECKMAR","address":"PARTIDA MADRIGUERES SUD, 25","municipality":"Dénia","province":"ALICANTE","postalCode":"03700","schedule":"L-D: 24H","fuels":{"gasoline95":1.717,"diesel":1.737},"extra":{"saleType":"P","margin":"D","reportingType":"dm","ideess":"13231","idMunicipio":"201","idProvincia":"03","idCCAA":"10"}}},{"type":"Feature","geometry":{"type":"Point","coordinates":[0.0185,38.817917]},"properties":{"id":"es-13307","source":"ES","brand":"LOW COST 24H","address":"CALLE SAGRA, 3","municipality":"Ondara","province":"ALICANTE","postalCode":"03760","schedule":"L-D: 24H","fuels":{"gasoline95":1.687,"diesel":1.747},"extra":{"saleType":"P","margin":"D","reportingType":"dm","ideess":"13307","idMunicipio":"232","idProvincia":"03","idCCAA":"10"}}},{"type":"Feature","geometry":{"type":"Point","coordinates":[0.060556,38.719222]},"properties":{"id":"es-13381","source":"ES","brand":"MASOIL BENISA","address":"AVINGUDA EUROPA, 34","municipality":"Benissa","province":"ALICANTE","postalCode":"03720","schedule":"L-D: 24H","fuels":{"gasoline95":1.719,"diesel":1.779,"lpg":1.05,"adblue":1.0},"extra":{"saleType":"P","margin":"D","reportingType":"dm","ideess":"13381","idMunicipio":"179","idProvincia":"03","idCCAA":"10"}}},{"type":"Feature","geometry":{"type":"Point","coordinates":[0.113222,38.834083]},"properties":{"id":"es-13558","source":"ES","brand":"SHELL","address":"CAMINO SANTA LLÚCIA, 1","municipality":"Dénia","province":"ALICANTE","postalCode":"03700","schedule":"L-D: 24H","fuels":{"gasoline95":1.699,"diesel":1.749},"extra":{"saleType":"P","margin":"N","reportingType":"OM","ideess":"13558","idMunicipio":"201","idProvincia":"03","idCCAA":"10"}}},{"type":"Feature","geometry":{"type":"Point","coordinates":[0.059389,38.718611]},"properties":{"id":"es-13579","source":"ES","brand":"ROSELLO","address":"CALLE MARGENADORS DELS, 8","municipality":"Benissa","province":"ALICANTE","postalCode":"03720","schedule":"L-S: 08:00-20:00","fuels":{"gasoline95":1.675,"diesel":1.595},"extra":{"saleType":"P","margin":"N","reportingType":"dm","ideess":"13579","idMunicipio":"179","idProvincia":"03","idCCAA":"10"}}},{"type":"Feature","geometry":{"type":"Point","coordinates":[0.04175,38.646306]},"properties":{"id":"es-13667","source":"ES","brand":"GASEXPRESS","address":"AVENIDA DIPUTACION, 35","municipality":"Calpe/Calp","province":"ALICANTE","postalCode":"03710","schedule":"L-D: 24H","fuels":{"gasoline95":1.659,"diesel":1.759},"extra":{"saleType":"P","margin":"D","reportingType":"dm","ideess":"13667","idMunicipio":"187","idProvincia":"03","idCCAA":"10"}}},{"type":"Feature","geometry":{"type":"Point","coordinates":[0.105778,38.677722]},"properties":{"id":"es-13780","source":"ES","brand":"VCC BENISSA","address":"CARRETERA MORAIRA-CALPE KM. 3","municipality":"Benissa","province":"ALICANTE","postalCode":"03720","schedule":"L-D: 24H","fuels":{"gasoline95":1.697,"diesel":1.697},"extra":{"saleType":"P","margin":"D","reportingType":"dm","ideess":"13780","idMunicipio":"179","idProvincia":"03","idCCAA":"10"}}},{"type":"Feature","geometry":{"type":"Point","coordinates":[0.051139,38.64575]},"properties":{"id":"es-13958","source":"ES","brand":"AUTOFUEL LOW COST","address":"AVINGUDA VALL DE LAGUART, 5","municipality":"Calpe/Calp","province":"ALICANTE","postalCode":"03710","schedule":"L-D: 24H","fuels":{"gasoline95":1.607,"diesel":1.727},"extra":{"saleType":"P","margin":"D","reportingType":"dm","ideess":"13958","idMunicipio":"187","idProvincia":"03","idCCAA":"10"}}},{"type":"Feature","geometry":{"type":"Point","coordinates":[0.084944,38.665889]},"properties":{"id":"es-14633","source":"ES","brand":"BALLENOIL","address":"AVENIDA LAS MARINAS, 290","municipality":"Benissa","province":"ALICANTE","postalCode":"03720","schedule":"L-D: 24H","fuels":{"gasoline95":1.699,"diesel":1.739,"dieselPremium":1.759},"extra":{"saleType":"P","margin":"D","reportingType":"OM","ideess":"14633","idMunicipio":"179","idProvincia":"03","idCCAA":"10"}}},{"type":"Feature","geometry":{"type":"Point","coordinates":[0.167583,38.787472]},"properties":{"id":"es-14713","source":"ES","brand":"PLENERGY","address":"AVENIDA PALMELA, 47","municipality":"Jávea/Xàbia","province":"ALICANTE","postalCode":"03730","schedule":"L-D: 24H","fuels":{"gasoline95":1.695,"diesel":1.745},"extra":{"saleType":"P","margin":"D","reportingType":"dm","ideess":"14713","idMunicipio":"219","idProvincia":"03","idCCAA":"10"}}},{"type":"Feature","geometry":{"type":"Point","coordinates":[0.059861,38.717667]},"properties":{"id":"es-14904","source":"ES","brand":"PLENERGY","address":"AVENIDA EUROPA, 12","municipality":"Benissa","province":"ALICANTE","postalCode":"03720","schedule":"L-D: 24H","fuels":{"gasoline95":1.699,"diesel":1.615},"extra":{"saleType":"P","margin":"D","reportingType":"dm","ideess":"14904","idMunicipio":"179","idProvincia":"03","idCCAA":"10"}}},{"type":"Feature","geometry":{"type":"Point","coordinates":[0.170861,38.788917]},"properties":{"id":"es-15039","source":"ES","brand":"Q8","address":"AVENIDA DEL TRENC D'ALBA, 47","municipality":"Jávea/Xàbia","province":"ALICANTE","postalCode":"03730","schedule":"L-D: 24H","fuels":{"gasoline95":1.719,"diesel":1.779},"extra":{"saleType":"P","margin":"N","reportingType":"dm","ideess":"15039","idMunicipio":"219","idProvincia":"03","idCCAA":"10"}}},{"type":"Feature","geometry":{"type":"Point","coordinates":[0.056806,38.858444]},"properties":{"id":"es-15201","source":"ES","brand":"GASDEN","address":"CARRETERA LAS MARINAS KM. 177","municipality":"Dénia","province":"ALICANTE","postalCode":"03700","schedule":"L-D: 24H","fuels":{"gasoline95":1.748,"diesel":1.839,"lpg":0.999,"adblue":0.88},"extra":{"saleType":"P","margin":"D","reportingType":"dm","ideess":"15201","idMunicipio":"201","idProvincia":"03","idCCAA":"10"}}},{"type":"Feature","geometry":{"type":"Point","coordinates":[0.06925,38.637306]},"properties":{"id":"es-15350","source":"ES","brand":"COFRADIA DE PESCADORES","address":"AVENIDA DEL PORT, 15/41","municipality":"Calpe/Calp","province":"ALICANTE","postalCode":"03710","schedule":"L-V: 08:30-13:30 y 15:00-19:00","fuels":{"gasoline95":1.609,"diesel":1.749,"dieselPremium":1.849},"extra":{"saleType":"P","margin":"N","reportingType":"dm","ideess":"15350","idMunicipio":"187","idProvincia":"03","idCCAA":"10"}}},{"type":"Feature","geometry":{"type":"Point","coordinates":[0.001139,38.854222]},"properties":{"id":"es-15562","source":"ES","brand":"+B ENERGIAS","address":"AVENIDA PARTIDA SALOBRE, 1","municipality":"Verger (el)","province":"ALICANTE","postalCode":"03770","schedule":"L-D: 24H","fuels":{"gasoline95":1.755,"diesel":1.795,"dieselPremium":1.825,"lpg":0.999},"extra":{"saleType":"P","margin":"D","reportingType":"dm","ideess":"15562","idMunicipio":"277","idProvincia":"03","idCCAA":"10"}}},{"type":"Feature","geometry":{"type":"Point","coordinates":[0.13425,38.7]},"properties":{"id":"es-15574","source":"ES","brand":"PLENERGY","address":"CARRETERA MORAIRA-TEULADA KM. 122","municipality":"Teulada","province":"ALICANTE","postalCode":"03724","schedule":"L-D: 24H","fuels":{"gasoline95":1.689,"diesel":1.769},"extra":{"saleType":"P","margin":"D","reportingType":"dm","ideess":"15574","idMunicipio":"267","idProvincia":"03","idCCAA":"10"}}},{"type":"Feature","geometry":{"type":"Point","coordinates":[0.021694,38.822167]},"properties":{"id":"es-15623","source":"ES","brand":"PLENERGY","address":"AVENIDA ALACANT, 82","municipality":"Ondara","province":"ALICANTE","postalCode":"03760","schedule":"L-D: 24H","fuels":{"gasoline95":1.669,"diesel":1.739},"extra":{"saleType":"P","margin":"D","reportingType":"dm","ideess":"15623","idMunicipio":"232","idProvincia":"03","idCCAA":"10"}}},{"type":"Feature","geometry":{"type":"Point","coordinates":[0.063139,38.792056]},"properties":{"id":"es-15766","source":"ES","brand":"HAM","address":"AUTOPISTA AP-7 KM. 613,2","municipality":"Pedreguer","province":"ALICANTE","postalCode":"03750","schedule":"L-D: 24H","fuels":{"cng":1.529,"bioCng":1.509},"extra":{"saleType":"P","margin":"I","reportingType":"dm","ideess":"15766","idMunicipio":"238","idProvincia":"03","idCCAA":"10"}}},{"type":"Feature","geometry":{"type":"Point","coordinates":[0.091972,38.837917]},"properties":{"id":"es-16145","source":"ES","brand":"PLENERGY","address":"PARTIDA MADRIGUERES NORD, 9","municipality":"Dénia","province":"ALICANTE","postalCode":"03700","schedule":"L-D: 24H","fuels":{"gasoline95":1.669,"diesel":1.699},"extra":{"saleType":"P","margin":"D","reportingType":"dm","ideess":"16145","idMunicipio":"201","idProvincia":"03","idCCAA":"10"}}},{"type":"Feature","geometry":{"type":"Point","coordinates":[0.085917,38.778278]},"properties":{"id":"es-16163","source":"ES","brand":"GASDEN","address":"CARRETERA CARRETERA JAVEA,44 KM. 44","municipality":"Gata de Gorgos","province":"ALICANTE","postalCode":"03740","schedule":"L-D: 24H","fuels":{"gasoline95":1.739,"diesel":1.828,"adblue":0.88},"extra":{"saleType":"P","margin":"D","reportingType":"dm","ideess":"16163","idMunicipio":"211","idProvincia":"03","idCCAA":"10"}}},{"type":"Feature","geometry":{"type":"Point","coordinates":[0.087,38.837694]},"properties":{"id":"es-16401","source":"ES","brand":"E.S DENIA","address":"PARTIDA MADRIGUERES NORD, 20","municipality":"Dénia","province":"ALICANTE","postalCode":"03700","schedule":"L-D: 24H","fuels":{"gasoline95":1.669,"diesel":1.699},"extra":{"saleType":"P","margin":"D","reportingType":"dm","ideess":"16401","idMunicipio":"201","idProvincia":"03","idCCAA":"10"}}},{"type":"Feature","geometry":{"type":"Point","coordinates":[0.023333,38.815778]},"properties":{"id":"es-16450","source":"ES","brand":"PLENERGY","address":"AVENIDA COSTA BLANCA, 9","municipality":"Ondara","province":"ALICANTE","postalCode":"03760","schedule":"L-D: 24H","fuels":{"gasoline95":1.669,"diesel":1.739},"extra":{"saleType":"P","margin":"D","reportingType":"dm","ideess":"16450","idMunicipio":"232","idProvincia":"03","idCCAA":"10"}}},{"type":"Feature","geometry":{"type":"Point","coordinates":[0.052306,38.645694]},"properties":{"id":"es-1906","source":"ES","brand":"DRZ","address":"AVENIDA VALL DE L'AGUART, 11","municipality":"Calpe/Calp","province":"ALICANTE","postalCode":"03710","schedule":"L-D: 07:00-22:00","fuels":{"gasoline95":1.743,"gasoline98":1.925,"diesel":1.812},"extra":{"saleType":"P","margin":"N","reportingType":"dm","ideess":"1906","idMunicipio":"187","idProvincia":"03","idCCAA":"10"}}},{"type":"Feature","geometry":{"type":"Point","coordinates":[0.040556,38.646306]},"properties":{"id":"es-1960","source":"ES","brand":"Q8","address":"AVENIDA AV DIPUTACION S/N, ","municipality":"Calpe/Calp","province":"ALICANTE","postalCode":"03710","schedule":"L-D: 24H","fuels":{"gasoline95":1.669,"gasoline98":1.699,"diesel":1.769,"dieselPremium":1.839},"extra":{"saleType":"P","margin":"N","reportingType":"dm","ideess":"1960","idMunicipio":"187","idProvincia":"03","idCCAA":"10"}}},{"type":"Feature","geometry":{"type":"Point","coordinates":[0.076583,38.72675]},"properties":{"id":"es-3393","source":"ES","brand":"MEROIL","address":" JUAN DE LA CIERVA,13  POLIGONO INDUSRTIAL LAPEDRERA, ","municipality":"Benissa","province":"ALICANTE","postalCode":"03720","schedule":"L-D: 24H","fuels":{"gasoline95":1.689,"gasoline98":1.929,"diesel":1.789,"dieselPremium":1.889,"lpg":0.939,"adblue":1.199},"extra":{"saleType":"P","margin":"N","reportingType":"dm","ideess":"3393","idMunicipio":"179","idProvincia":"03","idCCAA":"10"}}},{"type":"Feature","geometry":{"type":"Point","coordinates":[0.150944,38.74075]},"properties":{"id":"es-3448","source":"ES","brand":"BP","address":"CARRETERA JAVEA BENITACHELL KM. 7,093","municipality":"Jávea/Xàbia","province":"ALICANTE","postalCode":"03730","schedule":"L-D: 07:00-21:30","fuels":{"gasoline95":1.809,"gasoline98":1.929,"diesel":1.879,"dieselPremium":1.959},"extra":{"saleType":"P","margin":"N","reportingType":"dm","ideess":"3448","idMunicipio":"219","idProvincia":"03","idCCAA":"10"}}},{"type":"Feature","geometry":{"type":"Point","coordinates":[0.038889,38.800111]},"properties":{"id":"es-3457","source":"ES","brand":"REPSOL","address":"CL AVENIDA JAON CARLES I, 27","municipality":"Pedreguer","province":"ALICANTE","postalCode":"03750","schedule":"L-D: 06:00-22:00","fuels":{"gasoline95":1.759,"gasoline98":1.879,"diesel":1.849,"dieselPremium":1.949},"extra":{"saleType":"P","margin":"D","reportingType":"OM","ideess":"3457","idMunicipio":"238","idProvincia":"03","idCCAA":"10"}}},{"type":"Feature","geometry":{"type":"Point","coordinates":[0.179444,38.781861]},"properties":{"id":"es-3472","source":"ES","brand":"REPSOL","address":"CARRETERA CV-739 KM. 1,5","municipality":"Jávea/Xàbia","province":"ALICANTE","postalCode":"03730","schedule":"L-D: 06:00-22:00","fuels":{"gasoline95":1.795,"gasoline95Premium":1.865,"gasoline98":1.915,"diesel":1.845,"dieselPremium":1.895,"lpg":1.079},"extra":{"saleType":"P","margin":"D","reportingType":"OM","ideess":"3472","idMunicipio":"219","idProvincia":"03","idCCAA":"10"}}},{"type":"Feature","geometry":{"type":"Point","coordinates":[0.119861,38.776083]},"properties":{"id":"es-3474","source":"ES","brand":"PETRONOR","address":"CARRETERA CV-734 KM. 4,6","municipality":"Jávea/Xàbia","province":"ALICANTE","postalCode":"03730","schedule":"L-D: 06:00-22:00","fuels":{"gasoline95":1.789,"gasoline98":1.909,"diesel":1.839,"dieselPremium":1.949},"extra":{"saleType":"P","margin":"D","reportingType":"OM","ideess":"3474","idMunicipio":"219","idProvincia":"03","idCCAA":"10"}}},{"type":"Feature","geometry":{"type":"Point","coordinates":[0.050278,38.645444]},"properties":{"id":"es-3512","source":"ES","brand":"REPSOL","address":"CALLE L ESPORT, 2","municipality":"Calpe/Calp","province":"ALICANTE","postalCode":"03710","schedule":"L-D: 24H","fuels":{"gasoline95":1.769,"gasoline98":1.925,"diesel":1.855,"dieselRenewable":1.949,"adblue":1.65},"extra":{"saleType":"P","margin":"D","reportingType":"dm","ideess":"3512","idMunicipio":"187","idProvincia":"03","idCCAA":"10"}}},{"type":"Feature","geometry":{"type":"Point","coordinates":[0.092111,38.729361]},"properties":{"id":"es-3521","source":"ES","brand":"REPSOL","address":"POLIGONO C/ ELS GREMIS, 25","municipality":"Teulada","province":"ALICANTE","postalCode":"03725","schedule":"L-S: 06:00-22:00; D: 08:00-22:00","fuels":{"gasoline95":1.809,"gasoline98":1.929,"diesel":1.875,"dieselPremium":1.935,"dieselB":1.675},"extra":{"saleType":"P","margin":"D","reportingType":"OM","ideess":"3521","idMunicipio":"267","idProvincia":"03","idCCAA":"10"}}},{"type":"Feature","geometry":{"type":"Point","coordinates":[0.177222,38.79425]},"properties":{"id":"es-3529","source":"ES","brand":"REPSOL","address":"AVENIDA DEL PUERTO, 36","municipality":"Jávea/Xàbia","province":"ALICANTE","postalCode":"03730","schedule":"L-D: 07:00-22:00","fuels":{"gasoline95":1.785,"gasoline98":1.905,"diesel":1.845,"dieselPremium":1.955},"extra":{"saleType":"P","margin":"D","reportingType":"OM","ideess":"3529","idMunicipio":"219","idProvincia":"03","idCCAA":"10"}}},{"type":"Feature","geometry":{"type":"Point","coordinates":[0.098194,38.839583]},"properties":{"id":"es-3541","source":"ES","brand":"REPSOL","address":"CALLE AVENIDA VALENCIA, 44","municipality":"Dénia","province":"ALICANTE","postalCode":"03700","schedule":"L-D: 24H","fuels":{"gasoline95":1.779,"gasoline95Premium":1.849,"gasoline98":1.899,"diesel":1.849,"dieselRenewable":1.969},"extra":{"saleType":"P","margin":"D","reportingType":"OM","ideess":"3541","idMunicipio":"201","idProvincia":"03","idCCAA":"10"}}},{"type":"Feature","geometry":{"type":"Point","coordinates":[0.134806,38.689806]},"properties":{"id":"es-3553","source":"ES","brand":"REPSOL","address":"CARRETERA TEULADA-CALPE KM. 6,5","municipality":"Teulada","province":"ALICANTE","postalCode":"03724","schedule":"L-D: 06:00-22:00","fuels":{"gasoline95":1.805,"gasoline98":1.925,"diesel":1.875,"dieselRenewable":1.995},"extra":{"saleType":"P","margin":"I","reportingType":"OM","ideess":"3553","idMunicipio":"267","idProvincia":"03","idCCAA":"10"}}},{"type":"Feature","geometry":{"type":"Point","coordinates":[0.01475,38.82825]},"properties":{"id":"es-3616","source":"ES","brand":"REPSOL","address":"CARRETERA N-332 KM. 198","municipality":"Ondara","province":"ALICANTE","postalCode":"03760","schedule":"L-D: 06:00-22:00","fuels":{"gasoline95":1.759,"gasoline95Premium":1.829,"gasoline98":1.879,"diesel":1.865,"dieselPremium":1.915},"extra":{"saleType":"P","margin":"I","reportingType":"OM","ideess":"3616","idMunicipio":"232","idProvincia":"03","idCCAA":"10"}}},{"type":"Feature","geometry":{"type":"Point","coordinates":[0.037306,38.653028]},"properties":{"id":"es-3639","source":"ES","brand":"CALPE AUTOMOCION","address":"PARTIDA ESTACION II, 6","municipality":"Calpe/Calp","province":"ALICANTE","postalCode":"03710","schedule":"L-D: 24H","fuels":{"gasoline95":1.669,"gasoline98":1.769,"diesel":1.749,"dieselPremium":1.789},"extra":{"saleType":"P","margin":"D","reportingType":"dm","ideess":"3639","idMunicipio":"187","idProvincia":"03","idCCAA":"10"}}},{"type":"Feature","geometry":{"type":"Point","coordinates":[0.098639,38.768111]},"properties":{"id":"es-3655","source":"ES","brand":"REPSOL","address":"CARRETERA N-332 KM. 187,5","municipality":"Gata de Gorgos","province":"ALICANTE","postalCode":"03740","schedule":"L-D: 07:00-21:00","fuels":{"gasoline95":1.759,"diesel":1.839,"dieselPremium":1.949},"extra":{"saleType":"P","margin":"D","reportingType":"OM","ideess":"3655","idMunicipio":"211","idProvincia":"03","idCCAA":"10"}}},{"type":"Feature","geometry":{"type":"Point","coordinates":[0.186361,38.770556]},"properties":{"id":"es-3681","source":"ES","brand":"REPSOL","address":"CARRETERA CV-739 KM. 2,9","municipality":"Jávea/Xàbia","province":"ALICANTE","postalCode":"03730","schedule":"L-D: 06:00-22:00","fuels":{"gasoline95":1.795,"gasoline98":1.915,"diesel":1.835,"dieselPremium":1.895},"extra":{"saleType":"P","margin":"D","reportingType":"OM","ideess":"3681","idMunicipio":"219","idProvincia":"03","idCCAA":"10"}}},{"type":"Feature","geometry":{"type":"Point","coordinates":[0.159972,38.785444]},"properties":{"id":"es-3682","source":"ES","brand":"REPSOL","address":"AVENIDA VALENCIA, SN","municipality":"Jávea/Xàbia","province":"ALICANTE","postalCode":"03730","schedule":"L-D: 06:00-22:00","fuels":{"gasoline95":1.785,"gasoline98":1.905,"diesel":1.855,"dieselPremium":1.955},"extra":{"saleType":"P","margin":"I","reportingType":"OM","ideess":"3682","idMunicipio":"219","idProvincia":"03","idCCAA":"10"}}},{"type":"Feature","geometry":{"type":"Point","coordinates":[0.06275,38.792028]},"properties":{"id":"es-3718","source":"ES","brand":"GALP","address":"AUTOPISTA AP-7 (MRG.IZDO.) KM. 613,2","municipality":"Pedreguer","province":"ALICANTE","postalCode":"03750","schedule":"L-D: 24H","fuels":{"gasoline95":1.819,"gasoline98":1.959,"diesel":1.874,"dieselPremium":1.964,"adblue":0.799},"extra":{"saleType":"P","margin":"I","reportingType":"OM","ideess":"3718","idMunicipio":"238","idProvincia":"03","idCCAA":"10"}}},{"type":"Feature","geometry":{"type":"Point","coordinates":[0.094417,38.839]},"properties":{"id":"es-3725","source":"ES","brand":"GALP","address":"CARRETERA DENIA A ONDARA C-3311 KM. 0,5","municipality":"Dénia","province":"ALICANTE","postalCode":"03700","schedule":"L-D: 06:00-22:00","fuels":{"gasoline95Premium":1.749,"gasoline98":1.879,"diesel":1.749,"dieselPremium":1.839},"extra":{"saleType":"P","margin":"N","reportingType":"OM","ideess":"3725","idMunicipio":"201","idProvincia":"03","idCCAA":"10"}}},{"type":"Feature","geometry":{"type":"Point","coordinates":[0.063417,38.789861]},"properties":{"id":"es-3747","source":"ES","brand":"GALP","address":"AUTOPISTA AP-7 (MRG.DCHO.) KM. 613,2","municipality":"Pedreguer","province":"ALICANTE","postalCode":"03750","schedule":"L-D: 24H","fuels":{"gasoline95":1.819,"gasoline98":1.959,"diesel":1.874,"dieselPremium":1.964,"adblue":0.799},"extra":{"saleType":"P","margin":"D","reportingType":"OM","ideess":"3747","idMunicipio":"238","idProvincia":"03","idCCAA":"10"}}},{"type":"Feature","geometry":{"type":"Point","coordinates":[0.099722,38.848333]},"properties":{"id":"es-8348","source":"ES","brand":"MOSCARDÓ","address":"CTRA. LAS MARINAS km 0,85","municipality":"Dénia","province":"ALICANTE","postalCode":"03700","schedule":"L-D: 06:00-22:00","fuels":{"gasoline95":1.749,"gasoline98":1.899,"diesel":1.829,"dieselPremium":1.909,"adblue":0.91},"extra":{"saleType":"P","margin":"D","reportingType":"dm","ideess":"8348","idMunicipio":"201","idProvincia":"03","idCCAA":"10"}}},{"type":"Feature","geometry":{"type":"Point","coordinates":[0.152139,38.738972]},"properties":{"id":"es-8349","source":"ES","brand":"(SIN RÓTULO)","address":"CARRETERA CV-740 KM. 6,800","municipality":"Benitachell/Poble Nou de Benitatxell (el)","province":"ALICANTE","postalCode":"03726","schedule":"L-D: 07:00-22:00","fuels":{"gasoline95":1.869,"gasoline98":1.959,"diesel":1.919,"lpg":0.999},"extra":{"saleType":"P","margin":"I","reportingType":"dm","ideess":"8349","idMunicipio":"180","idProvincia":"03","idCCAA":"10"}}},{"type":"Feature","geometry":{"type":"Point","coordinates":[0.000306,38.855278]},"properties":{"id":"es-8350","source":"ES","brand":"PETROESPAÑA","address":"AVENIDA VALENCIA, 50","municipality":"Verger (el)","province":"ALICANTE","postalCode":"03770","schedule":"L-D: 24H","fuels":{"gasoline95":1.799,"gasoline98":1.929,"diesel":1.839,"dieselPremium":1.939},"extra":{"saleType":"P","margin":"N","reportingType":"dm","ideess":"8350","idMunicipio":"277","idProvincia":"03","idCCAA":"10"}}},{"type":"Feature","geometry":{"type":"Point","coordinates":[0.054222,38.797667]},"properties":{"id":"es-8382","source":"ES","brand":"SHELL","address":"CARRETERA C-332 KM. 193","municipality":"Pedreguer","province":"ALICANTE","postalCode":"03750","schedule":"L-D: 06:00-22:00","fuels":{"gasoline95":1.759,"gasoline98":1.899,"diesel":1.864,"dieselPremium":1.944},"extra":{"saleType":"P","margin":"D","reportingType":"OM","ideess":"8382","idMunicipio":"238","idProvincia":"03","idCCAA":"10"}}},{"type":"Feature","geometry":{"type":"Point","coordinates":[0.052972,38.797417]},"properties":{"id":"es-8383","source":"ES","brand":"SHELL","address":"CARRETERA N-332 KM. 193","municipality":"Pedreguer","province":"ALICANTE","postalCode":"03750","schedule":"L-D: 06:00-22:00","fuels":{"gasoline95":1.759,"gasoline98":1.899,"diesel":1.864,"dieselPremium":1.944},"extra":{"saleType":"P","margin":"I","reportingType":"OM","ideess":"8383","idMunicipio":"238","idProvincia":"03","idCCAA":"10"}}},{"type":"Feature","geometry":{"type":"Point","coordinates":[0.060194,38.718139]},"properties":{"id":"es-8795","source":"ES","brand":"BP BENISSA","address":"AVENIDA EUROPA, 8","municipality":"Benissa","province":"ALICANTE","postalCode":"03720","schedule":"L-D: 06:00-22:00","fuels":{"gasoline95":1.759,"gasoline98":1.899,"diesel":1.839,"dieselPremium":1.929},"extra":{"saleType":"P","margin":"D","reportingType":"OM","ideess":"8795","idMunicipio":"179","idProvincia":"03","idCCAA":"10"}}},{"type":"Feature","geometry":{"type":"Point","coordinates":[0.037806,38.652972]},"properties":{"id":"es-9245","source":"ES","brand":"CALPE AUTOMOCION II","address":"PARTIDA ESTACION II, 6","municipality":"Calpe/Calp","province":"ALICANTE","postalCode":"03710","schedule":"L-D: 24H","fuels":{"gasoline95":1.679,"gasoline98":1.799,"diesel":1.779,"dieselPremium":1.829,"adblue":1.3},"extra":{"saleType":"P","margin":"I","reportingType":"dm","ideess":"9245","idMunicipio":"187","idProvincia":"03","idCCAA":"10"}}}]}