{"type":"FeatureCollection","features":[{"type":"Feature","geometry":{"type":"Point","coordinates":[-4.71575,39.829778]},"properties":{"id":"es-10644","source":"ES","brand":"AVIA","address":"AVENIDA NAVALMORALES, 12","municipality":"San Bartolomé de las Abiertas","province":"TOLEDO","postalCode":"45654","schedule":"L-D: 24H","fuels":{"gasoline95":1.689,"diesel":1.739},"extra":{"saleType":"P","margin":"N","reportingType":"dm","ideess":"10644","idMunicipio":"6910","idProvincia":"45","idCCAA":"07"}}},{"type":"Feature","geometry":{"type":"Point","coordinates":[-4.909861,39.923833]},"properties":{"id":"es-11349","source":"ES","brand":"ORAMBA ESTACIONES DE SERVICIO","address":"CARRETERA CALERA CM-4101 KM. 7,24","municipality":"Talavera de la Reina","province":"TOLEDO","postalCode":"45600","schedule":"L-V: 06:00-22:00; S-D: 07:00-22:00","fuels":{"gasoline95":1.539,"gasoline98":1.789,"diesel":1.639,"dieselB":1.329},"extra":{"saleType":"P","margin":"D","reportingType":"dm","ideess":"11349","idMunicipio":"6926","idProvincia":"45","idCCAA":"07"}}},{"type":"Feature","geometry":{"type":"Point","coordinates":[-4.072639,39.863417]},"properties":{"id":"es-11854","source":"ES","brand":"REPSOL","address":"CARRETERA CM-4000 KM. 2,650","municipality":"Toledo","province":"TOLEDO","postalCode":"45004","schedule":"L-S: 06:30-21:30; D: 07:00-21:30","fuels":{"gasoline95":1.709,"gasoline98":1.919,"diesel":1.799,"dieselB":1.399,"dieselRenewable":1.899},"extra":{"saleType":"P","margin":"D","reportingType":"dm","ideess":"11854","idMunicipio":"6929","idProvincia":"45","idCCAA":"07"}}},{"type":"Feature","geometry":{"type":"Point","coordinates":[-4.834833,39.979944]},"properties":{"id":"es-11866","source":"ES","brand":"BALLENOIL","address":"CARRETERA DE MEJORADA, CM-4512 KM. 1,346","municipality":"Talavera de la Reina","province":"TOLEDO","postalCode":"45600","schedule":"L-D: 24H","fuels":{"gasoline95":1.539,"diesel":1.629,"dieselPremium":1.639},"extra":{"saleType":"P","margin":"D","reportingType":"OM","ideess":"11866","idMunicipio":"6926","idProvincia":"45","idCCAA":"07"}}},{"type":"Feature","geometry":{"type":"Point","coordinates":[-4.14925,39.987389]},"properties":{"id":"es-11915","source":"ES","brand":"REPSOL","address":"CARRETERA CM-4011 KM. 18","municipality":"Villamiel de Toledo","province":"TOLEDO","postalCode":"45594","schedule":"L-V: 07:00-20:00; S-D: 09:00-16:00","fuels":{"gasoline95":1.715,"gasoline98":1.885,"diesel":1.835,"dieselRenewable":1.955},"extra":{"saleType":"P","margin":"I","reportingType":"OM","ideess":"11915","idMunicipio":"6949","idProvincia":"45","idCCAA":"07"}}},{"type":"Feature","geometry":{"type":"Point","coordinates":[-4.017917,39.902417]},"properties":{"id":"es-12133","source":"ES","brand":"ALCAMPO","address":"AUTOVIA 42 KM. 65","municipality":"Toledo","province":"TOLEDO","postalCode":"45004","schedule":"L-D: 24H","fuels":{"gasoline95":1.529,"gasoline98":1.779,"diesel":1.596,"dieselPremium":1.609},"extra":{"saleType":"P","margin":"D","reportingType":"dm","ideess":"12133","idMunicipio":"6929","idProvincia":"45","idCCAA":"07"}}},{"type":"Feature","geometry":{"type":"Point","coordinates":[-4.280167,39.989778]},"properties":{"id":"es-12337","source":"ES","brand":"AVIA","address":"CALLE TEJAR, 69","municipality":"Torrijos","province":"TOLEDO","postalCode":"45500","schedule":"L-D: 24H","fuels":{"gasoline95":1.609,"diesel":1.699,"lpg":1.069,"adblue":0.899},"extra":{"saleType":"P","margin":"N","reportingType":"dm","ideess":"12337","idMunicipio":"6934","idProvincia":"45","idCCAA":"07"}}},{"type":"Feature","geometry":{"type":"Point","coordinates":[-4.729,39.981444]},"properties":{"id":"es-12436","source":"ES","brand":"SHELL","address":"CARRETERA ANTIGUA N-V KM. 107,5","municipality":"Cazalegas","province":"TOLEDO","postalCode":"45683","schedule":"L-D: 06:00-22:00","fuels":{"gasoline95":1.679,"gasoline98":1.819,"diesel":1.799,"dieselPremium":1.879,"lpg":0.999,"adblue":1.25},"extra":{"saleType":"P","margin":"D","reportingType":"OM","ideess":"12436","idMunicipio":"6805","idProvincia":"45","idCCAA":"07"}}},{"type":"Feature","geometry":{"type":"Point","coordinates":[-4.189333,39.028861]},"properties":{"id":"es-12546","source":"ES","brand":"GP ENERGIA","address":"CARRETERA 7211 KM. 0,200","municipality":"Piedrabuena","province":"CIUDAD REAL","postalCode":"13100","schedule":"L-D: 24H","fuels":{"gasoline95":1.529,"diesel":1.619},"extra":{"saleType":"P","margin":"D","reportingType":"dm","ideess":"12546","idMunicipio":"2005","idProvincia":"13","idCCAA":"07"}}},{"type":"Feature","geometry":{"type":"Point","coordinates":[-4.616917,39.086583]},"properties":{"id":"es-12706","source":"ES","brand":"MONTES NORTE ENERGETICOS, S.L.","address":"CALLE CUATRO ESQUINAS ESQUINA LUIS SEVILLA, S/N","municipality":"Puebla de Don Rodrigo","province":"CIUDAD REAL","postalCode":"13109","schedule":"L-D: 24H","fuels":{"diesel":1.589,"dieselB":1.269},"extra":{"saleType":"P","margin":"D","reportingType":"dm","ideess":"12706","idMunicipio":"2010","idProvincia":"13","idCCAA":"07"}}},{"type":"Feature","geometry":{"type":"Point","coordinates":[-4.054944,39.88925]},"properties":{"id":"es-12733","source":"ES","brand":"SHELL","address":"AVENIDA DEL MADROÑO, S/N","municipality":"Toledo","province":"TOLEDO","postalCode":"45005","schedule":"L-D: 06:00-00:00","fuels":{"gasoline95":1.714,"gasoline98":1.854,"diesel":1.799,"dieselPremium":1.879},"extra":{"saleType":"P","margin":"N","reportingType":"OM","ideess":"12733","idMunicipio":"6929","idProvincia":"45","idCCAA":"07"}}},{"type":"Feature","geometry":{"type":"Point","coordinates":[-4.745028,39.976417]},"properties":{"id":"es-12782","source":"ES","brand":"BALLENOIL","address":"CARRETERA SOTO DE CAZALEGAS SECTOR 9-B, ANTIGUA NV - KM.108,6 KM. 108,6","municipality":"Cazalegas","province":"TOLEDO","postalCode":"45683","schedule":"L-D: 24H","fuels":{"gasoline95":1.539,"diesel":1.629,"dieselPremium":1.639},"extra":{"saleType":"P","margin":"D","reportingType":"OM","ideess":"12782","idMunicipio":"6805","idProvincia":"45","idCCAA":"07"}}},{"type":"Feature","geometry":{"type":"Point","coordinates":[-4.937278,39.964111]},"properties":{"id":"es-12839","source":"ES","brand":"U.S.TORREHIERRO","address":"CALLE CERAMICA, LA, 232","municipality":"Talavera de la Reina","province":"TOLEDO","postalCode":"45600","schedule":"L-V: 08:00-20:00; S: 08:00-13:30","fuels":{"gasoline95":1.479,"diesel":1.509},"extra":{"saleType":"P","margin":"D","reportingType":"dm","ideess":"12839","idMunicipio":"6926","idProvincia":"45","idCCAA":"07"}}},{"type":"Feature","geometry":{"type":"Point","coordinates":[-4.880056,39.937639]},"properties":{"id":"es-12888","source":"ES","brand":"BALLENOIL","address":"CARRETERA CALERA Y CHOZAS KM. 4,1","municipality":"Talavera de la Reina","province":"TOLEDO","postalCode":"45600","schedule":"L-D: 24H","fuels":{"gasoline95":1.539,"diesel":1.629,"dieselPremium":1.639},"extra":{"saleType":"P","margin":"I","reportingType":"OM","ideess":"12888","idMunicipio":"6926","idProvincia":"45","idCCAA":"07"}}},{"type":"Feature","geometry":{"type":"Point","coordinates":[-4.84475,39.957889]},"properties":{"id":"es-13087","source":"ES","brand":"AZUL-OIL","address":"AVENIDA PORTUGAL, 63","municipality":"Talavera de la Reina","province":"TOLEDO","postalCode":"45600","schedule":"L-D: 24H","fuels":{"gasoline95":1.569,"diesel":1.629},"extra":{"saleType":"P","margin":"I","reportingType":"dm","ideess":"13087","idMunicipio":"6926","idProvincia":"45","idCCAA":"07"}}},{"type":"Feature","geometry":{"type":"Point","coordinates":[-4.844,39.961694]},"properties":{"id":"es-13707","source":"ES","brand":"BALLENOIL","address":"CALLE VICENTE LEIVA, 33","municipality":"Talavera de la Reina","province":"TOLEDO","postalCode":"45600","schedule":"L-D: 24H","fuels":{"gasoline95":1.539,"diesel":1.629},"extra":{"saleType":"P","margin":"N","reportingType":"OM","ideess":"13707","idMunicipio":"6926","idProvincia":"45","idCCAA":"07"}}},{"type":"Feature","geometry":{"type":"Point","coordinates":[-4.228167,39.613639]},"properties":{"id":"es-13733","source":"ES","brand":"J. UTRILLA","address":"AVENIDA MONTES DE TOLEDO, 60","municipality":"Ventas con Peña Aguilera (Las)","province":"TOLEDO","postalCode":"45127","schedule":"L-D: 07:00-22:00","fuels":{"gasoline95":1.739,"gasoline98":1.809,"diesel":1.789},"extra":{"saleType":"P","margin":"N","reportingType":"dm","ideess":"13733","idMunicipio":"6942","idProvincia":"45","idCCAA":"07"}}},{"type":"Feature","geometry":{"type":"Point","coordinates":[-4.851528,39.957222]},"properties":{"id":"es-14074","source":"ES","brand":"ITV LA FLORESTA","address":"AVENIDA PORTUGAL, 97","municipality":"Talavera de la Reina","province":"TOLEDO","postalCode":"45600","schedule":"L-D: 24H","fuels":{"gasoline95":1.479,"diesel":1.509},"extra":{"saleType":"P","margin":"D","reportingType":"dm","ideess":"14074","idMunicipio":"6926","idProvincia":"45","idCCAA":"07"}}},{"type":"Feature","geometry":{"type":"Point","coordinates":[-4.846361,39.957639]},"properties":{"id":"es-14180","source":"ES","brand":"SCB TALAVERA","address":"AVENIDA PORTUGAL, 53","municipality":"Talavera de la Reina","province":"TOLEDO","postalCode":"45600","schedule":"L-D: 24H","fuels":{"gasoline95":1.529,"diesel":1.619},"extra":{"saleType":"P","margin":"D","reportingType":"dm","ideess":"14180","idMunicipio":"6926","idProvincia":"45","idCCAA":"07"}}},{"type":"Feature","geometry":{"type":"Point","coordinates":[-4.547139,39.893778]},"properties":{"id":"es-14519","source":"ES","brand":"SUMINISTROS GASOLEOS TALAVERA, S,L.","address":"CARRETERA SAN MARTIN DE PUSA A SANTA OLALLA KM. 6","municipality":"Malpica de Tajo","province":"TOLEDO","postalCode":"45692","schedule":"L-V: 07:00-13:30 y 15:00-20:30; S-D: 07:00-14:00 y 16:00-19:00","fuels":{"gasoline95":1.659,"diesel":1.699,"dieselPremium":1.759},"extra":{"saleType":"P","margin":"D","reportingType":"dm","ideess":"14519","idMunicipio":"6849","idProvincia":"45","idCCAA":"07"}}},{"type":"Feature","geometry":{"type":"Point","coordinates":[-4.849333,39.958]},"properties":{"id":"es-14544","source":"ES","brand":"GAMBA OIL","address":"CALLE ROSA DE LUXEMBURGO, 18","municipality":"Talavera de la Reina","province":"TOLEDO","postalCode":"45600","schedule":"L-D: 24H","fuels":{"gasoline95":1.495,"diesel":1.555},"extra":{"saleType":"P","margin":"D","reportingType":"dm","ideess":"14544","idMunicipio":"6926","idProvincia":"45","idCCAA":"07"}}},{"type":"Feature","geometry":{"type":"Point","coordinates":[-4.133417,39.802917]},"properties":{"id":"es-14563","source":"ES","brand":"NAVAMUEL","address":"CALLE FUENTE RISQUILLO, 1","municipality":"Guadamur","province":"TOLEDO","postalCode":"45160","schedule":"L-D: 06:00-22:00","fuels":{"gasoline95":1.599,"gasoline98":1.799,"diesel":1.669,"dieselPremium":1.739,"lpg":0.999,"adblue":0.989},"extra":{"saleType":"P","margin":"I","reportingType":"dm","ideess":"14563","idMunicipio":"6830","idProvincia":"45","idCCAA":"07"}}},{"type":"Feature","geometry":{"type":"Point","coordinates":[-4.05725,39.816139]},"properties":{"id":"es-14719","source":"ES","brand":"CARBURANTES ARGÉS, S.L.","address":"AVENIDA DEL MORO, 6","municipality":"Argés","province":"TOLEDO","postalCode":"45122","schedule":"L-D: 24H","fuels":{"gasoline95":1.586,"diesel":1.669},"extra":{"saleType":"P","margin":"D","reportingType":"dm","ideess":"14719","idMunicipio":"6777","idProvincia":"45","idCCAA":"07"}}},{"type":"Feature","geometry":{"type":"Point","coordinates":[-4.186139,39.037389]},"properties":{"id":"es-14995","source":"ES","brand":"AN ENERGETICOS, S.L.","address":"POLIGONO LA PAJARILLA, 35","municipality":"Piedrabuena","province":"CIUDAD REAL","postalCode":"13100","schedule":"L-D: 24H","fuels":{"gasoline95":1.499,"diesel":1.539,"dieselB":1.189,"adblue":0.65},"extra":{"saleType":"P","margin":"D","reportingType":"dm","ideess":"14995","idMunicipio":"2005","idProvincia":"13","idCCAA":"07"}}},{"type":"Feature","geometry":{"type":"Point","coordinates":[-4.280611,39.988389]},"properties":{"id":"es-15174","source":"ES","brand":"SUPECO","address":"CALLE CALLE TEJAR, 67","municipality":"Torrijos","province":"TOLEDO","postalCode":"45500","schedule":"L-D: 24H","fuels":{"gasoline95":1.579,"diesel":1.649},"extra":{"saleType":"P","margin":"N","reportingType":"dm","ideess":"15174","idMunicipio":"6934","idProvincia":"45","idCCAA":"07"}}},{"type":"Feature","geometry":{"type":"Point","coordinates":[-4.846694,39.956833]},"properties":{"id":"es-15490","source":"ES","brand":"BALLENOIL","address":"CALLE CARPINTEROS, 24","municipality":"Talavera de la Reina","province":"TOLEDO","postalCode":"45600","schedule":"L-D: 24H","fuels":{"gasoline95":1.539,"diesel":1.629,"dieselPremium":1.639},"extra":{"saleType":"P","margin":"D","reportingType":"OM","ideess":"15490","idMunicipio":"6926","idProvincia":"45","idCCAA":"07"}}},{"type":"Feature","geometry":{"type":"Point","coordinates":[-4.752528,39.973389]},"properties":{"id":"es-15757","source":"ES","brand":"BALLENOIL","address":"POLIGONO SECTOR 7 PARCELA 2, SN","municipality":"Cazalegas","province":"TOLEDO","postalCode":"45683","schedule":"L-D: 24H","fuels":{"gasoline95":1.539,"diesel":1.629,"dieselPremium":1.639},"extra":{"saleType":"P","margin":"D","reportingType":"OM","ideess":"15757","idMunicipio":"6805","idProvincia":"45","idCCAA":"07"}}},{"type":"Feature","geometry":{"type":"Point","coordinates":[-4.042667,39.875694]},"properties":{"id":"es-15934","source":"ES","brand":"PLENERGY","address":"CALLE DE LOS CONCILIOS, 38","municipality":"Toledo","province":"TOLEDO","postalCode":"45005","schedule":"L-D: 24H","fuels":{"gasoline95":1.609,"diesel":1.659},"extra":{"saleType":"P","margin":"D","reportingType":"dm","ideess":"15934","idMunicipio":"6929","idProvincia":"45","idCCAA":"07"}}},{"type":"Feature","geometry":{"type":"Point","coordinates":[-4.796472,39.965222]},"properties":{"id":"es-15937","source":"ES","brand":"BALLENOIL","address":"CARRETERA N-V KM 114 PARQUE COMERCIAL EL GOLF KM. 114","municipality":"Talavera de la Reina","province":"TOLEDO","postalCode":"45600","schedule":"L-D: 24H","fuels":{"gasoline95":1.539,"diesel":1.629,"dieselPremium":1.639},"extra":{"saleType":"P","margin":"D","reportingType":"OM","ideess":"15937","idMunicipio":"6926","idProvincia":"45","idCCAA":"07"}}},{"type":"Feature","geometry":{"type":"Point","coordinates":[-4.028167,39.942639]},"properties":{"id":"es-15956","source":"ES","brand":"FAST FUEL","address":"CALLE REAL, 103","municipality":"Bargas","province":"TOLEDO","postalCode":"45593","schedule":"L-D: 24H","fuels":{"gasoline95":1.589,"diesel":1.629},"extra":{"saleType":"P","margin":"D","reportingType":"dm","ideess":"15956","idMunicipio":"6780","idProvincia":"45","idCCAA":"07"}}},{"type":"Feature","geometry":{"type":"Point","coordinates":[-4.829389,39.9475]},"properties":{"id":"es-4374","source":"ES","brand":"BALLENOIL","address":"CARRETERA CM-4102 KM. 4","municipality":"Talavera de la Reina","province":"TOLEDO","postalCode":"45600","schedule":"L-D: 24H","fuels":{"gasoline95":1.539,"diesel":1.629,"dieselPremium":1.639},"extra":{"saleType":"P","margin":"D","reportingType":"OM","ideess":"4374","idMunicipio":"6926","idProvincia":"45","idCCAA":"07"}}},{"type":"Feature","geometry":{"type":"Point","coordinates":[-4.794472,39.990806]},"properties":{"id":"es-4376","source":"ES","brand":"AVIA","address":"CARRETERA 5001 KM. 4","municipality":"Pepino","province":"TOLEDO","postalCode":"45638","schedule":"L-D: 06:30-22:30","fuels":{"gasoline95":1.699,"diesel":1.789,"adblue":0.899},"extra":{"saleType":"P","margin":"N","reportingType":"dm","ideess":"4376","idMunicipio":"6892","idProvincia":"45","idCCAA":"07"}}},{"type":"Feature","geometry":{"type":"Point","coordinates":[-4.021194,39.817556]},"properties":{"id":"es-4381","source":"ES","brand":"NAVAMUEL","address":"CARRETERA TOLEDO-COBISA KM 4,4 KM. 4,400","municipality":"Cobisa","province":"TOLEDO","postalCode":"45111","schedule":"L-D: 06:00-22:00","fuels":{"gasoline95":1.599,"gasoline98":1.799,"diesel":1.669,"dieselPremium":1.739,"adblue":0.999},"extra":{"saleType":"P","margin":"D","reportingType":"dm","ideess":"4381","idMunicipio":"6814","idProvincia":"45","idCCAA":"07"}}},{"type":"Feature","geometry":{"type":"Point","coordinates":[-4.38225,39.692639]},"properties":{"id":"es-4382","source":"ES","brand":"SIS CARBURANTES","address":"CARRETERA TORRIJOS A BEHOJAR KM. 53","municipality":"San Martín de Montalbán","province":"TOLEDO","postalCode":"45165","schedule":"L-D: 24H","fuels":{"gasoline95":1.559,"diesel":1.609},"extra":{"saleType":"P","margin":"D","reportingType":"dm","ideess":"4382","idMunicipio":"6911","idProvincia":"45","idCCAA":"07"}}},{"type":"Feature","geometry":{"type":"Point","coordinates":[-4.160167,39.792056]},"properties":{"id":"es-4385","source":"ES","brand":"BERMUDEZ","address":"CARRETERA CM-401 A KM. 14,500","municipality":"Polán","province":"TOLEDO","postalCode":"45161","schedule":"L-D: 06:00-00:00","fuels":{"gasoline95":1.599,"diesel":1.669,"adblue":0.99},"extra":{"saleType":"P","margin":"D","reportingType":"dm","ideess":"4385","idMunicipio":"6893","idProvincia":"45","idCCAA":"07"}}},{"type":"Feature","geometry":{"type":"Point","coordinates":[-4.271778,39.704944]},"properties":{"id":"es-4395","source":"ES","brand":"BERMUDEZ","address":"CARRETERA CM 401 KM. 28,300","municipality":"Gálvez","province":"TOLEDO","postalCode":"45164","schedule":"L-V: 07:00-22:00; S-D: 09:00-14:00 y 16:00-21:00","fuels":{"gasoline95":1.599,"diesel":1.669,"adblue":0.9},"extra":{"saleType":"P","margin":"D","reportingType":"dm","ideess":"4395","idMunicipio":"6827","idProvincia":"45","idCCAA":"07"}}},{"type":"Feature","geometry":{"type":"Point","coordinates":[-4.017222,39.946667]},"properties":{"id":"es-4401","source":"ES","brand":"REPSOL","address":"CTRA.CM-4006 km 9","municipality":"Bargas","province":"TOLEDO","postalCode":"45593","schedule":"L-S: 06:30-22:00; D: 07:30-22:00","fuels":{"gasoline95":1.749,"diesel":1.819,"dieselPremium":1.869},"extra":{"saleType":"P","margin":"I","reportingType":"dm","ideess":"4401","idMunicipio":"6780","idProvincia":"45","idCCAA":"07"}}},{"type":"Feature","geometry":{"type":"Point","coordinates":[-4.869972,39.793556]},"properties":{"id":"es-4412","source":"ES","brand":"BP ALCAUDETE DE LA JARA","address":"CTRA.N-502 km 87,4","municipality":"Alcaudete de la Jara","province":"TOLEDO","postalCode":"45662","schedule":"L-D: 24H","fuels":{"gasoline95":1.579,"diesel":1.659,"dieselPremium":1.699},"extra":{"saleType":"P","margin":"I","reportingType":"dm","ideess":"4412","idMunicipio":"6767","idProvincia":"45","idCCAA":"07"}}},{"type":"Feature","geometry":{"type":"Point","coordinates":[-4.829222,39.972111]},"properties":{"id":"es-4414","source":"ES","brand":"BALLENOIL","address":"CARRETERA A CERVERA DE LOS MONTES KM. 1","municipality":"Talavera de la Reina","province":"TOLEDO","postalCode":"45600","schedule":"L-D: 24H","fuels":{"gasoline95":1.539,"diesel":1.629,"dieselPremium":1.639},"extra":{"saleType":"P","margin":"D","reportingType":"OM","ideess":"4414","idMunicipio":"6926","idProvincia":"45","idCCAA":"07"}}},{"type":"Feature","geometry":{"type":"Point","coordinates":[-4.408333,39.460306]},"properties":{"id":"es-4813","source":"ES","brand":"J.UTRILLA","address":"CARRETERA CM-4017 KM. 66,09","municipality":"Retuerta del Bullaque","province":"CIUDAD REAL","postalCode":"13194","schedule":"L-D: 08:00-22:30","fuels":{"gasoline95":1.739,"diesel":1.789},"extra":{"saleType":"P","margin":"I","reportingType":"dm","ideess":"4813","idMunicipio":"2014","idProvincia":"13","idCCAA":"07"}}},{"type":"Feature","geometry":{"type":"Point","coordinates":[-4.285806,39.217889]},"properties":{"id":"es-4896","source":"ES","brand":"REPSOL","address":"AVENIDA INDEPENDENCIA, 56","municipality":"Robledo (El)","province":"CIUDAD REAL","postalCode":"13114","schedule":"L-D: 07:00-21:00","fuels":{"gasoline95":1.699,"gasoline98":1.899,"diesel":1.799,"dieselB":1.399,"dieselRenewable":1.899},"extra":{"saleType":"P","margin":"D","reportingType":"dm","ideess":"4896","idMunicipio":"2015","idProvincia":"13","idCCAA":"07"}}},{"type":"Feature","geometry":{"type":"Point","coordinates":[-4.616111,39.083472]},"properties":{"id":"es-5105","source":"ES","brand":"REPSOL","address":"CL AVENIDA CASTILLA-LA MANCHA, 1 (N-430 km 230)","municipality":"Puebla de Don Rodrigo","province":"CIUDAD REAL","postalCode":"13109","schedule":"L-S: 07:00-22:00; D: 08:00-22:00","fuels":{"gasoline95":1.669,"gasoline98":1.839,"diesel":1.805,"dieselB":1.645,"dieselRenewable":1.925},"extra":{"saleType":"P","margin":"D","reportingType":"OM","ideess":"5105","idMunicipio":"2010","idProvincia":"13","idCCAA":"07"}}},{"type":"Feature","geometry":{"type":"Point","coordinates":[-4.182528,39.032861]},"properties":{"id":"es-5201","source":"ES","brand":"MOEVE","address":"CARRETERA NACIONAL 430 KM. 219,7","municipality":"Piedrabuena","province":"CIUDAD REAL","postalCode":"13100","schedule":"L: 06:30-22:30","fuels":{"gasoline95":1.649,"diesel":1.729,"dieselPremium":1.829,"adblue":0.95},"extra":{"saleType":"P","margin":"I","reportingType":"dm","ideess":"5201","idMunicipio":"2005","idProvincia":"13","idCCAA":"07"}}},{"type":"Feature","geometry":{"type":"Point","coordinates":[-4.162472,39.153139]},"properties":{"id":"es-5233","source":"ES","brand":"REPSOL","address":"CALLE TOLEDO,, 50","municipality":"Porzuna","province":"CIUDAD REAL","postalCode":"13120","schedule":"L-S: 07:00-23:00; D: 08:00-15:00","fuels":{"gasoline95":1.699,"gasoline98":1.879,"diesel":1.819,"dieselB":1.619,"dieselRenewable":1.929},"extra":{"saleType":"P","margin":"I","reportingType":"dm","ideess":"5233","idMunicipio":"2007","idProvincia":"13","idCCAA":"07"}}},{"type":"Feature","geometry":{"type":"Point","coordinates":[-4.96525,39.562556]},"properties":{"id":"es-5332","source":"ES","brand":"AVIA","address":"CRTA.N 502 PK 174","municipality":"Sevilleja de la Jara","province":"TOLEDO","postalCode":"45671","schedule":"L-D: 07:00-21:00","fuels":{"gasoline95":1.595,"gasoline98":1.795,"diesel":1.695,"dieselB":1.395},"extra":{"saleType":"P","margin":"I","reportingType":"dm","ideess":"5332","idMunicipio":"6923","idProvincia":"45","idCCAA":"07"}}},{"type":"Feature","geometry":{"type":"Point","coordinates":[-4.276528,39.652694]},"properties":{"id":"es-5347","source":"ES","brand":"REPSOL","address":"CARRETERA TO-7811 KM. 5,500","municipality":"Menasalbas","province":"TOLEDO","postalCode":"45128","schedule":"L-D: 07:00-22:00","fuels":{"gasoline95":1.749,"gasoline98":1.929,"diesel":1.829,"dieselPremium":1.899,"dieselB":1.459},"extra":{"saleType":"P","margin":"I","reportingType":"dm","ideess":"5347","idMunicipio":"6858","idProvincia":"45","idCCAA":"07"}}},{"type":"Feature","geometry":{"type":"Point","coordinates":[-4.681778,39.908778]},"properties":{"id":"es-5350","source":"ES","brand":"CEPSA","address":"CALLE CTRA TALAVERA, 4","municipality":"Pueblanueva (La)","province":"TOLEDO","postalCode":"45690","schedule":"L-S: 07:00-14:00 y 16:00-19:00","fuels":{"gasoline95":1.729,"diesel":1.819,"dieselPremium":1.829},"extra":{"saleType":"P","margin":"D","reportingType":"dm","ideess":"5350","idMunicipio":"6897","idProvincia":"45","idCCAA":"07"}}},{"type":"Feature","geometry":{"type":"Point","coordinates":[-4.359528,39.858944]},"properties":{"id":"es-5358","source":"ES","brand":"REPSOL","address":"CALLE SANTA LUCIA, S/N","municipality":"Puebla de Montalbán (La)","province":"TOLEDO","postalCode":"45516","schedule":"L-D: 06:30-21:45","fuels":{"gasoline95":1.729,"gasoline98":1.919,"diesel":1.799,"dieselB":1.399,"dieselRenewable":1.899},"extra":{"saleType":"P","margin":"D","reportingType":"dm","ideess":"5358","idMunicipio":"6896","idProvincia":"45","idCCAA":"07"}}},{"type":"Feature","geometry":{"type":"Point","coordinates":[-4.826611,39.961944]},"properties":{"id":"es-5373","source":"ES","brand":"MOEWE TALVAR","address":"AV EXTREMADURA  1","municipality":"Talavera de la Reina","province":"TOLEDO","postalCode":"45600","schedule":"L-D: 24H","fuels":{"gasoline95":1.779,"gasoline98":1.949,"diesel":1.879,"dieselPremium":1.939},"extra":{"saleType":"P","margin":"N","reportingType":"dm","ideess":"5373","idMunicipio":"6926","idProvincia":"45","idCCAA":"07"}}},{"type":"Feature","geometry":{"type":"Point","coordinates":[-4.691694,39.993667]},"properties":{"id":"es-5375","source":"ES","brand":"REPSOL","address":"CR A-5, 103,2","municipality":"Cazalegas","province":"TOLEDO","postalCode":"45683","schedule":"L-J: 06:00-22:00; V: 06:00-23:00; S-D: 06:00-22:00","fuels":{"gasoline95":1.735,"gasoline98":1.875,"diesel":1.859,"dieselB":1.569,"dieselRenewable":1.979,"lpg":1.045},"extra":{"saleType":"P","margin":"D","reportingType":"OM","ideess":"5375","idMunicipio":"6805","idProvincia":"45","idCCAA":"07"}}},{"type":"Feature","geometry":{"type":"Point","coordinates":[-4.703778,39.988722]},"properties":{"id":"es-5376","source":"ES","brand":"REPSOL","address":"CR A-5, 104,3","municipality":"Cazalegas","province":"TOLEDO","postalCode":"45683","schedule":"L-D: 24H","fuels":{"gasoline95":1.735,"gasoline98":1.875,"diesel":1.859,"dieselRenewable":1.979,"lpg":1.049},"extra":{"saleType":"P","margin":"I","reportingType":"OM","ideess":"5376","idMunicipio":"6805","idProvincia":"45","idCCAA":"07"}}},{"type":"Feature","geometry":{"type":"Point","coordinates":[-4.297778,39.972167]},"properties":{"id":"es-5380","source":"ES","brand":"DAGAS-OIL S.L.","address":"CARRETERA TORRIJOS A GERINDOTE KM. 2","municipality":"Gerindote","province":"TOLEDO","postalCode":"45518","schedule":"L-D: 06:30-22:30","fuels":{"gasoline95":1.626,"gasoline98":1.913,"diesel":1.719,"dieselPremium":1.924,"adblue":0.879},"extra":{"saleType":"P","margin":"N","reportingType":"dm","ideess":"5380","idMunicipio":"6829","idProvincia":"45","idCCAA":"07"}}},{"type":"Feature","geometry":{"type":"Point","coordinates":[-4.217389,39.8755]},"properties":{"id":"es-5390","source":"ES","brand":"REPSOL","address":"CARRETERA CM-4000 KM. 15,4","municipality":"Albarreal de Tajo","province":"TOLEDO","postalCode":"45522","schedule":"L-D: 07:00-22:00","fuels":{"gasoline95":1.725,"diesel":1.839,"dieselRenewable":1.959},"extra":{"saleType":"P","margin":"D","reportingType":"OM","ideess":"5390","idMunicipio":"6764","idProvincia":"45","idCCAA":"07"}}},{"type":"Feature","geometry":{"type":"Point","coordinates":[-4.268722,39.978972]},"properties":{"id":"es-5399","source":"ES","brand":"GALP","address":"AVENIDA TOLEDO, 39","municipality":"Torrijos","province":"TOLEDO","postalCode":"45500","schedule":"L-D: 07:00-23:00","fuels":{"gasoline95":1.659,"gasoline98":1.819,"diesel":1.759,"dieselPremium":1.809,"adblue":0.799},"extra":{"saleType":"P","margin":"N","reportingType":"OM","ideess":"5399","idMunicipio":"6934","idProvincia":"45","idCCAA":"07"}}},{"type":"Feature","geometry":{"type":"Point","coordinates":[-4.043222,39.860694]},"properties":{"id":"es-5406","source":"ES","brand":"REPSOL","address":"CALLE NAVALPINO, 30","municipality":"Toledo","province":"TOLEDO","postalCode":"45004","schedule":"L-D: 05:00-23:00","fuels":{"gasoline95":1.749,"gasoline98":1.919,"diesel":1.859,"dieselRenewable":1.979},"extra":{"saleType":"P","margin":"D","reportingType":"OM","ideess":"5406","idMunicipio":"6929","idProvincia":"45","idCCAA":"07"}}},{"type":"Feature","geometry":{"type":"Point","coordinates":[-4.913194,39.961111]},"properties":{"id":"es-5410","source":"ES","brand":"REPSOL","address":"CARRETERA N-V KM. 123,7","municipality":"Talavera de la Reina","province":"TOLEDO","postalCode":"45600","schedule":"L-D: 06:00-23:00","fuels":{"gasoline95":1.769,"diesel":1.889},"extra":{"saleType":"P","margin":"D","reportingType":"dm","ideess":"5410","idMunicipio":"6926","idProvincia":"45","idCCAA":"07"}}},{"type":"Feature","geometry":{"type":"Point","coordinates":[-4.852444,39.950833]},"properties":{"id":"es-5411","source":"ES","brand":"REPSOL","address":"CALLE CALERA, 100","municipality":"Talavera de la Reina","province":"TOLEDO","postalCode":"45600","schedule":"L-D: 06:00-22:00","fuels":{"gasoline95":1.769,"gasoline98":1.939,"diesel":1.879,"dieselRenewable":1.999,"lpg":1.069},"extra":{"saleType":"P","margin":"D","reportingType":"OM","ideess":"5411","idMunicipio":"6926","idProvincia":"45","idCCAA":"07"}}},{"type":"Feature","geometry":{"type":"Point","coordinates":[-4.84325,39.930972]},"properties":{"id":"es-5412","source":"ES","brand":"REPSOL","address":"CARRETERA N-502 KM. 120","municipality":"Talavera de la Reina","province":"TOLEDO","postalCode":"45600","schedule":"L-D: 07:00-22:00","fuels":{"gasoline95":1.789,"gasoline98":1.979,"diesel":1.849,"dieselB":1.399,"dieselRenewable":1.969},"extra":{"saleType":"P","margin":"D","reportingType":"dm","ideess":"5412","idMunicipio":"6926","idProvincia":"45","idCCAA":"07"}}},{"type":"Feature","geometry":{"type":"Point","coordinates":[-4.831167,39.947583]},"properties":{"id":"es-5413","source":"ES","brand":"REPSOL","address":"CARRETERA ALCAUDETE KM. 1,550","municipality":"Talavera de la Reina","province":"TOLEDO","postalCode":"45600","schedule":"L-D: 06:30-22:00","fuels":{"gasoline95":1.779,"diesel":1.869,"dieselRenewable":1.989},"extra":{"saleType":"P","margin":"I","reportingType":"dm","ideess":"5413","idMunicipio":"6926","idProvincia":"45","idCCAA":"07"}}},{"type":"Feature","geometry":{"type":"Point","coordinates":[-4.056667,39.813417]},"properties":{"id":"es-5414","source":"ES","brand":"REPSOL","address":"CARRETERA L 54 KM. 7","municipality":"Argés","province":"TOLEDO","postalCode":"45122","schedule":"L-D: 06:00-22:00","fuels":{"gasoline95":1.749,"gasoline98":1.889,"diesel":1.819,"dieselPremium":1.919},"extra":{"saleType":"P","margin":"D","reportingType":"dm","ideess":"5414","idMunicipio":"6777","idProvincia":"45","idCCAA":"07"}}},{"type":"Feature","geometry":{"type":"Point","coordinates":[-4.016667,39.860944]},"properties":{"id":"es-5415","source":"ES","brand":"REPSOL","address":"CL PASEO DE LA ROSA, S.N. (N-401 km 69)","municipality":"Toledo","province":"TOLEDO","postalCode":"45006","schedule":"L-D: 08:00-20:00","fuels":{"gasoline95":1.759,"gasoline95Premium":1.829,"diesel":1.855,"dieselRenewable":1.975,"adblue":1.49},"extra":{"saleType":"P","margin":"D","reportingType":"dm","ideess":"5415","idMunicipio":"6929","idProvincia":"45","idCCAA":"07"}}},{"type":"Feature","geometry":{"type":"Point","coordinates":[-4.985806,39.883083]},"properties":{"id":"es-5419","source":"ES","brand":"CEPSA","address":"AVENIDA BENITO ALCALDE SÁNCHEZ, 104","municipality":"Calera y Chozas","province":"TOLEDO","postalCode":"45595","schedule":"L-D: 07:00-22:00","fuels":{"gasoline95":1.799,"diesel":1.889,"dieselPremium":1.949,"dieselB":1.709},"extra":{"saleType":"P","margin":"D","reportingType":"dm","ideess":"5419","idMunicipio":"6789","idProvincia":"45","idCCAA":"07"}}},{"type":"Feature","geometry":{"type":"Point","coordinates":[-4.642806,39.718667]},"properties":{"id":"es-5420","source":"ES","brand":"BP GASOLEOS LOS NAVALMORALES","address":"CALLE SAN FRANCISCO, 66","municipality":"Navalmorales (Los)","province":"TOLEDO","postalCode":"45140","schedule":"L-D: 07:00-21:00","fuels":{"gasoline95":1.749,"diesel":1.819,"dieselPremium":1.859},"extra":{"saleType":"P","margin":"N","reportingType":"dm","ideess":"5420","idMunicipio":"6872","idProvincia":"45","idCCAA":"07"}}},{"type":"Feature","geometry":{"type":"Point","coordinates":[-4.848778,39.957833]},"properties":{"id":"es-5421","source":"ES","brand":"MOEVE","address":"AVENIDA PORTUGAL, 66","municipality":"Talavera de la Reina","province":"TOLEDO","postalCode":"45600","schedule":"L-D: 06:00-22:00","fuels":{"gasoline95":1.774,"gasoline95Premium":1.869,"diesel":1.851,"dieselPremium":1.951},"extra":{"saleType":"P","margin":"D","reportingType":"OM","ideess":"5421","idMunicipio":"6926","idProvincia":"45","idCCAA":"07"}}},{"type":"Feature","geometry":{"type":"Point","coordinates":[-4.021028,39.870528]},"properties":{"id":"es-5430","source":"ES","brand":"REPSOL","address":"AVENIDA MADRID, 41","municipality":"Toledo","province":"TOLEDO","postalCode":"45003","schedule":"L-D: 24H","fuels":{"gasoline95":1.739,"gasoline98":1.899,"diesel":1.799,"dieselPremium":1.899},"extra":{"saleType":"P","margin":"D","reportingType":"dm","ideess":"5430","idMunicipio":"6929","idProvincia":"45","idCCAA":"07"}}},{"type":"Feature","geometry":{"type":"Point","coordinates":[-4.003278,39.862028]},"properties":{"id":"es-5433","source":"ES","brand":"CEPSA","address":"PASEO DE LA ROSA, 156","municipality":"Toledo","province":"TOLEDO","postalCode":"45006","schedule":"L-D: 08:00-21:00","fuels":{"gasoline95":1.669,"gasoline95Premium":1.749,"diesel":1.709,"dieselPremium":1.759},"extra":{"saleType":"P","margin":"D","reportingType":"dm","ideess":"5433","idMunicipio":"6929","idProvincia":"45","idCCAA":"07"}}},{"type":"Feature","geometry":{"type":"Point","coordinates":[-4.155833,39.690556]},"properties":{"id":"es-5454","source":"ES","brand":"REPSOL","address":"CARRETERA CM-4013 KM. 23,4","municipality":"Pulgar","province":"TOLEDO","postalCode":"45125","schedule":"L-D: 06:00-22:00","fuels":{"gasoline95":1.739,"gasoline98":1.879,"diesel":1.809,"dieselPremium":1.909,"adblue":0.999},"extra":{"saleType":"P","margin":"I","reportingType":"dm","ideess":"5454","idMunicipio":"6900","idProvincia":"45","idCCAA":"07"}}},{"type":"Feature","geometry":{"type":"Point","coordinates":[-4.008778,39.913778]},"properties":{"id":"es-5469","source":"ES","brand":"REPSOL","address":"CR A-42  P.K. 63,30 D","municipality":"Olías del Rey","province":"TOLEDO","postalCode":"45280","schedule":"L-D: 06:00-22:00","fuels":{"gasoline95":1.745,"gasoline98":1.915,"diesel":1.865,"dieselRenewable":1.985},"extra":{"saleType":"P","margin":"D","reportingType":"OM","ideess":"5469","idMunicipio":"6882","idProvincia":"45","idCCAA":"07"}}},{"type":"Feature","geometry":{"type":"Point","coordinates":[-4.008111,39.913611]},"properties":{"id":"es-5470","source":"ES","brand":"REPSOL","address":"CR A-42, 63,30 I","municipality":"Olías del Rey","province":"TOLEDO","postalCode":"45280","schedule":"L-D: 06:00-22:00","fuels":{"gasoline95":1.745,"gasoline95Premium":1.815,"gasoline98":1.915,"diesel":1.865,"dieselRenewable":1.985},"extra":{"saleType":"P","margin":"I","reportingType":"OM","ideess":"5470","idMunicipio":"6882","idProvincia":"45","idCCAA":"07"}}},{"type":"Feature","geometry":{"type":"Point","coordinates":[-4.27425,39.98]},"properties":{"id":"es-5472","source":"ES","brand":"CEPSA","address":"AVENIDA TOLEDO, 1","municipality":"Torrijos","province":"TOLEDO","postalCode":"45500","schedule":"L-V: 08:00-21:00","fuels":{"gasoline95":1.699,"diesel":1.799,"dieselPremium":1.869},"extra":{"saleType":"P","margin":"D","reportingType":"dm","ideess":"5472","idMunicipio":"6934","idProvincia":"45","idCCAA":"07"}}},{"type":"Feature","geometry":{"type":"Point","coordinates":[-4.274556,39.979556]},"properties":{"id":"es-5473","source":"ES","brand":"CEPSA","address":"AVENIDA TOLEDO, 2","municipality":"Torrijos","province":"TOLEDO","postalCode":"45500","schedule":"L-D: 24H","fuels":{"gasoline95":1.699,"gasoline98":1.839,"diesel":1.799,"dieselPremium":1.869,"adblue":0.91},"extra":{"saleType":"P","margin":"I","reportingType":"dm","ideess":"5473","idMunicipio":"6934","idProvincia":"45","idCCAA":"07"}}},{"type":"Feature","geometry":{"type":"Point","coordinates":[-4.953139,39.943778]},"properties":{"id":"es-5479","source":"ES","brand":"REPSOL","address":"AUTOVIA A-V KM. 125,750","municipality":"Talavera de la Reina","province":"TOLEDO","postalCode":"45600","schedule":"L-D: 24H","fuels":{"gasoline95":1.769,"gasoline98":1.939,"diesel":1.845,"dieselRenewable":1.965},"extra":{"saleType":"P","margin":"I","reportingType":"OM","ideess":"5479","idMunicipio":"6926","idProvincia":"45","idCCAA":"07"}}},{"type":"Feature","geometry":{"type":"Point","coordinates":[-4.337722,39.934639]},"properties":{"id":"es-5486","source":"ES","brand":"FARRUCO S.A.","address":"CM-4009 km P.K.23,8","municipality":"Escalonilla","province":"TOLEDO","postalCode":"45517","schedule":"L-D: 24H","fuels":{"gasoline95":1.537,"diesel":1.607,"dieselPremium":1.817},"extra":{"saleType":"P","margin":"N","reportingType":"dm","ideess":"5486","idMunicipio":"6822","idProvincia":"45","idCCAA":"07"}}},{"type":"Feature","geometry":{"type":"Point","coordinates":[-4.453944,39.893917]},"properties":{"id":"es-5488","source":"ES","brand":"FARRUCO S.A.","address":"CM-4000 km P.K.39,2","municipality":"Carpio de Tajo (El)","province":"TOLEDO","postalCode":"45533","schedule":"L-D: 24H","fuels":{"gasoline95":1.617,"diesel":1.637},"extra":{"saleType":"P","margin":"N","reportingType":"dm","ideess":"5488","idMunicipio":"6798","idProvincia":"45","idCCAA":"07"}}},{"type":"Feature","geometry":{"type":"Point","coordinates":[-4.563389,39.936694]},"properties":{"id":"es-5493","source":"ES","brand":"FARRUCO S.A.","address":"CM-4000 km P.K.50,6","municipality":"Cebolla","province":"TOLEDO","postalCode":"45680","schedule":"L-D: 07:00-21:00","fuels":{"gasoline95":1.597,"gasoline98":1.637,"diesel":1.637,"dieselPremium":1.677,"adblue":0.879},"extra":{"saleType":"P","margin":"N","reportingType":"dm","ideess":"5493","idMunicipio":"6806","idProvincia":"45","idCCAA":"07"}}},{"type":"Feature","geometry":{"type":"Point","coordinates":[-4.277806,39.999722]},"properties":{"id":"es-5494","source":"ES","brand":"FARRUCO S.A.","address":"CM-4009 km P.K.14,4","municipality":"Torrijos","province":"TOLEDO","postalCode":"45500","schedule":"L-D: 07:00-21:00","fuels":{"gasoline95":1.557,"gasoline98":1.597,"diesel":1.647,"dieselPremium":1.687,"lpg":1.039,"adblue":0.869},"extra":{"saleType":"P","margin":"N","reportingType":"dm","ideess":"5494","idMunicipio":"6934","idProvincia":"45","idCCAA":"07"}}},{"type":"Feature","geometry":{"type":"Point","coordinates":[-4.040278,39.872583]},"properties":{"id":"es-5500","source":"ES","brand":"MOEVE","address":"CTRA. TOLEDO - AVILA km 2,5","municipality":"Toledo","province":"TOLEDO","postalCode":"45005","schedule":"L-D: 24H","fuels":{"gasoline95":1.744,"gasoline95Premium":1.839,"diesel":1.861,"dieselPremium":1.946},"extra":{"saleType":"P","margin":"N","reportingType":"OM","ideess":"5500","idMunicipio":"6929","idProvincia":"45","idCCAA":"07"}}},{"type":"Feature","geometry":{"type":"Point","coordinates":[-4.356583,39.872722]},"properties":{"id":"es-5506","source":"ES","brand":"FARRUCO S.A.","address":"CM-4000 km P.K.29,0","municipality":"Puebla de Montalbán (La)","province":"TOLEDO","postalCode":"45516","schedule":"L-D: 24H","fuels":{"gasoline95":1.617,"diesel":1.667,"dieselPremium":1.707,"adblue":0.879},"extra":{"saleType":"P","margin":"N","reportingType":"dm","ideess":"5506","idMunicipio":"6896","idProvincia":"45","idCCAA":"07"}}},{"type":"Feature","geometry":{"type":"Point","coordinates":[-4.795694,39.964222]},"properties":{"id":"es-8319","source":"ES","brand":"CARREFOUR","address":"CARRETERA ANTIGUA NACIONAL V KM. 104","municipality":"Talavera de la Reina","province":"TOLEDO","postalCode":"45600","schedule":"L-S: 08:00-22:00; D: 09:00-21:00","fuels":{"gasoline95":1.709,"gasoline98":1.849,"diesel":1.789,"dieselPremium":1.829},"extra":{"saleType":"P","margin":"N","reportingType":"dm","ideess":"8319","idMunicipio":"6926","idProvincia":"45","idCCAA":"07"}}},{"type":"Feature","geometry":{"type":"Point","coordinates":[-4.049022,39.314557]},"properties":{"id":"es-9026","source":"ES","brand":"LA LOMA","address":"AVDA. DE LA LOMA, Nº 22","municipality":"Cortijos (Los)","province":"CIUDAD REAL","postalCode":"13427","schedule":"L-D: 07:00-22:00","fuels":{"gasoline95":1.569,"diesel":1.629,"dieselB":1.349},"extra":{"saleType":"P","margin":"D","reportingType":"dm","ideess":"9026","idMunicipio":"1978","idProvincia":"13","idCCAA":"07"}}},{"type":"Feature","geometry":{"type":"Point","coordinates":[-4.464361,39.637833]},"properties":{"id":"es-9054","source":"ES","brand":"REPSOL","address":"CTRA DE TOLEDO km 49,600","municipality":"Navahermosa","province":"TOLEDO","postalCode":"45150","schedule":"L-S: 06:30-21:30; D: 07:00-21:30","fuels":{"gasoline95":1.729,"gasoline98":1.919,"diesel":1.799,"dieselB":1.399,"dieselRenewable":1.899},"extra":{"saleType":"P","margin":"I","reportingType":"dm","ideess":"9054","idMunicipio":"6869","idProvincia":"45","idCCAA":"07"}}},{"type":"Feature","geometry":{"type":"Point","coordinates":[-4.021111,39.914194]},"properties":{"id":"es-9089","source":"ES","brand":"AVIA","address":"CTRA. TOLEDO-BARGAS, KM. 1,700","municipality":"Bargas","province":"TOLEDO","postalCode":"45593","schedule":"L-D: 06:30-22:30","fuels":{"gasoline95":1.669,"gasoline98":1.839,"diesel":1.739,"dieselPremium":1.799,"adblue":0.909},"extra":{"saleType":"P","margin":"N","reportingType":"dm","ideess":"9089","idMunicipio":"6780","idProvincia":"45","idCCAA":"07"}}},{"type":"Feature","geometry":{"type":"Point","coordinates":[-4.800306,39.963722]},"properties":{"id":"es-9294","source":"ES","brand":"REPSOL","address":"CARRETERA N-5 km 113.6","municipality":"Talavera de la Reina","province":"TOLEDO","postalCode":"45600","schedule":"L-D: 06:00-22:00","fuels":{"gasoline95":1.769,"gasoline98":1.889,"diesel":1.885,"dieselRenewable":2.005},"extra":{"saleType":"P","margin":"I","reportingType":"OM","ideess":"9294","idMunicipio":"6926","idProvincia":"45","idCCAA":"07"}}},{"type":"Feature","geometry":{"type":"Point","coordinates":[-4.91925,39.963417]},"properties":{"id":"es-9703","source":"ES","brand":"VALCARCE","address":"CAMINO PILON, 2","municipality":"Talavera de la Reina","province":"TOLEDO","postalCode":"45614","schedule":"L-D: 06:00-23:00","fuels":{"gasoline95":1.577,"diesel":1.688,"adblue":0.817},"extra":{"saleType":"P","margin":"D","reportingType":"dm","ideess":"9703","idMunicipio":"6926","idProvincia":"45","idCCAA":"07"}}},{"type":"Feature","geometry":{"type":"Point","coordinates":[-4.418778,39.961139]},"properties":{"id":"es-9777","source":"ES","brand":"REPSOL","address":"CARRETERA COMARCAL 4053 KM. 7,200","municipality":"Carmena","province":"TOLEDO","postalCode":"45531","schedule":"L-S: 07:00-20:00; D: 09:00-20:00","fuels":{"gasoline95":1.725,"diesel":1.835,"dieselB":1.555,"dieselRenewable":1.955},"extra":{"saleType":"P","margin":"D","reportingType":"OM","ideess":"9777","idMunicipio":"6797","idProvincia":"45","idCCAA":"07"}}},{"type":"Feature","geometry":{"type":"Point","coordinates":[-4.818667,39.962028]},"properties":{"id":"es-9930","source":"ES","brand":"EDAN (REPSOL)","address":"AVENIDA EXTREMADURA, 25","municipality":"Talavera de la Reina","province":"TOLEDO","postalCode":"45600","schedule":"L-D: 24H","fuels":{"gasoline95":1.839,"gasoline98":1.979,"diesel":1.899,"dieselRenewable":1.979},"extra":{"saleType":"P","margin":"D","reportingType":"dm","ideess":"9930","idMunicipio":"6926","idProvincia":"45","idCCAA":"07"}}},{"type":"Feature","geometry":{"type":"Point","coordinates":[-4.947033,39.131015]},"properties":{"id":"es-9988","source":"ES","brand":"SI","address":"C 712 km 1,4","municipality":"Fuenlabrada de los Montes","province":"BADAJOZ","postalCode":"06660","schedule":"L-D: 24H","fuels":{"diesel":1.636},"extra":{"saleType":"P","margin":"D","reportingType":"dm","ideess":"9988","idMunicipio":"680","idProvincia":"06","idCCAA":"11"}}}]}