{"type":"FeatureCollection","features":[{"type":"Feature","geometry":{"type":"Point","coordinates":[-5.406472,41.853639]},"properties":{"id":"es-10375","source":"ES","brand":"AGRINZA","address":"CM  HERRADO S/N","municipality":"Villalpando","province":"ZAMORA","postalCode":"49630","schedule":"L-D: 24H","fuels":{"gasoline95":1.56,"diesel":1.64,"adblue":0.6},"extra":{"saleType":"P","margin":"D","reportingType":"dm","ideess":"10375","idMunicipio":"7794","idProvincia":"49","idCCAA":"08"}}},{"type":"Feature","geometry":{"type":"Point","coordinates":[-5.613111,41.856139]},"properties":{"id":"es-10376","source":"ES","brand":"AGRINZA","address":"CM  LA SENDA DEL VALLE km 1","municipality":"Villafáfila","province":"ZAMORA","postalCode":"49136","schedule":"L-D: 24H","fuels":{"dieselB":1.45},"extra":{"saleType":"P","margin":"D","reportingType":"dm","ideess":"10376","idMunicipio":"7786","idProvincia":"49","idCCAA":"08"}}},{"type":"Feature","geometry":{"type":"Point","coordinates":[-5.054833,41.894528]},"properties":{"id":"es-10378","source":"ES","brand":"AN ENERGÉTICOS - MEDINA DE RIOSECO","address":"CARRETERA CARRETERA ADANERO KM. 232","municipality":"Medina de Rioseco","province":"VALLADOLID","postalCode":"47800","schedule":"L-D: 24H","fuels":{"gasoline95":1.569,"diesel":1.689,"adblue":0.705},"extra":{"saleType":"P","margin":"D","reportingType":"dm","ideess":"10378","idMunicipio":"7315","idProvincia":"47","idCCAA":"08"}}},{"type":"Feature","geometry":{"type":"Point","coordinates":[-5.721083,41.361417]},"properties":{"id":"es-11022","source":"ES","brand":"AGROPAL","address":"CAMINO DE CABALLO S/N- PARCELA 419","municipality":"Corrales","province":"ZAMORA","postalCode":"49030","schedule":"L-V: 09:00-14:00 y 16:00-18:30","fuels":{"diesel":1.617,"dieselB":1.433},"extra":{"saleType":"P","margin":"N","reportingType":"dm","ideess":"11022","idMunicipio":"7618","idProvincia":"49","idCCAA":"08"}}},{"type":"Feature","geometry":{"type":"Point","coordinates":[-5.757833,41.519389]},"properties":{"id":"es-11029","source":"ES","brand":"VALCARCE","address":"AVENIDA CARDENAL CISNEROS, S/N","municipality":"Zamora","province":"ZAMORA","postalCode":"49023","schedule":"L-D: 24H","fuels":{"gasoline95":1.689,"diesel":1.669,"dieselPremium":1.765,"adblue":0.799},"extra":{"saleType":"P","margin":"D","reportingType":"dm","ideess":"11029","idMunicipio":"7816","idProvincia":"49","idCCAA":"08"}}},{"type":"Feature","geometry":{"type":"Point","coordinates":[-5.391417,41.533861]},"properties":{"id":"es-11043","source":"ES","brand":"AGROPAL","address":"CAMINO DE LOS BORRACHOS, SN","municipality":"Toro","province":"ZAMORA","postalCode":"49800","schedule":"L-V: 09:00-14:00 y 16:00-18:30; S: 09:00-12:00","fuels":{"diesel":1.617,"dieselB":1.433},"extra":{"saleType":"P","margin":"N","reportingType":"dm","ideess":"11043","idMunicipio":"7763","idProvincia":"49","idCCAA":"08"}}},{"type":"Feature","geometry":{"type":"Point","coordinates":[-5.726583,41.359972]},"properties":{"id":"es-11132","source":"ES","brand":"REPOSTAR","address":"CARRETERA C.N.630-RUTA DE LA PLATA KM.,298.8 KM. 298","municipality":"Corrales","province":"ZAMORA","postalCode":"49700","schedule":"L-D: 24H","fuels":{"gasoline95":1.629,"diesel":1.629},"extra":{"saleType":"P","margin":"I","reportingType":"dm","ideess":"11132","idMunicipio":"7618","idProvincia":"49","idCCAA":"08"}}},{"type":"Feature","geometry":{"type":"Point","coordinates":[-5.352872,41.047534]},"properties":{"id":"es-11321","source":"ES","brand":"ARANPINO","address":"SA-804 km 26","municipality":"Cantalpino","province":"SALAMANCA","postalCode":"37405","schedule":"L-V: 08:00-20:00; S: 09:00-13:00","fuels":{"diesel":1.669,"dieselB":1.287},"extra":{"saleType":"P","margin":"I","reportingType":"dm","ideess":"11321","idMunicipio":"5402","idProvincia":"37","idCCAA":"08"}}},{"type":"Feature","geometry":{"type":"Point","coordinates":[-5.218944,41.693278]},"properties":{"id":"es-11620","source":"ES","brand":"EASYGAS","address":"AUTOVIA A-6 KM. 211","municipality":"Villardefrades","province":"VALLADOLID","postalCode":"47860","schedule":"L-D: 24H","fuels":{"gasoline95":1.729,"gasoline95Premium":1.729,"diesel":1.839,"dieselPremium":1.839,"adblue":0.949},"extra":{"saleType":"P","margin":"I","reportingType":"dm","ideess":"11620","idMunicipio":"7446","idProvincia":"47","idCCAA":"08"}}},{"type":"Feature","geometry":{"type":"Point","coordinates":[-5.411111,41.337361]},"properties":{"id":"es-11905","source":"ES","brand":"COORDINACION AGRARIA SA","address":"CARRETERA TORO-SALAMANCA KM. 19,7","municipality":"Bóveda de Toro (La)","province":"ZAMORA","postalCode":"49155","schedule":"L-V: 09:00-14:00 y 16:00-19:00; S: 09:00-13:00","fuels":{"gasoline95":1.609,"diesel":1.659},"extra":{"saleType":"P","margin":"I","reportingType":"dm","ideess":"11905","idMunicipio":"7591","idProvincia":"49","idCCAA":"08"}}},{"type":"Feature","geometry":{"type":"Point","coordinates":[-5.172111,41.244694]},"properties":{"id":"es-12169","source":"ES","brand":"SERVICOCETRA S.L.U.","address":"CALLE AFUERAS, 1","municipality":"Castrejón de Trabancos","province":"VALLADOLID","postalCode":"47512","schedule":"L-D: 24H","fuels":{"gasoline95":1.565,"diesel":1.58},"extra":{"saleType":"P","margin":"D","reportingType":"dm","ideess":"12169","idMunicipio":"7268","idProvincia":"47","idCCAA":"08"}}},{"type":"Feature","geometry":{"type":"Point","coordinates":[-5.377222,41.540361]},"properties":{"id":"es-12248","source":"ES","brand":"AREA DE SERVICIO TORO","address":"CARRETERA MEDINA DE RIOSECO KM. 1,6","municipality":"Toro","province":"ZAMORA","postalCode":"49800","schedule":"L-D: 07:00-23:00","fuels":{"gasoline95":1.729,"diesel":1.919,"dieselPremium":1.999},"extra":{"saleType":"P","margin":"D","reportingType":"dm","ideess":"12248","idMunicipio":"7763","idProvincia":"49","idCCAA":"08"}}},{"type":"Feature","geometry":{"type":"Point","coordinates":[-5.566111,41.434028]},"properties":{"id":"es-12459","source":"ES","brand":"E.S. CASHER","address":"CARRETERA ZAMORA KM. 14,700","municipality":"Sanzoles","province":"ZAMORA","postalCode":"49152","schedule":"L-S: 07:30-22:00; D: 09:00-22:00","fuels":{"gasoline95":1.689,"diesel":1.759,"dieselPremium":1.799,"dieselB":1.499},"extra":{"saleType":"P","margin":"D","reportingType":"dm","ideess":"12459","idMunicipio":"7760","idProvincia":"49","idCCAA":"08"}}},{"type":"Feature","geometry":{"type":"Point","coordinates":[-5.747972,41.511722]},"properties":{"id":"es-12847","source":"ES","brand":"REPSOL","address":"CUESTA DEL BOLON, S/N","municipality":"Zamora","province":"ZAMORA","postalCode":"49023","schedule":"L-D: 07:00-23:00","fuels":{"gasoline95":1.776,"gasoline98":1.956,"diesel":1.946,"dieselPremium":2.016,"lpg":1.129},"extra":{"saleType":"P","margin":"D","reportingType":"OM","ideess":"12847","idMunicipio":"7816","idProvincia":"49","idCCAA":"08"}}},{"type":"Feature","geometry":{"type":"Point","coordinates":[-5.134528,41.410556]},"properties":{"id":"es-12892","source":"ES","brand":"LA LOBA 2000","address":"AUTOVIA A-62 KM. 169,6","municipality":"Nava del Rey","province":"VALLADOLID","postalCode":"47500","schedule":"L-D: 24H","fuels":{"gasoline95":1.819,"gasoline98":1.979,"diesel":1.979,"lpg":1.129},"extra":{"saleType":"P","margin":"D","reportingType":"dm","ideess":"12892","idMunicipio":"7331","idProvincia":"47","idCCAA":"08"}}},{"type":"Feature","geometry":{"type":"Point","coordinates":[-5.055167,41.891639]},"properties":{"id":"es-13034","source":"ES","brand":"SUGASYL SL","address":"CALLE RADILLA, 1","municipality":"Medina de Rioseco","province":"VALLADOLID","postalCode":"47800","schedule":"L-D: 24H","fuels":{"diesel":1.684},"extra":{"saleType":"P","margin":"I","reportingType":"dm","ideess":"13034","idMunicipio":"7315","idProvincia":"47","idCCAA":"08"}}},{"type":"Feature","geometry":{"type":"Point","coordinates":[-5.755833,41.798333]},"properties":{"id":"es-13104","source":"ES","brand":"REPSOL","address":"AUTOVIA A66 KM. 241","municipality":"Granja de Moreruela","province":"ZAMORA","postalCode":"49740","schedule":"L-D: 24H","fuels":{"gasoline95":1.786,"gasoline98":1.966,"diesel":1.93,"dieselRenewable":2.05},"extra":{"saleType":"P","margin":"I","reportingType":"OM","ideess":"13104","idMunicipio":"7649","idProvincia":"49","idCCAA":"08"}}},{"type":"Feature","geometry":{"type":"Point","coordinates":[-5.745417,41.514278]},"properties":{"id":"es-13278","source":"ES","brand":"STAR OIL ZAMORA","address":"AVENIDA CARDENAL CISNEROS, S/N","municipality":"Zamora","province":"ZAMORA","postalCode":"49023","schedule":"L-D: 24H","fuels":{"gasoline95":1.629,"diesel":1.729},"extra":{"saleType":"P","margin":"D","reportingType":"dm","ideess":"13278","idMunicipio":"7816","idProvincia":"49","idCCAA":"08"}}},{"type":"Feature","geometry":{"type":"Point","coordinates":[-5.006611,41.502944]},"properties":{"id":"es-13488","source":"ES","brand":"EOIL","address":"CALLE GASPAR DE TORDESILLAS, 2","municipality":"Tordesillas","province":"VALLADOLID","postalCode":"47001","schedule":"L-D: 07:30-22:30","fuels":{"gasoline95":1.725,"diesel":1.799},"extra":{"saleType":"P","margin":"D","reportingType":"dm","ideess":"13488","idMunicipio":"7391","idProvincia":"47","idCCAA":"08"}}},{"type":"Feature","geometry":{"type":"Point","coordinates":[-5.747361,41.516]},"properties":{"id":"es-13674","source":"ES","brand":"CARREFOUR","address":"AVENIDA CARDENAL CISNEROS, S/N","municipality":"Zamora","province":"ZAMORA","postalCode":"49023","schedule":"L-D: 24H","fuels":{"gasoline95":1.729,"gasoline98":1.909,"diesel":1.829,"dieselPremium":1.869},"extra":{"saleType":"P","margin":"N","reportingType":"dm","ideess":"13674","idMunicipio":"7816","idProvincia":"49","idCCAA":"08"}}},{"type":"Feature","geometry":{"type":"Point","coordinates":[-5.723972,41.487972]},"properties":{"id":"es-13835","source":"ES","brand":"MORAOIL","address":"CARRETERA CL-605 KM. 169,87","municipality":"Zamora","province":"ZAMORA","postalCode":"49021","schedule":"L-D: 24H","fuels":{"gasoline95":1.525,"diesel":1.638,"adblue":0.652},"extra":{"saleType":"P","margin":"I","reportingType":"dm","ideess":"13835","idMunicipio":"7816","idProvincia":"49","idCCAA":"08"}}},{"type":"Feature","geometry":{"type":"Point","coordinates":[-5.377361,41.526528]},"properties":{"id":"es-14317","source":"ES","brand":"SERVICIOS AGRARIOS LA UNION SLU","address":"CARRETERA TORDESILLAS KM. 29","municipality":"Toro","province":"ZAMORA","postalCode":"49800","schedule":"L-D: 24H","fuels":{"gasoline95":1.609,"diesel":1.659},"extra":{"saleType":"P","margin":"N","reportingType":"dm","ideess":"14317","idMunicipio":"7763","idProvincia":"49","idCCAA":"08"}}},{"type":"Feature","geometry":{"type":"Point","coordinates":[-5.664028,41.999667]},"properties":{"id":"es-14429","source":"ES","brand":"GALP&GO","address":"AVENIDA FEDERICO SILVA MUÑOZ, 139","municipality":"Benavente","province":"ZAMORA","postalCode":"49600","schedule":"L-D: 24H","fuels":{"gasoline95":1.579,"diesel":1.729},"extra":{"saleType":"P","margin":"N","reportingType":"OM","ideess":"14429","idMunicipio":"7588","idProvincia":"49","idCCAA":"08"}}},{"type":"Feature","geometry":{"type":"Point","coordinates":[-5.746306,41.512361]},"properties":{"id":"es-14474","source":"ES","brand":"PLENERGY","address":"CALLE VILLALPANDO, S/N","municipality":"Zamora","province":"ZAMORA","postalCode":"49023","schedule":"L-D: 24H","fuels":{"gasoline95":1.659,"diesel":1.679},"extra":{"saleType":"P","margin":"D","reportingType":"dm","ideess":"14474","idMunicipio":"7816","idProvincia":"49","idCCAA":"08"}}},{"type":"Feature","geometry":{"type":"Point","coordinates":[-5.0095,41.503778]},"properties":{"id":"es-15295","source":"ES","brand":"SVG","address":"AVENIDA ZAMORA, 6","municipality":"Tordesillas","province":"VALLADOLID","postalCode":"47100","schedule":"L-D: 07:00-23:00","fuels":{"gasoline95":1.639,"diesel":1.659},"extra":{"saleType":"P","margin":"D","reportingType":"dm","ideess":"15295","idMunicipio":"7391","idProvincia":"47","idCCAA":"08"}}},{"type":"Feature","geometry":{"type":"Point","coordinates":[-5.708167,41.546278]},"properties":{"id":"es-15515","source":"ES","brand":"REPSOL MONFARRACINOS","address":"CARRETERA CL 612 KM. 1177","municipality":"Monfarracinos","province":"ZAMORA","postalCode":"49121","schedule":"L-D: 06:00-01:00","fuels":{"gasoline95":1.769,"gasoline98":1.949,"diesel":1.939,"dieselPremium":2.069},"extra":{"saleType":"P","margin":"N","reportingType":"dm","ideess":"15515","idMunicipio":"7679","idProvincia":"49","idCCAA":"08"}}},{"type":"Feature","geometry":{"type":"Point","coordinates":[-5.269167,41.387722]},"properties":{"id":"es-15571","source":"ES","brand":"ES CASTRONUÑO","address":"CAMINO CARRETERA BOVEDA, 19","municipality":"Castronuño","province":"VALLADOLID","postalCode":"47520","schedule":"L-D: 24H","fuels":{"gasoline95":1.53,"diesel":1.646},"extra":{"saleType":"P","margin":"N","reportingType":"dm","ideess":"15571","idMunicipio":"7276","idProvincia":"47","idCCAA":"08"}}},{"type":"Feature","geometry":{"type":"Point","coordinates":[-5.658194,41.998417]},"properties":{"id":"es-15802","source":"ES","brand":"HAM","address":"CARRER CAÑADA BERZIANA, 9","municipality":"Benavente","province":"ZAMORA","postalCode":"49600","schedule":"L-D: 24H","fuels":{"cng":1.574,"lng":1.529,"bioCng":1.554,"bioLng":1.499},"extra":{"saleType":"P","margin":"D","reportingType":"dm","ideess":"15802","idMunicipio":"7588","idProvincia":"49","idCCAA":"08"}}},{"type":"Feature","geometry":{"type":"Point","coordinates":[-5.656472,41.9985]},"properties":{"id":"es-15805","source":"ES","brand":"BEROIL","address":"CAÑADA REAL BERCIANA, 9","municipality":"Benavente","province":"ZAMORA","postalCode":"49600","schedule":"L-D: 24H","fuels":{"gasoline95":1.539,"diesel":1.649,"dieselB":1.399,"adblue":0.6},"extra":{"saleType":"P","margin":"D","reportingType":"dm","ideess":"15805","idMunicipio":"7588","idProvincia":"49","idCCAA":"08"}}},{"type":"Feature","geometry":{"type":"Point","coordinates":[-5.748611,41.813417]},"properties":{"id":"es-15887","source":"ES","brand":"REPSOL","address":"AUTOVIA A-66 KM. 241","municipality":"Granja de Moreruela","province":"ZAMORA","postalCode":"49740","schedule":"L-D: 24H","fuels":{"gasoline95":1.77,"diesel":1.93},"extra":{"saleType":"P","margin":"D","reportingType":"OM","ideess":"15887","idMunicipio":"7649","idProvincia":"49","idCCAA":"08"}}},{"type":"Feature","geometry":{"type":"Point","coordinates":[-5.703944,41.48125]},"properties":{"id":"es-15914","source":"ES","brand":"FERTIBLEND","address":"CARRETERA ZA-610 KM. 0","municipality":"Arcenillas","province":"ZAMORA","postalCode":"49151","schedule":"L-D: 24H","fuels":{"gasoline95":1.559,"diesel":1.638,"lpg":1.029,"adblue":0.557},"extra":{"saleType":"P","margin":"D","reportingType":"dm","ideess":"15914","idMunicipio":"7577","idProvincia":"49","idCCAA":"08"}}},{"type":"Feature","geometry":{"type":"Point","coordinates":[-5.317806,41.227139]},"properties":{"id":"es-16076","source":"ES","brand":"REPSOL CASTRILLO DE LA  GUAREÑA","address":"AUTOVIA 62 KM. 195","municipality":"Castrillo de la Guareña","province":"ZAMORA","postalCode":"49419","schedule":"L: 06:00-01:00","fuels":{"gasoline95":1.759,"gasoline98":1.949,"diesel":1.949,"dieselPremium":2.069},"extra":{"saleType":"P","margin":"D","reportingType":"dm","ideess":"16076","idMunicipio":"7607","idProvincia":"49","idCCAA":"08"}}},{"type":"Feature","geometry":{"type":"Point","coordinates":[-5.658778,41.996944]},"properties":{"id":"es-16086","source":"ES","brand":"PETROPRIX","address":"AVENIDA FEDERICO SILVA MUÑOZ, 146","municipality":"Benavente","province":"ZAMORA","postalCode":"49600","schedule":"L-D: 24H","fuels":{"gasoline95":1.539,"diesel":1.649},"extra":{"saleType":"P","margin":"D","reportingType":"dm","ideess":"16086","idMunicipio":"7588","idProvincia":"49","idCCAA":"08"}}},{"type":"Feature","geometry":{"type":"Point","coordinates":[-5.721028,41.521528]},"properties":{"id":"es-16095","source":"ES","brand":"PETROPRIX","address":"CARRETERA N122 - CC VISTA ALEGRE KM. 62","municipality":"Zamora","province":"ZAMORA","postalCode":"49022","schedule":"L-D: 24H","fuels":{"gasoline95":1.659,"diesel":1.679},"extra":{"saleType":"P","margin":"N","reportingType":"dm","ideess":"16095","idMunicipio":"7816","idProvincia":"49","idCCAA":"08"}}},{"type":"Feature","geometry":{"type":"Point","coordinates":[-5.019917,41.206194]},"properties":{"id":"es-4739","source":"ES","brand":"AVIA","address":"CARRETERA L-801 ALAEJOS-ATAQUINES KM. 22,800","municipality":"Bobadilla del Campo","province":"VALLADOLID","postalCode":"47462","schedule":"L-S: 07:00-13:30 y 14:00-20:00; D: 08:00-13:00","fuels":{"gasoline95":1.799,"diesel":1.949},"extra":{"saleType":"P","margin":"D","reportingType":"dm","ideess":"4739","idMunicipio":"7251","idProvincia":"47","idCCAA":"08"}}},{"type":"Feature","geometry":{"type":"Point","coordinates":[-5.70475,41.549917]},"properties":{"id":"es-4748","source":"ES","brand":"CEPSA","address":"CARRETERA CL612 KM. 6","municipality":"Monfarracinos","province":"ZAMORA","postalCode":"49121","schedule":"L-S: 07:00-23:00; D: 08:00-23:00","fuels":{"gasoline95":1.755,"diesel":1.918,"dieselPremium":2.006},"extra":{"saleType":"P","margin":"D","reportingType":"dm","ideess":"4748","idMunicipio":"7679","idProvincia":"49","idCCAA":"08"}}},{"type":"Feature","geometry":{"type":"Point","coordinates":[-5.714583,41.524861]},"properties":{"id":"es-4911","source":"ES","brand":"REPOSTAR--VISTA ALEGRE","address":"CARRETERA NACIONAL 122 KMT. 455 KM. ","municipality":"Zamora","province":"ZAMORA","postalCode":"49022","schedule":"L-D: 07:00-23:00","fuels":{"gasoline95":1.649,"gasoline98":1.829,"diesel":1.699,"dieselPremium":1.769,"dieselB":1.509},"extra":{"saleType":"P","margin":"I","reportingType":"dm","ideess":"4911","idMunicipio":"7816","idProvincia":"49","idCCAA":"08"}}},{"type":"Feature","geometry":{"type":"Point","coordinates":[-5.873611,41.415667]},"properties":{"id":"es-4915","source":"ES","brand":"REPOSTAR--ALFA","address":"CARRETERA CL 527 KM. 14,350","municipality":"Pereruela","province":"ZAMORA","postalCode":"49280","schedule":"L-D: 08:00-20:00","fuels":{"gasoline95":1.699,"gasoline98":1.799,"diesel":1.859,"dieselB":1.559},"extra":{"saleType":"P","margin":"D","reportingType":"dm","ideess":"4915","idMunicipio":"7707","idProvincia":"49","idCCAA":"08"}}},{"type":"Feature","geometry":{"type":"Point","coordinates":[-5.121806,41.597806]},"properties":{"id":"es-4916","source":"ES","brand":"BP","address":"AUTOPISTA A6 KM. 196","municipality":"Vega de Valdetronco","province":"VALLADOLID","postalCode":"47133","schedule":"L-D: 07:00-23:00","fuels":{"gasoline95":1.889,"gasoline98":2.049,"diesel":1.979,"dieselPremium":2.069,"adblue":1.329},"extra":{"saleType":"P","margin":"D","reportingType":"dm","ideess":"4916","idMunicipio":"7414","idProvincia":"47","idCCAA":"08"}}},{"type":"Feature","geometry":{"type":"Point","coordinates":[-5.733611,41.444944]},"properties":{"id":"es-4923","source":"ES","brand":"REPOSTAR - ANSELMO MONTERO BRAGADO","address":"CARRETERA CTRA. NACIONAL 630 KM. 285","municipality":"Morales del Vino","province":"ZAMORA","postalCode":"49190","schedule":"L-V: 06:30-23:00; S: 07:00-23:00; D: 07:30-23:00","fuels":{"gasoline95":1.599,"gasoline98":1.679,"diesel":1.689,"dieselPremium":1.719,"dieselB":1.459},"extra":{"saleType":"P","margin":"I","reportingType":"dm","ideess":"4923","idMunicipio":"7687","idProvincia":"49","idCCAA":"08"}}},{"type":"Feature","geometry":{"type":"Point","coordinates":[-5.970083,41.012083]},"properties":{"id":"es-4925","source":"ES","brand":"EUMOGAS, SL","address":"CARRETERA CL-517 KM. 22,500","municipality":"Villarmayor","province":"SALAMANCA","postalCode":"37130","schedule":"L-V: 07:00-20:30; S: 08:00-20:30; D: 09:00-21:00","fuels":{"gasoline95":1.589,"gasoline98":1.709,"diesel":1.749,"dieselPremium":1.799,"dieselB":1.449},"extra":{"saleType":"P","margin":"I","reportingType":"dm","ideess":"4925","idMunicipio":"5672","idProvincia":"37","idCCAA":"08"}}},{"type":"Feature","geometry":{"type":"Point","coordinates":[-5.798417,41.636417]},"properties":{"id":"es-4941","source":"ES","brand":"LOSADA - MONTAMARTA","address":"CARRETERA NACIONAL 630 KM. 261,200","municipality":"Montamarta","province":"ZAMORA","postalCode":"49149","schedule":"L-V: 07:00-22:00; S: 08:00-22:00; D: 09:00-21:00","fuels":{"gasoline95":1.664,"diesel":1.694},"extra":{"saleType":"P","margin":"I","reportingType":"dm","ideess":"4941","idMunicipio":"7680","idProvincia":"49","idCCAA":"08"}}},{"type":"Feature","geometry":{"type":"Point","coordinates":[-5.661361,41.997278]},"properties":{"id":"es-4961","source":"ES","brand":"SHELL","address":"AVENIDA FEDERICO SILVA MUÑOZ, 128","municipality":"Benavente","province":"ZAMORA","postalCode":"49600","schedule":"L-D: 24H","fuels":{"gasoline95":1.764,"gasoline98":1.904,"diesel":1.904,"dieselPremium":1.984,"adblue":1.25},"extra":{"saleType":"P","margin":"N","reportingType":"OM","ideess":"4961","idMunicipio":"7588","idProvincia":"49","idCCAA":"08"}}},{"type":"Feature","geometry":{"type":"Point","coordinates":[-5.747806,41.507056]},"properties":{"id":"es-4962","source":"ES","brand":"REPSOL - LOSADA RONDA","address":"RONDA LA FERIA, 19/21","municipality":"Zamora","province":"ZAMORA","postalCode":"49006","schedule":"L-S: 07:00-23:00; D: 08:00-22:00","fuels":{"gasoline95":1.759,"gasoline98":1.919,"diesel":1.899,"dieselPremium":1.969},"extra":{"saleType":"P","margin":"N","reportingType":"dm","ideess":"4962","idMunicipio":"7816","idProvincia":"49","idCCAA":"08"}}},{"type":"Feature","geometry":{"type":"Point","coordinates":[-5.736361,41.510583]},"properties":{"id":"es-4963","source":"ES","brand":"REPSOL -  LOSADA  AVENIDA","address":"AVENIDA REQUEJO, 31","municipality":"Zamora","province":"ZAMORA","postalCode":"49022","schedule":"L-D: 24H","fuels":{"gasoline95":1.759,"gasoline98":1.919,"diesel":1.899,"dieselPremium":1.969},"extra":{"saleType":"P","margin":"N","reportingType":"dm","ideess":"4963","idMunicipio":"7816","idProvincia":"49","idCCAA":"08"}}},{"type":"Feature","geometry":{"type":"Point","coordinates":[-5.42075,41.865833]},"properties":{"id":"es-6078","source":"ES","brand":"Q8","address":"CARRETERA CTRA.N-VI A, KM. 236,7","municipality":"Villalpando","province":"ZAMORA","postalCode":"49630","schedule":"L-D: 24H","fuels":{"gasoline95":1.739,"gasoline98":1.779,"diesel":1.819},"extra":{"saleType":"P","margin":"D","reportingType":"dm","ideess":"6078","idMunicipio":"7794","idProvincia":"49","idCCAA":"08"}}},{"type":"Feature","geometry":{"type":"Point","coordinates":[-5.598861,41.988389]},"properties":{"id":"es-6100","source":"ES","brand":"PASO HONROSO","address":"CARRETERA PALENCIA KM. 2","municipality":"Castrogonzalo","province":"ZAMORA","postalCode":"49660","schedule":"L-D: 07:00-23:00","fuels":{"gasoline95":1.689,"gasoline98":1.809,"diesel":1.759,"dieselPremium":1.809,"adblue":0.849},"extra":{"saleType":"P","margin":"N","reportingType":"dm","ideess":"6100","idMunicipio":"7608","idProvincia":"49","idCCAA":"08"}}},{"type":"Feature","geometry":{"type":"Point","coordinates":[-5.652944,41.995111]},"properties":{"id":"es-6103","source":"ES","brand":"CEPSA","address":"AVENIDA FEDERICO SILVA MUÑOZ, 259","municipality":"Benavente","province":"ZAMORA","postalCode":"49600","schedule":"L-D: 24H","fuels":{"diesel":1.939,"dieselB":1.619,"dieselRenewable":2.089},"extra":{"saleType":"P","margin":"D","reportingType":"OM","ideess":"6103","idMunicipio":"7588","idProvincia":"49","idCCAA":"08"}}},{"type":"Feature","geometry":{"type":"Point","coordinates":[-5.544472,41.936528]},"properties":{"id":"es-6129","source":"ES","brand":"MOEVE","address":"AUTOVIA A-6 KM. ","municipality":"San Esteban del Molar","province":"ZAMORA","postalCode":"49650","schedule":"L-D: 07:00-23:00","fuels":{"gasoline95":1.799,"gasoline95Premium":1.889,"diesel":1.939,"dieselPremium":2.039},"extra":{"saleType":"P","margin":"I","reportingType":"dm","ideess":"6129","idMunicipio":"7741","idProvincia":"49","idCCAA":"08"}}},{"type":"Feature","geometry":{"type":"Point","coordinates":[-5.950472,41.821]},"properties":{"id":"es-6132","source":"ES","brand":"MOEVE COMERCIAL  S A.U.0","address":"CARRETERA N-631 KM. 21,2","municipality":"Tábara","province":"ZAMORA","postalCode":"49140","schedule":"L-D: 07:00-23:00","fuels":{"gasoline95":1.699,"gasoline95Premium":1.789,"diesel":1.796,"dieselPremium":1.896},"extra":{"saleType":"P","margin":"I","reportingType":"dm","ideess":"6132","idMunicipio":"7761","idProvincia":"49","idCCAA":"08"}}},{"type":"Feature","geometry":{"type":"Point","coordinates":[-5.3985,41.526833]},"properties":{"id":"es-6134","source":"ES","brand":"MOEVE COMERCIAL S.A.U.","address":"CARRETERA N-122.KM-426.6 KM. 426,6","municipality":"Toro","province":"ZAMORA","postalCode":"49800","schedule":"L-D: 06:00-00:00","fuels":{"gasoline95":1.825,"diesel":1.969,"dieselPremium":2.069},"extra":{"saleType":"P","margin":"I","reportingType":"dm","ideess":"6134","idMunicipio":"7763","idProvincia":"49","idCCAA":"08"}}},{"type":"Feature","geometry":{"type":"Point","coordinates":[-5.741583,41.495]},"properties":{"id":"es-6139","source":"ES","brand":"BALLENOIL","address":"CALLE SALAMANCA, 46","municipality":"Zamora","province":"ZAMORA","postalCode":"49028","schedule":"L-D: 24H","fuels":{"gasoline95":1.659,"diesel":1.679,"dieselPremium":1.699},"extra":{"saleType":"P","margin":"D","reportingType":"OM","ideess":"6139","idMunicipio":"7816","idProvincia":"49","idCCAA":"08"}}},{"type":"Feature","geometry":{"type":"Point","coordinates":[-5.755278,41.521056]},"properties":{"id":"es-6144","source":"ES","brand":"MOEVE COMMERCIAL, S.A.U.","address":"CARRETERA GIJON SEVILLA KM. 274,800","municipality":"Zamora","province":"ZAMORA","postalCode":"49024","schedule":"L-D: 07:00-23:00","fuels":{"gasoline95":1.777,"gasoline98":1.899,"diesel":1.919,"dieselPremium":2.009},"extra":{"saleType":"P","margin":"I","reportingType":"OM","ideess":"6144","idMunicipio":"7816","idProvincia":"49","idCCAA":"08"}}},{"type":"Feature","geometry":{"type":"Point","coordinates":[-5.71725,41.018472]},"properties":{"id":"es-6154","source":"ES","brand":"CEPSA","address":"CARRETERA LEDESMA KM. 9,5","municipality":"Villamayor","province":"SALAMANCA","postalCode":"37185","schedule":"L-D: 07:00-22:00","fuels":{"gasoline95":1.759,"diesel":1.919,"dieselPremium":2.039},"extra":{"saleType":"P","margin":"I","reportingType":"dm","ideess":"6154","idMunicipio":"5661","idProvincia":"37","idCCAA":"08"}}},{"type":"Feature","geometry":{"type":"Point","coordinates":[-5.178083,41.346944]},"properties":{"id":"es-6173","source":"ES","brand":"MOEVE","address":"A-62 km 177,8","municipality":"Siete Iglesias de Trabancos","province":"VALLADOLID","postalCode":"47511","schedule":"L-D: 24H","fuels":{"gasoline95":1.819,"gasoline95Premium":1.909,"diesel":1.989,"dieselPremium":2.089},"extra":{"saleType":"P","margin":"D","reportingType":"OM","ideess":"6173","idMunicipio":"7386","idProvincia":"47","idCCAA":"08"}}},{"type":"Feature","geometry":{"type":"Point","coordinates":[-5.173278,41.626972]},"properties":{"id":"es-6178","source":"ES","brand":"REPSOL","address":"AUTOVIA A-6 KM. 202","municipality":"Mota del Marqués","province":"VALLADOLID","postalCode":"47120","schedule":"L-D: 24H","fuels":{"gasoline95":1.865,"gasoline98":2.045,"diesel":1.975,"dieselB":1.735,"dieselRenewable":2.055,"adblue":1.425},"extra":{"saleType":"P","margin":"D","reportingType":"dm","ideess":"6178","idMunicipio":"7327","idProvincia":"47","idCCAA":"08"}}},{"type":"Feature","geometry":{"type":"Point","coordinates":[-5.797056,41.521111]},"properties":{"id":"es-6196","source":"ES","brand":"REPSOL","address":"CARRETERA N-122 KM. 4","municipality":"Zamora","province":"ZAMORA","postalCode":"49027","schedule":"L-D: 07:00-21:00","fuels":{"gasoline95":1.777,"gasoline98":1.899,"diesel":1.899,"dieselRenewable":1.999,"adblue":0.998},"extra":{"saleType":"P","margin":"D","reportingType":"dm","ideess":"6196","idMunicipio":"7816","idProvincia":"49","idCCAA":"08"}}},{"type":"Feature","geometry":{"type":"Point","coordinates":[-5.099306,41.576056]},"properties":{"id":"es-6197","source":"ES","brand":"REPSOL","address":"AUTOVIA A - 6 MADRID-LA CORUÑA KM. 193,800","municipality":"Vega de Valdetronco","province":"VALLADOLID","postalCode":"47133","schedule":"L-D: 07:00-23:00","fuels":{"gasoline95":1.85,"gasoline98":2.03,"diesel":1.96,"dieselPremium":2.03,"lpg":1.069},"extra":{"saleType":"P","margin":"I","reportingType":"OM","ideess":"6197","idMunicipio":"7414","idProvincia":"47","idCCAA":"08"}}},{"type":"Feature","geometry":{"type":"Point","coordinates":[-5.323944,41.785528]},"properties":{"id":"es-6200","source":"ES","brand":"REPSOL","address":"CARRER MADRID-CORUÑA, 223","municipality":"Villanueva de los Caballeros","province":"VALLADOLID","postalCode":"47850","schedule":"L-D: 07:00-23:00","fuels":{"gasoline95":1.869,"gasoline98":2.049,"diesel":1.979,"dieselRenewable":2.049,"adblue":1.05},"extra":{"saleType":"P","margin":"I","reportingType":"dm","ideess":"6200","idMunicipio":"7443","idProvincia":"47","idCCAA":"08"}}},{"type":"Feature","geometry":{"type":"Point","coordinates":[-5.311361,41.774333]},"properties":{"id":"es-6201","source":"ES","brand":"REPSOL","address":"CR A-6, 224,6 (N-6 km 224,66)","municipality":"Villanueva de los Caballeros","province":"VALLADOLID","postalCode":"47850","schedule":"L-D: 24H","fuels":{"gasoline95":1.869,"gasoline98":2.049,"diesel":1.979,"dieselRenewable":2.049,"adblue":1.05},"extra":{"saleType":"P","margin":"D","reportingType":"dm","ideess":"6201","idMunicipio":"7443","idProvincia":"47","idCCAA":"08"}}},{"type":"Feature","geometry":{"type":"Point","coordinates":[-5.697028,41.08575]},"properties":{"id":"es-6209","source":"ES","brand":"REPSOL","address":"CARRETERA NACIONAL 630 KM. 326","municipality":"Calzada de Valdunciel","province":"SALAMANCA","postalCode":"37797","schedule":"L-D: 07:30-20:30","fuels":{"gasoline95":1.759,"diesel":1.899,"dieselPremium":1.949,"dieselB":1.639},"extra":{"saleType":"P","margin":"D","reportingType":"dm","ideess":"6209","idMunicipio":"5395","idProvincia":"37","idCCAA":"08"}}},{"type":"Feature","geometry":{"type":"Point","coordinates":[-5.699444,41.527417]},"properties":{"id":"es-6211","source":"ES","brand":"REPSOL","address":"CARRETERA NACIONAL 122 KM. 453,800","municipality":"Zamora","province":"ZAMORA","postalCode":"49022","schedule":"L: 07:00-22:00","fuels":{"gasoline95":1.76,"gasoline98":1.94,"diesel":1.946,"dieselPremium":2.066,"lpg":1.115},"extra":{"saleType":"P","margin":"D","reportingType":"OM","ideess":"6211","idMunicipio":"7816","idProvincia":"49","idCCAA":"08"}}},{"type":"Feature","geometry":{"type":"Point","coordinates":[-5.410167,41.339361]},"properties":{"id":"es-6213","source":"ES","brand":"REPSOL","address":"CARRETERA TORO-SALAMANCA KM. 21","municipality":"Bóveda de Toro (La)","province":"ZAMORA","postalCode":"49155","schedule":"L-D: 06:00-20:00","fuels":{"gasoline95":1.746,"gasoline98":1.926,"diesel":1.956,"dieselPremium":2.076},"extra":{"saleType":"P","margin":"I","reportingType":"OM","ideess":"6213","idMunicipio":"7591","idProvincia":"49","idCCAA":"08"}}},{"type":"Feature","geometry":{"type":"Point","coordinates":[-5.412278,41.987417]},"properties":{"id":"es-6225","source":"ES","brand":"REPSOL","address":"CARRETERA N-610 KM. 81,8","municipality":"Villanueva del Campo","province":"ZAMORA","postalCode":"49100","schedule":"L-D: 08:00-22:30","fuels":{"gasoline95":1.746,"gasoline98":1.926,"diesel":1.93,"dieselPremium":2.05},"extra":{"saleType":"P","margin":"I","reportingType":"OM","ideess":"6225","idMunicipio":"7802","idProvincia":"49","idCCAA":"08"}}},{"type":"Feature","geometry":{"type":"Point","coordinates":[-5.64925,41.004528]},"properties":{"id":"es-6228","source":"ES","brand":"REPSOL","address":"PASEO LAS DELICIAS, 43","municipality":"Villares de la Reina","province":"SALAMANCA","postalCode":"37184","schedule":"L: 07:00-23:00","fuels":{"gasoline95":1.839,"gasoline98":1.989,"diesel":1.949,"dieselPremium":1.989},"extra":{"saleType":"P","margin":"I","reportingType":"dm","ideess":"6228","idMunicipio":"5669","idProvincia":"37","idCCAA":"08"}}},{"type":"Feature","geometry":{"type":"Point","coordinates":[-5.647222,41.992194]},"properties":{"id":"es-6238","source":"ES","brand":"REPSOL","address":"CARRETERA N-6 KM. 260,5","municipality":"Benavente","province":"ZAMORA","postalCode":"49600","schedule":"L-D: 24H","fuels":{"gasoline95":1.766,"gasoline98":1.946,"diesel":1.95,"dieselPremium":2.02,"dieselB":1.602,"lpg":1.129},"extra":{"saleType":"P","margin":"I","reportingType":"OM","ideess":"6238","idMunicipio":"7588","idProvincia":"49","idCCAA":"08"}}},{"type":"Feature","geometry":{"type":"Point","coordinates":[-5.670306,41.017111]},"properties":{"id":"es-6257","source":"ES","brand":"REPSOL","address":"CARRETERA N-630 KM. 334","municipality":"Villares de la Reina","province":"SALAMANCA","postalCode":"37189","schedule":"L-D: 07:00-23:00","fuels":{"gasoline95":1.769,"gasoline98":1.899,"diesel":1.929,"dieselRenewable":2.019,"adblue":0.899},"extra":{"saleType":"P","margin":"D","reportingType":"dm","ideess":"6257","idMunicipio":"5669","idProvincia":"37","idCCAA":"08"}}},{"type":"Feature","geometry":{"type":"Point","coordinates":[-5.672528,41.435333]},"properties":{"id":"es-6263","source":"ES","brand":"|> ENERTRIX <|","address":"CARRETERA CL-605 FUENTESAUCO KM. 10","municipality":"Casaseca de las Chanas","province":"ZAMORA","postalCode":"49151","schedule":"L-D: 24H","fuels":{"gasoline95":1.699,"gasoline95Premium":1.766,"diesel":1.744,"dieselPremium":1.799},"extra":{"saleType":"P","margin":"D","reportingType":"dm","ideess":"6263","idMunicipio":"7606","idProvincia":"49","idCCAA":"08"}}},{"type":"Feature","geometry":{"type":"Point","coordinates":[-5.004333,41.501278]},"properties":{"id":"es-6276","source":"ES","brand":"REPSOL","address":"AVENIDA DE PORTUGAL, 7","municipality":"Tordesillas","province":"VALLADOLID","postalCode":"47100","schedule":"L-D: 24H","fuels":{"gasoline95":1.846,"gasoline95Premium":1.926,"gasoline98":2.026,"diesel":1.976,"dieselPremium":2.046},"extra":{"saleType":"P","margin":"I","reportingType":"OM","ideess":"6276","idMunicipio":"7391","idProvincia":"47","idCCAA":"08"}}},{"type":"Feature","geometry":{"type":"Point","coordinates":[-5.215556,41.303361]},"properties":{"id":"es-6279","source":"ES","brand":"VALCARCE","address":"CARRETERA N 620 KM. 181,700","municipality":"Alaejos","province":"VALLADOLID","postalCode":"47510","schedule":"L-D: 06:00-22:00","fuels":{"gasoline95":1.799,"diesel":1.929,"dieselPremium":1.994},"extra":{"saleType":"P","margin":"N","reportingType":"dm","ideess":"6279","idMunicipio":"7235","idProvincia":"47","idCCAA":"08"}}},{"type":"Feature","geometry":{"type":"Point","coordinates":[-5.051389,41.889167]},"properties":{"id":"es-6286","source":"ES","brand":"REPSOL","address":"CR N-601, 233,6","municipality":"Medina de Rioseco","province":"VALLADOLID","postalCode":"47800","schedule":"L-V: 07:00-19:00; S-D: 09:00-19:00","fuels":{"gasoline95":1.739,"diesel":1.925,"dieselPremium":1.995},"extra":{"saleType":"P","margin":"D","reportingType":"dm","ideess":"6286","idMunicipio":"7315","idProvincia":"47","idCCAA":"08"}}},{"type":"Feature","geometry":{"type":"Point","coordinates":[-5.386194,41.523167]},"properties":{"id":"es-6318","source":"ES","brand":"REPSOL","address":"CARRETERA N-122 KM. 425,5","municipality":"Toro","province":"ZAMORA","postalCode":"49800","schedule":"L-D: 07:00-23:00","fuels":{"gasoline95":1.746,"gasoline98":1.926,"diesel":1.966,"dieselRenewable":2.086},"extra":{"saleType":"P","margin":"I","reportingType":"OM","ideess":"6318","idMunicipio":"7763","idProvincia":"49","idCCAA":"08"}}},{"type":"Feature","geometry":{"type":"Point","coordinates":[-5.921722,41.541222]},"properties":{"id":"es-6333","source":"ES","brand":"MUELAS DEL PAN","address":"CARRETERA N-122A KM. 475,190","municipality":"Muelas del Pan","province":"ZAMORA","postalCode":"49167","schedule":"L-D: 07:00-23:00","fuels":{"gasoline95":1.799,"gasoline98":1.799,"diesel":1.959},"extra":{"saleType":"P","margin":"D","reportingType":"dm","ideess":"6333","idMunicipio":"7692","idProvincia":"49","idCCAA":"08"}}},{"type":"Feature","geometry":{"type":"Point","coordinates":[-5.229333,41.083944]},"properties":{"id":"es-6335","source":"ES","brand":"GASOLINERA VILLAFLORES","address":"CARRETERA CTRA.SA-812 KM 27,I KM. 28","municipality":"Villaflores","province":"SALAMANCA","postalCode":"37406","schedule":"L-D: 24H","fuels":{"gasoline95":1.499,"diesel":1.599},"extra":{"saleType":"P","margin":"I","reportingType":"dm","ideess":"6335","idMunicipio":"5658","idProvincia":"37","idCCAA":"08"}}},{"type":"Feature","geometry":{"type":"Point","coordinates":[-5.368611,41.171389]},"properties":{"id":"es-6336","source":"ES","brand":"CARAMANZANA MARKETING Y MEDIO AMBIENTE, S.L.","address":"CARRETERA CN 620 KM. 203","municipality":"Cañizal","province":"ZAMORA","postalCode":"49440","schedule":"L-V: 07:00-19:00; S-D: 09:00-19:00","fuels":{"gasoline95":1.725,"gasoline98":1.899,"diesel":1.819,"dieselPremium":1.88},"extra":{"saleType":"P","margin":"D","reportingType":"dm","ideess":"6336","idMunicipio":"7601","idProvincia":"49","idCCAA":"08"}}},{"type":"Feature","geometry":{"type":"Point","coordinates":[-5.252556,41.7235]},"properties":{"id":"es-6342","source":"ES","brand":"PETRONOR","address":"CARRETERA N-6 KM. 216","municipality":"Villardefrades","province":"VALLADOLID","postalCode":"47860","schedule":"L-V: 08:00-21:00; S: 08:00-16:00; D: 11:00-21:00","fuels":{"gasoline95":1.796,"gasoline98":1.976,"diesel":1.95,"dieselPremium":2.05},"extra":{"saleType":"P","margin":"I","reportingType":"OM","ideess":"6342","idMunicipio":"7446","idProvincia":"47","idCCAA":"08"}}},{"type":"Feature","geometry":{"type":"Point","coordinates":[-5.494472,41.233472]},"properties":{"id":"es-6358","source":"ES","brand":"SEGUIN Y DIEGO S.L.","address":"CALLE RODIGUEZ DE MIGUEL 5, 5","municipality":"Fuentesaúco","province":"ZAMORA","postalCode":"49400","schedule":"L-V: 07:00-21:00; S: 08:00-20:00; D: 08:00-15:00","fuels":{"gasoline95":1.746,"gasoline98":1.926,"diesel":1.95,"dieselRenewable":2.07},"extra":{"saleType":"P","margin":"D","reportingType":"OM","ideess":"6358","idMunicipio":"7641","idProvincia":"49","idCCAA":"08"}}},{"type":"Feature","geometry":{"type":"Point","coordinates":[-5.640111,41.799778]},"properties":{"id":"es-6361","source":"ES","brand":"REPOSTAR GOMEZ OSORIO","address":"CARRETERA BELBER-TÁBARA KM. 21,400","municipality":"Villarrín de Campos","province":"ZAMORA","postalCode":"49137","schedule":"L-S: 08:00-21:00; D: 09:00-21:00","fuels":{"gasoline95":1.589,"gasoline98":1.699,"diesel":1.669,"dieselB":1.269,"adblue":0.65},"extra":{"saleType":"P","margin":"I","reportingType":"dm","ideess":"6361","idMunicipio":"7810","idProvincia":"49","idCCAA":"08"}}},{"type":"Feature","geometry":{"type":"Point","coordinates":[-5.660083,41.466083]},"properties":{"id":"es-6374","source":"ES","brand":"REPSOL","address":"CALLE POZO, 82","municipality":"Moraleja del Vino","province":"ZAMORA","postalCode":"49150","schedule":"L-S: 07:00-21:00","fuels":{"gasoline95":1.746,"diesel":1.93,"dieselPremium":2.05,"dieselB":1.612},"extra":{"saleType":"P","margin":"I","reportingType":"OM","ideess":"6374","idMunicipio":"7683","idProvincia":"49","idCCAA":"08"}}},{"type":"Feature","geometry":{"type":"Point","coordinates":[-5.145667,41.807861]},"properties":{"id":"es-6382","source":"ES","brand":"REPSOL","address":"CARRETERA VA 505 KM. 11,7","municipality":"Tordehumos","province":"VALLADOLID","postalCode":"47830","schedule":"L-S: 08:00-21:00; D: 09:00-21:00","fuels":{"gasoline95":1.799,"gasoline98":1.969,"diesel":1.939,"dieselPremium":1.999},"extra":{"saleType":"P","margin":"D","reportingType":"dm","ideess":"6382","idMunicipio":"7390","idProvincia":"47","idCCAA":"08"}}},{"type":"Feature","geometry":{"type":"Point","coordinates":[-5.417667,41.860417]},"properties":{"id":"es-6403","source":"ES","brand":"REPSOL","address":"CARRETERA C-612 KM. 49","municipality":"Villalpando","province":"ZAMORA","postalCode":"49630","schedule":"L-D: 07:00-23:00","fuels":{"gasoline95":1.79,"gasoline98":1.97,"diesel":1.96,"dieselPremium":2.05},"extra":{"saleType":"P","margin":"D","reportingType":"OM","ideess":"6403","idMunicipio":"7794","idProvincia":"49","idCCAA":"08"}}},{"type":"Feature","geometry":{"type":"Point","coordinates":[-5.213694,41.51825]},"properties":{"id":"es-6409","source":"ES","brand":"REPSOL","address":"CARRETERA CR VP-6701 VILLAESTER-PEDROSA DEL REY KM. 1","municipality":"Pedrosa del Rey","province":"VALLADOLID","postalCode":"47112","schedule":"L-D: 07:00-23:00","fuels":{"gasoline95":1.836,"gasoline98":2.016,"diesel":1.98,"dieselPremium":2.045,"lpg":1.075,"adblue":1.399},"extra":{"saleType":"P","margin":"D","reportingType":"dm","ideess":"6409","idMunicipio":"7341","idProvincia":"47","idCCAA":"08"}}},{"type":"Feature","geometry":{"type":"Point","coordinates":[-5.488667,41.138028]},"properties":{"id":"es-6410","source":"ES","brand":"REPSOL","address":"AUTOVIA A62 KM. 214","municipality":"Aldeanueva de Figueroa","province":"SALAMANCA","postalCode":"37429","schedule":"L-D: 07:00-23:00","fuels":{"gasoline95":1.75,"diesel":1.95,"dieselRenewable":2.07},"extra":{"saleType":"P","margin":"D","reportingType":"OM","ideess":"6410","idMunicipio":"5345","idProvincia":"37","idCCAA":"08"}}},{"type":"Feature","geometry":{"type":"Point","coordinates":[-5.593972,41.019806]},"properties":{"id":"es-6415","source":"ES","brand":"CEPSA","address":"CARRETERA SALAMANCA-VALLADOLID KM. 9","municipality":"Castellanos de Moriscos","province":"SALAMANCA","postalCode":"37439","schedule":"L-D: 07:00-23:00","fuels":{"gasoline95":1.705,"diesel":1.919,"dieselPremium":1.979},"extra":{"saleType":"P","margin":"D","reportingType":"dm","ideess":"6415","idMunicipio":"5411","idProvincia":"37","idCCAA":"08"}}},{"type":"Feature","geometry":{"type":"Point","coordinates":[-5.543917,41.057444]},"properties":{"id":"es-6426","source":"ES","brand":"MOEVE","address":"AUTOVIA A-62 KM. 225","municipality":"Pedrosillo el Ralo","province":"SALAMANCA","postalCode":"37427","schedule":"L-D: 06:00-23:00","fuels":{"gasoline95":1.769,"gasoline95Premium":1.859,"diesel":1.959,"dieselPremium":2.019},"extra":{"saleType":"P","margin":"D","reportingType":"OM","ideess":"6426","idMunicipio":"5548","idProvincia":"37","idCCAA":"08"}}},{"type":"Feature","geometry":{"type":"Point","coordinates":[-5.661194,41.999167]},"properties":{"id":"es-7996","source":"ES","brand":"VALCARCE","address":"AVENIDA LAS AMERICAS, SN","municipality":"Benavente","province":"ZAMORA","postalCode":"49600","schedule":"L-D: 24H","fuels":{"gasoline95":1.809,"diesel":1.939,"dieselB":1.619,"adblue":0.799},"extra":{"saleType":"P","margin":"N","reportingType":"dm","ideess":"7996","idMunicipio":"7588","idProvincia":"49","idCCAA":"08"}}},{"type":"Feature","geometry":{"type":"Point","coordinates":[-5.7135,41.263472]},"properties":{"id":"es-8124","source":"ES","brand":"EL PILAR","address":"CARRETERA N-630 KM. 306","municipality":"Cubo de Tierra del Vino (El)","province":"ZAMORA","postalCode":"49710","schedule":"L-D: 07:00-23:00","fuels":{"gasoline95":1.679,"gasoline98":1.879,"diesel":1.779,"dieselPremium":1.879},"extra":{"saleType":"P","margin":"I","reportingType":"dm","ideess":"8124","idMunicipio":"7622","idProvincia":"49","idCCAA":"08"}}},{"type":"Feature","geometry":{"type":"Point","coordinates":[-5.544444,41.054917]},"properties":{"id":"es-8138","source":"ES","brand":"MOEVE","address":"A-62 km 225","municipality":"Pedrosillo el Ralo","province":"SALAMANCA","postalCode":"37427","schedule":"L-D: 06:00-23:59","fuels":{"gasoline95":1.769,"gasoline95Premium":1.859,"diesel":1.959,"dieselPremium":2.019},"extra":{"saleType":"P","margin":"I","reportingType":"OM","ideess":"8138","idMunicipio":"5548","idProvincia":"37","idCCAA":"08"}}},{"type":"Feature","geometry":{"type":"Point","coordinates":[-5.042417,41.526]},"properties":{"id":"es-8554","source":"ES","brand":"SHELL","address":"CARRETERA A-6 KM. 186","municipality":"Tordesillas","province":"VALLADOLID","postalCode":"47113","schedule":"L-D: 24H","fuels":{"gasoline95":1.789,"gasoline98":1.939,"diesel":1.949,"dieselPremium":1.999},"extra":{"saleType":"P","margin":"D","reportingType":"dm","ideess":"8554","idMunicipio":"7391","idProvincia":"47","idCCAA":"08"}}},{"type":"Feature","geometry":{"type":"Point","coordinates":[-5.379944,41.826778]},"properties":{"id":"es-8561","source":"ES","brand":"SHELL","address":"AUTOVIA A-6 KM. 231","municipality":"Villalpando","province":"ZAMORA","postalCode":"49630","schedule":"L-D: 07:00-23:00","fuels":{"gasoline95":1.799,"gasoline98":1.939,"diesel":1.949,"dieselPremium":1.999,"adblue":1.165},"extra":{"saleType":"P","margin":"I","reportingType":"dm","ideess":"8561","idMunicipio":"7794","idProvincia":"49","idCCAA":"08"}}},{"type":"Feature","geometry":{"type":"Point","coordinates":[-5.655694,41.99675]},"properties":{"id":"es-9239","source":"ES","brand":"DST","address":"CALLE CAÑADA REAL BERCIANA, 1","municipality":"Benavente","province":"ZAMORA","postalCode":"49600","schedule":"L-D: 24H","fuels":{"diesel":1.749,"adblue":0.829},"extra":{"saleType":"P","margin":"D","reportingType":"dm","ideess":"9239","idMunicipio":"7588","idProvincia":"49","idCCAA":"08"}}},{"type":"Feature","geometry":{"type":"Point","coordinates":[-5.770611,41.474972]},"properties":{"id":"es-9451","source":"ES","brand":"CEPSA","address":"CARRETERA LEDESMA KM. 0,300","municipality":"Zamora","province":"ZAMORA","postalCode":"49030","schedule":"L-D: 06:00-22:00","fuels":{"gasoline95":1.724,"diesel":1.794,"dieselPremium":1.874,"adblue":1.09},"extra":{"saleType":"P","margin":"D","reportingType":"dm","ideess":"9451","idMunicipio":"7816","idProvincia":"49","idCCAA":"08"}}},{"type":"Feature","geometry":{"type":"Point","coordinates":[-5.657472,41.992111]},"properties":{"id":"es-9485","source":"ES","brand":"AGROPAL","address":"CALLE CUBA, SN","municipality":"Benavente","province":"ZAMORA","postalCode":"49600","schedule":"L-D: 24H","fuels":{"diesel":1.617,"dieselB":1.434},"extra":{"saleType":"P","margin":"N","reportingType":"dm","ideess":"9485","idMunicipio":"7588","idProvincia":"49","idCCAA":"08"}}},{"type":"Feature","geometry":{"type":"Point","coordinates":[-5.716722,41.863222]},"properties":{"id":"es-9501","source":"ES","brand":"AGROPAL","address":"N-630 km 197","municipality":"Santovenia","province":"ZAMORA","postalCode":"49750","schedule":"L-V: 09:00-13:30 y 16:00-18:30; S: 09:00-13:30","fuels":{"dieselB":1.434},"extra":{"saleType":"P","margin":"D","reportingType":"dm","ideess":"9501","idMunicipio":"7759","idProvincia":"49","idCCAA":"08"}}},{"type":"Feature","geometry":{"type":"Point","coordinates":[-5.785417,41.952917]},"properties":{"id":"es-9527","source":"ES","brand":"MOZAR ENERGIA","address":"CARRETERA LITOS-STA.CRISTINA KM. 23","municipality":"Villanázar","province":"ZAMORA","postalCode":"49698","schedule":"L-D: 24H","fuels":{"gasoline95":1.699,"gasoline98":1.839,"diesel":1.809,"dieselPremium":1.909},"extra":{"saleType":"P","margin":"D","reportingType":"dm","ideess":"9527","idMunicipio":"7798","idProvincia":"49","idCCAA":"08"}}},{"type":"Feature","geometry":{"type":"Point","coordinates":[-5.330722,41.738778]},"properties":{"id":"es-9832","source":"ES","brand":"AGROPAL","address":"CAMINO TORREJON S/N","municipality":"San Pedro de Latarce","province":"VALLADOLID","postalCode":"47851","schedule":"L-D: 24H","fuels":{"diesel":1.617,"dieselB":1.433},"extra":{"saleType":"P","margin":"N","reportingType":"dm","ideess":"9832","idMunicipio":"7374","idProvincia":"47","idCCAA":"08"}}}]}