{"type":"FeatureCollection","features":[{"type":"Feature","geometry":{"type":"Point","coordinates":[-2.597556,43.170556]},"properties":{"id":"es-1","source":"ES","brand":"EUSKOIL-STAR PETROLEUM","address":"CTRA.FORAL BI-633 km 32,3","municipality":"Abadiño","province":"BIZKAIA","postalCode":"48220","schedule":"L: 07:00-22:00","fuels":{"gasoline95":1.744,"gasoline98":1.924,"diesel":1.879,"dieselPremium":1.939},"extra":{"saleType":"P","margin":"N","reportingType":"dm","ideess":"1","idMunicipio":"7457","idProvincia":"48","idCCAA":"16"}}},{"type":"Feature","geometry":{"type":"Point","coordinates":[-2.259444,43.241444]},"properties":{"id":"es-10","source":"ES","brand":"E.S. ZESTOA-AVIA","address":"CARRETERA GI-631 KM. 5,00","municipality":"Zestoa","province":"GIPUZKOA","postalCode":"20740","schedule":"L-S: 07:00-21:00; D: 07:00-14:00","fuels":{"gasoline95":1.779,"gasoline98":1.879,"diesel":1.869},"extra":{"saleType":"P","margin":"D","reportingType":"dm","ideess":"10","idMunicipio":"3211","idProvincia":"20","idCCAA":"16"}}},{"type":"Feature","geometry":{"type":"Point","coordinates":[-2.420639,43.039917]},"properties":{"id":"es-101","source":"ES","brand":"PETRONOR","address":"CARRETERA GI-2630 KM. 17,9","municipality":"Oñati","province":"GIPUZKOA","postalCode":"20560","schedule":"L-D: 06:00-22:00","fuels":{"gasoline95":1.799,"gasoline98":1.969,"diesel":1.969,"dieselPremium":2.079,"dieselB":1.734},"extra":{"saleType":"P","margin":"I","reportingType":"OM","ideess":"101","idMunicipio":"3193","idProvincia":"20","idCCAA":"16"}}},{"type":"Feature","geometry":{"type":"Point","coordinates":[-2.264111,43.284889]},"properties":{"id":"es-10106","source":"ES","brand":"MOEVE","address":"CRTRA.N-634 km 29,700","municipality":"Zumaia","province":"GIPUZKOA","postalCode":"20750","schedule":"L-D: 06:00-22:00","fuels":{"gasoline95":1.834,"gasoline98":1.974,"diesel":2.004,"dieselPremium":2.104},"extra":{"saleType":"P","margin":"D","reportingType":"OM","ideess":"10106","idMunicipio":"3213","idProvincia":"20","idCCAA":"16"}}},{"type":"Feature","geometry":{"type":"Point","coordinates":[-2.265583,43.284583]},"properties":{"id":"es-10107","source":"ES","brand":"MOEVE","address":"CRTRA.N-634 km 29.700","municipality":"Zumaia","province":"GIPUZKOA","postalCode":"20750","schedule":"L-V: 08:00-20:00","fuels":{"gasoline95":1.834,"gasoline98":1.974,"diesel":2.004,"dieselPremium":2.104},"extra":{"saleType":"P","margin":"I","reportingType":"OM","ideess":"10107","idMunicipio":"3213","idProvincia":"20","idCCAA":"16"}}},{"type":"Feature","geometry":{"type":"Point","coordinates":[-2.835083,43.336472]},"properties":{"id":"es-10243","source":"ES","brand":"GAMIZ","address":"CARRETERA BI-3102 KM. 18,000","municipality":"Mungia","province":"BIZKAIA","postalCode":"48100","schedule":"L-V: 06:20-22:00; S-D: 7:10-22:00","fuels":{"gasoline95":1.819,"gasoline98":1.929,"diesel":1.889,"dieselB":1.649},"extra":{"saleType":"P","margin":"I","reportingType":"dm","ideess":"10243","idMunicipio":"7537","idProvincia":"48","idCCAA":"16"}}},{"type":"Feature","geometry":{"type":"Point","coordinates":[-2.791056,43.23175]},"properties":{"id":"es-10244","source":"ES","brand":"EASYGAS","address":"CARRETERA N-634 KM. 96,700","municipality":"Galdakao","province":"BIZKAIA","postalCode":"48960","schedule":"L-D: 24H","fuels":{"gasoline95":1.619,"diesel":1.739,"dieselPremium":1.739,"adblue":0.949},"extra":{"saleType":"P","margin":"D","reportingType":"dm","ideess":"10244","idMunicipio":"7500","idProvincia":"48","idCCAA":"16"}}},{"type":"Feature","geometry":{"type":"Point","coordinates":[-2.034417,43.206667]},"properties":{"id":"es-10340","source":"ES","brand":"PETROMIRALLES","address":"POL. IND. KARRIKA. PARCELA 6","municipality":"Andoain","province":"GIPUZKOA","postalCode":"20140","schedule":"L-D: 24H","fuels":{"gasoline95":1.689,"gasoline98":1.789,"diesel":1.819,"dieselPremium":1.849,"dieselB":1.659,"adblue":0.789},"extra":{"saleType":"P","margin":"N","reportingType":"dm","ideess":"10340","idMunicipio":"3137","idProvincia":"20","idCCAA":"16"}}},{"type":"Feature","geometry":{"type":"Point","coordinates":[-2.291139,43.178083]},"properties":{"id":"es-10656","source":"ES","brand":"URKIDE","address":"POLIGONO BASARTE, 6","municipality":"Azpeitia","province":"GIPUZKOA","postalCode":"20730","schedule":"L-D: 24H","fuels":{"gasoline95":1.699,"gasoline98":1.869,"diesel":1.769,"dieselPremium":1.859},"extra":{"saleType":"P","margin":"D","reportingType":"dm","ideess":"10656","idMunicipio":"3147","idProvincia":"20","idCCAA":"16"}}},{"type":"Feature","geometry":{"type":"Point","coordinates":[-2.661972,43.063139]},"properties":{"id":"es-10848","source":"ES","brand":"URKIOIL","address":"CARRETERA FORAL BI-VI ,623 KM. 44","municipality":"Otxandio","province":"BIZKAIA","postalCode":"48210","schedule":"L-D: 06:00-22:00","fuels":{"gasoline95":1.739,"gasoline98":1.739,"diesel":1.829,"dieselPremium":1.887,"lpg":1.129,"adblue":0.969},"extra":{"saleType":"P","margin":"D","reportingType":"dm","ideess":"10848","idMunicipio":"7546","idProvincia":"48","idCCAA":"16"}}},{"type":"Feature","geometry":{"type":"Point","coordinates":[-2.92425,43.247694]},"properties":{"id":"es-10889","source":"ES","brand":"REPSOL","address":"VIADUCTO MIRAFLORES LARREAGABURU, 1","municipality":"Bilbao","province":"BIZKAIA","postalCode":"48003","schedule":"L-V: 06:00-22:00; S-D: 08:00-22:00","fuels":{"gasoline95":1.825,"gasoline98":1.945,"gasolineRenewable":1.945,"diesel":1.959,"dieselRenewable":2.079},"extra":{"saleType":"P","margin":"I","reportingType":"OM","ideess":"10889","idMunicipio":"7484","idProvincia":"48","idCCAA":"16"}}},{"type":"Feature","geometry":{"type":"Point","coordinates":[-2.924778,43.248472]},"properties":{"id":"es-10890","source":"ES","brand":"REPSOL","address":"VIADUCTO MIRAFLORES LARREAGABURU, 2","municipality":"Bilbao","province":"BIZKAIA","postalCode":"48003","schedule":"L-D: 24H","fuels":{"gasoline95":1.829,"gasoline95Premium":1.909,"gasoline98":1.949,"diesel":1.965,"dieselRenewable":2.085},"extra":{"saleType":"P","margin":"D","reportingType":"OM","ideess":"10890","idMunicipio":"7484","idProvincia":"48","idCCAA":"16"}}},{"type":"Feature","geometry":{"type":"Point","coordinates":[-2.503472,43.34525]},"properties":{"id":"es-10914","source":"ES","brand":"EPERMENDI","address":"CARRETERA OLETA KM. 64","municipality":"Lekeitio","province":"BIZKAIA","postalCode":"48280","schedule":"L-V: 06:00-22:00; S-D: 08:00-22:00","fuels":{"gasoline95":1.819,"diesel":1.939,"dieselB":1.669},"extra":{"saleType":"P","margin":"D","reportingType":"dm","ideess":"10914","idMunicipio":"7523","idProvincia":"48","idCCAA":"16"}}},{"type":"Feature","geometry":{"type":"Point","coordinates":[-2.02525,43.247361]},"properties":{"id":"es-110","source":"ES","brand":"MOEVE","address":"AUTOVIA A-1 KM. 454,600","municipality":"Donostia-San Sebastián","province":"GIPUZKOA","postalCode":"20160","schedule":"L-D: 24H","fuels":{"gasoline95":1.834,"gasoline95Premium":1.934,"diesel":2.004,"dieselPremium":2.104},"extra":{"saleType":"P","margin":"I","reportingType":"OM","ideess":"110","idMunicipio":"3157","idProvincia":"20","idCCAA":"16"}}},{"type":"Feature","geometry":{"type":"Point","coordinates":[-2.781,43.134111]},"properties":{"id":"es-11093","source":"ES","brand":"ARTEA OIL , S.A.","address":"CRTA. N-240 BILBAO - VITORIA (N-240 km 26)","municipality":"Artea","province":"BIZKAIA","postalCode":"48142","schedule":"L-D: 06:00-22:00","fuels":{"gasoline95":1.719,"gasoline98":1.829,"diesel":1.819,"dieselB":1.539,"adblue":0.93},"extra":{"saleType":"P","margin":"D","reportingType":"dm","ideess":"11093","idMunicipio":"7470","idProvincia":"48","idCCAA":"16"}}},{"type":"Feature","geometry":{"type":"Point","coordinates":[-2.000944,43.277667]},"properties":{"id":"es-111","source":"ES","brand":"PETRONOR","address":"CR GI-2132, 0,4","municipality":"Hernani","province":"GIPUZKOA","postalCode":"20120","schedule":"L-V: 06:00-22:00","fuels":{"gasoline95":1.805,"gasoline98":1.975,"diesel":1.999,"dieselRenewable":2.119},"extra":{"saleType":"P","margin":"D","reportingType":"OM","ideess":"111","idMunicipio":"3170","idProvincia":"20","idCCAA":"16"}}},{"type":"Feature","geometry":{"type":"Point","coordinates":[-2.067083,43.165917]},"properties":{"id":"es-11109","source":"ES","brand":"GASOLEOA","address":"POLIGONO POLIGONO IBAI-ONDO, 14","municipality":"Irura","province":"GIPUZKOA","postalCode":"20271","schedule":"L-S: 08:00-12:30 y 15:00-19:30","fuels":{"diesel":1.889},"extra":{"saleType":"P","margin":"D","reportingType":"dm","ideess":"11109","idMunicipio":"3177","idProvincia":"20","idCCAA":"16"}}},{"type":"Feature","geometry":{"type":"Point","coordinates":[-2.686944,43.2965]},"properties":{"id":"es-11144","source":"ES","brand":"AVIA","address":"CTRA. GERNIKA-AMOREBIETA km KM 1,5","municipality":"Gernika-Lumo","province":"BIZKAIA","postalCode":"48300","schedule":"L-V: 06:00-22:00; S-D: 07:00-21:00","fuels":{"gasoline95":1.619,"gasoline98":1.719,"diesel":1.739},"extra":{"saleType":"P","margin":"D","reportingType":"dm","ideess":"11144","idMunicipio":"7506","idProvincia":"48","idCCAA":"16"}}},{"type":"Feature","geometry":{"type":"Point","coordinates":[-2.001361,43.278056]},"properties":{"id":"es-112","source":"ES","brand":"PETRONOR","address":"CR  GI-2132 P.K. 0,4 M.I.","municipality":"Hernani","province":"GIPUZKOA","postalCode":"20120","schedule":"L-D: 06:00-22:00","fuels":{"gasoline95":1.805,"gasoline98":1.975,"diesel":1.999,"dieselRenewable":2.119},"extra":{"saleType":"P","margin":"I","reportingType":"OM","ideess":"112","idMunicipio":"3170","idProvincia":"20","idCCAA":"16"}}},{"type":"Feature","geometry":{"type":"Point","coordinates":[-2.40875,43.219167]},"properties":{"id":"es-115","source":"ES","brand":"REPSOL","address":"CALLE DEBA, 21","municipality":"Elgoibar","province":"GIPUZKOA","postalCode":"20870","schedule":"L-D: 06:00-22:00","fuels":{"gasoline95":1.779,"gasoline98":1.919,"diesel":1.899,"dieselRenewable":2.019,"adblue":1.109},"extra":{"saleType":"P","margin":"I","reportingType":"dm","ideess":"115","idMunicipio":"3161","idProvincia":"20","idCCAA":"16"}}},{"type":"Feature","geometry":{"type":"Point","coordinates":[-2.216667,43.038889]},"properties":{"id":"es-11741","source":"ES","brand":"AVIA","address":"CARRETERA NACIONAL N-1 (IRUN-MADRID) KM. 417","municipality":"Olaberria","province":"GIPUZKOA","postalCode":"20212","schedule":"L-D: 24H","fuels":{"gasoline95":1.749,"gasoline98":1.919,"diesel":1.879,"lpg":0.899,"adblue":0.899},"extra":{"saleType":"P","margin":"D","reportingType":"dm","ideess":"11741","idMunicipio":"3192","idProvincia":"20","idCCAA":"16"}}},{"type":"Feature","geometry":{"type":"Point","coordinates":[-2.274028,43.273556]},"properties":{"id":"es-11754","source":"ES","brand":"AVIA","address":"POLIGONO SANSINENEA ERREKA, 14","municipality":"Zestoa","province":"GIPUZKOA","postalCode":"20749","schedule":"L-V: 08:30-20:00; S: 09:00-14:00","fuels":{"gasoline95":1.659,"diesel":1.789},"extra":{"saleType":"P","margin":"N","reportingType":"dm","ideess":"11754","idMunicipio":"3211","idProvincia":"20","idCCAA":"16"}}},{"type":"Feature","geometry":{"type":"Point","coordinates":[-2.158833,43.284944]},"properties":{"id":"es-118","source":"ES","brand":"REPSOL","address":"CALLE GIPUZKOA, 59","municipality":"Zarautz","province":"GIPUZKOA","postalCode":"20800","schedule":"L-D: 24H","fuels":{"gasoline95":1.819,"gasoline98":1.949,"diesel":1.969,"dieselPremium":2.039},"extra":{"saleType":"P","margin":"I","reportingType":"dm","ideess":"118","idMunicipio":"3208","idProvincia":"20","idCCAA":"16"}}},{"type":"Feature","geometry":{"type":"Point","coordinates":[-2.9305,43.408083]},"properties":{"id":"es-11884","source":"ES","brand":"EROSKI","address":"POLIGONO SAGASTIKOETXE, S/N","municipality":"Gorliz","province":"BIZKAIA","postalCode":"48630","schedule":"L-D: 24H","fuels":{"gasoline95":1.629,"diesel":1.729,"dieselPremium":1.829},"extra":{"saleType":"P","margin":"D","reportingType":"dm","ideess":"11884","idMunicipio":"7510","idProvincia":"48","idCCAA":"16"}}},{"type":"Feature","geometry":{"type":"Point","coordinates":[-2.671,43.186278]},"properties":{"id":"es-12","source":"ES","brand":"SHELL","address":"CARRETERA N-634 KM. 84","municipality":"Iurreta","province":"BIZKAIA","postalCode":"48215","schedule":"L-D: 24H","fuels":{"gasoline95":1.785,"gasoline98":1.925,"diesel":1.929,"dieselPremium":2.009,"adblue":1.25},"extra":{"saleType":"P","margin":"D","reportingType":"OM","ideess":"12","idMunicipio":"7515","idProvincia":"48","idCCAA":"16"}}},{"type":"Feature","geometry":{"type":"Point","coordinates":[-2.900389,43.306083]},"properties":{"id":"es-12025","source":"ES","brand":"AVIA  USOA","address":"POLIGONO ZONA COMERCIAL AEROPUERTO LOIU, 9","municipality":"Derio","province":"BIZKAIA","postalCode":"48160","schedule":"L-V: 12:00-14:00","fuels":{"gasoline95":1.855,"gasoline98":1.899,"diesel":1.895,"dieselPremium":2.019,"lpg":1.075,"adblue":1.199},"extra":{"saleType":"P","margin":"N","reportingType":"dm","ideess":"12025","idMunicipio":"7486","idProvincia":"48","idCCAA":"16"}}},{"type":"Feature","geometry":{"type":"Point","coordinates":[-2.055778,43.178611]},"properties":{"id":"es-121","source":"ES","brand":"REPSOL","address":"CARRETERA NACIONAL 1 KM. 445","municipality":"Villabona","province":"GIPUZKOA","postalCode":"20150","schedule":"L-D: 24H","fuels":{"gasoline95":1.809,"gasoline98":1.949,"diesel":1.929,"dieselPremium":2.009,"dieselB":1.749,"adblue":1.249},"extra":{"saleType":"P","margin":"I","reportingType":"dm","ideess":"121","idMunicipio":"3206","idProvincia":"20","idCCAA":"16"}}},{"type":"Feature","geometry":{"type":"Point","coordinates":[-2.476111,43.063333]},"properties":{"id":"es-12158","source":"ES","brand":"REPSOL","address":"AUTOPISTA AP-1 KM. 129","municipality":"Arrasate/Mondragón","province":"GIPUZKOA","postalCode":"20500","schedule":"L-D: 24H","fuels":{"gasoline95":1.819,"gasoline98":1.939,"diesel":1.985,"dieselPremium":2.045,"lpg":1.175},"extra":{"saleType":"P","margin":"D","reportingType":"OM","ideess":"12158","idMunicipio":"3142","idProvincia":"20","idCCAA":"16"}}},{"type":"Feature","geometry":{"type":"Point","coordinates":[-2.535278,43.016944]},"properties":{"id":"es-12159","source":"ES","brand":"REPSOL","address":"AUTOPISTA AP-1 KM. 121,500","municipality":"Eskoriatza","province":"GIPUZKOA","postalCode":"20540","schedule":"L-D: 24H","fuels":{"gasoline95":1.819,"gasoline98":1.939,"diesel":1.985,"dieselPremium":2.045,"lpg":1.169},"extra":{"saleType":"P","margin":"I","reportingType":"OM","ideess":"12159","idMunicipio":"3164","idProvincia":"20","idCCAA":"16"}}},{"type":"Feature","geometry":{"type":"Point","coordinates":[-2.838194,43.227389]},"properties":{"id":"es-12350","source":"ES","brand":"REPSOL","address":"CARRETERA N-634 KM. 101,8","municipality":"Galdakao","province":"BIZKAIA","postalCode":"48960","schedule":"L-V: 06:00-22:00; S-D: 08:00-22:00","fuels":{"gasoline95":1.839,"gasoline98":1.959,"diesel":1.975,"dieselRenewable":2.095},"extra":{"saleType":"P","margin":"I","reportingType":"OM","ideess":"12350","idMunicipio":"7500","idProvincia":"48","idCCAA":"16"}}},{"type":"Feature","geometry":{"type":"Point","coordinates":[-2.000389,43.232028]},"properties":{"id":"es-12647","source":"ES","brand":"MOEVE","address":"POLIGONO INDUSTRIAL LEIZOTZ, PARCELA A-1, N","municipality":"Andoain","province":"GIPUZKOA","postalCode":"20140","schedule":"L-D: 06:00-22:00","fuels":{"gasoline95":1.834,"gasoline95Premium":1.934,"diesel":2.004,"dieselPremium":2.104},"extra":{"saleType":"P","margin":"D","reportingType":"OM","ideess":"12647","idMunicipio":"3137","idProvincia":"20","idCCAA":"16"}}},{"type":"Feature","geometry":{"type":"Point","coordinates":[-2.792667,43.231972]},"properties":{"id":"es-12821","source":"ES","brand":"ZELAI LUZEA","address":"CARRETERA N 634 KM. 96,700","municipality":"Galdakao","province":"BIZKAIA","postalCode":"48960","schedule":"L-V: 06:00-22:00; S-D: 08:00-22:00","fuels":{"gasoline95":1.619,"diesel":1.739,"adblue":0.949},"extra":{"saleType":"P","margin":"I","reportingType":"dm","ideess":"12821","idMunicipio":"7500","idProvincia":"48","idCCAA":"16"}}},{"type":"Feature","geometry":{"type":"Point","coordinates":[-2.039361,43.200806]},"properties":{"id":"es-12977","source":"ES","brand":"MOEVE","address":"CARRETERA A-1 KM. 443","municipality":"Villabona","province":"GIPUZKOA","postalCode":"20150","schedule":"L-D: 06:00-22:00","fuels":{"gasoline95":1.834,"gasoline95Premium":1.934,"diesel":2.004,"dieselPremium":2.104,"dieselB":1.834,"lpg":1.199},"extra":{"saleType":"P","margin":"I","reportingType":"OM","ideess":"12977","idMunicipio":"3206","idProvincia":"20","idCCAA":"16"}}},{"type":"Feature","geometry":{"type":"Point","coordinates":[-2.423889,43.125833]},"properties":{"id":"es-130","source":"ES","brand":"REPSOL","address":"CALLE AMILLAGA, 17","municipality":"Bergara","province":"GIPUZKOA","postalCode":"20570","schedule":"L-D: 06:00-22:00","fuels":{"gasoline95":1.799,"gasoline98":1.969,"diesel":1.969,"dieselRenewable":2.089},"extra":{"saleType":"P","margin":"D","reportingType":"OM","ideess":"130","idMunicipio":"3153","idProvincia":"20","idCCAA":"16"}}},{"type":"Feature","geometry":{"type":"Point","coordinates":[-2.839833,43.354389]},"properties":{"id":"es-13459","source":"ES","brand":"ALCAMPO","address":"CALLE ARITZ BIDEA, S/N","municipality":"Mungia","province":"BIZKAIA","postalCode":"48100","schedule":"L-S: 06:00-23:00; D: 08:00-22:20","fuels":{"gasoline95":1.599,"diesel":1.699,"dieselPremium":1.719},"extra":{"saleType":"P","margin":"N","reportingType":"dm","ideess":"13459","idMunicipio":"7537","idProvincia":"48","idCCAA":"16"}}},{"type":"Feature","geometry":{"type":"Point","coordinates":[-2.66125,43.182722]},"properties":{"id":"es-13500","source":"ES","brand":"ARRIBIDE","address":"POLIGONO ARRIANDI, 1","municipality":"Iurreta","province":"BIZKAIA","postalCode":"48215","schedule":"L-D: 06:30-22:30","fuels":{"gasoline95":1.639,"gasoline98":1.749,"diesel":1.759,"dieselPremium":1.859,"adblue":0.629},"extra":{"saleType":"P","margin":"D","reportingType":"dm","ideess":"13500","idMunicipio":"7515","idProvincia":"48","idCCAA":"16"}}},{"type":"Feature","geometry":{"type":"Point","coordinates":[-2.562639,43.130194]},"properties":{"id":"es-13503","source":"ES","brand":"EROSKI","address":"BARRIO SAN AGUSTIN, S/N","municipality":"Elorrio","province":"BIZKAIA","postalCode":"48230","schedule":"L-D: 07:00-19:00","fuels":{"gasoline95":1.619,"diesel":1.699,"adblue":0.773},"extra":{"saleType":"P","margin":"N","reportingType":"dm","ideess":"13503","idMunicipio":"7491","idProvincia":"48","idCCAA":"16"}}},{"type":"Feature","geometry":{"type":"Point","coordinates":[-2.406556,43.107861]},"properties":{"id":"es-13520","source":"ES","brand":"AVIA","address":"CALLE URTEAGA, 28","municipality":"Bergara","province":"GIPUZKOA","postalCode":"20570","schedule":"L-D: 24H","fuels":{"gasoline95":1.769,"gasoline98":1.889,"diesel":1.939,"dieselPremium":1.989,"lpg":0.899,"adblue":0.899},"extra":{"saleType":"P","margin":"N","reportingType":"dm","ideess":"13520","idMunicipio":"3153","idProvincia":"20","idCCAA":"16"}}},{"type":"Feature","geometry":{"type":"Point","coordinates":[-2.989111,43.044333]},"properties":{"id":"es-13543","source":"ES","brand":"ESTACIONES GB","address":"POLIGONO ZANKUETA, 0","municipality":"Amurrio","province":"ARABA/ÁLAVA","postalCode":"01468","schedule":"L-D: 24H","fuels":{"gasoline95":1.639,"gasoline98":1.749,"diesel":1.759,"dieselPremium":1.819,"adblue":0.89},"extra":{"saleType":"P","margin":"D","reportingType":"dm","ideess":"13543","idMunicipio":"2","idProvincia":"01","idCCAA":"16"}}},{"type":"Feature","geometry":{"type":"Point","coordinates":[-2.425306,43.122694]},"properties":{"id":"es-13788","source":"ES","brand":"EROSKI","address":"CALLE LEIZEAGA, 7","municipality":"Bergara","province":"GIPUZKOA","postalCode":"20570","schedule":"L-D: 24H","fuels":{"gasoline95":1.697,"diesel":1.779},"extra":{"saleType":"P","margin":"N","reportingType":"dm","ideess":"13788","idMunicipio":"3153","idProvincia":"20","idCCAA":"16"}}},{"type":"Feature","geometry":{"type":"Point","coordinates":[-2.0925,43.116917]},"properties":{"id":"es-138","source":"ES","brand":"REPSOL","address":"CR N-1, 432,5","municipality":"Tolosa","province":"GIPUZKOA","postalCode":"20400","schedule":"L-D: 24H","fuels":{"gasoline95":1.815,"diesel":1.979,"dieselB":1.77,"lpg":1.189},"extra":{"saleType":"P","margin":"I","reportingType":"OM","ideess":"138","idMunicipio":"3202","idProvincia":"20","idCCAA":"16"}}},{"type":"Feature","geometry":{"type":"Point","coordinates":[-2.227278,43.048222]},"properties":{"id":"es-139","source":"ES","brand":"REPSOL","address":"CR GI-632  BEASAIN-DURANGO, 1,7","municipality":"Beasain","province":"GIPUZKOA","postalCode":"20200","schedule":"L-V: 06:00-22:00; S-D: 08:00-21:00","fuels":{"gasoline95":1.815,"gasoline98":1.985,"diesel":1.985,"dieselPremium":2.065,"lpg":1.169},"extra":{"saleType":"P","margin":"I","reportingType":"OM","ideess":"139","idMunicipio":"3149","idProvincia":"20","idCCAA":"16"}}},{"type":"Feature","geometry":{"type":"Point","coordinates":[-2.851,43.276028]},"properties":{"id":"es-13988","source":"ES","brand":"Z2OIL","address":"POLIGONO LA CRUZ P-2, 7","municipality":"Zamudio","province":"BIZKAIA","postalCode":"48170","schedule":"L-V: 06:00-22:00; S-D: 08:30-20:30","fuels":{"gasoline95":1.599,"diesel":1.729,"adblue":0.98},"extra":{"saleType":"P","margin":"N","reportingType":"dm","ideess":"13988","idMunicipio":"7563","idProvincia":"48","idCCAA":"16"}}},{"type":"Feature","geometry":{"type":"Point","coordinates":[-2.4975,43.048694]},"properties":{"id":"es-14","source":"ES","brand":"AVIA","address":"SAN ANDRÉS AUZOA, 7 (BERGARA-VITORIA C-6213 km 80,3)","municipality":"Arrasate/Mondragón","province":"GIPUZKOA","postalCode":"20500","schedule":"L-D: 05:00-23:00","fuels":{"gasoline95":1.699,"gasoline98":1.819,"diesel":1.799,"dieselPremium":1.839,"lpg":0.929,"adblue":1.065},"extra":{"saleType":"P","margin":"I","reportingType":"dm","ideess":"14","idMunicipio":"3142","idProvincia":"20","idCCAA":"16"}}},{"type":"Feature","geometry":{"type":"Point","coordinates":[-2.156194,43.078861]},"properties":{"id":"es-140","source":"ES","brand":"REPSOL","address":"CARRETERA NACIONAL 1 KM. 425","municipality":"Legorreta","province":"GIPUZKOA","postalCode":"20250","schedule":"L-D: 24H","fuels":{"gasoline95":1.809,"gasoline98":1.949,"diesel":1.929,"dieselPremium":2.009,"dieselB":1.749,"adblue":1.249},"extra":{"saleType":"P","margin":"I","reportingType":"dm","ideess":"140","idMunicipio":"3184","idProvincia":"20","idCCAA":"16"}}},{"type":"Feature","geometry":{"type":"Point","coordinates":[-2.595917,43.166306]},"properties":{"id":"es-14015","source":"ES","brand":"EUSKADILOWCOST","address":"CARRETERA 634 PK 77,310 KM  DONOSTIA/SAN SEBASTAIN A SANTANDER Y LA CORUÑA POL IND EITUA Nº71 KM. 77,310","municipality":"Berriz","province":"BIZKAIA","postalCode":"48249","schedule":"L-D: 24H","fuels":{"gasoline95":1.657,"diesel":1.658,"adblue":0.877},"extra":{"saleType":"P","margin":"D","reportingType":"dm","ideess":"14015","idMunicipio":"7483","idProvincia":"48","idCCAA":"16"}}},{"type":"Feature","geometry":{"type":"Point","coordinates":[-2.129028,43.274111]},"properties":{"id":"es-14195","source":"ES","brand":"PETROPRIX","address":"CALLE UBEGUN INDUSTRIGUNEA, 1","municipality":"Aia","province":"GIPUZKOA","postalCode":"20809","schedule":"L-D: 24H","fuels":{"gasoline95":1.689,"diesel":1.819},"extra":{"saleType":"P","margin":"I","reportingType":"dm","ideess":"14195","idMunicipio":"3129","idProvincia":"20","idCCAA":"16"}}},{"type":"Feature","geometry":{"type":"Point","coordinates":[-2.872639,43.286]},"properties":{"id":"es-14197","source":"ES","brand":"PETROPRIX","address":"POLIGONO UGALDEGUREN, 25","municipality":"Zamudio","province":"BIZKAIA","postalCode":"48170","schedule":"L-D: 24H","fuels":{"gasoline95":1.545,"diesel":1.665},"extra":{"saleType":"P","margin":"I","reportingType":"dm","ideess":"14197","idMunicipio":"7563","idProvincia":"48","idCCAA":"16"}}},{"type":"Feature","geometry":{"type":"Point","coordinates":[-2.996639,43.372528]},"properties":{"id":"es-14281","source":"ES","brand":"REPSOL","address":"CALLE KISKENE, 1","municipality":"Berango","province":"BIZKAIA","postalCode":"48640","schedule":"L-D: 07:00-22:00","fuels":{"gasoline95":1.825,"gasoline95Premium":1.895,"gasoline98":1.945,"diesel":1.955,"dieselRenewable":2.075,"lpg":1.189},"extra":{"saleType":"P","margin":"N","reportingType":"OM","ideess":"14281","idMunicipio":"7480","idProvincia":"48","idCCAA":"16"}}},{"type":"Feature","geometry":{"type":"Point","coordinates":[-2.002528,43.301083]},"properties":{"id":"es-143","source":"ES","brand":"REPSOL","address":"CL DE ZARAUTZ , 136","municipality":"Donostia-San Sebastián","province":"GIPUZKOA","postalCode":"20018","schedule":"L-D: 06:00-22:00","fuels":{"gasoline95":1.799,"gasoline98":1.929,"diesel":1.989,"dieselRenewable":2.109},"extra":{"saleType":"P","margin":"D","reportingType":"OM","ideess":"143","idMunicipio":"3157","idProvincia":"20","idCCAA":"16"}}},{"type":"Feature","geometry":{"type":"Point","coordinates":[-2.785444,43.210917]},"properties":{"id":"es-14345","source":"ES","brand":"EUSKADILOWCOST","address":"POLIGONO P.P.I. MENDIETA POZUETA PARCELA,5 POLIGONO II, 5","municipality":"Lemoa","province":"BIZKAIA","postalCode":"48330","schedule":"L-D: 24H","fuels":{"gasoline95":1.637,"diesel":1.737,"adblue":0.777},"extra":{"saleType":"P","margin":"D","reportingType":"dm","ideess":"14345","idMunicipio":"7524","idProvincia":"48","idCCAA":"16"}}},{"type":"Feature","geometry":{"type":"Point","coordinates":[-2.49875,43.048472]},"properties":{"id":"es-14359","source":"ES","brand":"GALP","address":"BARRIO SAN ANDRES AUZOA, 7","municipality":"Arrasate/Mondragón","province":"GIPUZKOA","postalCode":"20500","schedule":"L-D: 07:00-22:00","fuels":{"gasoline95":1.749,"diesel":1.809,"dieselPremium":1.859,"adblue":0.799},"extra":{"saleType":"P","margin":"D","reportingType":"OM","ideess":"14359","idMunicipio":"3142","idProvincia":"20","idCCAA":"16"}}},{"type":"Feature","geometry":{"type":"Point","coordinates":[-2.194806,43.045278]},"properties":{"id":"es-144","source":"ES","brand":"REPSOL","address":"CR  N-1 ,P.K. 419","municipality":"Beasain","province":"GIPUZKOA","postalCode":"20200","schedule":"L-D: 24H","fuels":{"gasoline95":1.799,"gasoline98":1.969,"diesel":1.939,"dieselPremium":2.029,"dieselB":1.659},"extra":{"saleType":"P","margin":"D","reportingType":"dm","ideess":"144","idMunicipio":"3149","idProvincia":"20","idCCAA":"16"}}},{"type":"Feature","geometry":{"type":"Point","coordinates":[-2.179528,43.051694]},"properties":{"id":"es-14450","source":"ES","brand":"EROSKI","address":"CALLE SAN BARTOLOMÉ, 7","municipality":"Ordizia","province":"GIPUZKOA","postalCode":"20240","schedule":"L-D: 24H","fuels":{"gasoline95":1.639,"diesel":1.779},"extra":{"saleType":"P","margin":"N","reportingType":"dm","ideess":"14450","idMunicipio":"3194","idProvincia":"20","idCCAA":"16"}}},{"type":"Feature","geometry":{"type":"Point","coordinates":[-2.303167,43.172361]},"properties":{"id":"es-14451","source":"ES","brand":"EROSKI","address":"BARRIO BAZTERRETXE AUZOA, 2","municipality":"Azkoitia","province":"GIPUZKOA","postalCode":"20720","schedule":"L-D: 24H","fuels":{"gasoline95":1.639,"diesel":1.739},"extra":{"saleType":"P","margin":"N","reportingType":"dm","ideess":"14451","idMunicipio":"3146","idProvincia":"20","idCCAA":"16"}}},{"type":"Feature","geometry":{"type":"Point","coordinates":[-2.711528,43.064917]},"properties":{"id":"es-14568","source":"ES","brand":"AUTO ESTACIÓN DE SERVICIO BARAZAR S.A.","address":"CARRETERA 240 KM 126 KM. 126","municipality":"Zeanuri","province":"BIZKAIA","postalCode":"48144","schedule":"L-V: 07:00-20:00; S-D: 08:00-18:00","fuels":{"gasoline95":1.699,"diesel":1.779,"adblue":0.699},"extra":{"saleType":"P","margin":"I","reportingType":"dm","ideess":"14568","idMunicipio":"7565","idProvincia":"48","idCCAA":"16"}}},{"type":"Feature","geometry":{"type":"Point","coordinates":[-2.406611,43.221333]},"properties":{"id":"es-14649","source":"ES","brand":"MLC","address":"CALLE LERUN TXIKI MORTERIKA, 2","municipality":"Elgoibar","province":"GIPUZKOA","postalCode":"20870","schedule":"L-D: 24H","fuels":{"gasoline95":1.759,"gasoline98":1.899,"diesel":1.859,"dieselPremium":1.929,"dieselB":1.599,"lpg":0.999,"adblue":0.899},"extra":{"saleType":"P","margin":"N","reportingType":"dm","ideess":"14649","idMunicipio":"3161","idProvincia":"20","idCCAA":"16"}}},{"type":"Feature","geometry":{"type":"Point","coordinates":[-2.875722,43.23825]},"properties":{"id":"es-14693","source":"ES","brand":"EUSKADILOWCOST","address":"CALLE URBI, 4","municipality":"Basauri","province":"BIZKAIA","postalCode":"48970","schedule":"L-D: 24H","fuels":{"gasoline95":1.657,"diesel":1.737,"adblue":0.877},"extra":{"saleType":"P","margin":"D","reportingType":"dm","ideess":"14693","idMunicipio":"7478","idProvincia":"48","idCCAA":"16"}}},{"type":"Feature","geometry":{"type":"Point","coordinates":[-2.879028,43.240944]},"properties":{"id":"es-14709","source":"ES","brand":"URBI LOW COST","address":"AVENIDA CERVANTES, 51","municipality":"Basauri","province":"BIZKAIA","postalCode":"48970","schedule":"L-D: 24H","fuels":{"gasoline95":1.609,"diesel":1.699,"adblue":0.899},"extra":{"saleType":"P","margin":"D","reportingType":"dm","ideess":"14709","idMunicipio":"7478","idProvincia":"48","idCCAA":"16"}}},{"type":"Feature","geometry":{"type":"Point","coordinates":[-2.856222,43.358917]},"properties":{"id":"es-14915","source":"ES","brand":"EASYGAS","address":"CALLE LAUAXETA OLERKARI, 54","municipality":"Mungia","province":"BIZKAIA","postalCode":"48100","schedule":"L-D: 24H","fuels":{"gasoline95":1.619,"diesel":1.739,"adblue":0.949},"extra":{"saleType":"P","margin":"D","reportingType":"dm","ideess":"14915","idMunicipio":"7537","idProvincia":"48","idCCAA":"16"}}},{"type":"Feature","geometry":{"type":"Point","coordinates":[-2.811417,43.263361]},"properties":{"id":"es-14966","source":"ES","brand":"BIDEKO","address":"POLIGONO PATAKON, 7","municipality":"Larrabetzu","province":"BIZKAIA","postalCode":"48195","schedule":"L: 24H","fuels":{"gasoline95":1.599,"diesel":1.766},"extra":{"saleType":"P","margin":"N","reportingType":"dm","ideess":"14966","idMunicipio":"7520","idProvincia":"48","idCCAA":"16"}}},{"type":"Feature","geometry":{"type":"Point","coordinates":[-2.835556,43.358944]},"properties":{"id":"es-14998","source":"ES","brand":"NAFTE","address":"CALLE BERMEO BIDEA, 17","municipality":"Mungia","province":"BIZKAIA","postalCode":"48100","schedule":"L-D: 24H","fuels":{"gasoline95":1.629,"diesel":1.759,"dieselPremium":1.809,"adblue":0.899},"extra":{"saleType":"P","margin":"D","reportingType":"dm","ideess":"14998","idMunicipio":"7537","idProvincia":"48","idCCAA":"16"}}},{"type":"Feature","geometry":{"type":"Point","coordinates":[-2.898583,43.201194]},"properties":{"id":"es-15","source":"ES","brand":"AVIA AJARTE","address":"AVENIDA AIXARTE, ","municipality":"Arrigorriaga","province":"BIZKAIA","postalCode":"48480","schedule":"L-V: 06:00-22:00; S-D: 07:00-22:00","fuels":{"gasoline95":1.649,"gasoline98":1.719,"diesel":1.849,"dieselPremium":1.889,"dieselB":1.51,"adblue":0.81},"extra":{"saleType":"P","margin":"N","reportingType":"dm","ideess":"15","idMunicipio":"7469","idProvincia":"48","idCCAA":"16"}}},{"type":"Feature","geometry":{"type":"Point","coordinates":[-2.814667,43.411583]},"properties":{"id":"es-150","source":"ES","brand":"AVIA","address":"CR. BI-100 km 25,7","municipality":"Bakio","province":"BIZKAIA","postalCode":"48130","schedule":"L-V: 07:00-22:00; S-D: 08:00-22:00","fuels":{"gasoline95":1.779,"diesel":1.909},"extra":{"saleType":"P","margin":"N","reportingType":"dm","ideess":"150","idMunicipio":"7474","idProvincia":"48","idCCAA":"16"}}},{"type":"Feature","geometry":{"type":"Point","coordinates":[-2.95975,43.380556]},"properties":{"id":"es-15088","source":"ES","brand":"SHELL","address":"POLIGONO IGELTZERA KALEA, 2","municipality":"Urduliz","province":"BIZKAIA","postalCode":"48610","schedule":"L-D: 24H","fuels":{"gasoline95":1.769,"gasoline98":1.909,"diesel":1.899,"dieselPremium":1.979,"adblue":1.25},"extra":{"saleType":"P","margin":"N","reportingType":"OM","ideess":"15088","idMunicipio":"7558","idProvincia":"48","idCCAA":"16"}}},{"type":"Feature","geometry":{"type":"Point","coordinates":[-2.973194,43.317694]},"properties":{"id":"es-151","source":"ES","brand":"EROSKI","address":"AVENIDA IPARRAGUIRRE, 110","municipality":"Leioa","province":"BIZKAIA","postalCode":"48940","schedule":"L-S: 08:00-22:30; D: 09:00-22:30","fuels":{"gasoline95":1.729,"diesel":1.869,"dieselPremium":1.969},"extra":{"saleType":"P","margin":"N","reportingType":"dm","ideess":"151","idMunicipio":"7522","idProvincia":"48","idCCAA":"16"}}},{"type":"Feature","geometry":{"type":"Point","coordinates":[-2.875889,43.2275]},"properties":{"id":"es-152","source":"ES","brand":"EROSKI","address":"POLIGONO ZABALANDI AUZOA, 20","municipality":"Basauri","province":"BIZKAIA","postalCode":"48970","schedule":"L-D: 24H","fuels":{"gasoline95":1.629,"diesel":1.719,"dieselPremium":1.799},"extra":{"saleType":"P","margin":"N","reportingType":"dm","ideess":"152","idMunicipio":"7478","idProvincia":"48","idCCAA":"16"}}},{"type":"Feature","geometry":{"type":"Point","coordinates":[-2.419139,43.210333]},"properties":{"id":"es-15224","source":"ES","brand":"PETROPRIX","address":"CALLE ZIZILION, 3","municipality":"Elgoibar","province":"GIPUZKOA","postalCode":"20870","schedule":"L-D: 07:00-23:00","fuels":{"gasoline95":1.639,"diesel":1.769},"extra":{"saleType":"P","margin":"I","reportingType":"dm","ideess":"15224","idMunicipio":"3161","idProvincia":"20","idCCAA":"16"}}},{"type":"Feature","geometry":{"type":"Point","coordinates":[-2.994389,43.340389]},"properties":{"id":"es-153","source":"ES","brand":"EROSKI","address":"BARRIO PERURI, 38","municipality":"Leioa","province":"BIZKAIA","postalCode":"48940","schedule":"L-D: 24H","fuels":{"gasoline95":1.729,"diesel":1.869,"dieselPremium":1.969},"extra":{"saleType":"P","margin":"N","reportingType":"dm","ideess":"153","idMunicipio":"7522","idProvincia":"48","idCCAA":"16"}}},{"type":"Feature","geometry":{"type":"Point","coordinates":[-2.047694,43.267778]},"properties":{"id":"es-15364","source":"ES","brand":"ALKARTASUNA USURBILGO BASERRITARREN KOOPERATIBA","address":"POLIGONO ATALLU, 26","municipality":"Usurbil","province":"GIPUZKOA","postalCode":"20170","schedule":"L-D: 24H","fuels":{"gasoline95":1.603,"diesel":1.729},"extra":{"saleType":"P","margin":"D","reportingType":"dm","ideess":"15364","idMunicipio":"3205","idProvincia":"20","idCCAA":"16"}}},{"type":"Feature","geometry":{"type":"Point","coordinates":[-2.152194,43.237028]},"properties":{"id":"es-15385","source":"ES","brand":"SI","address":"BARRIO ARRUTIEGIA, 31","municipality":"Aia","province":"GIPUZKOA","postalCode":"20809","schedule":"L-S: 08:00-13:00 y 16:00-20:00","fuels":{"gasoline95":1.769,"diesel":1.909},"extra":{"saleType":"P","margin":"D","reportingType":"dm","ideess":"15385","idMunicipio":"3129","idProvincia":"20","idCCAA":"16"}}},{"type":"Feature","geometry":{"type":"Point","coordinates":[-2.618111,43.171889]},"properties":{"id":"es-155","source":"ES","brand":"EROSKI","address":"BARRIO MURUETA, S/N","municipality":"Abadiño","province":"BIZKAIA","postalCode":"48220","schedule":"L-D: 24H","fuels":{"gasoline95":1.619,"diesel":1.688,"dieselPremium":1.778},"extra":{"saleType":"P","margin":"N","reportingType":"dm","ideess":"155","idMunicipio":"7457","idProvincia":"48","idCCAA":"16"}}},{"type":"Feature","geometry":{"type":"Point","coordinates":[-2.969056,43.249361]},"properties":{"id":"es-15511","source":"ES","brand":"ZABALGARBI GNC","address":"CAMINO ARTIGAS, 10","municipality":"Bilbao","province":"BIZKAIA","postalCode":"48001","schedule":"L: 24H","fuels":{"cng":1.619},"extra":{"saleType":"P","margin":"N","reportingType":"dm","ideess":"15511","idMunicipio":"7484","idProvincia":"48","idCCAA":"16"}}},{"type":"Feature","geometry":{"type":"Point","coordinates":[-2.711167,43.0655]},"properties":{"id":"es-15514","source":"ES","brand":"GUGAS","address":"CARRETERA ALTO DE BARAZAR CN 240 KM. 28","municipality":"Zeanuri","province":"BIZKAIA","postalCode":"48144","schedule":"L-D: 24H","fuels":{"gasoline95":1.699,"diesel":1.779},"extra":{"saleType":"P","margin":"D","reportingType":"dm","ideess":"15514","idMunicipio":"7565","idProvincia":"48","idCCAA":"16"}}},{"type":"Feature","geometry":{"type":"Point","coordinates":[-2.790222,43.210639]},"properties":{"id":"es-15634","source":"ES","brand":"BALLENOIL","address":"POLIGONO INDUSTRIAL MENDIETA-UZKOA, PARCELA II FINCA 1","municipality":"Lemoa","province":"BIZKAIA","postalCode":"48330","schedule":"L-D: 24H","fuels":{"gasoline95":1.669,"diesel":1.769,"dieselPremium":1.779},"extra":{"saleType":"P","margin":"D","reportingType":"OM","ideess":"15634","idMunicipio":"7524","idProvincia":"48","idCCAA":"16"}}},{"type":"Feature","geometry":{"type":"Point","coordinates":[-2.221806,43.027472]},"properties":{"id":"es-15656","source":"ES","brand":"TRANS.O.GUI.COOP.","address":"POLIGONO IÑAUSTI 4B, CRTA NACIONAL I, KM 416, 0","municipality":"Idiazabal","province":"GIPUZKOA","postalCode":"20213","schedule":"L-D: 06:00-22:00","fuels":{"diesel":1.78},"extra":{"saleType":"P","margin":"N","reportingType":"dm","ideess":"15656","idMunicipio":"3174","idProvincia":"20","idCCAA":"16"}}},{"type":"Feature","geometry":{"type":"Point","coordinates":[-2.216917,43.039]},"properties":{"id":"es-15687","source":"ES","brand":"GASOGAS OLABERRIA","address":"CARRETERA N-1 KM. 417","municipality":"Olaberria","province":"GIPUZKOA","postalCode":"20212","schedule":"L-D: 05:30-21:30","fuels":{"cng":1.649,"lng":1.649},"extra":{"saleType":"P","margin":"I","reportingType":"dm","ideess":"15687","idMunicipio":"3192","idProvincia":"20","idCCAA":"16"}}},{"type":"Feature","geometry":{"type":"Point","coordinates":[-2.58525,43.166722]},"properties":{"id":"es-158","source":"ES","brand":"BALLENOIL","address":"CARRETERA N-634 KM. 76,4","municipality":"Berriz","province":"BIZKAIA","postalCode":"48240","schedule":"L-D: 24H","fuels":{"gasoline95":1.609,"gasoline95Premium":1.619,"diesel":1.729,"dieselPremium":1.739},"extra":{"saleType":"P","margin":"I","reportingType":"OM","ideess":"158","idMunicipio":"7483","idProvincia":"48","idCCAA":"16"}}},{"type":"Feature","geometry":{"type":"Point","coordinates":[-2.420611,43.105083]},"properties":{"id":"es-15806","source":"ES","brand":"CEPSA","address":"CALLE TELLERIA - POLIGONO INDUSTRIAL LABEGARAIETA, PARCELA P4 B, 16","municipality":"Bergara","province":"GIPUZKOA","postalCode":"20570","schedule":"L-D: 06:00-22:00","fuels":{"gasoline95":1.834,"gasoline95Premium":1.934,"diesel":2.004,"dieselPremium":2.104},"extra":{"saleType":"P","margin":"D","reportingType":"OM","ideess":"15806","idMunicipio":"3153","idProvincia":"20","idCCAA":"16"}}},{"type":"Feature","geometry":{"type":"Point","coordinates":[-2.4935,43.058694]},"properties":{"id":"es-15827","source":"ES","brand":"PETROPRIX","address":"CALLE ARABA HIRIBIDEA, 32","municipality":"Arrasate/Mondragón","province":"GIPUZKOA","postalCode":"20500","schedule":"L-V: 08:00-22:00; S: 10:00-20:00","fuels":{"gasoline95":1.685,"diesel":1.769},"extra":{"saleType":"P","margin":"N","reportingType":"dm","ideess":"15827","idMunicipio":"3142","idProvincia":"20","idCCAA":"16"}}},{"type":"Feature","geometry":{"type":"Point","coordinates":[-2.423028,43.123417]},"properties":{"id":"es-15841","source":"ES","brand":"PLENERGY","address":"CALLE SANTALAITZ KALEA, 3","municipality":"Bergara","province":"GIPUZKOA","postalCode":"20570","schedule":"L-D: 24H","fuels":{"gasoline95":1.685,"diesel":1.769},"extra":{"saleType":"P","margin":"D","reportingType":"dm","ideess":"15841","idMunicipio":"3153","idProvincia":"20","idCCAA":"16"}}},{"type":"Feature","geometry":{"type":"Point","coordinates":[-2.531361,43.200472]},"properties":{"id":"es-15883","source":"ES","brand":"PETROPRIX","address":"POLIGONO GOITONDO-BEKOA, 22","municipality":"Mallabia","province":"BIZKAIA","postalCode":"48269","schedule":"L-D: 07:00-22:00","fuels":{"gasoline95":1.599,"diesel":1.679},"extra":{"saleType":"P","margin":"N","reportingType":"dm","ideess":"15883","idMunicipio":"7528","idProvincia":"48","idCCAA":"16"}}},{"type":"Feature","geometry":{"type":"Point","coordinates":[-2.069111,43.155306]},"properties":{"id":"es-15971","source":"ES","brand":"PETROPRIX","address":"POLIGONO BENTA ALDEA, 4","municipality":"Anoeta","province":"GIPUZKOA","postalCode":"20270","schedule":"L-D: 24H","fuels":{"gasoline95":1.669,"diesel":1.799},"extra":{"saleType":"P","margin":"D","reportingType":"dm","ideess":"15971","idMunicipio":"3138","idProvincia":"20","idCCAA":"16"}}},{"type":"Feature","geometry":{"type":"Point","coordinates":[-2.620333,43.164944]},"properties":{"id":"es-160","source":"ES","brand":"ALCAMPO","address":"CARRETERA ELORRIO KM. S/N","municipality":"Durango","province":"BIZKAIA","postalCode":"48200","schedule":"L-S: 06:00-22:00; D: 08:00-22:00","fuels":{"gasoline95":1.599,"gasoline98":1.699,"diesel":1.679,"dieselPremium":1.699},"extra":{"saleType":"P","margin":"N","reportingType":"dm","ideess":"160","idMunicipio":"7488","idProvincia":"48","idCCAA":"16"}}},{"type":"Feature","geometry":{"type":"Point","coordinates":[-2.319194,43.08975]},"properties":{"id":"es-16022","source":"ES","brand":"LOW COST EUSKADI - URRETXU","address":"CALLE IPEÑARRIETA, 54","municipality":"Urretxu","province":"GIPUZKOA","postalCode":"20700","schedule":"L: 24H","fuels":{"gasoline95":1.687,"dieselPremium":1.727,"adblue":0.677},"extra":{"saleType":"P","margin":"N","reportingType":"dm","ideess":"16022","idMunicipio":"3204","idProvincia":"20","idCCAA":"16"}}},{"type":"Feature","geometry":{"type":"Point","coordinates":[-2.644972,43.145611]},"properties":{"id":"es-161","source":"ES","brand":"URKIOIL","address":"BI-623 km 31","municipality":"Izurtza","province":"BIZKAIA","postalCode":"48213","schedule":"L-D: 06:00-22:00","fuels":{"gasoline95":1.749,"diesel":1.829,"dieselPremium":1.887,"adblue":0.969},"extra":{"saleType":"P","margin":"N","reportingType":"dm","ideess":"161","idMunicipio":"7516","idProvincia":"48","idCCAA":"16"}}},{"type":"Feature","geometry":{"type":"Point","coordinates":[-2.252194,43.175861]},"properties":{"id":"es-16112","source":"ES","brand":"GUGAS","address":"POLIGONO LANDETA, 33","municipality":"Azpeitia","province":"GIPUZKOA","postalCode":"20730","schedule":"L-D: 24H","fuels":{"gasoline95":1.639,"diesel":1.739},"extra":{"saleType":"P","margin":"N","reportingType":"dm","ideess":"16112","idMunicipio":"3147","idProvincia":"20","idCCAA":"16"}}},{"type":"Feature","geometry":{"type":"Point","coordinates":[-2.519028,43.193861]},"properties":{"id":"es-162","source":"ES","brand":"AVIA","address":"POLIGONO GOITONDO, S/N","municipality":"Mallabia","province":"BIZKAIA","postalCode":"48269","schedule":"L-S: 07:00-22:00; D: 08:00-22:00","fuels":{"gasoline95":1.729,"gasoline98":1.859,"diesel":1.849,"adblue":0.899},"extra":{"saleType":"P","margin":"N","reportingType":"dm","ideess":"162","idMunicipio":"7528","idProvincia":"48","idCCAA":"16"}}},{"type":"Feature","geometry":{"type":"Point","coordinates":[-2.02025,43.300861]},"properties":{"id":"es-16213","source":"ES","brand":"ONROAD 24","address":"CALLE PORTUETXE, 85","municipality":"Donostia-San Sebastián","province":"GIPUZKOA","postalCode":"20018","schedule":"L-V: 06:30-22:00; S-D: 07:00-21:00","fuels":{"gasoline95":1.669,"diesel":1.769,"adblue":0.999},"extra":{"saleType":"P","margin":"N","reportingType":"dm","ideess":"16213","idMunicipio":"3157","idProvincia":"20","idCCAA":"16"}}},{"type":"Feature","geometry":{"type":"Point","coordinates":[-2.463056,43.189028]},"properties":{"id":"es-16263","source":"ES","brand":"BALLENOIL","address":"CALLE ASUA ERREKA, 11","municipality":"Eibar","province":"GIPUZKOA","postalCode":"20600","schedule":"L-D: 24H","fuels":{"gasoline95":1.639,"diesel":1.769,"adblue":0.76},"extra":{"saleType":"P","margin":"N","reportingType":"OM","ideess":"16263","idMunicipio":"3158","idProvincia":"20","idCCAA":"16"}}},{"type":"Feature","geometry":{"type":"Point","coordinates":[-2.901361,43.182833]},"properties":{"id":"es-16276","source":"ES","brand":"LOW COST EUSKADI","address":"POLIGONO USILA, CALLE 1, 007","municipality":"Ugao-Miraballes","province":"BIZKAIA","postalCode":"48490","schedule":"L-D: 10:00-22:00","fuels":{"gasoline95":1.647,"diesel":1.747,"adblue":0.888},"extra":{"saleType":"P","margin":"D","reportingType":"dm","ideess":"16276","idMunicipio":"7557","idProvincia":"48","idCCAA":"16"}}},{"type":"Feature","geometry":{"type":"Point","coordinates":[-2.058306,43.175361]},"properties":{"id":"es-16279","source":"ES","brand":"BALLENOIL","address":"POLIGONO IBAIONDO, 17","municipality":"Irura","province":"GIPUZKOA","postalCode":"20271","schedule":"L: 24H","fuels":{"gasoline95":1.669,"diesel":1.799},"extra":{"saleType":"P","margin":"D","reportingType":"OM","ideess":"16279","idMunicipio":"3177","idProvincia":"20","idCCAA":"16"}}},{"type":"Feature","geometry":{"type":"Point","coordinates":[-2.4225,43.126389]},"properties":{"id":"es-16282","source":"ES","brand":"PETROPRIX","address":"CALLE ANTXITURRI, 1","municipality":"Bergara","province":"GIPUZKOA","postalCode":"20570","schedule":"L-D: 07:00-22:00","fuels":{"gasoline95":1.685,"diesel":1.769},"extra":{"saleType":"P","margin":"N","reportingType":"dm","ideess":"16282","idMunicipio":"3153","idProvincia":"20","idCCAA":"16"}}},{"type":"Feature","geometry":{"type":"Point","coordinates":[-2.021194,43.218639]},"properties":{"id":"es-16316","source":"ES","brand":"EUSKADI LOW COST","address":"CALLE BO SORAVILLA, 998","municipality":"Andoain","province":"GIPUZKOA","postalCode":"20140","schedule":"L-D: 24H","fuels":{"gasoline95":1.659,"diesel":1.759,"adblue":0.769},"extra":{"saleType":"P","margin":"D","reportingType":"dm","ideess":"16316","idMunicipio":"3137","idProvincia":"20","idCCAA":"16"}}},{"type":"Feature","geometry":{"type":"Point","coordinates":[-2.066583,43.169]},"properties":{"id":"es-16389","source":"ES","brand":"PLENERGY","address":"CALLE IBAI - ONDO AUZOA, 8","municipality":"Irura","province":"GIPUZKOA","postalCode":"20271","schedule":"L-D: 24H","fuels":{"gasoline95":1.679,"diesel":1.829},"extra":{"saleType":"P","margin":"D","reportingType":"dm","ideess":"16389","idMunicipio":"3177","idProvincia":"20","idCCAA":"16"}}},{"type":"Feature","geometry":{"type":"Point","coordinates":[-2.837361,43.227889]},"properties":{"id":"es-16471","source":"ES","brand":"EUSKADI LOW COST GALDAKAO","address":"POLIGONO POL. IND. GUTURRIBAI N-634 KM 10, S/N","municipality":"Galdakao","province":"BIZKAIA","postalCode":"48960","schedule":"L-D: 24H","fuels":{"gasoline95":1.645,"diesel":1.698,"adblue":0.788},"extra":{"saleType":"P","margin":"D","reportingType":"dm","ideess":"16471","idMunicipio":"7500","idProvincia":"48","idCCAA":"16"}}},{"type":"Feature","geometry":{"type":"Point","coordinates":[-2.932972,43.255917]},"properties":{"id":"es-165","source":"ES","brand":"CEPSA","address":"CALLE JUAN DE GARAY, 9","municipality":"Bilbao","province":"BIZKAIA","postalCode":"48003","schedule":"L-V: 08:30-16:00","fuels":{"diesel":1.954},"extra":{"saleType":"P","margin":"I","reportingType":"OM","ideess":"165","idMunicipio":"7484","idProvincia":"48","idCCAA":"16"}}},{"type":"Feature","geometry":{"type":"Point","coordinates":[-2.886417,43.231333]},"properties":{"id":"es-166","source":"ES","brand":"MOEVE","address":"BARRIO IBARRETA, SN","municipality":"Basauri","province":"BIZKAIA","postalCode":"48970","schedule":"L-V: 06:00-15:00; S: 06:00-09:00","fuels":{"gasoline95":1.859,"gasoline98":1.979,"diesel":1.969,"dieselPremium":2.069,"adblue":1.109},"extra":{"saleType":"P","margin":"I","reportingType":"dm","ideess":"166","idMunicipio":"7478","idProvincia":"48","idCCAA":"16"}}},{"type":"Feature","geometry":{"type":"Point","coordinates":[-2.805417,43.370667]},"properties":{"id":"es-169","source":"ES","brand":"REPSOL","address":"CR BI-631 20","municipality":"Mungia","province":"BIZKAIA","postalCode":"48120","schedule":"L-D: 08:00-22:00","fuels":{"gasoline95":1.839,"gasoline98":1.959,"diesel":1.975,"dieselRenewable":2.095},"extra":{"saleType":"P","margin":"D","reportingType":"OM","ideess":"169","idMunicipio":"7537","idProvincia":"48","idCCAA":"16"}}},{"type":"Feature","geometry":{"type":"Point","coordinates":[-2.903778,43.27225]},"properties":{"id":"es-170","source":"ES","brand":"BP BILBAO - STO DOMINGO MD","address":"CARRETERA BI-631 BILBAO-BERMEO KM. 11","municipality":"Bilbao","province":"BIZKAIA","postalCode":"48015","schedule":"L-D: 24H","fuels":{"gasoline95":1.769,"gasoline98":1.909,"diesel":1.899,"dieselPremium":1.989,"adblue":1.135},"extra":{"saleType":"P","margin":"D","reportingType":"OM","ideess":"170","idMunicipio":"7484","idProvincia":"48","idCCAA":"16"}}},{"type":"Feature","geometry":{"type":"Point","coordinates":[-2.912639,43.120944]},"properties":{"id":"es-172","source":"ES","brand":"BP BENGOECHEA","address":"CR BI-2522, 3,8","municipality":"Orozko","province":"BIZKAIA","postalCode":"48410","schedule":"L-D: 07:00-23:00","fuels":{"gasoline95":1.789,"gasoline98":1.929,"diesel":1.929,"dieselPremium":2.019,"adblue":0.985},"extra":{"saleType":"P","margin":"D","reportingType":"OM","ideess":"172","idMunicipio":"7544","idProvincia":"48","idCCAA":"16"}}},{"type":"Feature","geometry":{"type":"Point","coordinates":[-2.729444,43.22925]},"properties":{"id":"es-175","source":"ES","brand":"REPSOL","address":"CARRETERA BI-635 KM. 20","municipality":"Amorebieta-Etxano","province":"BIZKAIA","postalCode":"48340","schedule":"L-V: 06:30-20:00; S: 08:00-15:00","fuels":{"gasoline95":1.815,"gasoline98":1.955,"diesel":1.965,"dieselRenewable":2.085},"extra":{"saleType":"P","margin":"D","reportingType":"OM","ideess":"175","idMunicipio":"7461","idProvincia":"48","idCCAA":"16"}}},{"type":"Feature","geometry":{"type":"Point","coordinates":[-2.729861,43.229472]},"properties":{"id":"es-176","source":"ES","brand":"REPSOL","address":"CARRETERA BI-635 KM. 20","municipality":"Amorebieta-Etxano","province":"BIZKAIA","postalCode":"48340","schedule":"L-V: 06:00-20:30; S: 08:00-14:00","fuels":{"gasoline95":1.815,"diesel":1.965,"dieselRenewable":2.085},"extra":{"saleType":"P","margin":"I","reportingType":"OM","ideess":"176","idMunicipio":"7461","idProvincia":"48","idCCAA":"16"}}},{"type":"Feature","geometry":{"type":"Point","coordinates":[-2.943556,43.307861]},"properties":{"id":"es-177","source":"ES","brand":"PETRONOR","address":"CARRETERA BI-3704 KM. 57","municipality":"Loiu","province":"BIZKAIA","postalCode":"48180","schedule":"L-D: 06:00-22:00","fuels":{"gasoline95":1.799,"gasoline98":1.939,"diesel":1.965,"dieselRenewable":2.085},"extra":{"saleType":"P","margin":"D","reportingType":"OM","ideess":"177","idMunicipio":"7527","idProvincia":"48","idCCAA":"16"}}},{"type":"Feature","geometry":{"type":"Point","coordinates":[-2.944833,43.307528]},"properties":{"id":"es-178","source":"ES","brand":"PETRONOR","address":"CARRETERA BI-3704 ASUA-LOIU KM. 57","municipality":"Erandio","province":"BIZKAIA","postalCode":"48950","schedule":"L-V: 07:00-22:00; S-D: 08:00-22:00","fuels":{"gasoline95":1.799,"gasoline98":1.939,"diesel":1.965,"dieselRenewable":2.085},"extra":{"saleType":"P","margin":"I","reportingType":"OM","ideess":"178","idMunicipio":"7492","idProvincia":"48","idCCAA":"16"}}},{"type":"Feature","geometry":{"type":"Point","coordinates":[-2.482917,43.181611]},"properties":{"id":"es-18","source":"ES","brand":"AVIA-KANTOI","address":"CALLE OTAOLA, 13","municipality":"Eibar","province":"GIPUZKOA","postalCode":"20600","schedule":"L-V: 06:00-22:00; S-D: 08:00-22:00","fuels":{"gasoline95":1.699,"gasoline98":1.799,"diesel":1.839,"dieselPremium":1.899,"adblue":0.81},"extra":{"saleType":"P","margin":"N","reportingType":"dm","ideess":"18","idMunicipio":"3158","idProvincia":"20","idCCAA":"16"}}},{"type":"Feature","geometry":{"type":"Point","coordinates":[-2.736361,43.419889]},"properties":{"id":"es-180","source":"ES","brand":"PETRONOR","address":"CR BI-631, 32","municipality":"Bermeo","province":"BIZKAIA","postalCode":"48370","schedule":"L-D: 06:00-22:00","fuels":{"gasoline95":1.845,"gasoline98":2.005,"diesel":1.945,"dieselB":1.744,"dieselRenewable":2.065},"extra":{"saleType":"P","margin":"I","reportingType":"OM","ideess":"180","idMunicipio":"7481","idProvincia":"48","idCCAA":"16"}}},{"type":"Feature","geometry":{"type":"Point","coordinates":[-2.702944,43.412306]},"properties":{"id":"es-181","source":"ES","brand":"REPSOL","address":"CR BI-635, 48,5","municipality":"Mundaka","province":"BIZKAIA","postalCode":"48360","schedule":"L-D: 06:00-22:00","fuels":{"gasoline95":1.845,"gasoline98":1.965,"diesel":1.939,"dieselRenewable":2.059},"extra":{"saleType":"P","margin":"I","reportingType":"OM","ideess":"181","idMunicipio":"7536","idProvincia":"48","idCCAA":"16"}}},{"type":"Feature","geometry":{"type":"Point","coordinates":[-2.930028,43.366194]},"properties":{"id":"es-182","source":"ES","brand":"PETRONOR","address":"CL MUNGUIA BI-3121, 24,2","municipality":"Urduliz","province":"BIZKAIA","postalCode":"48610","schedule":"L-S: 07:00-22:00; D: 08:00-22:00","fuels":{"gasoline95":1.829,"gasoline98":1.999,"diesel":1.955,"dieselRenewable":2.075},"extra":{"saleType":"P","margin":"D","reportingType":"OM","ideess":"182","idMunicipio":"7558","idProvincia":"48","idCCAA":"16"}}},{"type":"Feature","geometry":{"type":"Point","coordinates":[-2.641389,43.175167]},"properties":{"id":"es-183","source":"ES","brand":"REPSOL","address":"CR N-634, 81,7","municipality":"Iurreta","province":"BIZKAIA","postalCode":"48215","schedule":"L-D: 06:00-22:00","fuels":{"gasoline95":1.845,"gasoline98":1.965,"diesel":1.965,"dieselRenewable":2.085},"extra":{"saleType":"P","margin":"D","reportingType":"OM","ideess":"183","idMunicipio":"7515","idProvincia":"48","idCCAA":"16"}}},{"type":"Feature","geometry":{"type":"Point","coordinates":[-2.911389,43.246694]},"properties":{"id":"es-184","source":"ES","brand":"CEPSA","address":"AVENIDA MIRAFLORES, 12","municipality":"Bilbao","province":"BIZKAIA","postalCode":"48004","schedule":"L-D: 06:00-22:00","fuels":{"gasoline95":1.779,"gasoline95Premium":1.829,"diesel":1.879,"dieselPremium":1.919},"extra":{"saleType":"P","margin":"I","reportingType":"dm","ideess":"184","idMunicipio":"7484","idProvincia":"48","idCCAA":"16"}}},{"type":"Feature","geometry":{"type":"Point","coordinates":[-2.876444,43.318583]},"properties":{"id":"es-186","source":"ES","brand":"PETRONOR","address":"CARRETERA BI-631 KM. 10","municipality":"Derio","province":"BIZKAIA","postalCode":"48160","schedule":"L-D: 06:00-22:00","fuels":{"gasoline95":1.819,"gasoline98":1.939,"diesel":1.965,"dieselRenewable":2.085,"lpg":1.169},"extra":{"saleType":"P","margin":"D","reportingType":"OM","ideess":"186","idMunicipio":"7486","idProvincia":"48","idCCAA":"16"}}},{"type":"Feature","geometry":{"type":"Point","coordinates":[-2.864861,43.37725]},"properties":{"id":"es-187","source":"ES","brand":"PETRONOR","address":"CARRETERA MUNGIA-PLENTZIA KM. 18","municipality":"Mungia","province":"BIZKAIA","postalCode":"48100","schedule":"L-V: 06:00-22:00; S-D: 07:00-22:00","fuels":{"gasoline95":1.839,"gasoline98":1.959,"diesel":1.969,"dieselRenewable":2.089},"extra":{"saleType":"P","margin":"D","reportingType":"OM","ideess":"187","idMunicipio":"7537","idProvincia":"48","idCCAA":"16"}}},{"type":"Feature","geometry":{"type":"Point","coordinates":[-2.523694,43.259611]},"properties":{"id":"es-188","source":"ES","brand":"PETRONOR","address":"CR BI-633 BERRIZ-ONDARROA, 45,9","municipality":"Markina-Xemein","province":"BIZKAIA","postalCode":"48270","schedule":"L-V: 06:00-22:00; S-D: 07:00-22:00","fuels":{"gasoline95":1.835,"gasoline98":2.005,"diesel":1.975,"dieselRenewable":2.095},"extra":{"saleType":"P","margin":"I","reportingType":"OM","ideess":"188","idMunicipio":"7530","idProvincia":"48","idCCAA":"16"}}},{"type":"Feature","geometry":{"type":"Point","coordinates":[-2.803833,43.236056]},"properties":{"id":"es-193","source":"ES","brand":"REPSOL","address":"CARRETERA N-634 KM. 99,1","municipality":"Galdakao","province":"BIZKAIA","postalCode":"48960","schedule":"L-V: 07:00-21:30; S: 08:00-20:00; D: 09:00-15:00","fuels":{"gasoline95":1.829,"diesel":1.965,"dieselRenewable":2.085},"extra":{"saleType":"P","margin":"I","reportingType":"OM","ideess":"193","idMunicipio":"7500","idProvincia":"48","idCCAA":"16"}}},{"type":"Feature","geometry":{"type":"Point","coordinates":[-2.99475,43.340389]},"properties":{"id":"es-195","source":"ES","brand":"MOEVE","address":"PLAZA REGOLLO, S/N","municipality":"Getxo","province":"BIZKAIA","postalCode":"48990","schedule":"L-D: 00:00-23:59","fuels":{"gasoline95":1.844,"diesel":1.964},"extra":{"saleType":"P","margin":"D","reportingType":"dm","ideess":"195","idMunicipio":"7507","idProvincia":"48","idCCAA":"16"}}},{"type":"Feature","geometry":{"type":"Point","coordinates":[-2.873056,43.240111]},"properties":{"id":"es-200","source":"ES","brand":"PETRONOR","address":"CL APERRIBAY, 15","municipality":"Galdakao","province":"BIZKAIA","postalCode":"48960","schedule":"L-V: 06:30-21:30; S-D: 08:00-21:30","fuels":{"gasoline95":1.815,"gasoline98":1.935,"diesel":1.955,"dieselRenewable":2.075},"extra":{"saleType":"P","margin":"D","reportingType":"OM","ideess":"200","idMunicipio":"7500","idProvincia":"48","idCCAA":"16"}}},{"type":"Feature","geometry":{"type":"Point","coordinates":[-2.756306,43.231556]},"properties":{"id":"es-203","source":"ES","brand":"PETRONOR","address":"CR A-8  BILBAO BEHOBIA P.K. 99,7","municipality":"Amorebieta-Etxano","province":"BIZKAIA","postalCode":"48340","schedule":"L-D: 24H","fuels":{"gasoline95":1.815,"gasoline95Premium":1.885,"gasoline98":1.935,"diesel":1.955,"dieselRenewable":2.075,"lpg":1.169},"extra":{"saleType":"P","margin":"D","reportingType":"OM","ideess":"203","idMunicipio":"7461","idProvincia":"48","idCCAA":"16"}}},{"type":"Feature","geometry":{"type":"Point","coordinates":[-2.754028,43.230083]},"properties":{"id":"es-204","source":"ES","brand":"PETRONOR","address":"CR A-8 BILBAO-BEHOBIA ,P.K. 100","municipality":"Amorebieta-Etxano","province":"BIZKAIA","postalCode":"48340","schedule":"L-D: 24H","fuels":{"gasoline95":1.815,"gasoline95Premium":1.885,"gasoline98":1.935,"diesel":1.955,"dieselRenewable":2.075,"lpg":1.165},"extra":{"saleType":"P","margin":"I","reportingType":"OM","ideess":"204","idMunicipio":"7461","idProvincia":"48","idCCAA":"16"}}},{"type":"Feature","geometry":{"type":"Point","coordinates":[-2.889111,43.226306]},"properties":{"id":"es-206","source":"ES","brand":"REPSOL","address":"CARRETERA BOLUETA-ARRIGORRIAGA KM. 6","municipality":"Basauri","province":"BIZKAIA","postalCode":"48970","schedule":"L-D: 06:00-22:00","fuels":{"gasoline95":1.815,"gasoline98":1.935,"diesel":1.955,"dieselRenewable":2.075},"extra":{"saleType":"P","margin":"D","reportingType":"OM","ideess":"206","idMunicipio":"7478","idProvincia":"48","idCCAA":"16"}}},{"type":"Feature","geometry":{"type":"Point","coordinates":[-2.894444,43.18975]},"properties":{"id":"es-207","source":"ES","brand":"PETRONOR","address":"AUTOPISTA AP-68 KM. 6","municipality":"Ugao-Miraballes","province":"BIZKAIA","postalCode":"48490","schedule":"L-D: 24H","fuels":{"gasoline95":1.829,"gasoline95Premium":1.899,"gasoline98":1.949,"diesel":1.965,"dieselRenewable":2.085},"extra":{"saleType":"P","margin":"I","reportingType":"OM","ideess":"207","idMunicipio":"7557","idProvincia":"48","idCCAA":"16"}}},{"type":"Feature","geometry":{"type":"Point","coordinates":[-2.897389,43.190194]},"properties":{"id":"es-208","source":"ES","brand":"PETRONOR","address":"AU AP-68, 6","municipality":"Arrigorriaga","province":"BIZKAIA","postalCode":"48480","schedule":"L-D: 24H","fuels":{"gasoline95":1.829,"gasoline95Premium":1.909,"gasoline98":1.949,"diesel":1.965,"dieselRenewable":2.085,"lpg":1.165},"extra":{"saleType":"P","margin":"D","reportingType":"OM","ideess":"208","idMunicipio":"7469","idProvincia":"48","idCCAA":"16"}}},{"type":"Feature","geometry":{"type":"Point","coordinates":[-2.943917,43.390333]},"properties":{"id":"es-209","source":"ES","brand":"REPSOL","address":"CARRETERA ASUA-PLENTZIA KM. 23","municipality":"Plentzia","province":"BIZKAIA","postalCode":"48620","schedule":"L-V: 06:00-22:00; S-D: 07:00-22:00","fuels":{"gasoline95":1.835,"gasoline98":1.965,"diesel":1.959,"dieselB":1.76,"dieselRenewable":2.079},"extra":{"saleType":"P","margin":"D","reportingType":"OM","ideess":"209","idMunicipio":"7547","idProvincia":"48","idCCAA":"16"}}},{"type":"Feature","geometry":{"type":"Point","coordinates":[-2.188333,43.041944]},"properties":{"id":"es-21","source":"ES","brand":"AVIA","address":"CARRETERA GI-120 KM. 65","municipality":"Lazkao","province":"GIPUZKOA","postalCode":"20210","schedule":"L-D: 24H","fuels":{"gasoline95":1.795,"gasoline98":1.955,"diesel":1.925,"dieselPremium":1.995,"lpg":0.959,"adblue":0.899},"extra":{"saleType":"P","margin":"N","reportingType":"dm","ideess":"21","idMunicipio":"3181","idProvincia":"20","idCCAA":"16"}}},{"type":"Feature","geometry":{"type":"Point","coordinates":[-2.978861,43.280083]},"properties":{"id":"es-211","source":"ES","brand":"REPSOL","address":"CALLE MUNOA,, SN","municipality":"Barakaldo","province":"BIZKAIA","postalCode":"48903","schedule":"L-D: 06:00-22:00","fuels":{"gasoline95":1.829,"gasoline98":1.949,"diesel":1.979,"dieselRenewable":2.099},"extra":{"saleType":"P","margin":"D","reportingType":"OM","ideess":"211","idMunicipio":"7476","idProvincia":"48","idCCAA":"16"}}},{"type":"Feature","geometry":{"type":"Point","coordinates":[-2.976194,43.320444]},"properties":{"id":"es-214","source":"ES","brand":"REPSOL","address":"AVENIDA IPARRAGUIRRE, 21","municipality":"Leioa","province":"BIZKAIA","postalCode":"48940","schedule":"L-D: 24H","fuels":{"gasoline95":1.839,"gasoline98":1.979,"diesel":1.959,"dieselRenewable":2.089,"adblue":1.119},"extra":{"saleType":"P","margin":"D","reportingType":"dm","ideess":"214","idMunicipio":"7522","idProvincia":"48","idCCAA":"16"}}},{"type":"Feature","geometry":{"type":"Point","coordinates":[-2.97575,43.319444]},"properties":{"id":"es-215","source":"ES","brand":"REPSOL","address":"AVENIDA IPARRAGUIRRE, 108","municipality":"Leioa","province":"BIZKAIA","postalCode":"48940","schedule":"L-D: 24H","fuels":{"gasoline95":1.839,"gasoline98":1.979,"diesel":1.959,"dieselRenewable":2.089,"adblue":1.119},"extra":{"saleType":"P","margin":"I","reportingType":"dm","ideess":"215","idMunicipio":"7522","idProvincia":"48","idCCAA":"16"}}},{"type":"Feature","geometry":{"type":"Point","coordinates":[-2.961389,43.265278]},"properties":{"id":"es-216","source":"ES","brand":"PETRONOR","address":"CR N-634, 115","municipality":"Bilbao","province":"BIZKAIA","postalCode":"48013","schedule":"L-V: 06:30-22:30; S-D: 07:30-22:30","fuels":{"gasoline95":1.835,"gasolineRenewable":1.955,"diesel":1.979,"dieselRenewable":2.099},"extra":{"saleType":"P","margin":"D","reportingType":"OM","ideess":"216","idMunicipio":"7484","idProvincia":"48","idCCAA":"16"}}},{"type":"Feature","geometry":{"type":"Point","coordinates":[-2.548889,43.130583]},"properties":{"id":"es-217","source":"ES","brand":"MOEVE","address":"BARRIO SAN FAUSTO, 2","municipality":"Elorrio","province":"BIZKAIA","postalCode":"48230","schedule":"L-D: 07:00-21:00","fuels":{"gasoline95":1.814,"gasoline98":1.899,"diesel":1.954,"dieselPremium":2.054,"dieselB":1.854},"extra":{"saleType":"P","margin":"I","reportingType":"dm","ideess":"217","idMunicipio":"7491","idProvincia":"48","idCCAA":"16"}}},{"type":"Feature","geometry":{"type":"Point","coordinates":[-2.987361,43.382583]},"properties":{"id":"es-219","source":"ES","brand":"GALP","address":"CARRETERA BI-PL KM. 20","municipality":"Sopelana","province":"BIZKAIA","postalCode":"48600","schedule":"L-V: 06:00-22:00; S-D: 07:00-22:00","fuels":{"gasoline95":1.779,"gasoline95Premium":1.829,"diesel":1.909,"dieselPremium":1.959,"adblue":0.799},"extra":{"saleType":"P","margin":"D","reportingType":"OM","ideess":"219","idMunicipio":"7552","idProvincia":"48","idCCAA":"16"}}},{"type":"Feature","geometry":{"type":"Point","coordinates":[-2.988472,43.382222]},"properties":{"id":"es-220","source":"ES","brand":"GALP","address":"CARRETERA BI-PL KM. 20","municipality":"Sopelana","province":"BIZKAIA","postalCode":"48600","schedule":"L-V: 06:00-22:00; S-D: 07:00-22:00","fuels":{"gasoline95":1.779,"gasoline95Premium":1.829,"diesel":1.909,"dieselPremium":1.959,"adblue":0.799},"extra":{"saleType":"P","margin":"I","reportingType":"OM","ideess":"220","idMunicipio":"7552","idProvincia":"48","idCCAA":"16"}}},{"type":"Feature","geometry":{"type":"Point","coordinates":[-2.952833,43.303333]},"properties":{"id":"es-222","source":"ES","brand":"SHELL","address":"CTRA.LUTXANA-ASÚA, 36 km CENTRO COMERCIAL M","municipality":"Erandio","province":"BIZKAIA","postalCode":"48950","schedule":"L-S: 07:30-21:30","fuels":{"gasoline95":1.769,"diesel":1.899,"dieselPremium":1.979},"extra":{"saleType":"P","margin":"N","reportingType":"OM","ideess":"222","idMunicipio":"7492","idProvincia":"48","idCCAA":"16"}}},{"type":"Feature","geometry":{"type":"Point","coordinates":[-2.564722,43.130278]},"properties":{"id":"es-223","source":"ES","brand":"GALP","address":"P.I. SAN AGUSTIN S/N MODULO 3/4","municipality":"Elorrio","province":"BIZKAIA","postalCode":"48230","schedule":"L-D: 24H","fuels":{"diesel":1.869},"extra":{"saleType":"P","margin":"N","reportingType":"dm","ideess":"223","idMunicipio":"7491","idProvincia":"48","idCCAA":"16"}}},{"type":"Feature","geometry":{"type":"Point","coordinates":[-2.752944,43.228917]},"properties":{"id":"es-227","source":"ES","brand":"REPSOL","address":"CR N-634, 93","municipality":"Amorebieta-Etxano","province":"BIZKAIA","postalCode":"48340","schedule":"L-V: 06:00-22:00; S-D: 08:00-22:00","fuels":{"gasoline95":1.829,"gasolineRenewable":1.949,"diesel":1.965,"dieselRenewable":2.085},"extra":{"saleType":"P","margin":"D","reportingType":"OM","ideess":"227","idMunicipio":"7461","idProvincia":"48","idCCAA":"16"}}},{"type":"Feature","geometry":{"type":"Point","coordinates":[-2.958444,43.286667]},"properties":{"id":"es-229","source":"ES","brand":"REPSOL","address":"AVENIDA ALTO DE ENEKURI, 5","municipality":"Bilbao","province":"BIZKAIA","postalCode":"48015","schedule":"L-D: 06:00-22:00","fuels":{"gasoline95":1.809,"gasoline95Premium":1.879,"gasoline98":1.929,"diesel":1.965,"dieselRenewable":2.085},"extra":{"saleType":"P","margin":"D","reportingType":"OM","ideess":"229","idMunicipio":"7484","idProvincia":"48","idCCAA":"16"}}},{"type":"Feature","geometry":{"type":"Point","coordinates":[-2.454556,43.189972]},"properties":{"id":"es-23","source":"ES","brand":"AVIA-ACITAIN","address":"CALLE BARRENA, 19","municipality":"Eibar","province":"GIPUZKOA","postalCode":"20600","schedule":"L-V: 06:00-22:00; S-D: 08:00-22:00","fuels":{"gasoline95":1.729,"gasoline98":1.859,"diesel":1.849,"dieselB":1.559,"lpg":0.999,"adblue":0.899},"extra":{"saleType":"P","margin":"N","reportingType":"dm","ideess":"23","idMunicipio":"3158","idProvincia":"20","idCCAA":"16"}}},{"type":"Feature","geometry":{"type":"Point","coordinates":[-2.984639,43.313056]},"properties":{"id":"es-231","source":"ES","brand":"REPSOL","address":"CL RIBERA DE AXPE, 19","municipality":"Erandio","province":"BIZKAIA","postalCode":"48950","schedule":"L-V: 06:00-22:00; S-D: 08:00-22:00","fuels":{"gasoline95":1.799,"gasoline98":1.939,"diesel":1.919,"dieselRenewable":2.049,"adblue":1.119},"extra":{"saleType":"P","margin":"D","reportingType":"dm","ideess":"231","idMunicipio":"7492","idProvincia":"48","idCCAA":"16"}}},{"type":"Feature","geometry":{"type":"Point","coordinates":[-2.888444,43.250806]},"properties":{"id":"es-232","source":"ES","brand":"REPSOL","address":"CARRETERA N634 KM. 106,4","municipality":"Etxebarri, Anteiglesia de San Esteban-Etxebarri Doneztebeko","province":"BIZKAIA","postalCode":"48450","schedule":"L-V: 06:00-21:00; S: 07:00-21:00","fuels":{"gasoline95":1.815,"gasoline95Premium":1.895,"gasoline98":1.935,"diesel":1.945,"dieselRenewable":2.065},"extra":{"saleType":"P","margin":"D","reportingType":"OM","ideess":"232","idMunicipio":"7496","idProvincia":"48","idCCAA":"16"}}},{"type":"Feature","geometry":{"type":"Point","coordinates":[-2.889028,43.250667]},"properties":{"id":"es-233","source":"ES","brand":"REPSOL","address":"CARRETERA N634 KM. 106,4","municipality":"Etxebarri, Anteiglesia de San Esteban-Etxebarri Doneztebeko","province":"BIZKAIA","postalCode":"48450","schedule":"L-V: 05:00-22:45; S: 06:00-22:45; D: 06:00-22:00","fuels":{"gasoline95":1.815,"gasoline95Premium":1.895,"gasoline98":1.935,"diesel":1.945,"dieselRenewable":2.065},"extra":{"saleType":"P","margin":"I","reportingType":"OM","ideess":"233","idMunicipio":"7496","idProvincia":"48","idCCAA":"16"}}},{"type":"Feature","geometry":{"type":"Point","coordinates":[-2.495722,43.280111]},"properties":{"id":"es-238","source":"ES","brand":"PETRONOR","address":"CARRETERA Bº ATXONDOA KM. 51,8","municipality":"Markina-Xemein","province":"BIZKAIA","postalCode":"48270","schedule":"L-D: 06:00-22:00","fuels":{"gasoline95":1.829,"gasoline98":1.989,"diesel":1.949,"dieselB":1.739,"dieselRenewable":2.049,"adblue":1.289},"extra":{"saleType":"P","margin":"D","reportingType":"dm","ideess":"238","idMunicipio":"7530","idProvincia":"48","idCCAA":"16"}}},{"type":"Feature","geometry":{"type":"Point","coordinates":[-2.959889,43.291]},"properties":{"id":"es-239","source":"ES","brand":"PETRONOR","address":"CARRETERA BI-3704 KM. 5,5","municipality":"Erandio","province":"BIZKAIA","postalCode":"48950","schedule":"L-V: 06:00-22:00; S-D: 08:00-22:00","fuels":{"gasoline95":1.805,"gasoline98":1.925,"diesel":1.959,"dieselRenewable":2.079,"lpg":1.165},"extra":{"saleType":"P","margin":"D","reportingType":"OM","ideess":"239","idMunicipio":"7492","idProvincia":"48","idCCAA":"16"}}},{"type":"Feature","geometry":{"type":"Point","coordinates":[-2.960417,43.291222]},"properties":{"id":"es-240","source":"ES","brand":"PETRONOR","address":"CARRETERA BI-3704 KM. 5,5","municipality":"Erandio","province":"BIZKAIA","postalCode":"48950","schedule":"L-V: 06:00-22:00; S-D: 08:00-22:00","fuels":{"gasoline95":1.805,"gasoline98":1.925,"diesel":1.959,"dieselRenewable":2.079},"extra":{"saleType":"P","margin":"I","reportingType":"OM","ideess":"240","idMunicipio":"7492","idProvincia":"48","idCCAA":"16"}}},{"type":"Feature","geometry":{"type":"Point","coordinates":[-2.980472,43.246528]},"properties":{"id":"es-241","source":"ES","brand":"PETRONOR","address":"CR BI-636, 4","municipality":"Alonsotegi","province":"BIZKAIA","postalCode":"48810","schedule":"L-V: 06:00-20:00; S-D: 09:00-20:00","fuels":{"gasoline95":1.779,"gasoline98":1.919,"diesel":1.929,"dieselRenewable":2.049},"extra":{"saleType":"P","margin":"I","reportingType":"OM","ideess":"241","idMunicipio":"7460","idProvincia":"48","idCCAA":"16"}}},{"type":"Feature","geometry":{"type":"Point","coordinates":[-2.678222,43.304944]},"properties":{"id":"es-243","source":"ES","brand":"REPSOL","address":"POLIGONO TXAPORTA, S/N","municipality":"Gernika-Lumo","province":"BIZKAIA","postalCode":"48300","schedule":"L-S: 07:00-21:00; D: 08:00-21:00","fuels":{"gasoline95":1.845,"gasoline98":1.965,"diesel":1.985,"dieselRenewable":2.105},"extra":{"saleType":"P","margin":"N","reportingType":"OM","ideess":"243","idMunicipio":"7506","idProvincia":"48","idCCAA":"16"}}},{"type":"Feature","geometry":{"type":"Point","coordinates":[-2.777556,43.163778]},"properties":{"id":"es-248","source":"ES","brand":"AVIA","address":"AVENIDA LEHENDAKARI AGUIRRE, 22","municipality":"Igorre","province":"BIZKAIA","postalCode":"48140","schedule":"L-D: 06:00-22:00","fuels":{"gasoline95":1.699,"diesel":1.789,"dieselPremium":1.849,"adblue":0.899},"extra":{"saleType":"P","margin":"D","reportingType":"dm","ideess":"248","idMunicipio":"7513","idProvincia":"48","idCCAA":"16"}}},{"type":"Feature","geometry":{"type":"Point","coordinates":[-2.5345,43.013833]},"properties":{"id":"es-25","source":"ES","brand":"PETRONOR","address":"PASEO AINGERU, 8","municipality":"Eskoriatza","province":"GIPUZKOA","postalCode":"20540","schedule":"L-D: 06:00-22:00","fuels":{"gasoline95":1.799,"gasoline98":1.879,"diesel":1.939,"dieselPremium":2.059},"extra":{"saleType":"P","margin":"I","reportingType":"dm","ideess":"25","idMunicipio":"3164","idProvincia":"20","idCCAA":"16"}}},{"type":"Feature","geometry":{"type":"Point","coordinates":[-2.023,43.25425]},"properties":{"id":"es-27","source":"ES","brand":"GALP","address":"AVENIDA HIPODROMO, S/N","municipality":"Donostia-San Sebastián","province":"GIPUZKOA","postalCode":"20160","schedule":"L-D: 24H","fuels":{"gasoline95":1.789,"diesel":1.989,"dieselPremium":2.079,"adblue":0.799},"extra":{"saleType":"P","margin":"N","reportingType":"OM","ideess":"27","idMunicipio":"3157","idProvincia":"20","idCCAA":"16"}}},{"type":"Feature","geometry":{"type":"Point","coordinates":[-2.253778,43.203861]},"properties":{"id":"es-30","source":"ES","brand":"PETRO SWAP","address":"CARRETERA GI-631 KM. 10,6","municipality":"Azpeitia","province":"GIPUZKOA","postalCode":"20730","schedule":"L: 24H","fuels":{"gasoline95":1.639,"diesel":1.739,"adblue":0.899},"extra":{"saleType":"P","margin":"D","reportingType":"dm","ideess":"30","idMunicipio":"3147","idProvincia":"20","idCCAA":"16"}}},{"type":"Feature","geometry":{"type":"Point","coordinates":[-2.253472,43.20375]},"properties":{"id":"es-31","source":"ES","brand":"PETRO SWAP","address":"CARRETERA GI-631 KM. 10,5","municipality":"Azpeitia","province":"GIPUZKOA","postalCode":"20730","schedule":"L-V: 06:00-22:30; S: 06:00-22:00; D: 08:00-22:00","fuels":{"gasoline95":1.659,"diesel":1.759,"adblue":0.999},"extra":{"saleType":"P","margin":"I","reportingType":"dm","ideess":"31","idMunicipio":"3147","idProvincia":"20","idCCAA":"16"}}},{"type":"Feature","geometry":{"type":"Point","coordinates":[-2.968,43.138]},"properties":{"id":"es-32","source":"ES","brand":"EROSKI","address":"AVENIDA ZUMALACARREGUI (C.C. EROSKI), S/N","municipality":"Llodio","province":"ARABA/ÁLAVA","postalCode":"01400","schedule":"L-S: 07:30-21:30","fuels":{"gasoline95":1.629,"diesel":1.719,"dieselPremium":1.779},"extra":{"saleType":"P","margin":"I","reportingType":"dm","ideess":"32","idMunicipio":"30","idProvincia":"01","idCCAA":"16"}}},{"type":"Feature","geometry":{"type":"Point","coordinates":[-2.475278,43.070694]},"properties":{"id":"es-36","source":"ES","brand":"EROSKI","address":"BARRIO MUSAKOLA, S/N","municipality":"Arrasate/Mondragón","province":"GIPUZKOA","postalCode":"20500","schedule":"L-V: 07:00-21:30; S-D: 09:00-21:30","fuels":{"gasoline95":1.695,"diesel":1.779,"dieselPremium":1.879},"extra":{"saleType":"P","margin":"N","reportingType":"dm","ideess":"36","idMunicipio":"3142","idProvincia":"20","idCCAA":"16"}}},{"type":"Feature","geometry":{"type":"Point","coordinates":[-2.022194,43.276889]},"properties":{"id":"es-37","source":"ES","brand":"EROSKI","address":"CALLE TXIKIERDI, 7","municipality":"Usurbil","province":"GIPUZKOA","postalCode":"20170","schedule":"L-S: 07:00-22:30; D: 10:00-21:00","fuels":{"gasoline95":1.616,"diesel":1.716,"dieselPremium":1.816},"extra":{"saleType":"P","margin":"N","reportingType":"dm","ideess":"37","idMunicipio":"3205","idProvincia":"20","idCCAA":"16"}}},{"type":"Feature","geometry":{"type":"Point","coordinates":[-2.2175,43.035056]},"properties":{"id":"es-39","source":"ES","brand":"CARREFOUR","address":"POLIGONO INDUSTRIAL 201 BARRIO YURRE, S/N","municipality":"Olaberria","province":"GIPUZKOA","postalCode":"20212","schedule":"L-S: 07:00-21:00; D: 09:00-15:00","fuels":{"gasoline95":1.719,"gasoline98":1.939,"diesel":1.849,"dieselPremium":1.889},"extra":{"saleType":"P","margin":"N","reportingType":"dm","ideess":"39","idMunicipio":"3192","idProvincia":"20","idCCAA":"16"}}},{"type":"Feature","geometry":{"type":"Point","coordinates":[-2.671556,43.185778]},"properties":{"id":"es-4","source":"ES","brand":"SHELL","address":"CARRETERA N-634 KM. 84","municipality":"Iurreta","province":"BIZKAIA","postalCode":"48215","schedule":"L-V: 07:00-15:00","fuels":{"gasoline95":1.785,"gasoline98":1.925,"diesel":1.929,"dieselPremium":2.009,"adblue":1.25},"extra":{"saleType":"P","margin":"I","reportingType":"OM","ideess":"4","idMunicipio":"7515","idProvincia":"48","idCCAA":"16"}}},{"type":"Feature","geometry":{"type":"Point","coordinates":[-2.967611,43.031889]},"properties":{"id":"es-45","source":"ES","brand":"MOEVE","address":"CARRETERA A-624 KM. 37,8","municipality":"Amurrio","province":"ARABA/ÁLAVA","postalCode":"01450","schedule":"L-D: 06:00-22:00","fuels":{"gasoline95":1.804,"gasoline98":1.944,"diesel":1.954,"dieselPremium":2.074,"adblue":0.959},"extra":{"saleType":"P","margin":"D","reportingType":"dm","ideess":"45","idMunicipio":"2","idProvincia":"01","idCCAA":"16"}}},{"type":"Feature","geometry":{"type":"Point","coordinates":[-2.019028,43.257333]},"properties":{"id":"es-46","source":"ES","brand":"REPSOL","address":"CL CIRCUITO IBILBIDEA, 8 (N-1 km 455)","municipality":"Lasarte-Oria","province":"GIPUZKOA","postalCode":"20160","schedule":"L-D: 06:30-22:30","fuels":{"gasoline95":1.809,"gasoline98":1.939,"diesel":1.959,"dieselPremium":2.019},"extra":{"saleType":"P","margin":"I","reportingType":"dm","ideess":"46","idMunicipio":"3180","idProvincia":"20","idCCAA":"16"}}},{"type":"Feature","geometry":{"type":"Point","coordinates":[-2.068778,43.152861]},"properties":{"id":"es-52","source":"ES","brand":"PETRONOR","address":"CARRETERA NACIONAL 1 KM. 437","municipality":"Tolosa","province":"GIPUZKOA","postalCode":"20400","schedule":"L-D: 06:00-22:00","fuels":{"gasoline95":1.829,"gasoline98":1.999,"diesel":1.975,"dieselPremium":2.085},"extra":{"saleType":"P","margin":"D","reportingType":"OM","ideess":"52","idMunicipio":"3202","idProvincia":"20","idCCAA":"16"}}},{"type":"Feature","geometry":{"type":"Point","coordinates":[-2.435417,43.053583]},"properties":{"id":"es-55","source":"ES","brand":"REPSOL","address":" SANTXOLOPETEGI AUZOA, 25","municipality":"Oñati","province":"GIPUZKOA","postalCode":"20560","schedule":"L-D: 05:00-22:00","fuels":{"gasoline95":1.805,"gasoline98":1.975,"diesel":1.975,"dieselPremium":2.055,"dieselB":1.734},"extra":{"saleType":"P","margin":"D","reportingType":"OM","ideess":"55","idMunicipio":"3193","idProvincia":"20","idCCAA":"16"}}},{"type":"Feature","geometry":{"type":"Point","coordinates":[-2.055528,43.177167]},"properties":{"id":"es-61","source":"ES","brand":"REPSOL","address":"CR N-1, 440,7","municipality":"Villabona","province":"GIPUZKOA","postalCode":"20150","schedule":"L-D: 06:00-22:00","fuels":{"gasoline95":1.809,"gasoline98":1.949,"diesel":1.929,"dieselPremium":2.009,"dieselB":1.749,"adblue":1.249},"extra":{"saleType":"P","margin":"D","reportingType":"dm","ideess":"61","idMunicipio":"3206","idProvincia":"20","idCCAA":"16"}}},{"type":"Feature","geometry":{"type":"Point","coordinates":[-2.021972,43.252778]},"properties":{"id":"es-63","source":"ES","brand":"REPSOL","address":"AUTOVIA N-1 KM. 451,000","municipality":"Lasarte-Oria","province":"GIPUZKOA","postalCode":"20160","schedule":"L-D: 06:00-22:00","fuels":{"gasoline95":1.819,"gasoline98":1.939,"diesel":1.989,"dieselPremium":2.049},"extra":{"saleType":"P","margin":"D","reportingType":"OM","ideess":"63","idMunicipio":"3180","idProvincia":"20","idCCAA":"16"}}},{"type":"Feature","geometry":{"type":"Point","coordinates":[-2.163667,43.065889]},"properties":{"id":"es-64","source":"ES","brand":"REPSOL","address":"CR N-1, 423,3","municipality":"Itsasondo","province":"GIPUZKOA","postalCode":"20249","schedule":"L-D: 06:00-22:00","fuels":{"gasoline95":1.815,"gasoline98":1.985,"diesel":1.979,"dieselPremium":2.069},"extra":{"saleType":"P","margin":"D","reportingType":"OM","ideess":"64","idMunicipio":"3178","idProvincia":"20","idCCAA":"16"}}},{"type":"Feature","geometry":{"type":"Point","coordinates":[-2.158361,43.28325]},"properties":{"id":"es-65","source":"ES","brand":"PETRONOR","address":"CALLE ZUBIAURRE ZAHAR, 3","municipality":"Zarautz","province":"GIPUZKOA","postalCode":"20800","schedule":"L-D: 06:30-22:30","fuels":{"gasoline95":1.809,"gasoline98":1.939,"diesel":1.959,"dieselPremium":2.029},"extra":{"saleType":"P","margin":"D","reportingType":"dm","ideess":"65","idMunicipio":"3208","idProvincia":"20","idCCAA":"16"}}},{"type":"Feature","geometry":{"type":"Point","coordinates":[-2.341111,43.293806]},"properties":{"id":"es-67","source":"ES","brand":"GALP","address":"CARRETERA N 634 KM. 0","municipality":"Deba","province":"GIPUZKOA","postalCode":"20820","schedule":"L-D: 06:00-22:00","fuels":{"gasoline95":1.759,"diesel":1.879,"dieselPremium":1.929},"extra":{"saleType":"P","margin":"D","reportingType":"OM","ideess":"67","idMunicipio":"3156","idProvincia":"20","idCCAA":"16"}}},{"type":"Feature","geometry":{"type":"Point","coordinates":[-2.340833,43.294167]},"properties":{"id":"es-68","source":"ES","brand":"GALP","address":"CARRETERA N 634 KM. 41","municipality":"Deba","province":"GIPUZKOA","postalCode":"20820","schedule":"L-V: 08:00-20:00","fuels":{"gasoline95":1.759,"gasoline98":1.869,"diesel":1.879,"dieselPremium":1.929},"extra":{"saleType":"P","margin":"I","reportingType":"OM","ideess":"68","idMunicipio":"3156","idProvincia":"20","idCCAA":"16"}}},{"type":"Feature","geometry":{"type":"Point","coordinates":[-2.234583,43.045861]},"properties":{"id":"es-69","source":"ES","brand":"GALP","address":"CARRETERA GI-2632 KM. 2","municipality":"Beasain","province":"GIPUZKOA","postalCode":"20200","schedule":"L-V: 07:00-21:00; S: 07:00-15:00","fuels":{"gasoline95":1.719,"gasoline98":1.839,"diesel":1.859,"dieselB":1.639},"extra":{"saleType":"P","margin":"N","reportingType":"OM","ideess":"69","idMunicipio":"3149","idProvincia":"20","idCCAA":"16"}}},{"type":"Feature","geometry":{"type":"Point","coordinates":[-2.1765,43.015361]},"properties":{"id":"es-7","source":"ES","brand":"AVIA","address":"POLIGONO ZUBIKOETA, 1","municipality":"Ataun","province":"GIPUZKOA","postalCode":"20211","schedule":"L-D: 06:30-22:00","fuels":{"gasoline95":1.799,"gasoline98":1.959,"diesel":1.919,"dieselB":1.599},"extra":{"saleType":"P","margin":"D","reportingType":"dm","ideess":"7","idMunicipio":"3145","idProvincia":"20","idCCAA":"16"}}},{"type":"Feature","geometry":{"type":"Point","coordinates":[-2.328222,43.284944]},"properties":{"id":"es-70","source":"ES","brand":"AVIA","address":"AP-8 (MRG.IZDO.) km 55","municipality":"Deba","province":"GIPUZKOA","postalCode":"20829","schedule":"L-D: 24H","fuels":{"gasoline95":1.799,"gasoline98":1.919,"diesel":1.979,"dieselPremium":2.079,"adblue":0.999},"extra":{"saleType":"P","margin":"I","reportingType":"dm","ideess":"70","idMunicipio":"3156","idProvincia":"20","idCCAA":"16"}}},{"type":"Feature","geometry":{"type":"Point","coordinates":[-2.329861,43.284528]},"properties":{"id":"es-71","source":"ES","brand":"AVIA","address":"AP-8 (MRG.DCHO.) km 55","municipality":"Deba","province":"GIPUZKOA","postalCode":"20829","schedule":"L-D: 24H","fuels":{"gasoline95":1.799,"gasoline98":1.919,"diesel":1.979,"dieselPremium":2.079,"adblue":0.999},"extra":{"saleType":"P","margin":"D","reportingType":"dm","ideess":"71","idMunicipio":"3156","idProvincia":"20","idCCAA":"16"}}},{"type":"Feature","geometry":{"type":"Point","coordinates":[-2.219917,43.026472]},"properties":{"id":"es-74","source":"ES","brand":"BP OLABERRIA","address":"CARRETERA N-I MADRID-IRUN KM. 416","municipality":"Olaberria","province":"GIPUZKOA","postalCode":"20212","schedule":"L-D: 24H","fuels":{"gasoline95":1.759,"gasoline98":1.899,"diesel":1.899,"dieselPremium":1.989,"dieselRenewable":1.989,"adblue":1.135},"extra":{"saleType":"P","margin":"D","reportingType":"OM","ideess":"74","idMunicipio":"3192","idProvincia":"20","idCCAA":"16"}}},{"type":"Feature","geometry":{"type":"Point","coordinates":[-2.312889,43.087111]},"properties":{"id":"es-76","source":"ES","brand":"GALP","address":"CALLE ELIZ KALE, 0","municipality":"Zumarraga","province":"GIPUZKOA","postalCode":"20700","schedule":"L-D: 06:00-22:00","fuels":{"gasoline95":1.689,"gasoline95Premium":1.739,"diesel":1.729,"dieselPremium":1.779,"adblue":0.799},"extra":{"saleType":"P","margin":"N","reportingType":"OM","ideess":"76","idMunicipio":"3214","idProvincia":"20","idCCAA":"16"}}},{"type":"Feature","geometry":{"type":"Point","coordinates":[-2.029083,43.284833]},"properties":{"id":"es-77","source":"ES","brand":"MOEVE","address":"AUTOPISTA AP-8 (MRG.IZDO.) KM. 27,1","municipality":"Usurbil","province":"GIPUZKOA","postalCode":"20170","schedule":"L-D: 24H","fuels":{"gasoline95":1.834,"gasoline98":1.974,"diesel":2.004,"dieselPremium":2.104},"extra":{"saleType":"P","margin":"I","reportingType":"OM","ideess":"77","idMunicipio":"3205","idProvincia":"20","idCCAA":"16"}}},{"type":"Feature","geometry":{"type":"Point","coordinates":[-2.031889,43.286611]},"properties":{"id":"es-78","source":"ES","brand":"MOEVE","address":"AUTOPISTA AP-8 (MRG.DCHO.) KM. 27,1","municipality":"Usurbil","province":"GIPUZKOA","postalCode":"20170","schedule":"L-D: 06:00-22:00","fuels":{"gasoline95":1.834,"gasoline95Premium":1.934,"diesel":2.004,"dieselPremium":2.104,"dieselRenewable":2.144},"extra":{"saleType":"P","margin":"D","reportingType":"OM","ideess":"78","idMunicipio":"3205","idProvincia":"20","idCCAA":"16"}}},{"type":"Feature","geometry":{"type":"Point","coordinates":[-2.258778,43.189667]},"properties":{"id":"es-8","source":"ES","brand":"AVIA","address":"CR GI-631  P.K. 12,20 D","municipality":"Azpeitia","province":"GIPUZKOA","postalCode":"20730","schedule":"L-S: 06:00-22:00; D: 09:00-22:00","fuels":{"gasoline95":1.768,"gasoline98":1.87,"diesel":1.799,"dieselPremium":1.86,"adblue":0.9},"extra":{"saleType":"P","margin":"D","reportingType":"dm","ideess":"8","idMunicipio":"3147","idProvincia":"20","idCCAA":"16"}}},{"type":"Feature","geometry":{"type":"Point","coordinates":[-2.220417,43.050028]},"properties":{"id":"es-80","source":"ES","brand":"REPSOL","address":"CR GI-632, 1","municipality":"Beasain","province":"GIPUZKOA","postalCode":"20200","schedule":"L-S: 05:30-21:30; D: 07:00-21:30","fuels":{"gasoline95":1.815,"gasoline98":1.985,"diesel":1.985,"dieselRenewable":2.105},"extra":{"saleType":"P","margin":"D","reportingType":"OM","ideess":"80","idMunicipio":"3149","idProvincia":"20","idCCAA":"16"}}},{"type":"Feature","geometry":{"type":"Point","coordinates":[-2.411028,43.313833]},"properties":{"id":"es-8069","source":"ES","brand":"AVIA","address":"BARRIO MIJOA, ","municipality":"Mutriku","province":"GIPUZKOA","postalCode":"20830","schedule":"L-D: 07:00-22:00","fuels":{"gasoline95":1.809,"gasoline98":1.929,"diesel":1.929,"dieselPremium":1.949,"dieselB":1.649,"adblue":0.95},"extra":{"saleType":"P","margin":"I","reportingType":"dm","ideess":"8069","idMunicipio":"3190","idProvincia":"20","idCCAA":"16"}}},{"type":"Feature","geometry":{"type":"Point","coordinates":[-2.071278,43.145222]},"properties":{"id":"es-8369","source":"ES","brand":"AVIA","address":"CALLE LARRAMENDI, 28","municipality":"Tolosa","province":"GIPUZKOA","postalCode":"20400","schedule":"L-D: 06:00-22:00","fuels":{"gasoline95":1.739,"gasoline98":1.939,"diesel":1.859,"dieselB":1.769,"adblue":0.899},"extra":{"saleType":"P","margin":"N","reportingType":"dm","ideess":"8369","idMunicipio":"3202","idProvincia":"20","idCCAA":"16"}}},{"type":"Feature","geometry":{"type":"Point","coordinates":[-2.002111,43.299889]},"properties":{"id":"es-84","source":"ES","brand":"REPSOL","address":"CL AVENIDA DE TOLOSA, 188","municipality":"Donostia-San Sebastián","province":"GIPUZKOA","postalCode":"20009","schedule":"L-D: 24H","fuels":{"gasoline95":1.799,"gasoline95Premium":1.869,"gasoline98":1.929,"diesel":1.989,"dieselRenewable":2.109,"lpg":1.189},"extra":{"saleType":"P","margin":"I","reportingType":"OM","ideess":"84","idMunicipio":"3157","idProvincia":"20","idCCAA":"16"}}},{"type":"Feature","geometry":{"type":"Point","coordinates":[-2.685861,43.266222]},"properties":{"id":"es-8576","source":"ES","brand":"EASYGAS","address":"CARRETERA AMOREBIETA - GERNIKA KM. 26,400","municipality":"Muxika","province":"BIZKAIA","postalCode":"48392","schedule":"L-D: 24H","fuels":{"gasoline95":1.619,"diesel":1.739,"adblue":0.949},"extra":{"saleType":"P","margin":"D","reportingType":"dm","ideess":"8576","idMunicipio":"7541","idProvincia":"48","idCCAA":"16"}}},{"type":"Feature","geometry":{"type":"Point","coordinates":[-2.686306,43.265278]},"properties":{"id":"es-8577","source":"ES","brand":"EASYGAS","address":"CARRETERA AMOREBIETA - GERNIKA KM. 26,400","municipality":"Muxika","province":"BIZKAIA","postalCode":"48392","schedule":"L-D: 24H","fuels":{"gasoline95":1.619,"diesel":1.739},"extra":{"saleType":"P","margin":"I","reportingType":"dm","ideess":"8577","idMunicipio":"7541","idProvincia":"48","idCCAA":"16"}}},{"type":"Feature","geometry":{"type":"Point","coordinates":[-2.073278,43.277417]},"properties":{"id":"es-86","source":"ES","brand":"PETRONOR","address":"N-634     (BO. DE AGUINAGA) km 7,6","municipality":"Usurbil","province":"GIPUZKOA","postalCode":"20170","schedule":"L-D: 06:00-22:00","fuels":{"gasoline95":1.799,"gasoline98":1.969,"diesel":1.979,"dieselRenewable":2.099},"extra":{"saleType":"P","margin":"I","reportingType":"OM","ideess":"86","idMunicipio":"3205","idProvincia":"20","idCCAA":"16"}}},{"type":"Feature","geometry":{"type":"Point","coordinates":[-2.070472,43.271361]},"properties":{"id":"es-87","source":"ES","brand":"REPSOL","address":"CARRETERA NACIONAL 634 KM. 5,7","municipality":"Usurbil","province":"GIPUZKOA","postalCode":"20170","schedule":"L-D: 06:00-22:00","fuels":{"gasoline95":1.809,"diesel":1.959},"extra":{"saleType":"P","margin":"D","reportingType":"dm","ideess":"87","idMunicipio":"3205","idProvincia":"20","idCCAA":"16"}}},{"type":"Feature","geometry":{"type":"Point","coordinates":[-2.951361,43.148639]},"properties":{"id":"es-88","source":"ES","brand":"PETRONOR","address":"CL ARETA, 2","municipality":"Llodio","province":"ARABA/ÁLAVA","postalCode":"01400","schedule":"L-D: 06:00-22:00","fuels":{"gasoline95":1.839,"gasoline98":1.959,"diesel":1.985,"dieselRenewable":2.105},"extra":{"saleType":"P","margin":"D","reportingType":"OM","ideess":"88","idMunicipio":"30","idProvincia":"01","idCCAA":"16"}}},{"type":"Feature","geometry":{"type":"Point","coordinates":[-2.312056,43.176444]},"properties":{"id":"es-89","source":"ES","brand":"AVIA","address":"CALLE IBAI ONDO, 14","municipality":"Azkoitia","province":"GIPUZKOA","postalCode":"20720","schedule":"L-S: 06:00-22:00; D: 09:00-22:00","fuels":{"gasoline95":1.768,"diesel":1.799},"extra":{"saleType":"P","margin":"D","reportingType":"dm","ideess":"89","idMunicipio":"3146","idProvincia":"20","idCCAA":"16"}}},{"type":"Feature","geometry":{"type":"Point","coordinates":[-2.487861,43.180389]},"properties":{"id":"es-9","source":"ES","brand":"BALLENOIL","address":"CALLE TORREKUA, 02","municipality":"Eibar","province":"GIPUZKOA","postalCode":"20600","schedule":"L-D: 24H","fuels":{"gasoline95":1.639,"diesel":1.769},"extra":{"saleType":"P","margin":"D","reportingType":"OM","ideess":"9","idMunicipio":"3158","idProvincia":"20","idCCAA":"16"}}},{"type":"Feature","geometry":{"type":"Point","coordinates":[-2.332194,43.034694]},"properties":{"id":"es-90","source":"ES","brand":"CEPSA","address":"CALLE BIKUÑA, S/N","municipality":"Legazpi","province":"GIPUZKOA","postalCode":"20230","schedule":"L-S: 08:00-21:00; D: 08:00-14:30","fuels":{"gasoline95":1.819,"diesel":1.994,"dieselPremium":2.094},"extra":{"saleType":"P","margin":"D","reportingType":"dm","ideess":"90","idMunicipio":"3183","idProvincia":"20","idCCAA":"16"}}},{"type":"Feature","geometry":{"type":"Point","coordinates":[-2.852861,43.280111]},"properties":{"id":"es-9172","source":"ES","brand":"CEPSA","address":"BARRIO ARTEAGA, 17","municipality":"Zamudio","province":"BIZKAIA","postalCode":"48170","schedule":"L-D: 24H","fuels":{"gasoline95Premium":1.779,"dieselPremium":1.879,"adblue":1.059},"extra":{"saleType":"P","margin":"N","reportingType":"dm","ideess":"9172","idMunicipio":"7563","idProvincia":"48","idCCAA":"16"}}},{"type":"Feature","geometry":{"type":"Point","coordinates":[-2.896722,43.293278]},"properties":{"id":"es-9464","source":"ES","brand":"GASOLINERA ZAMUDIO","address":"CARRETERA N 637 KM. 4,4","municipality":"Zamudio","province":"BIZKAIA","postalCode":"48170","schedule":"L-D: 06:00-22:00","fuels":{"gasoline95":1.544,"diesel":1.664},"extra":{"saleType":"P","margin":"D","reportingType":"OM","ideess":"9464","idMunicipio":"7563","idProvincia":"48","idCCAA":"16"}}},{"type":"Feature","geometry":{"type":"Point","coordinates":[-2.258083,43.294833]},"properties":{"id":"es-96","source":"ES","brand":"CEPSA","address":"CALLE AXULAR IBILTOKIA, S/N","municipality":"Zumaia","province":"GIPUZKOA","postalCode":"20750","schedule":"L-V: 07:30-20:30; S: 08:00-14:00; D: 09:00-13:00","fuels":{"gasoline95":1.824,"diesel":1.994},"extra":{"saleType":"P","margin":"I","reportingType":"dm","ideess":"96","idMunicipio":"3213","idProvincia":"20","idCCAA":"16"}}},{"type":"Feature","geometry":{"type":"Point","coordinates":[-2.478333,43.067028]},"properties":{"id":"es-97","source":"ES","brand":"PETRONOR","address":"CL AVDA. DE GUIPUZCOA, 34","municipality":"Arrasate/Mondragón","province":"GIPUZKOA","postalCode":"20500","schedule":"L-S: 06:00-22:00; D: 08:00-20:00","fuels":{"gasoline95":1.799,"gasoline98":1.969,"diesel":1.975,"dieselRenewable":2.095},"extra":{"saleType":"P","margin":"D","reportingType":"OM","ideess":"97","idMunicipio":"3142","idProvincia":"20","idCCAA":"16"}}},{"type":"Feature","geometry":{"type":"Point","coordinates":[-2.903028,43.272611]},"properties":{"id":"es-9771","source":"ES","brand":"BP BILBAO - STO DOMINGO MI","address":"CARRERO BI-631 BILBAO BERMEO, 11","municipality":"Bilbao","province":"BIZKAIA","postalCode":"48015","schedule":"L-D: 06:00-22:00","fuels":{"gasoline95":1.769,"gasoline98":1.909,"diesel":1.899,"dieselPremium":1.989,"adblue":1.135},"extra":{"saleType":"P","margin":"I","reportingType":"OM","ideess":"9771","idMunicipio":"7484","idProvincia":"48","idCCAA":"16"}}}]}