{"type":"FeatureCollection","features":[{"type":"Feature","geometry":{"type":"Point","coordinates":[2.648028,39.643333]},"properties":{"id":"es-11560","source":"ES","brand":"REPSOL","address":"CARRETERA PM-111 KM. 8,6","municipality":"Valldemossa","province":"BALEARS (ILLES)","postalCode":"07170","schedule":"L-D: 06:00-22:00","fuels":{"gasoline95":1.805,"gasoline98":1.925,"diesel":1.939,"dieselB":1.645,"dieselRenewable":2.049},"extra":{"saleType":"P","margin":"D","reportingType":"OM","ideess":"11560","idMunicipio":"859","idProvincia":"07","idCCAA":"04"}}},{"type":"Feature","geometry":{"type":"Point","coordinates":[2.756889,39.647944]},"properties":{"id":"es-11617","source":"ES","brand":"REPSOL","address":"CARRETERA CR C-713  PALMA-PUERTO ALCUDIA KM. 13","municipality":"Marratxí","province":"BALEARS (ILLES)","postalCode":"07141","schedule":"L-D: 06:00-22:00","fuels":{"gasoline95":1.829,"gasoline98":1.949,"diesel":1.969,"dieselB":1.679,"dieselRenewable":2.089,"adblue":1.159},"extra":{"saleType":"P","margin":"D","reportingType":"dm","ideess":"11617","idMunicipio":"831","idProvincia":"07","idCCAA":"04"}}},{"type":"Feature","geometry":{"type":"Point","coordinates":[2.714194,39.572528]},"properties":{"id":"es-11995","source":"ES","brand":"REPSOL","address":"CALLE MANACOR, 309","municipality":"Palma de Mallorca","province":"BALEARS (ILLES)","postalCode":"07198","schedule":"L-D: 24H","fuels":{"gasoline95":1.819,"gasoline98":1.959,"diesel":1.939,"dieselRenewable":2.059},"extra":{"saleType":"P","margin":"I","reportingType":"dm","ideess":"11995","idMunicipio":"836","idProvincia":"07","idCCAA":"04"}}},{"type":"Feature","geometry":{"type":"Point","coordinates":[2.451583,39.544306]},"properties":{"id":"es-12188","source":"ES","brand":"MOEVE","address":"RONDA DE PEGUERA, SN","municipality":"Calvià","province":"BALEARS (ILLES)","postalCode":"07184","schedule":"L-D: 06:00-22:00","fuels":{"gasoline95":1.829,"gasoline95Premium":1.909,"diesel":1.959,"dieselPremium":2.039},"extra":{"saleType":"P","margin":"D","reportingType":"dm","ideess":"12188","idMunicipio":"805","idProvincia":"07","idCCAA":"04"}}},{"type":"Feature","geometry":{"type":"Point","coordinates":[2.735,39.535472]},"properties":{"id":"es-12410","source":"ES","brand":"REPSOL","address":"CAMINO SON FANGOS, 151","municipality":"Palma de Mallorca","province":"BALEARS (ILLES)","postalCode":"07610","schedule":"L-D: 24H","fuels":{"gasoline95":1.829,"gasoline98":1.999,"diesel":1.949,"dieselRenewable":2.049,"lpg":1.099,"adblue":1.149},"extra":{"saleType":"P","margin":"D","reportingType":"dm","ideess":"12410","idMunicipio":"836","idProvincia":"07","idCCAA":"04"}}},{"type":"Feature","geometry":{"type":"Point","coordinates":[2.658472,39.605528]},"properties":{"id":"es-12568","source":"ES","brand":"SET&GO","address":"CALLE GREMI SELLETERS I BASTERS, 12","municipality":"Palma de Mallorca","province":"BALEARS (ILLES)","postalCode":"07009","schedule":"L-D: 24H","fuels":{"gasoline95":1.709,"diesel":1.819,"lpg":0.999},"extra":{"saleType":"P","margin":"N","reportingType":"dm","ideess":"12568","idMunicipio":"836","idProvincia":"07","idCCAA":"04"}}},{"type":"Feature","geometry":{"type":"Point","coordinates":[2.490722,39.5685]},"properties":{"id":"es-12577","source":"ES","brand":"REPSOL BUTANO","address":"CARRETERA PMV-1031 KM. 1,5","municipality":"Calvià","province":"BALEARS (ILLES)","postalCode":"07184","schedule":"L-V: 09:00-16:00; S: 08:30-13:30","fuels":{"lpg":0.989},"extra":{"saleType":"P","margin":"I","reportingType":"dm","ideess":"12577","idMunicipio":"805","idProvincia":"07","idCCAA":"04"}}},{"type":"Feature","geometry":{"type":"Point","coordinates":[2.939861,39.731333]},"properties":{"id":"es-12579","source":"ES","brand":"REPSOL BUTANO","address":"CAMINO PUIG DE SANTA MAGDALENA, S/N","municipality":"Inca","province":"BALEARS (ILLES)","postalCode":"07300","schedule":"L-V: 08:00-18:30; S: 08:30-13:00","fuels":{"lpg":0.999},"extra":{"saleType":"P","margin":"D","reportingType":"dm","ideess":"12579","idMunicipio":"822","idProvincia":"07","idCCAA":"04"}}},{"type":"Feature","geometry":{"type":"Point","coordinates":[2.720917,39.565639]},"properties":{"id":"es-12582","source":"ES","brand":"REPSOL BUTANO","address":"CAMI LA MILANA, 49","municipality":"Palma de Mallorca","province":"BALEARS (ILLES)","postalCode":"07198","schedule":"L-D: 07:00-21:00","fuels":{"lpg":0.989},"extra":{"saleType":"P","margin":"I","reportingType":"dm","ideess":"12582","idMunicipio":"836","idProvincia":"07","idCCAA":"04"}}},{"type":"Feature","geometry":{"type":"Point","coordinates":[2.504611,39.529111]},"properties":{"id":"es-13135","source":"ES","brand":"BUGA 2000","address":"CARRER M.MEDITERRÀNIA, 24","municipality":"Calvià","province":"BALEARS (ILLES)","postalCode":"07180","schedule":"L-D: 06:00-23:00","fuels":{"gasoline95":1.668,"dieselPremium":1.798,"adblue":1.308},"extra":{"saleType":"P","margin":"I","reportingType":"dm","ideess":"13135","idMunicipio":"805","idProvincia":"07","idCCAA":"04"}}},{"type":"Feature","geometry":{"type":"Point","coordinates":[2.674778,39.589306]},"properties":{"id":"es-13162","source":"ES","brand":"AUTONET&OIL","address":"CALLE GABRIEL ALZAMORA, 25","municipality":"Palma de Mallorca","province":"BALEARS (ILLES)","postalCode":"07008","schedule":"L-D: 24H","fuels":{"gasoline95":1.719,"diesel":1.839},"extra":{"saleType":"P","margin":"D","reportingType":"dm","ideess":"13162","idMunicipio":"836","idProvincia":"07","idCCAA":"04"}}},{"type":"Feature","geometry":{"type":"Point","coordinates":[2.65825,39.600639]},"properties":{"id":"es-13184","source":"ES","brand":"AUTONET&OIL","address":"CALLE GREMI CIRUGIANS I BARBERS, 11","municipality":"Palma de Mallorca","province":"BALEARS (ILLES)","postalCode":"07009","schedule":"L-D: 24H","fuels":{"gasoline95":1.719,"diesel":1.839},"extra":{"saleType":"P","margin":"D","reportingType":"dm","ideess":"13184","idMunicipio":"836","idProvincia":"07","idCCAA":"04"}}},{"type":"Feature","geometry":{"type":"Point","coordinates":[2.685778,39.567083]},"properties":{"id":"es-13474","source":"ES","brand":"SHELL","address":"CALLE HORT DE SES ÀNIMES, 23","municipality":"Palma de Mallorca","province":"BALEARS (ILLES)","postalCode":"07007","schedule":"L-D: 24H","fuels":{"gasoline95":1.798,"gasoline98":1.948,"diesel":1.938,"dieselPremium":2.068},"extra":{"saleType":"P","margin":"D","reportingType":"dm","ideess":"13474","idMunicipio":"836","idProvincia":"07","idCCAA":"04"}}},{"type":"Feature","geometry":{"type":"Point","coordinates":[2.851556,39.686806]},"properties":{"id":"es-13538","source":"ES","brand":"EROSKI","address":"CARRETERA MA-13 A, ESQUINA CAMI AGUA KM. S/N","municipality":"Binissalem","province":"BALEARS (ILLES)","postalCode":"07350","schedule":"L-D: 24H","fuels":{"gasoline95":1.699,"diesel":1.779},"extra":{"saleType":"P","margin":"N","reportingType":"dm","ideess":"13538","idMunicipio":"802","idProvincia":"07","idCCAA":"04"}}},{"type":"Feature","geometry":{"type":"Point","coordinates":[2.704222,39.552167]},"properties":{"id":"es-13602","source":"ES","brand":"CARREFOUR","address":"AVENIDA CARDENAL ROSELL,, S/N","municipality":"Palma de Mallorca","province":"BALEARS (ILLES)","postalCode":"07007","schedule":"L-S: 08:00-22:00; D: 09:00-21:00","fuels":{"gasoline95":1.739,"gasoline98":1.899,"diesel":1.879,"dieselPremium":1.919},"extra":{"saleType":"P","margin":"N","reportingType":"dm","ideess":"13602","idMunicipio":"836","idProvincia":"07","idCCAA":"04"}}},{"type":"Feature","geometry":{"type":"Point","coordinates":[2.673639,39.591583]},"properties":{"id":"es-13713","source":"ES","brand":"SHELL","address":"CALLE GUADIANA, 45","municipality":"Palma de Mallorca","province":"BALEARS (ILLES)","postalCode":"07009","schedule":"L-S: 06:30-22:00","fuels":{"gasoline95":1.764,"gasoline98":1.904,"diesel":1.889,"dieselPremium":1.969},"extra":{"saleType":"P","margin":"N","reportingType":"OM","ideess":"13713","idMunicipio":"836","idProvincia":"07","idCCAA":"04"}}},{"type":"Feature","geometry":{"type":"Point","coordinates":[2.68,39.566222]},"properties":{"id":"es-14128","source":"ES","brand":"AUTONETOIL","address":"CARRER DE SON PENDOLA, 1","municipality":"Palma de Mallorca","province":"BALEARS (ILLES)","postalCode":"07007","schedule":"L-D: 24H","fuels":{"gasoline95":1.709,"diesel":1.829,"dieselPremium":1.859,"adblue":1.209},"extra":{"saleType":"P","margin":"D","reportingType":"dm","ideess":"14128","idMunicipio":"836","idProvincia":"07","idCCAA":"04"}}},{"type":"Feature","geometry":{"type":"Point","coordinates":[2.907,39.714194]},"properties":{"id":"es-14143","source":"ES","brand":"AUTONETOIL","address":"CALLE JOAN DE AUSTRIA, 72","municipality":"Inca","province":"BALEARS (ILLES)","postalCode":"07300","schedule":"L-D: 24H","fuels":{"gasoline95":1.689,"diesel":1.789,"dieselPremium":1.819},"extra":{"saleType":"P","margin":"D","reportingType":"dm","ideess":"14143","idMunicipio":"822","idProvincia":"07","idCCAA":"04"}}},{"type":"Feature","geometry":{"type":"Point","coordinates":[2.632778,39.595056]},"properties":{"id":"es-14218","source":"ES","brand":"AUTONETOIL","address":"CALLE POIMA, 12","municipality":"Palma de Mallorca","province":"BALEARS (ILLES)","postalCode":"07011","schedule":"L-D: 24H","fuels":{"gasoline95":1.719,"diesel":1.839,"dieselPremium":1.869},"extra":{"saleType":"P","margin":"D","reportingType":"dm","ideess":"14218","idMunicipio":"836","idProvincia":"07","idCCAA":"04"}}},{"type":"Feature","geometry":{"type":"Point","coordinates":[2.715056,39.618611]},"properties":{"id":"es-14289","source":"ES","brand":"SHELL","address":"CARRER CAMÍ DE MUNTANYA ESQ CARRER CELLETERS, S/N","municipality":"Marratxí","province":"BALEARS (ILLES)","postalCode":"07141","schedule":"L-D: 06:00-00:00","fuels":{"gasoline95":1.729,"diesel":1.849,"adblue":1.52},"extra":{"saleType":"P","margin":"D","reportingType":"OM","ideess":"14289","idMunicipio":"831","idProvincia":"07","idCCAA":"04"}}},{"type":"Feature","geometry":{"type":"Point","coordinates":[2.870417,39.7035]},"properties":{"id":"es-14342","source":"ES","brand":"SHELL","address":"CARRER SABATERS, SN","municipality":"Lloseta","province":"BALEARS (ILLES)","postalCode":"07360","schedule":"L-D: 24H","fuels":{"gasoline95":1.789,"gasoline98":1.899,"diesel":1.919,"dieselPremium":1.999},"extra":{"saleType":"P","margin":"D","reportingType":"dm","ideess":"14342","idMunicipio":"824","idProvincia":"07","idCCAA":"04"}}},{"type":"Feature","geometry":{"type":"Point","coordinates":[2.667889,39.607194]},"properties":{"id":"es-14411","source":"ES","brand":"GALP","address":"GRAN VÍA ASIMA, 23","municipality":"Palma de Mallorca","province":"BALEARS (ILLES)","postalCode":"07009","schedule":"L-D: 24H","fuels":{"gasoline95":1.809,"diesel":1.929},"extra":{"saleType":"P","margin":"D","reportingType":"dm","ideess":"14411","idMunicipio":"836","idProvincia":"07","idCCAA":"04"}}},{"type":"Feature","geometry":{"type":"Point","coordinates":[2.634139,39.591278]},"properties":{"id":"es-15098","source":"ES","brand":"SHELL","address":"CALLE CAMI DE JESUS, 10","municipality":"Palma de Mallorca","province":"BALEARS (ILLES)","postalCode":"07011","schedule":"L-D: 24H","fuels":{"gasoline95":1.799,"gasoline98":1.939,"diesel":1.919,"dieselPremium":1.999,"lpg":1.029,"adblue":1.52},"extra":{"saleType":"P","margin":"N","reportingType":"OM","ideess":"15098","idMunicipio":"836","idProvincia":"07","idCCAA":"04"}}},{"type":"Feature","geometry":{"type":"Point","coordinates":[2.679611,39.574417]},"properties":{"id":"es-15248","source":"ES","brand":"GALP","address":"CALLE GEORGE SAND, 4","municipality":"Palma de Mallorca","province":"BALEARS (ILLES)","postalCode":"07007","schedule":"L-D: 24H","fuels":{"gasoline95":1.799,"diesel":1.909,"dieselPremium":1.909,"adblue":1.2},"extra":{"saleType":"P","margin":"D","reportingType":"dm","ideess":"15248","idMunicipio":"836","idProvincia":"07","idCCAA":"04"}}},{"type":"Feature","geometry":{"type":"Point","coordinates":[2.734833,39.527111]},"properties":{"id":"es-15537","source":"ES","brand":"V2 GASOLINERAS","address":"CARRER MARBELLA, 29","municipality":"Palma de Mallorca","province":"BALEARS (ILLES)","postalCode":"07610","schedule":"L-D: 24H","fuels":{"gasoline95":1.829,"gasoline98":1.929,"diesel":1.859,"dieselPremium":1.959},"extra":{"saleType":"P","margin":"I","reportingType":"dm","ideess":"15537","idMunicipio":"836","idProvincia":"07","idCCAA":"04"}}},{"type":"Feature","geometry":{"type":"Point","coordinates":[2.709083,39.552417]},"properties":{"id":"es-15569","source":"ES","brand":"SET&GO","address":"ZONA COLL DEN RABASSA 31, POLIGONO 48 PARCELA 23, 31","municipality":"Palma de Mallorca","province":"BALEARS (ILLES)","postalCode":"07007","schedule":"L-D: 24H","fuels":{"gasoline95":1.709,"diesel":1.819,"dieselB":1.509,"adblue":0.95},"extra":{"saleType":"P","margin":"N","reportingType":"dm","ideess":"15569","idMunicipio":"836","idProvincia":"07","idCCAA":"04"}}},{"type":"Feature","geometry":{"type":"Point","coordinates":[2.745694,39.477861]},"properties":{"id":"es-15762","source":"ES","brand":"BP SON GRANADA","address":"CARRETERA MA-6014 KM. 3,6","municipality":"Llucmajor","province":"BALEARS (ILLES)","postalCode":"07609","schedule":"L-D: 06:00-22:00","fuels":{"gasoline95":1.829,"gasoline98":1.949,"diesel":1.939,"dieselPremium":2.049,"adblue":1.29},"extra":{"saleType":"P","margin":"I","reportingType":"dm","ideess":"15762","idMunicipio":"826","idProvincia":"07","idCCAA":"04"}}},{"type":"Feature","geometry":{"type":"Point","coordinates":[2.685333,39.566556]},"properties":{"id":"es-15894","source":"ES","brand":"V2 GASOLINERAS","address":"CARRER HORT DE LES ANIMES, 30","municipality":"Palma de Mallorca","province":"BALEARS (ILLES)","postalCode":"07007","schedule":"L-D: 24H","fuels":{"gasoline95":1.829,"gasoline98":1.929,"diesel":1.859,"dieselPremium":1.959},"extra":{"saleType":"P","margin":"D","reportingType":"dm","ideess":"15894","idMunicipio":"836","idProvincia":"07","idCCAA":"04"}}},{"type":"Feature","geometry":{"type":"Point","coordinates":[2.70325,39.769944]},"properties":{"id":"es-16066","source":"ES","brand":"JUST FUEL","address":"CALLE MANUEL CARRASCOSA, 10","municipality":"Sóller","province":"BALEARS (ILLES)","postalCode":"07100","schedule":"L-D: 24H","fuels":{"gasoline95":1.679,"diesel":1.779},"extra":{"saleType":"P","margin":"D","reportingType":"dm","ideess":"16066","idMunicipio":"857","idProvincia":"07","idCCAA":"04"}}},{"type":"Feature","geometry":{"type":"Point","coordinates":[2.715056,39.618333]},"properties":{"id":"es-16115","source":"ES","brand":"PLENERGY","address":"CAMINO DE MONTANA, 11","municipality":"Marratxí","province":"BALEARS (ILLES)","postalCode":"07141","schedule":"L-D: 24H","fuels":{"gasoline95":1.719,"diesel":1.839},"extra":{"saleType":"P","margin":"D","reportingType":"dm","ideess":"16115","idMunicipio":"831","idProvincia":"07","idCCAA":"04"}}},{"type":"Feature","geometry":{"type":"Point","coordinates":[2.915056,39.716417]},"properties":{"id":"es-16136","source":"ES","brand":"MOEVE","address":"CALLE BERENGUER D'ANOIA, 50","municipality":"Inca","province":"BALEARS (ILLES)","postalCode":"07300","schedule":"L-D: 24H","fuels":{"gasoline95":1.779,"gasoline98":1.879,"diesel":1.919,"dieselPremium":2.019,"adblue":1.159},"extra":{"saleType":"P","margin":"D","reportingType":"dm","ideess":"16136","idMunicipio":"822","idProvincia":"07","idCCAA":"04"}}},{"type":"Feature","geometry":{"type":"Point","coordinates":[2.901778,39.710083]},"properties":{"id":"es-16198","source":"ES","brand":"PLENERGY","address":"CALLE DEL GRAL. LUQUE, S/N","municipality":"Inca","province":"BALEARS (ILLES)","postalCode":"07300","schedule":"L-D: 24H","fuels":{"gasoline95":1.689,"diesel":1.789},"extra":{"saleType":"P","margin":"D","reportingType":"dm","ideess":"16198","idMunicipio":"822","idProvincia":"07","idCCAA":"04"}}},{"type":"Feature","geometry":{"type":"Point","coordinates":[2.735056,39.532222]},"properties":{"id":"es-16373","source":"ES","brand":"PLENERGY","address":"CALLE DE SAMIL, 59","municipality":"Palma de Mallorca","province":"BALEARS (ILLES)","postalCode":"07070","schedule":"L-D: 24H","fuels":{"gasoline95":1.735,"diesel":1.829},"extra":{"saleType":"P","margin":"D","reportingType":"dm","ideess":"16373","idMunicipio":"836","idProvincia":"07","idCCAA":"04"}}},{"type":"Feature","geometry":{"type":"Point","coordinates":[2.839972,39.686861]},"properties":{"id":"es-2409","source":"ES","brand":"REPSOL","address":"CALLE RECH ESQ CREU, S/N","municipality":"Binissalem","province":"BALEARS (ILLES)","postalCode":"07350","schedule":"L-D: 06:00-22:00","fuels":{"gasoline95":1.799,"diesel":1.939},"extra":{"saleType":"P","margin":"D","reportingType":"dm","ideess":"2409","idMunicipio":"802","idProvincia":"07","idCCAA":"04"}}},{"type":"Feature","geometry":{"type":"Point","coordinates":[2.674917,39.602361]},"properties":{"id":"es-2410","source":"ES","brand":"REPSOL","address":"CALLE CAMI VELL DE NUBYOLA, S/N","municipality":"Palma de Mallorca","province":"BALEARS (ILLES)","postalCode":"07009","schedule":"L-D: 06:00-22:00","fuels":{"gasoline95":1.819,"gasoline98":1.959,"diesel":1.939,"dieselRenewable":2.059},"extra":{"saleType":"P","margin":"D","reportingType":"dm","ideess":"2410","idMunicipio":"836","idProvincia":"07","idCCAA":"04"}}},{"type":"Feature","geometry":{"type":"Point","coordinates":[2.626444,39.565778]},"properties":{"id":"es-2565","source":"ES","brand":"MOEVE","address":"AVENIDA JOAN MIRO, 22","municipality":"Palma de Mallorca","province":"BALEARS (ILLES)","postalCode":"07014","schedule":"L-D: 06:00-22:00","fuels":{"gasoline95":1.804,"gasoline95Premium":1.924,"diesel":1.954,"dieselPremium":2.044},"extra":{"saleType":"P","margin":"D","reportingType":"OM","ideess":"2565","idMunicipio":"836","idProvincia":"07","idCCAA":"04"}}},{"type":"Feature","geometry":{"type":"Point","coordinates":[2.663583,39.629778]},"properties":{"id":"es-2573","source":"ES","brand":"REPSOL","address":"CARRETERA C-711 PALMA-SOLLER KM. 7","municipality":"Palma de Mallorca","province":"BALEARS (ILLES)","postalCode":"07120","schedule":"L-S: 07:00-22:00; D: 08:00-22:00","fuels":{"gasoline95":1.795,"gasoline98":1.915,"diesel":1.939,"dieselPremium":1.999},"extra":{"saleType":"P","margin":"D","reportingType":"OM","ideess":"2573","idMunicipio":"836","idProvincia":"07","idCCAA":"04"}}},{"type":"Feature","geometry":{"type":"Point","coordinates":[2.789389,39.493778]},"properties":{"id":"es-2574","source":"ES","brand":"REPSOL","address":"CARRETERA PM-602 KM. 8,2","municipality":"Llucmajor","province":"BALEARS (ILLES)","postalCode":"07620","schedule":"L-D: 06:00-22:00","fuels":{"gasoline95":1.819,"gasoline95Premium":1.879,"gasoline98":1.939,"diesel":1.949,"dieselRenewable":2.069,"lpg":1.145},"extra":{"saleType":"P","margin":"I","reportingType":"OM","ideess":"2574","idMunicipio":"826","idProvincia":"07","idCCAA":"04"}}},{"type":"Feature","geometry":{"type":"Point","coordinates":[2.988139,39.560806]},"properties":{"id":"es-2578","source":"ES","brand":"BP","address":"CARRETERA MA-15 KM. 29,320","municipality":"Montuïri","province":"BALEARS (ILLES)","postalCode":"07230","schedule":"L-S: 06:00-22:00; D: 08:00-21:00","fuels":{"gasoline95":1.809,"gasoline98":1.949,"diesel":1.949,"dieselPremium":2.019,"dieselB":1.629,"adblue":1.219},"extra":{"saleType":"P","margin":"I","reportingType":"dm","ideess":"2578","idMunicipio":"834","idProvincia":"07","idCCAA":"04"}}},{"type":"Feature","geometry":{"type":"Point","coordinates":[2.865222,39.707667]},"properties":{"id":"es-2582","source":"ES","brand":"CEPSA","address":"CARRETERA PM-V-211-1 KM. 1,5","municipality":"Lloseta","province":"BALEARS (ILLES)","postalCode":"07360","schedule":"L-D: 06:00-22:00","fuels":{"gasoline95":1.709,"gasoline95Premium":1.799,"diesel":1.839,"dieselPremium":1.929},"extra":{"saleType":"P","margin":"D","reportingType":"dm","ideess":"2582","idMunicipio":"824","idProvincia":"07","idCCAA":"04"}}},{"type":"Feature","geometry":{"type":"Point","coordinates":[2.507667,39.559833]},"properties":{"id":"es-2583","source":"ES","brand":"MOEVE","address":"CARRETERA PALMA NOVA - CALVIA KM. 5,5","municipality":"Calvià","province":"BALEARS (ILLES)","postalCode":"07184","schedule":"L-D: 06:00-22:00","fuels":{"gasoline95":1.779,"gasoline98":1.879,"diesel":1.919,"dieselPremium":2.019},"extra":{"saleType":"P","margin":"I","reportingType":"dm","ideess":"2583","idMunicipio":"805","idProvincia":"07","idCCAA":"04"}}},{"type":"Feature","geometry":{"type":"Point","coordinates":[2.656056,39.606667]},"properties":{"id":"es-2584","source":"ES","brand":"REPSOL","address":"CALLE GREMI SUCRERS Y CANDELERS, 5","municipality":"Palma de Mallorca","province":"BALEARS (ILLES)","postalCode":"07009","schedule":"L-S: 06:00-22:00; D: 06:00-14:00","fuels":{"gasoline95":1.819,"gasoline95Premium":1.889,"gasoline98":1.959,"diesel":1.939,"dieselRenewable":2.059,"lpg":1.049,"adblue":1.219},"extra":{"saleType":"P","margin":"D","reportingType":"dm","ideess":"2584","idMunicipio":"836","idProvincia":"07","idCCAA":"04"}}},{"type":"Feature","geometry":{"type":"Point","coordinates":[2.831722,39.483944]},"properties":{"id":"es-2586","source":"ES","brand":"REPSOL","address":"CARRETERA PM-602 KM. 5","municipality":"Llucmajor","province":"BALEARS (ILLES)","postalCode":"07600","schedule":"L-D: 06:00-22:00","fuels":{"gasoline95":1.825,"gasoline98":1.945,"diesel":1.955,"dieselRenewable":2.075},"extra":{"saleType":"P","margin":"D","reportingType":"OM","ideess":"2586","idMunicipio":"826","idProvincia":"07","idCCAA":"04"}}},{"type":"Feature","geometry":{"type":"Point","coordinates":[2.678806,39.581722]},"properties":{"id":"es-2587","source":"ES","brand":"CEPSA","address":"CALLE BINIAMAR, 16","municipality":"Palma de Mallorca","province":"BALEARS (ILLES)","postalCode":"07008","schedule":"L-D: 06:00-22:00","fuels":{"gasoline95":1.799,"gasoline95Premium":1.849,"gasoline98":1.899,"diesel":1.919,"dieselPremium":1.989},"extra":{"saleType":"P","margin":"D","reportingType":"dm","ideess":"2587","idMunicipio":"836","idProvincia":"07","idCCAA":"04"}}},{"type":"Feature","geometry":{"type":"Point","coordinates":[2.794917,39.702167]},"properties":{"id":"es-2592","source":"ES","brand":"CEPSA","address":"AVENIDA DE LA CONSTITUCIO, 95","municipality":"Alaró","province":"BALEARS (ILLES)","postalCode":"07340","schedule":"L-D: 07:00-21:00","fuels":{"gasoline95":1.829,"gasoline95Premium":1.939,"diesel":1.959,"dieselPremium":2.059},"extra":{"saleType":"P","margin":"N","reportingType":"dm","ideess":"2592","idMunicipio":"795","idProvincia":"07","idCCAA":"04"}}},{"type":"Feature","geometry":{"type":"Point","coordinates":[2.518611,39.509111]},"properties":{"id":"es-2595","source":"ES","brand":"REPSOL","address":"CARRETERA CALA FIGUERA KM. S/N","municipality":"Calvià","province":"BALEARS (ILLES)","postalCode":"07181","schedule":"L-D: 24H","fuels":{"gasoline95":1.835,"gasoline98":1.955,"diesel":1.955,"dieselRenewable":2.075},"extra":{"saleType":"P","margin":"D","reportingType":"OM","ideess":"2595","idMunicipio":"805","idProvincia":"07","idCCAA":"04"}}},{"type":"Feature","geometry":{"type":"Point","coordinates":[2.753389,39.511639]},"properties":{"id":"es-2597","source":"ES","brand":"BP","address":"AVENIDA AMERICA, ARENAL, 18","municipality":"Palma de Mallorca","province":"BALEARS (ILLES)","postalCode":"07006","schedule":"L-D: 24H","fuels":{"gasoline95":1.829,"gasoline98":1.949,"diesel":1.969,"dieselPremium":2.039},"extra":{"saleType":"P","margin":"D","reportingType":"dm","ideess":"2597","idMunicipio":"836","idProvincia":"07","idCCAA":"04"}}},{"type":"Feature","geometry":{"type":"Point","coordinates":[2.834306,39.612667]},"properties":{"id":"es-2602","source":"ES","brand":"SHELL","address":"CARRETERA VELLA DE SINEU PMV3011 KM. 15,5","municipality":"Santa Eugènia","province":"BALEARS (ILLES)","postalCode":"07142","schedule":"L-D: 06:00-21:00","fuels":{"gasoline95":1.799,"gasoline98":1.906,"diesel":1.949,"dieselPremium":1.996,"dieselB":1.636},"extra":{"saleType":"P","margin":"I","reportingType":"dm","ideess":"2602","idMunicipio":"849","idProvincia":"07","idCCAA":"04"}}},{"type":"Feature","geometry":{"type":"Point","coordinates":[2.69025,39.712667]},"properties":{"id":"es-2604","source":"ES","brand":"MOEVE","address":"CARRETERA C-711 KM. 16,5","municipality":"Bunyola","province":"BALEARS (ILLES)","postalCode":"07110","schedule":"L-D: 06:30-22:00","fuels":{"gasoline95":1.859,"gasoline95Premium":1.959,"diesel":1.989,"dieselPremium":2.059},"extra":{"saleType":"P","margin":"D","reportingType":"dm","ideess":"2604","idMunicipio":"804","idProvincia":"07","idCCAA":"04"}}},{"type":"Feature","geometry":{"type":"Point","coordinates":[2.719972,39.536722]},"properties":{"id":"es-2606","source":"ES","brand":"BP","address":"CALLE TRAMUNTANA, S/N","municipality":"Palma de Mallorca","province":"BALEARS (ILLES)","postalCode":"07610","schedule":"L-D: 24H","fuels":{"gasoline95":1.829,"gasoline98":1.949,"diesel":1.969,"dieselPremium":2.039},"extra":{"saleType":"P","margin":"D","reportingType":"dm","ideess":"2606","idMunicipio":"836","idProvincia":"07","idCCAA":"04"}}},{"type":"Feature","geometry":{"type":"Point","coordinates":[2.63075,39.583]},"properties":{"id":"es-2609","source":"ES","brand":"REPSOL","address":"CAMINO VILETA (LA), S/N","municipality":"Palma de Mallorca","province":"BALEARS (ILLES)","postalCode":"07011","schedule":"L-S: 06:00-23:59; D: 06:00-22:00","fuels":{"gasoline95":1.819,"gasoline95Premium":1.889,"gasoline98":1.939,"diesel":1.945,"dieselRenewable":2.065},"extra":{"saleType":"P","margin":"D","reportingType":"OM","ideess":"2609","idMunicipio":"836","idProvincia":"07","idCCAA":"04"}}},{"type":"Feature","geometry":{"type":"Point","coordinates":[2.652889,39.586417]},"properties":{"id":"es-2610","source":"ES","brand":"REPSOL","address":"CALLE CAPITAN SALOM, 31","municipality":"Palma de Mallorca","province":"BALEARS (ILLES)","postalCode":"07004","schedule":"L-D: 24H","fuels":{"gasoline95":1.829,"gasoline98":1.949,"diesel":1.969,"dieselRenewable":2.039},"extra":{"saleType":"P","margin":"D","reportingType":"dm","ideess":"2610","idMunicipio":"836","idProvincia":"07","idCCAA":"04"}}},{"type":"Feature","geometry":{"type":"Point","coordinates":[2.636444,39.579306]},"properties":{"id":"es-2611","source":"ES","brand":"BP ES FORTI","address":"CALLE PASCUAL RIBOT, S/N","municipality":"Palma de Mallorca","province":"BALEARS (ILLES)","postalCode":"07013","schedule":"L-D: 06:00-22:00","fuels":{"gasoline95":1.829,"gasoline98":1.965,"diesel":1.949,"dieselPremium":2.039},"extra":{"saleType":"P","margin":"N","reportingType":"dm","ideess":"2611","idMunicipio":"836","idProvincia":"07","idCCAA":"04"}}},{"type":"Feature","geometry":{"type":"Point","coordinates":[2.688333,39.570083]},"properties":{"id":"es-2612","source":"ES","brand":"REPSOL","address":"CARRETERA C-715 KM. 2,7","municipality":"Palma de Mallorca","province":"BALEARS (ILLES)","postalCode":"07007","schedule":"L-D: 06:00-22:00","fuels":{"gasoline95":1.815,"gasoline95Premium":1.885,"gasoline98":1.935,"diesel":1.949,"dieselRenewable":2.059},"extra":{"saleType":"P","margin":"D","reportingType":"OM","ideess":"2612","idMunicipio":"836","idProvincia":"07","idCCAA":"04"}}},{"type":"Feature","geometry":{"type":"Point","coordinates":[2.668944,39.593333]},"properties":{"id":"es-2613","source":"ES","brand":"MOEVE","address":"CARRETERA VIEJA DE BUÑOLA KM. 15","municipality":"Palma de Mallorca","province":"BALEARS (ILLES)","postalCode":"07009","schedule":"L-D: 06:00-22:00","fuels":{"gasoline95":1.804,"gasoline95Premium":1.924,"diesel":1.954,"dieselPremium":2.044},"extra":{"saleType":"P","margin":"D","reportingType":"OM","ideess":"2613","idMunicipio":"836","idProvincia":"07","idCCAA":"04"}}},{"type":"Feature","geometry":{"type":"Point","coordinates":[2.634639,39.605028]},"properties":{"id":"es-2615","source":"ES","brand":"REPSOL","address":"CALLE CORONEL BEORLEGUI, 49","municipality":"Palma de Mallorca","province":"BALEARS (ILLES)","postalCode":"07010","schedule":"L-D: 06:00-22:00","fuels":{"gasoline95":1.819,"gasoline98":1.959,"diesel":1.939,"dieselRenewable":2.059},"extra":{"saleType":"P","margin":"D","reportingType":"dm","ideess":"2615","idMunicipio":"836","idProvincia":"07","idCCAA":"04"}}},{"type":"Feature","geometry":{"type":"Point","coordinates":[2.58825,39.659278]},"properties":{"id":"es-2617","source":"ES","brand":"REPSOL","address":"CARRETERA PM104 KM. 12,8","municipality":"Esporles","province":"BALEARS (ILLES)","postalCode":"07190","schedule":"L-V: 06:30-21:30; S: 07:00-21:00; D: 08:00-21:00","fuels":{"gasoline95":1.819,"gasoline98":1.931,"diesel":1.939,"dieselRenewable":2.053,"adblue":1.139},"extra":{"saleType":"P","margin":"D","reportingType":"dm","ideess":"2617","idMunicipio":"816","idProvincia":"07","idCCAA":"04"}}},{"type":"Feature","geometry":{"type":"Point","coordinates":[2.633472,39.593]},"properties":{"id":"es-2618","source":"ES","brand":"MOEVE","address":"CALLE CAMINO DE LOS REYES, 201","municipality":"Palma de Mallorca","province":"BALEARS (ILLES)","postalCode":"07010","schedule":"L-D: 24H","fuels":{"gasoline95":1.804,"gasoline95Premium":1.924,"gasoline98":1.964,"diesel":1.954,"dieselPremium":2.044},"extra":{"saleType":"P","margin":"D","reportingType":"OM","ideess":"2618","idMunicipio":"836","idProvincia":"07","idCCAA":"04"}}},{"type":"Feature","geometry":{"type":"Point","coordinates":[2.660667,39.582056]},"properties":{"id":"es-2619","source":"ES","brand":"REPSOL","address":"CALLE EUSEBIO ESTADA, 64","municipality":"Palma de Mallorca","province":"BALEARS (ILLES)","postalCode":"07004","schedule":"L-S: 06:00-22:00; D: 06:00-14:00","fuels":{"gasoline95":1.819,"gasoline98":1.959,"diesel":1.939,"dieselRenewable":2.059},"extra":{"saleType":"P","margin":"D","reportingType":"dm","ideess":"2619","idMunicipio":"836","idProvincia":"07","idCCAA":"04"}}},{"type":"Feature","geometry":{"type":"Point","coordinates":[2.75975,39.501]},"properties":{"id":"es-2621","source":"ES","brand":"CEPSA","address":"CALLE SAN CRISTOBAL, S/N","municipality":"Llucmajor","province":"BALEARS (ILLES)","postalCode":"07620","schedule":"L-D: 06:00-21:00","fuels":{"gasoline95":1.829,"gasoline95Premium":1.889,"diesel":1.969,"dieselPremium":2.059},"extra":{"saleType":"P","margin":"D","reportingType":"dm","ideess":"2621","idMunicipio":"826","idProvincia":"07","idCCAA":"04"}}},{"type":"Feature","geometry":{"type":"Point","coordinates":[2.89,39.812444]},"properties":{"id":"es-2625","source":"ES","brand":"REPSOL","address":"CARRETERA PM - 213 KM. 14,8","municipality":"Escorca","province":"BALEARS (ILLES)","postalCode":"07315","schedule":"L-D: 24H","fuels":{"gasoline95":1.829,"gasoline98":1.969,"diesel":1.949},"extra":{"saleType":"P","margin":"D","reportingType":"dm","ideess":"2625","idMunicipio":"815","idProvincia":"07","idCCAA":"04"}}},{"type":"Feature","geometry":{"type":"Point","coordinates":[2.659194,39.580194]},"properties":{"id":"es-2631","source":"ES","brand":"BP BALMES","address":"CALLE JAUME BALMES, 44","municipality":"Palma de Mallorca","province":"BALEARS (ILLES)","postalCode":"07004","schedule":"L-D: 06:30-22:30","fuels":{"gasoline95":1.819,"gasoline98":1.959,"diesel":1.939,"dieselPremium":2.029},"extra":{"saleType":"P","margin":"N","reportingType":"dm","ideess":"2631","idMunicipio":"836","idProvincia":"07","idCCAA":"04"}}},{"type":"Feature","geometry":{"type":"Point","coordinates":[2.749361,39.521167]},"properties":{"id":"es-2632","source":"ES","brand":"CEPSA","address":"CAMINO DE LAS MARAVILLA, S/N","municipality":"Palma de Mallorca","province":"BALEARS (ILLES)","postalCode":"07608","schedule":"L-D: 06:00-21:00","fuels":{"gasoline95":1.829,"gasoline95Premium":1.889,"diesel":1.969,"dieselPremium":2.049},"extra":{"saleType":"P","margin":"D","reportingType":"dm","ideess":"2632","idMunicipio":"836","idProvincia":"07","idCCAA":"04"}}},{"type":"Feature","geometry":{"type":"Point","coordinates":[2.518333,39.500139]},"properties":{"id":"es-2635","source":"ES","brand":"BP","address":"CARRETERA CALA FIGUERA, EL TORO, SON FERRER KM. S/N","municipality":"Calvià","province":"BALEARS (ILLES)","postalCode":"07184","schedule":"L-D: 24H","fuels":{"gasoline95":1.829,"gasoline98":1.949,"diesel":1.969,"dieselPremium":2.039},"extra":{"saleType":"P","margin":"I","reportingType":"dm","ideess":"2635","idMunicipio":"805","idProvincia":"07","idCCAA":"04"}}},{"type":"Feature","geometry":{"type":"Point","coordinates":[2.909222,39.711111]},"properties":{"id":"es-2636","source":"ES","brand":"BP","address":"CARRETERA PALMA-ALCUDIA CRUCE CTRA.SENCELLES KM. S/N","municipality":"Inca","province":"BALEARS (ILLES)","postalCode":"07300","schedule":"L-D: 24H","fuels":{"gasoline95":1.829,"gasoline98":1.949,"diesel":1.969,"dieselPremium":2.039,"adblue":1.15},"extra":{"saleType":"P","margin":"N","reportingType":"dm","ideess":"2636","idMunicipio":"822","idProvincia":"07","idCCAA":"04"}}},{"type":"Feature","geometry":{"type":"Point","coordinates":[2.895222,39.485861]},"properties":{"id":"es-2637","source":"ES","brand":"CEPSA","address":"AVENIDA CARLOS V, S/N","municipality":"Llucmajor","province":"BALEARS (ILLES)","postalCode":"07620","schedule":"L-D: 06:00-22:30","fuels":{"gasoline95":1.829,"gasoline95Premium":1.919,"gasoline98":1.949,"diesel":1.969,"dieselPremium":2.069,"adblue":1.29},"extra":{"saleType":"P","margin":"D","reportingType":"dm","ideess":"2637","idMunicipio":"826","idProvincia":"07","idCCAA":"04"}}},{"type":"Feature","geometry":{"type":"Point","coordinates":[2.901972,39.711556]},"properties":{"id":"es-2640","source":"ES","brand":"REPSOL","address":"AVENIDA GENERAL LUQUE, S/N","municipality":"Inca","province":"BALEARS (ILLES)","postalCode":"07300","schedule":"L-D: 24H","fuels":{"gasoline95":1.809,"gasoline98":1.909,"diesel":1.959,"dieselPremium":2.059,"adblue":1.149},"extra":{"saleType":"P","margin":"D","reportingType":"dm","ideess":"2640","idMunicipio":"822","idProvincia":"07","idCCAA":"04"}}},{"type":"Feature","geometry":{"type":"Point","coordinates":[2.60975,39.712778]},"properties":{"id":"es-2641","source":"ES","brand":"SHELL","address":"CARRETERA DE DEIA,S/N KM. 71,110","municipality":"Valldemossa","province":"BALEARS (ILLES)","postalCode":"07170","schedule":"L-D: 06:00-00:00","fuels":{"gasoline95":1.799,"gasoline98":1.939,"diesel":1.939,"dieselPremium":2.019},"extra":{"saleType":"P","margin":"D","reportingType":"OM","ideess":"2641","idMunicipio":"859","idProvincia":"07","idCCAA":"04"}}},{"type":"Feature","geometry":{"type":"Point","coordinates":[2.878639,39.645694]},"properties":{"id":"es-2642","source":"ES","brand":"REPSOL","address":"CARRETERA SANTA MARIA-SENCELLES KM. 9,9","municipality":"Sencelles","province":"BALEARS (ILLES)","postalCode":"07140","schedule":"L-D: 06:30-21:30","fuels":{"gasoline95":1.809,"diesel":1.969,"dieselB":1.689,"dieselRenewable":2.079},"extra":{"saleType":"P","margin":"D","reportingType":"dm","ideess":"2642","idMunicipio":"855","idProvincia":"07","idCCAA":"04"}}},{"type":"Feature","geometry":{"type":"Point","coordinates":[2.625472,39.571278]},"properties":{"id":"es-2644","source":"ES","brand":"BP","address":"CALLE ANDREA DORIA, ESQUINA SON ARMADANS, S/N","municipality":"Palma de Mallorca","province":"BALEARS (ILLES)","postalCode":"07014","schedule":"L-D: 24H","fuels":{"gasoline95":1.809,"gasoline98":1.909,"diesel":1.949,"dieselPremium":2.049,"adblue":1.149},"extra":{"saleType":"P","margin":"D","reportingType":"dm","ideess":"2644","idMunicipio":"836","idProvincia":"07","idCCAA":"04"}}},{"type":"Feature","geometry":{"type":"Point","coordinates":[2.911306,39.729278]},"properties":{"id":"es-2648","source":"ES","brand":"BP","address":"CALLE LLUC  ESQUINA SELVA, INCA, S/N","municipality":"Inca","province":"BALEARS (ILLES)","postalCode":"07300","schedule":"L-D: 24H","fuels":{"gasoline95":1.829,"gasoline98":1.949,"diesel":1.969,"dieselPremium":2.039},"extra":{"saleType":"P","margin":"D","reportingType":"dm","ideess":"2648","idMunicipio":"822","idProvincia":"07","idCCAA":"04"}}},{"type":"Feature","geometry":{"type":"Point","coordinates":[2.662056,39.586306]},"properties":{"id":"es-2649","source":"ES","brand":"BP","address":"CALLE MUSICO ISAAC ALBENIZ, S/N","municipality":"Palma de Mallorca","province":"BALEARS (ILLES)","postalCode":"07009","schedule":"L-D: 05:30-21:30","fuels":{"gasoline95":1.824,"gasoline98":1.935,"diesel":1.947,"dieselPremium":2.034},"extra":{"saleType":"P","margin":"D","reportingType":"dm","ideess":"2649","idMunicipio":"836","idProvincia":"07","idCCAA":"04"}}},{"type":"Feature","geometry":{"type":"Point","coordinates":[2.718,39.615806]},"properties":{"id":"es-2651","source":"ES","brand":"REPSOL","address":"CARRETERA PALMA-PTO ALCUDIA KM. 8,9","municipality":"Marratxí","province":"BALEARS (ILLES)","postalCode":"07141","schedule":"L-D: 24H","fuels":{"gasoline95":1.829,"gasoline98":1.949,"diesel":1.969,"dieselRenewable":2.039,"adblue":1.15},"extra":{"saleType":"P","margin":"I","reportingType":"dm","ideess":"2651","idMunicipio":"831","idProvincia":"07","idCCAA":"04"}}},{"type":"Feature","geometry":{"type":"Point","coordinates":[2.423611,39.568]},"properties":{"id":"es-2653","source":"ES","brand":"BP","address":"CARRETERA PALMA-PTO ANDRATX KM. 28,90","municipality":"Andratx","province":"BALEARS (ILLES)","postalCode":"07150","schedule":"L-D: 24H","fuels":{"gasoline95":1.829,"gasoline98":1.949,"diesel":1.969,"dieselPremium":2.039},"extra":{"saleType":"P","margin":"I","reportingType":"dm","ideess":"2653","idMunicipio":"798","idProvincia":"07","idCCAA":"04"}}},{"type":"Feature","geometry":{"type":"Point","coordinates":[2.682333,39.557861]},"properties":{"id":"es-2654","source":"ES","brand":"REPSOL","address":"CALLE LLUCMAJOR, 148","municipality":"Palma de Mallorca","province":"BALEARS (ILLES)","postalCode":"07007","schedule":"L-V: 06:00-22:00; S-D: 07:00-22:00","fuels":{"gasoline95":1.805,"gasoline95Premium":1.875,"gasoline98":1.925,"diesel":1.929,"dieselRenewable":2.049},"extra":{"saleType":"P","margin":"D","reportingType":"OM","ideess":"2654","idMunicipio":"836","idProvincia":"07","idCCAA":"04"}}},{"type":"Feature","geometry":{"type":"Point","coordinates":[2.722944,39.545917]},"properties":{"id":"es-2663","source":"ES","brand":"REPSOL","address":"AE VIAL SALIDA AEROPUERTO, S.N.","municipality":"Palma de Mallorca","province":"BALEARS (ILLES)","postalCode":"07611","schedule":"L-D: 24H","fuels":{"gasoline95":1.829,"gasoline98":1.949,"diesel":1.949,"dieselB":1.679,"dieselRenewable":2.069,"lpg":1.149},"extra":{"saleType":"P","margin":"D","reportingType":"OM","ideess":"2663","idMunicipio":"836","idProvincia":"07","idCCAA":"04"}}},{"type":"Feature","geometry":{"type":"Point","coordinates":[2.773861,39.651694]},"properties":{"id":"es-2664","source":"ES","brand":"CEPSA","address":"PLAZA HOSTALS, 4","municipality":"Santa María del Camí","province":"BALEARS (ILLES)","postalCode":"07320","schedule":"L-S: 06:30-20:30; D: 07:00-15:00","fuels":{"gasoline95":1.829,"diesel":1.959},"extra":{"saleType":"P","margin":"D","reportingType":"dm","ideess":"2664","idMunicipio":"852","idProvincia":"07","idCCAA":"04"}}},{"type":"Feature","geometry":{"type":"Point","coordinates":[2.541556,39.528083]},"properties":{"id":"es-2665","source":"ES","brand":"MOEVE","address":"PM-719 km 12,4","municipality":"Calvià","province":"BALEARS (ILLES)","postalCode":"07181","schedule":"L-D: 06:00-22:00","fuels":{"gasoline95":1.829,"gasoline95Premium":1.944,"diesel":1.959,"dieselPremium":2.069,"adblue":1.3},"extra":{"saleType":"P","margin":"I","reportingType":"dm","ideess":"2665","idMunicipio":"805","idProvincia":"07","idCCAA":"04"}}},{"type":"Feature","geometry":{"type":"Point","coordinates":[2.750694,39.534972]},"properties":{"id":"es-2675","source":"ES","brand":"MOEVE","address":"CARRETERA LLUCMAJOR, KM10 KM. 10","municipality":"Palma de Mallorca","province":"BALEARS (ILLES)","postalCode":"07199","schedule":"L-S: 06:00-22:00; D: 08:00-14:00","fuels":{"gasoline95":1.849,"gasoline95Premium":1.939,"diesel":1.979,"dieselPremium":2.069,"dieselB":1.679},"extra":{"saleType":"P","margin":"D","reportingType":"dm","ideess":"2675","idMunicipio":"836","idProvincia":"07","idCCAA":"04"}}},{"type":"Feature","geometry":{"type":"Point","coordinates":[2.72725,39.532722]},"properties":{"id":"es-2677","source":"ES","brand":"BP PLAYA DE PALMA","address":"CALLE MANUELA DE LOS HERREROS, 15","municipality":"Palma de Mallorca","province":"BALEARS (ILLES)","postalCode":"07610","schedule":"L-D: 06:00-01:00","fuels":{"gasoline95":1.829,"gasoline98":1.965,"diesel":1.949,"dieselPremium":2.039},"extra":{"saleType":"P","margin":"N","reportingType":"dm","ideess":"2677","idMunicipio":"836","idProvincia":"07","idCCAA":"04"}}},{"type":"Feature","geometry":{"type":"Point","coordinates":[2.6635,39.565194]},"properties":{"id":"es-2681","source":"ES","brand":"CEPSA","address":"CALLE MANUEL AZAÑA, 5","municipality":"Palma de Mallorca","province":"BALEARS (ILLES)","postalCode":"07006","schedule":"L-D: 24H","fuels":{"gasoline95":1.805,"gasoline98":1.945,"diesel":1.925,"dieselPremium":2.045},"extra":{"saleType":"P","margin":"N","reportingType":"dm","ideess":"2681","idMunicipio":"836","idProvincia":"07","idCCAA":"04"}}},{"type":"Feature","geometry":{"type":"Point","coordinates":[2.656778,39.566528]},"properties":{"id":"es-2682","source":"ES","brand":"REPSOL","address":"AVENIDA GABRIEL ALOMAR Y VILLALONGA, S/N","municipality":"Palma de Mallorca","province":"BALEARS (ILLES)","postalCode":"07006","schedule":"L-D: 24H","fuels":{"gasoline95":1.815,"gasoline95Premium":1.885,"gasoline98":1.955,"diesel":1.935,"dieselRenewable":2.055},"extra":{"saleType":"P","margin":"D","reportingType":"dm","ideess":"2682","idMunicipio":"836","idProvincia":"07","idCCAA":"04"}}},{"type":"Feature","geometry":{"type":"Point","coordinates":[2.636,39.571861]},"properties":{"id":"es-2683","source":"ES","brand":"REPSOL","address":"PLAZA PROGRESO, S/N","municipality":"Palma de Mallorca","province":"BALEARS (ILLES)","postalCode":"07013","schedule":"L-D: 24H","fuels":{"gasoline95":1.819,"gasoline98":1.959,"diesel":1.939,"dieselRenewable":2.059},"extra":{"saleType":"P","margin":"D","reportingType":"dm","ideess":"2683","idMunicipio":"836","idProvincia":"07","idCCAA":"04"}}},{"type":"Feature","geometry":{"type":"Point","coordinates":[2.895833,39.567306]},"properties":{"id":"es-2686","source":"ES","brand":"REPSOL","address":"CR C-715, 21","municipality":"Algaida","province":"BALEARS (ILLES)","postalCode":"07210","schedule":"L-D: 06:00-22:00","fuels":{"gasoline95":1.819,"gasoline98":1.939,"diesel":1.975,"dieselB":1.645,"dieselRenewable":2.095},"extra":{"saleType":"P","margin":"I","reportingType":"OM","ideess":"2686","idMunicipio":"797","idProvincia":"07","idCCAA":"04"}}},{"type":"Feature","geometry":{"type":"Point","coordinates":[2.671556,39.584278]},"properties":{"id":"es-2688","source":"ES","brand":"REPSOL","address":"CALLE ARAGON, 180","municipality":"Palma de Mallorca","province":"BALEARS (ILLES)","postalCode":"07008","schedule":"L-D: 24H","fuels":{"gasoline95":1.785,"gasoline98":1.936,"diesel":1.905,"dieselRenewable":1.998,"adblue":1.25},"extra":{"saleType":"P","margin":"D","reportingType":"dm","ideess":"2688","idMunicipio":"836","idProvincia":"07","idCCAA":"04"}}},{"type":"Feature","geometry":{"type":"Point","coordinates":[2.881472,39.494556]},"properties":{"id":"es-2689","source":"ES","brand":"CEPSA","address":"CARRETERA PALMA-PORTOPETRO KM. 23","municipality":"Llucmajor","province":"BALEARS (ILLES)","postalCode":"07620","schedule":"L-D: 06:00-21:00","fuels":{"gasoline95":1.829,"diesel":1.969,"dieselPremium":2.069,"adblue":1.29},"extra":{"saleType":"P","margin":"D","reportingType":"dm","ideess":"2689","idMunicipio":"826","idProvincia":"07","idCCAA":"04"}}},{"type":"Feature","geometry":{"type":"Point","coordinates":[2.915333,39.716639]},"properties":{"id":"es-2692","source":"ES","brand":"REPSOL","address":"AVENIDA JAIME I, 143","municipality":"Inca","province":"BALEARS (ILLES)","postalCode":"07300","schedule":"L-D: 24H","fuels":{"gasoline95":1.839,"gasoline98":1.959,"diesel":1.959,"dieselRenewable":2.079},"extra":{"saleType":"P","margin":"D","reportingType":"OM","ideess":"2692","idMunicipio":"822","idProvincia":"07","idCCAA":"04"}}},{"type":"Feature","geometry":{"type":"Point","coordinates":[2.703083,39.54775]},"properties":{"id":"es-2693","source":"ES","brand":"REPSOL","address":"CL CAMINO CA,N PASTILLA, 37 (CAMNIO CAN PASTILLA 37)","municipality":"Palma de Mallorca","province":"BALEARS (ILLES)","postalCode":"07007","schedule":"L-D: 06:00-22:00","fuels":{"gasoline95":1.815,"gasoline95Premium":1.885,"gasoline98":1.935,"diesel":1.929,"dieselRenewable":2.049},"extra":{"saleType":"P","margin":"I","reportingType":"OM","ideess":"2693","idMunicipio":"836","idProvincia":"07","idCCAA":"04"}}},{"type":"Feature","geometry":{"type":"Point","coordinates":[2.654472,39.594167]},"properties":{"id":"es-2695","source":"ES","brand":"BP AMANECER","address":"CALLE ALFONS EL MAGNANIM, 90","municipality":"Palma de Mallorca","province":"BALEARS (ILLES)","postalCode":"07004","schedule":"L-D: 24H","fuels":{"gasoline95":1.825,"gasoline98":1.936,"diesel":1.948,"dieselPremium":2.035},"extra":{"saleType":"P","margin":"N","reportingType":"dm","ideess":"2695","idMunicipio":"836","idProvincia":"07","idCCAA":"04"}}},{"type":"Feature","geometry":{"type":"Point","coordinates":[2.721056,39.571194]},"properties":{"id":"es-2702","source":"ES","brand":"REPSOL","address":"CALLE MANACOR, 336","municipality":"Palma de Mallorca","province":"BALEARS (ILLES)","postalCode":"07198","schedule":"L: 06:00-22:00","fuels":{"gasoline95":1.799,"gasoline98":1.949,"diesel":1.929,"dieselB":1.689,"dieselRenewable":2.059,"adblue":1.159},"extra":{"saleType":"P","margin":"D","reportingType":"dm","ideess":"2702","idMunicipio":"836","idProvincia":"07","idCCAA":"04"}}},{"type":"Feature","geometry":{"type":"Point","coordinates":[2.613889,39.552444]},"properties":{"id":"es-2704","source":"ES","brand":"BP","address":"AVENIDA JOAN MIRO, 238","municipality":"Palma de Mallorca","province":"BALEARS (ILLES)","postalCode":"07015","schedule":"L-D: 24H","fuels":{"gasoline95":1.829,"gasoline98":1.949,"diesel":1.969,"dieselPremium":2.039},"extra":{"saleType":"P","margin":"D","reportingType":"dm","ideess":"2704","idMunicipio":"836","idProvincia":"07","idCCAA":"04"}}},{"type":"Feature","geometry":{"type":"Point","coordinates":[2.616056,39.552028]},"properties":{"id":"es-2705","source":"ES","brand":"BP","address":"AVENIDA JOAN MIRO, S/N","municipality":"Palma de Mallorca","province":"BALEARS (ILLES)","postalCode":"07015","schedule":"L-S: 06:00-22:00","fuels":{"gasoline95":1.829,"gasoline98":1.949,"diesel":1.969,"dieselPremium":2.039},"extra":{"saleType":"P","margin":"I","reportingType":"dm","ideess":"2705","idMunicipio":"836","idProvincia":"07","idCCAA":"04"}}},{"type":"Feature","geometry":{"type":"Point","coordinates":[2.389306,39.542972]},"properties":{"id":"es-2706","source":"ES","brand":"REPSOL","address":"CALLE ANTONI CALAFAT, 22","municipality":"Andratx","province":"BALEARS (ILLES)","postalCode":"07157","schedule":"L-D: 24H","fuels":{"gasoline95":1.819,"gasoline98":2.019,"diesel":1.999,"dieselRenewable":2.109},"extra":{"saleType":"P","margin":"D","reportingType":"dm","ideess":"2706","idMunicipio":"798","idProvincia":"07","idCCAA":"04"}}},{"type":"Feature","geometry":{"type":"Point","coordinates":[2.989472,39.775444]},"properties":{"id":"es-2708","source":"ES","brand":"MOEVE","address":"CARRETERA C-713 KM. 38,3","municipality":"Campanet","province":"BALEARS (ILLES)","postalCode":"07310","schedule":"L-D: 06:00-22:00","fuels":{"gasoline95":1.804,"gasoline95Premium":1.924,"gasoline98":1.964,"diesel":1.954,"dieselPremium":2.044},"extra":{"saleType":"P","margin":"D","reportingType":"OM","ideess":"2708","idMunicipio":"806","idProvincia":"07","idCCAA":"04"}}},{"type":"Feature","geometry":{"type":"Point","coordinates":[2.725056,39.627528]},"properties":{"id":"es-2711","source":"ES","brand":"BP","address":"POLIGONO OLLERS, S/N","municipality":"Marratxí","province":"BALEARS (ILLES)","postalCode":"07141","schedule":"L-D: 24H","fuels":{"gasoline95":1.779,"gasoline98":1.879,"diesel":1.919,"dieselPremium":2.019,"adblue":1.149},"extra":{"saleType":"P","margin":"D","reportingType":"dm","ideess":"2711","idMunicipio":"831","idProvincia":"07","idCCAA":"04"}}},{"type":"Feature","geometry":{"type":"Point","coordinates":[2.757056,39.64825]},"properties":{"id":"es-2712","source":"ES","brand":"REPSOL","address":"CR C-713, 13,1","municipality":"Santa María del Camí","province":"BALEARS (ILLES)","postalCode":"07320","schedule":"L-D: 06:00-22:00","fuels":{"gasoline95":1.829,"gasoline98":1.949,"diesel":1.969},"extra":{"saleType":"P","margin":"I","reportingType":"dm","ideess":"2712","idMunicipio":"852","idProvincia":"07","idCCAA":"04"}}},{"type":"Feature","geometry":{"type":"Point","coordinates":[2.591944,39.543]},"properties":{"id":"es-2715","source":"ES","brand":"REPSOL","address":"CARRETERA C-719 KM. 7,8","municipality":"Calvià","province":"BALEARS (ILLES)","postalCode":"07184","schedule":"L-D: 06:00-22:00","fuels":{"gasoline95":1.829,"gasoline98":1.949,"diesel":1.959,"dieselRenewable":2.079},"extra":{"saleType":"P","margin":"I","reportingType":"OM","ideess":"2715","idMunicipio":"805","idProvincia":"07","idCCAA":"04"}}},{"type":"Feature","geometry":{"type":"Point","coordinates":[2.708389,39.765778]},"properties":{"id":"es-2719","source":"ES","brand":"REPSOL","address":"CTRA. MA-11, 30","municipality":"Sóller","province":"BALEARS (ILLES)","postalCode":"07100","schedule":"L-S: 06:00-22:00; D: 07:00-21:00","fuels":{"gasoline95":1.799,"gasoline98":1.959,"diesel":1.919},"extra":{"saleType":"P","margin":"D","reportingType":"dm","ideess":"2719","idMunicipio":"857","idProvincia":"07","idCCAA":"04"}}},{"type":"Feature","geometry":{"type":"Point","coordinates":[2.486722,39.526472]},"properties":{"id":"es-2720","source":"ES","brand":"REPSOL","address":"CARRETERA PALMA-PUERTO ANDRATX KM. 19","municipality":"Calvià","province":"BALEARS (ILLES)","postalCode":"07183","schedule":"L-S: 06:00-22:00","fuels":{"gasoline95":1.749,"gasoline98":1.849,"diesel":1.889,"dieselPremium":1.989},"extra":{"saleType":"P","margin":"D","reportingType":"dm","ideess":"2720","idMunicipio":"805","idProvincia":"07","idCCAA":"04"}}},{"type":"Feature","geometry":{"type":"Point","coordinates":[2.486528,39.526472]},"properties":{"id":"es-2721","source":"ES","brand":"REPSOL","address":"CARRETERA PALMA-ANDRATX KM, 18 KM. 18","municipality":"Calvià","province":"BALEARS (ILLES)","postalCode":"07183","schedule":"L-D: 24H","fuels":{"gasoline95":1.809,"gasoline98":1.909,"diesel":1.949,"dieselPremium":2.049,"lpg":1.039,"adblue":1.149},"extra":{"saleType":"P","margin":"I","reportingType":"dm","ideess":"2721","idMunicipio":"805","idProvincia":"07","idCCAA":"04"}}},{"type":"Feature","geometry":{"type":"Point","coordinates":[2.501889,39.529306]},"properties":{"id":"es-2722","source":"ES","brand":"BP","address":"CALLE ILLES BALEARS, 1","municipality":"Calvià","province":"BALEARS (ILLES)","postalCode":"07184","schedule":"L-D: 24H","fuels":{"gasoline95":1.759,"gasoline98":1.899,"diesel":1.889,"dieselPremium":1.969,"adblue":1.15},"extra":{"saleType":"P","margin":"N","reportingType":"dm","ideess":"2722","idMunicipio":"805","idProvincia":"07","idCCAA":"04"}}},{"type":"Feature","geometry":{"type":"Point","coordinates":[2.676389,39.597222]},"properties":{"id":"es-2726","source":"ES","brand":"REPSOL","address":"CALLE CALA BLANCA,, 9","municipality":"Palma de Mallorca","province":"BALEARS (ILLES)","postalCode":"07009","schedule":"L-V: 06:00-22:00; S-D: 07:00-22:00","fuels":{"gasoline95":1.799,"gasoline98":1.959,"diesel":1.945,"dieselRenewable":2.055},"extra":{"saleType":"P","margin":"D","reportingType":"OM","ideess":"2726","idMunicipio":"836","idProvincia":"07","idCCAA":"04"}}},{"type":"Feature","geometry":{"type":"Point","coordinates":[2.678639,39.559083]},"properties":{"id":"es-2732","source":"ES","brand":"BP LLUCMAJOR","address":"CALLE LLUCMAJOR, 109","municipality":"Palma de Mallorca","province":"BALEARS (ILLES)","postalCode":"07007","schedule":"L-D: 24H","fuels":{"gasoline95":1.799,"gasoline98":1.939,"diesel":1.939,"dieselPremium":2.029},"extra":{"saleType":"P","margin":"I","reportingType":"OM","ideess":"2732","idMunicipio":"836","idProvincia":"07","idCCAA":"04"}}},{"type":"Feature","geometry":{"type":"Point","coordinates":[2.675944,39.574389]},"properties":{"id":"es-2734","source":"ES","brand":"REPSOL","address":"CALLE SANT IGNASI, 68","municipality":"Palma de Mallorca","province":"BALEARS (ILLES)","postalCode":"07008","schedule":"L-V: 07:00-20:00; S: 07:00-14:00","fuels":{"gasoline95":1.809,"gasoline98":1.929,"diesel":1.939,"dieselRenewable":2.059},"extra":{"saleType":"P","margin":"D","reportingType":"OM","ideess":"2734","idMunicipio":"836","idProvincia":"07","idCCAA":"04"}}},{"type":"Feature","geometry":{"type":"Point","coordinates":[2.685139,39.576167]},"properties":{"id":"es-2735","source":"ES","brand":"REPSOL","address":"CALLE CAMI SALARD, S/N","municipality":"Palma de Mallorca","province":"BALEARS (ILLES)","postalCode":"07010","schedule":"L-D: 06:00-22:00","fuels":{"gasoline95":1.819,"gasoline98":1.959,"diesel":1.939,"dieselRenewable":2.059,"lpg":1.049},"extra":{"saleType":"P","margin":"D","reportingType":"dm","ideess":"2735","idMunicipio":"836","idProvincia":"07","idCCAA":"04"}}},{"type":"Feature","geometry":{"type":"Point","coordinates":[2.637917,39.595861]},"properties":{"id":"es-2736","source":"ES","brand":"REPSOL","address":"CAMINO REIS, S/N","municipality":"Palma de Mallorca","province":"BALEARS (ILLES)","postalCode":"07011","schedule":"L-S: 06:00-23:59; D: 06:00-22:00","fuels":{"gasoline95":1.819,"gasoline98":1.939,"diesel":1.959,"dieselRenewable":2.069},"extra":{"saleType":"P","margin":"I","reportingType":"OM","ideess":"2736","idMunicipio":"836","idProvincia":"07","idCCAA":"04"}}},{"type":"Feature","geometry":{"type":"Point","coordinates":[2.736056,39.535306]},"properties":{"id":"es-2738","source":"ES","brand":"BP","address":"CARRETERA 10, CAMINO DE CAN CAPO, SŽARANJASSA KM. 717","municipality":"Palma de Mallorca","province":"BALEARS (ILLES)","postalCode":"07199","schedule":"L-D: 24H","fuels":{"gasoline95":1.809,"gasoline98":1.909,"diesel":1.949,"dieselPremium":2.049,"adblue":1.149},"extra":{"saleType":"P","margin":"D","reportingType":"dm","ideess":"2738","idMunicipio":"836","idProvincia":"07","idCCAA":"04"}}},{"type":"Feature","geometry":{"type":"Point","coordinates":[2.618722,39.584944]},"properties":{"id":"es-2740","source":"ES","brand":"REPSOL","address":"CAMI CAMI DE SON RAPINYA ESQ.CAMI DEL REIS, S/N","municipality":"Palma de Mallorca","province":"BALEARS (ILLES)","postalCode":"07013","schedule":"L-D: 24H","fuels":{"gasoline95":1.819,"gasoline98":1.959,"diesel":1.939,"dieselRenewable":2.059,"lpg":1.049},"extra":{"saleType":"P","margin":"D","reportingType":"dm","ideess":"2740","idMunicipio":"836","idProvincia":"07","idCCAA":"04"}}},{"type":"Feature","geometry":{"type":"Point","coordinates":[2.676472,39.589167]},"properties":{"id":"es-2743","source":"ES","brand":"REPSOL","address":"CALLE ARAGON, 217","municipality":"Palma de Mallorca","province":"BALEARS (ILLES)","postalCode":"07008","schedule":"L-D: 24H","fuels":{"gasoline95":1.815,"gasoline98":1.955,"diesel":1.935,"dieselRenewable":2.055},"extra":{"saleType":"P","margin":"I","reportingType":"dm","ideess":"2743","idMunicipio":"836","idProvincia":"07","idCCAA":"04"}}},{"type":"Feature","geometry":{"type":"Point","coordinates":[2.735833,39.570556]},"properties":{"id":"es-9871","source":"ES","brand":"SHELL","address":"CTA. MANACOR C-715 km 6.7","municipality":"Palma de Mallorca","province":"BALEARS (ILLES)","postalCode":"07198","schedule":"L-D: 24H","fuels":{"gasoline95":1.789,"gasoline98":1.899,"diesel":1.919,"dieselPremium":1.999},"extra":{"saleType":"P","margin":"N","reportingType":"dm","ideess":"9871","idMunicipio":"836","idProvincia":"07","idCCAA":"04"}}}]}