{"type":"FeatureCollection","features":[{"type":"Feature","geometry":{"type":"Point","coordinates":[-7.000083,39.47875]},"properties":{"id":"es-10203","source":"ES","brand":"ES SALORINO","address":"CARRETERA N-521 KM. 107,50","municipality":"Salorino","province":"CÁCERES","postalCode":"10570","schedule":"L: 07:00-23:00","fuels":{"gasoline95":1.739,"diesel":1.9},"extra":{"saleType":"P","margin":"D","reportingType":"dm","ideess":"10203","idMunicipio":"1704","idProvincia":"10","idCCAA":"11"}}},{"type":"Feature","geometry":{"type":"Point","coordinates":[-7.127361,39.360889]},"properties":{"id":"es-12900","source":"ES","brand":"C.T. DE SAN VICENTE DE ALCANTARA","address":"AVENIDA BADAJOZ, S/N","municipality":"San Vicente de Alcántara","province":"BADAJOZ","postalCode":"06500","schedule":"L-D: 24H","fuels":{"diesel":1.749},"extra":{"saleType":"P","margin":"I","reportingType":"dm","ideess":"12900","idMunicipio":"749","idProvincia":"06","idCCAA":"11"}}},{"type":"Feature","geometry":{"type":"Point","coordinates":[-7.165306,39.209278]},"properties":{"id":"es-13519","source":"ES","brand":"CARBURANTES GB","address":"POLIGONO CALLE SIERRA MATASIETE, 8","municipality":"Codosera (La)","province":"BADAJOZ","postalCode":"06518","schedule":"L: 24H","fuels":{"gasoline95":1.649,"diesel":1.769},"extra":{"saleType":"P","margin":"D","reportingType":"dm","ideess":"13519","idMunicipio":"667","idProvincia":"06","idCCAA":"11"}}},{"type":"Feature","geometry":{"type":"Point","coordinates":[-7.230333,39.414389]},"properties":{"id":"es-14356","source":"ES","brand":"GALP","address":"POLIGONO INDUSTRIAL CERRO DE SAN FRANCISCO, 9","municipality":"Valencia de Alcántara","province":"CÁCERES","postalCode":"10500","schedule":"L-D: 07:00-23:00","fuels":{"gasoline95":1.769,"diesel":1.959,"adblue":0.909},"extra":{"saleType":"P","margin":"D","reportingType":"dm","ideess":"14356","idMunicipio":"1745","idProvincia":"10","idCCAA":"11"}}},{"type":"Feature","geometry":{"type":"Point","coordinates":[-7.298278,39.346472]},"properties":{"id":"es-5916","source":"ES","brand":"CAMPSA","address":"CARRETERA N-521 KM. 151","municipality":"Valencia de Alcántara","province":"CÁCERES","postalCode":"10500","schedule":"L-D: 07:00-23:00","fuels":{"gasoline95":1.785,"diesel":1.979},"extra":{"saleType":"P","margin":"D","reportingType":"OM","ideess":"5916","idMunicipio":"1745","idProvincia":"10","idCCAA":"11"}}},{"type":"Feature","geometry":{"type":"Point","coordinates":[-7.162361,39.21375]},"properties":{"id":"es-5949","source":"ES","brand":"REPSOL","address":"CARRETERA BA-5001 KM KM. 17,7","municipality":"Codosera (La)","province":"BADAJOZ","postalCode":"06518","schedule":"L-D: 08:00-22:00","fuels":{"gasoline95":1.799,"gasoline98":1.93,"diesel":1.949,"dieselPremium":1.999},"extra":{"saleType":"P","margin":"D","reportingType":"dm","ideess":"5949","idMunicipio":"667","idProvincia":"06","idCCAA":"11"}}},{"type":"Feature","geometry":{"type":"Point","coordinates":[-7.242028,39.409778]},"properties":{"id":"es-7534","source":"ES","brand":"REPSOL","address":"CALLE PIZARRO, 11","municipality":"Valencia de Alcántara","province":"CÁCERES","postalCode":"10500","schedule":"L: 07:00-23:00","fuels":{"gasoline95":1.779,"gasoline98":1.959,"diesel":1.969,"dieselPremium":2.049},"extra":{"saleType":"P","margin":"D","reportingType":"dm","ideess":"7534","idMunicipio":"1745","idProvincia":"10","idCCAA":"11"}}},{"type":"Feature","geometry":{"type":"Point","coordinates":[-7.00725,39.218583]},"properties":{"id":"es-7612","source":"ES","brand":"GALP","address":"CARRETERA CTRA. N-530 KM. 33,00","municipality":"Alburquerque","province":"BADAJOZ","postalCode":"06510","schedule":"L-D: 07:00-23:00","fuels":{"gasoline95":1.709,"diesel":1.869,"dieselPremium":1.919},"extra":{"saleType":"P","margin":"N","reportingType":"OM","ideess":"7612","idMunicipio":"635","idProvincia":"06","idCCAA":"11"}}},{"type":"Feature","geometry":{"type":"Point","coordinates":[-7.133861,39.363611]},"properties":{"id":"es-9350","source":"ES","brand":"JOYMAR","address":"AVENIDA BADAJOZ, 89","municipality":"San Vicente de Alcántara","province":"BADAJOZ","postalCode":"06500","schedule":"L: 07:00-23:00","fuels":{"gasoline95":1.699,"gasoline98":1.899,"diesel":1.829,"lpg":0.98,"adblue":0.99},"extra":{"saleType":"P","margin":"D","reportingType":"dm","ideess":"9350","idMunicipio":"749","idProvincia":"06","idCCAA":"11"}}}]}