{"type":"FeatureCollection","features":[{"type":"Feature","geometry":{"type":"Point","coordinates":[3.082333,42.194417]},"properties":{"id":"es-10734","source":"ES","brand":"ESCLATOIL","address":"CARRETERA CASTELLO KM. 1","municipality":"Sant Pere Pescador","province":"GIRONA","postalCode":"17470","schedule":"L-D: 24H","fuels":{"gasoline95":1.769,"diesel":1.699},"extra":{"saleType":"P","margin":"D","reportingType":"dm","ideess":"10734","idMunicipio":"2619","idProvincia":"17","idCCAA":"09"}}},{"type":"Feature","geometry":{"type":"Point","coordinates":[3.140833,42.042222]},"properties":{"id":"es-11955","source":"ES","brand":"REPSOL","address":"CARRETERA L'ESTARTIT KM. 1","municipality":"Torroella de Montgrí","province":"GIRONA","postalCode":"17257","schedule":"L: 06:00-22:00","fuels":{"gasoline95":1.979,"gasoline98":2.099,"diesel":1.839,"dieselRenewable":1.949,"lpg":1.149},"extra":{"saleType":"P","margin":"I","reportingType":"dm","ideess":"11955","idMunicipio":"2637","idProvincia":"17","idCCAA":"09"}}},{"type":"Feature","geometry":{"type":"Point","coordinates":[3.126222,42.119194]},"properties":{"id":"es-12491","source":"ES","brand":"ESCLATOIL","address":"CARRER DE LA LLOSA D, 80","municipality":"Escala (L')","province":"GIRONA","postalCode":"17130","schedule":"L-D: 24H","fuels":{"gasoline95":1.769,"diesel":1.699},"extra":{"saleType":"P","margin":"N","reportingType":"dm","ideess":"12491","idMunicipio":"2506","idProvincia":"17","idCCAA":"09"}}},{"type":"Feature","geometry":{"type":"Point","coordinates":[3.10675,42.256611]},"properties":{"id":"es-12492","source":"ES","brand":"ESCLATOIL","address":"CARRER SANT MAURICI, 21","municipality":"Castelló d'Empúries","province":"GIRONA","postalCode":"17486","schedule":"L-D: 24H","fuels":{"gasoline95":1.739,"diesel":1.699,"adblue":0.529},"extra":{"saleType":"P","margin":"N","reportingType":"dm","ideess":"12492","idMunicipio":"2492","idProvincia":"17","idCCAA":"09"}}},{"type":"Feature","geometry":{"type":"Point","coordinates":[3.129222,42.115111]},"properties":{"id":"es-12807","source":"ES","brand":"GADCAR","address":"AVENIDA GIRONA, S/N","municipality":"Escala (L')","province":"GIRONA","postalCode":"17130","schedule":"L-D: 24H","fuels":{"gasoline95":1.649,"diesel":1.699},"extra":{"saleType":"P","margin":"N","reportingType":"dm","ideess":"12807","idMunicipio":"2506","idProvincia":"17","idCCAA":"09"}}},{"type":"Feature","geometry":{"type":"Point","coordinates":[3.127361,42.037056]},"properties":{"id":"es-13821","source":"ES","brand":"PETROLIS INDEPENDENTS - PETRO7","address":"CAMI DEL MOLI, 1","municipality":"Torroella de Montgrí","province":"GIRONA","postalCode":"17257","schedule":"L-D: 24H","fuels":{"gasoline95":1.869,"diesel":1.689,"dieselPremium":1.749},"extra":{"saleType":"P","margin":"N","reportingType":"dm","ideess":"13821","idMunicipio":"2637","idProvincia":"17","idCCAA":"09"}}},{"type":"Feature","geometry":{"type":"Point","coordinates":[3.143556,42.360361]},"properties":{"id":"es-14236","source":"ES","brand":"GALP","address":"CARRETERA N-260 KM. 18,2","municipality":"Llançà","province":"GIRONA","postalCode":"17490","schedule":"L-D: 24H","fuels":{"gasoline95":1.814,"diesel":1.789},"extra":{"saleType":"P","margin":"N","reportingType":"OM","ideess":"14236","idMunicipio":"2537","idProvincia":"17","idCCAA":"09"}}},{"type":"Feature","geometry":{"type":"Point","coordinates":[3.074472,42.250833]},"properties":{"id":"es-14324","source":"ES","brand":"ESCLATOIL","address":"CALLE C/ CLOSA DELS FRARES, CANTONADA C/ ALT EMPORDÀ, S/N","municipality":"Castelló d'Empúries","province":"GIRONA","postalCode":"17486","schedule":"L-D: 24H","fuels":{"gasoline95":1.739,"diesel":1.699,"dieselPremium":1.749,"adblue":0.529},"extra":{"saleType":"P","margin":"D","reportingType":"dm","ideess":"14324","idMunicipio":"2492","idProvincia":"17","idCCAA":"09"}}},{"type":"Feature","geometry":{"type":"Point","coordinates":[3.11725,42.2485]},"properties":{"id":"es-14339","source":"ES","brand":"AVANZA OIL","address":"AVENIDA JOAN CARLES, 44","municipality":"Castelló d'Empúries","province":"GIRONA","postalCode":"17486","schedule":"L-D: 24H","fuels":{"gasoline95":1.689,"gasoline98":1.799,"diesel":1.649,"dieselPremium":1.679,"adblue":0.899},"extra":{"saleType":"P","margin":"D","reportingType":"dm","ideess":"14339","idMunicipio":"2492","idProvincia":"17","idCCAA":"09"}}},{"type":"Feature","geometry":{"type":"Point","coordinates":[3.085861,42.134389]},"properties":{"id":"es-14644","source":"ES","brand":"FULL ENERGY - VILADAMAT","address":"CARRETERA GI-623 KM. 16,75","municipality":"Viladamat","province":"GIRONA","postalCode":"17137","schedule":"L-D: 24H","fuels":{"gasoline95":1.779,"diesel":1.779},"extra":{"saleType":"P","margin":"I","reportingType":"dm","ideess":"14644","idMunicipio":"2656","idProvincia":"17","idCCAA":"09"}}},{"type":"Feature","geometry":{"type":"Point","coordinates":[3.158889,42.276833]},"properties":{"id":"es-15087","source":"ES","brand":"GALP","address":"CARRETERA GI - 610 CRUCE G-614 KM. S/N","municipality":"Roses","province":"GIRONA","postalCode":"17480","schedule":"L-D: 06:00-22:00","fuels":{"gasoline95":1.859,"gasoline98":1.999,"diesel":1.769,"dieselPremium":1.819,"lpg":1.179,"adblue":0.799},"extra":{"saleType":"P","margin":"N","reportingType":"OM","ideess":"15087","idMunicipio":"2592","idProvincia":"17","idCCAA":"09"}}},{"type":"Feature","geometry":{"type":"Point","coordinates":[3.067722,42.256056]},"properties":{"id":"es-15478","source":"ES","brand":"COOPERATIVA AGRÍCOLA DE CASTELLÓ D'EMPÚRIES","address":"CAMI VELL A FORTIÀ, S/N","municipality":"Castelló d'Empúries","province":"GIRONA","postalCode":"17486","schedule":"L-V: 08:00-13:00 y 15:00-19:00","fuels":{"gasoline95":1.782,"diesel":1.822,"dieselB":1.512},"extra":{"saleType":"P","margin":"D","reportingType":"dm","ideess":"15478","idMunicipio":"2492","idProvincia":"17","idCCAA":"09"}}},{"type":"Feature","geometry":{"type":"Point","coordinates":[3.177222,42.049472]},"properties":{"id":"es-1712","source":"ES","brand":"ESCLATOIL","address":"HIPER ESCLAT. CTRA. GE 641 km 4,225","municipality":"Torroella de Montgrí","province":"GIRONA","postalCode":"17257","schedule":"L-D: 24H","fuels":{"gasoline95":1.769,"diesel":1.699},"extra":{"saleType":"P","margin":"N","reportingType":"dm","ideess":"1712","idMunicipio":"2637","idProvincia":"17","idCCAA":"09"}}},{"type":"Feature","geometry":{"type":"Point","coordinates":[3.065417,42.028972]},"properties":{"id":"es-1790","source":"ES","brand":"REPSOL","address":"CARRETERA GE-643 KM. 5,06","municipality":"Serra de Daró","province":"GIRONA","postalCode":"17133","schedule":"L-D: 07:00-21:00","fuels":{"gasoline95":1.939,"gasoline98":2.049,"diesel":1.829,"dieselPremium":1.929,"dieselB":1.669},"extra":{"saleType":"P","margin":"D","reportingType":"dm","ideess":"1790","idMunicipio":"2628","idProvincia":"17","idCCAA":"09"}}},{"type":"Feature","geometry":{"type":"Point","coordinates":[3.1265,42.310111]},"properties":{"id":"es-1798","source":"ES","brand":"REPSOL","address":"CARRETERA GE-610 KM. 6,85","municipality":"Pau","province":"GIRONA","postalCode":"17494","schedule":"L-D: 06:00-22:00","fuels":{"gasoline95":1.895,"gasoline98":2.025,"diesel":1.809,"dieselRenewable":1.919,"adblue":1.065},"extra":{"saleType":"P","margin":"D","reportingType":"dm","ideess":"1798","idMunicipio":"2568","idProvincia":"17","idCCAA":"09"}}},{"type":"Feature","geometry":{"type":"Point","coordinates":[3.145944,42.0045]},"properties":{"id":"es-1805","source":"ES","brand":"PETROCAT","address":"CARRETERA 31 KM. 344,8","municipality":"Fontanilles","province":"GIRONA","postalCode":"17257","schedule":"L-D: 07:00-21:00","fuels":{"gasoline95":1.949,"diesel":1.809,"dieselRenewable":1.919},"extra":{"saleType":"P","margin":"I","reportingType":"OM","ideess":"1805","idMunicipio":"2515","idProvincia":"17","idCCAA":"09"}}},{"type":"Feature","geometry":{"type":"Point","coordinates":[3.094722,42.252806]},"properties":{"id":"es-1807","source":"ES","brand":"REPSOL","address":"CALLE ORLINA, S/N","municipality":"Castelló d'Empúries","province":"GIRONA","postalCode":"17486","schedule":"L-D: 06:00-22:00","fuels":{"gasoline95":1.945,"gasoline95Premium":2.005,"gasoline98":2.045,"diesel":1.845,"dieselPremium":1.885,"lpg":1.199},"extra":{"saleType":"P","margin":"D","reportingType":"OM","ideess":"1807","idMunicipio":"2492","idProvincia":"17","idCCAA":"09"}}},{"type":"Feature","geometry":{"type":"Point","coordinates":[3.048472,42.259583]},"properties":{"id":"es-1823","source":"ES","brand":"GALP","address":"CARRETERA C-260 KM. 33,176","municipality":"Fortià","province":"GIRONA","postalCode":"17469","schedule":"L-D: 06:00-22:00","fuels":{"gasoline95":1.869,"gasoline98":2.009,"diesel":1.784,"dieselPremium":1.834},"extra":{"saleType":"P","margin":"I","reportingType":"OM","ideess":"1823","idMunicipio":"2519","idProvincia":"17","idCCAA":"09"}}},{"type":"Feature","geometry":{"type":"Point","coordinates":[3.046833,42.259306]},"properties":{"id":"es-2094","source":"ES","brand":"GALP","address":"CARRETERA C-260 KM. 33,056","municipality":"Fortià","province":"GIRONA","postalCode":"17469","schedule":"L-D: 24H","fuels":{"gasoline95":1.869,"diesel":1.784},"extra":{"saleType":"P","margin":"D","reportingType":"OM","ideess":"2094","idMunicipio":"2519","idProvincia":"17","idCCAA":"09"}}},{"type":"Feature","geometry":{"type":"Point","coordinates":[3.123222,42.124972]},"properties":{"id":"es-2225","source":"ES","brand":"REPSOL L'ESCALA","address":"CALLE CLOSA D'EN LLOP, 2","municipality":"Escala (L')","province":"GIRONA","postalCode":"17130","schedule":"L: 24H","fuels":{"gasoline95":1.895,"gasoline98":2.025,"diesel":1.809,"dieselPremium":1.909},"extra":{"saleType":"P","margin":"D","reportingType":"OM","ideess":"2225","idMunicipio":"2506","idProvincia":"17","idCCAA":"09"}}},{"type":"Feature","geometry":{"type":"Point","coordinates":[3.158528,42.427278]},"properties":{"id":"es-2286","source":"ES","brand":"CEPSA","address":"AVENIDA FRANCIA, SN","municipality":"Portbou","province":"GIRONA","postalCode":"17497","schedule":"L-V: 08:00-14:00; S: 08:00-13:00","fuels":{"gasoline95":1.929,"diesel":1.864,"dieselPremium":1.964},"extra":{"saleType":"P","margin":"D","reportingType":"OM","ideess":"2286","idMunicipio":"2578","idProvincia":"17","idCCAA":"09"}}},{"type":"Feature","geometry":{"type":"Point","coordinates":[3.071111,42.135306]},"properties":{"id":"es-2413","source":"ES","brand":"FLUID","address":"CARRETERA C-31 KM. 20","municipality":"Viladamat","province":"GIRONA","postalCode":"17137","schedule":"L: 09:30-13:30","fuels":{"gasoline95":1.769,"gasoline98":1.929,"diesel":1.769,"dieselPremium":1.849},"extra":{"saleType":"P","margin":"N","reportingType":"dm","ideess":"2413","idMunicipio":"2656","idProvincia":"17","idCCAA":"09"}}},{"type":"Feature","geometry":{"type":"Point","coordinates":[3.1995,42.3345]},"properties":{"id":"es-2430","source":"ES","brand":"LA TRAMUNTANA","address":"CALLE LLANÇÀ, S/N","municipality":"Port de la Selva (El)","province":"GIRONA","postalCode":"17489","schedule":"L-D: 08:00-20:00","fuels":{"gasoline95":1.813,"diesel":1.865},"extra":{"saleType":"P","margin":"D","reportingType":"dm","ideess":"2430","idMunicipio":"2577","idProvincia":"17","idCCAA":"09"}}},{"type":"Feature","geometry":{"type":"Point","coordinates":[3.182361,42.255583]},"properties":{"id":"es-2431","source":"ES","brand":"BP OIL","address":"AVENIDA RHODE, S/N","municipality":"Roses","province":"GIRONA","postalCode":"17480","schedule":"L: 06:00-22:00","fuels":{"gasoline95":1.889,"gasoline98":1.999,"diesel":1.789,"dieselPremium":1.869},"extra":{"saleType":"P","margin":"N","reportingType":"dm","ideess":"2431","idMunicipio":"2592","idProvincia":"17","idCCAA":"09"}}},{"type":"Feature","geometry":{"type":"Point","coordinates":[3.165944,42.433694]},"properties":{"id":"es-2438","source":"ES","brand":"CEPSA","address":"CARRETERA NACIONAL 260 KM. 1","municipality":"Portbou","province":"GIRONA","postalCode":"17497","schedule":"L-S: 07:00-19:00; D: 09:00-19:00","fuels":{"gasoline95":1.953,"gasoline98":2.055,"diesel":1.854,"dieselPremium":1.956},"extra":{"saleType":"P","margin":"I","reportingType":"dm","ideess":"2438","idMunicipio":"2578","idProvincia":"17","idCCAA":"09"}}},{"type":"Feature","geometry":{"type":"Point","coordinates":[3.15075,42.365444]},"properties":{"id":"es-2445","source":"ES","brand":"REPSOL","address":"AVENIDA EUROPA, 2","municipality":"Llançà","province":"GIRONA","postalCode":"17490","schedule":"L-D: 06:00-22:00","fuels":{"gasoline95":1.895,"gasoline98":2.025,"diesel":1.809,"dieselPremium":1.869},"extra":{"saleType":"P","margin":"I","reportingType":"OM","ideess":"2445","idMunicipio":"2537","idProvincia":"17","idCCAA":"09"}}},{"type":"Feature","geometry":{"type":"Point","coordinates":[3.149167,42.270667]},"properties":{"id":"es-2476","source":"ES","brand":"REPSOL","address":"CARRETERA C-260 KM. 42,5","municipality":"Roses","province":"GIRONA","postalCode":"17480","schedule":"L-D: 24H","fuels":{"gasoline95":1.895,"gasoline98":2.025,"diesel":1.809,"dieselPremium":1.859},"extra":{"saleType":"P","margin":"D","reportingType":"OM","ideess":"2476","idMunicipio":"2592","idProvincia":"17","idCCAA":"09"}}},{"type":"Feature","geometry":{"type":"Point","coordinates":[3.063806,42.316444]},"properties":{"id":"es-2496","source":"ES","brand":"PETRONOR","address":"CARRETERA CR N-260 KM. 27,8","municipality":"Pedret i Marzà","province":"GIRONA","postalCode":"17493","schedule":"L-D: 06:00-22:00","fuels":{"gasoline95":1.895,"gasoline98":2.025,"diesel":1.809,"dieselPremium":1.869,"dieselB":1.699,"adblue":0.92},"extra":{"saleType":"P","margin":"D","reportingType":"dm","ideess":"2496","idMunicipio":"2569","idProvincia":"17","idCCAA":"09"}}},{"type":"Feature","geometry":{"type":"Point","coordinates":[3.117222,42.045306]},"properties":{"id":"es-2503","source":"ES","brand":"REPSOL","address":"CARRETERA C-31 KM. 350,5","municipality":"Ullà","province":"GIRONA","postalCode":"17140","schedule":"L-D: 06:00-22:00","fuels":{"gasoline95":1.949,"gasoline98":2.059,"diesel":1.805,"dieselPremium":1.865},"extra":{"saleType":"P","margin":"I","reportingType":"OM","ideess":"2503","idMunicipio":"2641","idProvincia":"17","idCCAA":"09"}}},{"type":"Feature","geometry":{"type":"Point","coordinates":[3.276167,42.290083]},"properties":{"id":"es-2533","source":"ES","brand":"REPSOL","address":"CALLE SERIÑANA, 18","municipality":"Cadaqués","province":"GIRONA","postalCode":"17488","schedule":"L: 07:00-21:00","fuels":{"gasoline95":1.949,"gasoline98":2.059,"diesel":1.799,"dieselPremium":1.849},"extra":{"saleType":"P","margin":"I","reportingType":"OM","ideess":"2533","idMunicipio":"2479","idProvincia":"17","idCCAA":"09"}}},{"type":"Feature","geometry":{"type":"Point","coordinates":[3.093861,42.071]},"properties":{"id":"es-2860","source":"ES","brand":"FULL  ENERGY BELLCAIRE D'EMPORDA","address":"CARRETERA GI-632 KM. 2,4","municipality":"Bellcaire d'Empordà","province":"GIRONA","postalCode":"17141","schedule":"L-D: 24H","fuels":{"gasoline95":1.779,"diesel":1.779},"extra":{"saleType":"P","margin":"I","reportingType":"dm","ideess":"2860","idMunicipio":"2464","idProvincia":"17","idCCAA":"09"}}},{"type":"Feature","geometry":{"type":"Point","coordinates":[3.049528,42.064694]},"properties":{"id":"es-2864","source":"ES","brand":"CEPSA","address":"CARRETERA C-31 KM. 357,2","municipality":"Verges","province":"GIRONA","postalCode":"17142","schedule":"L: 07:00-21:00","fuels":{"gasoline95":1.849,"gasoline95Premium":1.949,"diesel":1.949,"dieselPremium":2.029,"dieselB":1.339},"extra":{"saleType":"P","margin":"D","reportingType":"dm","ideess":"2864","idMunicipio":"2651","idProvincia":"17","idCCAA":"09"}}},{"type":"Feature","geometry":{"type":"Point","coordinates":[3.1045,42.2635]},"properties":{"id":"es-9744","source":"ES","brand":"E.S.MEX","address":"C260 km 38.5","municipality":"Castelló d'Empúries","province":"GIRONA","postalCode":"17486","schedule":"L-D: 24H","fuels":{"gasoline95":1.854,"gasoline98":1.994,"diesel":1.754,"adblue":0.894},"extra":{"saleType":"P","margin":"N","reportingType":"dm","ideess":"9744","idMunicipio":"2492","idProvincia":"17","idCCAA":"09"}}},{"type":"Feature","geometry":{"type":"Point","coordinates":[3.125944,42.113083]},"properties":{"id":"es-9882","source":"ES","brand":"EMPURIES OILS L'ESCALA","address":"CALLE RONDA DELS OFICIS, 4","municipality":"Escala (L')","province":"GIRONA","postalCode":"17130","schedule":"L-D: 07:00-21:30","fuels":{"gasoline95":1.839,"gasoline98":1.99,"diesel":1.829,"dieselPremium":1.969},"extra":{"saleType":"P","margin":"D","reportingType":"dm","ideess":"9882","idMunicipio":"2506","idProvincia":"17","idCCAA":"09"}}}]}