{"type":"FeatureCollection","features":[{"type":"Feature","geometry":{"type":"Point","coordinates":[-3.321083,42.534556]},"properties":{"id":"es-10039","source":"ES","brand":"BP","address":"CARRETERA N I KM. 278,050","municipality":"Briviesca","province":"BURGOS","postalCode":"09240","schedule":"L-V: 24H; S-D: 06:00-00:00","fuels":{"gasoline95":1.899,"gasoline98":2.039,"diesel":1.849,"dieselPremium":1.939,"adblue":1.59},"extra":{"saleType":"P","margin":"I","reportingType":"dm","ideess":"10039","idMunicipio":"1217","idProvincia":"09","idCCAA":"08"}}},{"type":"Feature","geometry":{"type":"Point","coordinates":[-3.322972,42.027639]},"properties":{"id":"es-10164","source":"ES","brand":"PINAROIL S.L.","address":"CARRETERA BURGOS-SAGUNTO KM. S/N","municipality":"Revilla y Ahedo (La)","province":"BURGOS","postalCode":"09613","schedule":"L-V: 08:00-20:00; S: 10:00-13:00","fuels":{"gasoline95":1.749,"diesel":1.779,"adblue":0.69},"extra":{"saleType":"P","margin":"D","reportingType":"dm","ideess":"10164","idMunicipio":"1414","idProvincia":"09","idCCAA":"08"}}},{"type":"Feature","geometry":{"type":"Point","coordinates":[-3.753889,42.037389]},"properties":{"id":"es-10631","source":"ES","brand":"EZ ENERGY","address":"CARRETERA CTRA. LERMA/VILLALMANZO S/N KM. S/N","municipality":"Lerma","province":"BURGOS","postalCode":"09340","schedule":"L-D: 24H","fuels":{"gasoline95":1.829,"diesel":1.849},"extra":{"saleType":"P","margin":"N","reportingType":"dm","ideess":"10631","idMunicipio":"1322","idProvincia":"09","idCCAA":"08"}}},{"type":"Feature","geometry":{"type":"Point","coordinates":[-3.711944,42.364306]},"properties":{"id":"es-10753","source":"ES","brand":"LAS TERRAZAS","address":"CARRETERA BURGOS-QUINTANADUEÑAS KM. 3","municipality":"Burgos","province":"BURGOS","postalCode":"09001","schedule":"L-D: 24H","fuels":{"gasoline95":1.729,"gasoline98":1.839,"diesel":1.669,"dieselPremium":1.679,"lpg":0.999,"adblue":0.799},"extra":{"saleType":"P","margin":"D","reportingType":"dm","ideess":"10753","idMunicipio":"1220","idProvincia":"09","idCCAA":"08"}}},{"type":"Feature","geometry":{"type":"Point","coordinates":[-3.264778,42.790083]},"properties":{"id":"es-10980","source":"ES","brand":"TOBALINOIL","address":"CARRETERA BU-530 KM. 11,800","municipality":"Valle de Tobalina","province":"BURGOS","postalCode":"09210","schedule":"L-V: 07:00-18:45; S-D: 09:15-18:45","fuels":{"gasoline95":1.997,"diesel":1.998},"extra":{"saleType":"P","margin":"D","reportingType":"dm","ideess":"10980","idMunicipio":"1487","idProvincia":"09","idCCAA":"08"}}},{"type":"Feature","geometry":{"type":"Point","coordinates":[-3.702917,42.310278]},"properties":{"id":"es-11058","source":"ES","brand":"MOEVE","address":"AUTOVIA A-I KM. 235","municipality":"Burgos","province":"BURGOS","postalCode":"09001","schedule":"L-D: 07:00-23:00","fuels":{"gasoline95":1.944,"gasoline95Premium":2.044,"diesel":1.859,"dieselPremium":1.949},"extra":{"saleType":"P","margin":"I","reportingType":"OM","ideess":"11058","idMunicipio":"1220","idProvincia":"09","idCCAA":"08"}}},{"type":"Feature","geometry":{"type":"Point","coordinates":[-3.934278,42.805139]},"properties":{"id":"es-11450","source":"ES","brand":"CEPSA","address":"CARRETERA CA-272 KM. 30,5","municipality":"Valderredible","province":"CANTABRIA","postalCode":"39220","schedule":"L-D: 11:00-15:00","fuels":{"gasoline95":1.944,"diesel":1.889},"extra":{"saleType":"P","margin":"D","reportingType":"OM","ideess":"11450","idMunicipio":"5838","idProvincia":"39","idCCAA":"06"}}},{"type":"Feature","geometry":{"type":"Point","coordinates":[-3.718528,42.370528]},"properties":{"id":"es-11878","source":"ES","brand":"VILLALONQUEJAR","address":"CALLE CONDADO DE TREVIÑO, 30","municipality":"Burgos","province":"BURGOS","postalCode":"09001","schedule":"L-D: 06:00-00:00","fuels":{"gasoline95":1.939,"gasoline95Premium":2.039,"diesel":1.889,"dieselPremium":1.979},"extra":{"saleType":"P","margin":"I","reportingType":"dm","ideess":"11878","idMunicipio":"1220","idProvincia":"09","idCCAA":"08"}}},{"type":"Feature","geometry":{"type":"Point","coordinates":[-3.694778,42.360694]},"properties":{"id":"es-12062","source":"ES","brand":"CARREFOUR","address":"CARRETERA SANTANDER N-623 (CARREFOUR) KM. 2","municipality":"Burgos","province":"BURGOS","postalCode":"09006","schedule":"L-D: 24H","fuels":{"gasoline95":1.889,"gasoline98":2.029,"diesel":1.799,"dieselPremium":1.839},"extra":{"saleType":"P","margin":"N","reportingType":"dm","ideess":"12062","idMunicipio":"1220","idProvincia":"09","idCCAA":"08"}}},{"type":"Feature","geometry":{"type":"Point","coordinates":[-3.485278,42.943167]},"properties":{"id":"es-12449","source":"ES","brand":"AVIA","address":"POLIGONO NAVAS, 1","municipality":"Medina de Pomar","province":"BURGOS","postalCode":"09500","schedule":"L-D: 24H","fuels":{"gasoline95":1.779,"diesel":1.719,"dieselPremium":1.729,"dieselB":1.459,"adblue":0.6},"extra":{"saleType":"P","margin":"D","reportingType":"dm","ideess":"12449","idMunicipio":"1333","idProvincia":"09","idCCAA":"08"}}},{"type":"Feature","geometry":{"type":"Point","coordinates":[-3.763167,42.275306]},"properties":{"id":"es-12551","source":"ES","brand":"NORPETROL ARCOS","address":"CARRETERA ALBILLOS KM. 0,2","municipality":"Arcos","province":"BURGOS","postalCode":"09195","schedule":"L-D: 24H","fuels":{"gasoline95":1.699,"diesel":1.779,"adblue":0.966},"extra":{"saleType":"P","margin":"D","reportingType":"dm","ideess":"12551","idMunicipio":"1190","idProvincia":"09","idCCAA":"08"}}},{"type":"Feature","geometry":{"type":"Point","coordinates":[-3.728194,42.368111]},"properties":{"id":"es-12608","source":"ES","brand":"BIESA","address":"CALLE CONDADO DE TREVIÑO, 2","municipality":"Burgos","province":"BURGOS","postalCode":"09000","schedule":"L-D: 24H","fuels":{"gasoline95":1.829,"diesel":1.789},"extra":{"saleType":"P","margin":"D","reportingType":"dm","ideess":"12608","idMunicipio":"1220","idProvincia":"09","idCCAA":"08"}}},{"type":"Feature","geometry":{"type":"Point","coordinates":[-3.702722,42.308861]},"properties":{"id":"es-13236","source":"ES","brand":"BEROIL","address":"CARRETERA MADRID IRUN KM. 243","municipality":"Villagonzalo Pedernales","province":"BURGOS","postalCode":"09195","schedule":"L-D: 24H","fuels":{"gasoline95":1.779,"diesel":1.719},"extra":{"saleType":"P","margin":"D","reportingType":"dm","ideess":"13236","idMunicipio":"1506","idProvincia":"09","idCCAA":"08"}}},{"type":"Feature","geometry":{"type":"Point","coordinates":[-3.835139,42.300722]},"properties":{"id":"es-13239","source":"ES","brand":"BEROIL","address":"CARRETERA A 62 KM. 14","municipality":"Buniel","province":"BURGOS","postalCode":"09230","schedule":"L-D: 24H","fuels":{"gasoline95":1.779,"diesel":1.719,"dieselPremium":1.809,"adblue":0.6},"extra":{"saleType":"P","margin":"D","reportingType":"dm","ideess":"13239","idMunicipio":"1219","idProvincia":"09","idCCAA":"08"}}},{"type":"Feature","geometry":{"type":"Point","coordinates":[-3.014944,42.986694]},"properties":{"id":"es-13389","source":"ES","brand":"PETROENCINA","address":"CALLE CARRETERA A GAMA - POLIGONO \"LA RONDINA\", PARCELA I-2","municipality":"Urduña-Orduña","province":"BIZKAIA","postalCode":"48460","schedule":"L-D: 24H","fuels":{"gasoline95":1.679,"diesel":1.759,"dieselPremium":1.829,"dieselB":1.509},"extra":{"saleType":"P","margin":"D","reportingType":"dm","ideess":"13389","idMunicipio":"7559","idProvincia":"48","idCCAA":"16"}}},{"type":"Feature","geometry":{"type":"Point","coordinates":[-3.314917,42.535722]},"properties":{"id":"es-13946","source":"ES","brand":"NORPETROL LOS CARROS 2","address":"CARRETERA BELORADO KM. BU-710 KM 0,5","municipality":"Briviesca","province":"BURGOS","postalCode":"09240","schedule":"L-D: 24H","fuels":{"gasoline95":1.789,"diesel":1.754,"adblue":0.966},"extra":{"saleType":"P","margin":"D","reportingType":"dm","ideess":"13946","idMunicipio":"1217","idProvincia":"09","idCCAA":"08"}}},{"type":"Feature","geometry":{"type":"Point","coordinates":[-3.623639,42.287639]},"properties":{"id":"es-14118","source":"ES","brand":"CARCEDOIL","address":"CALLE CALZADA, 1","municipality":"Carcedo de Burgos","province":"BURGOS","postalCode":"09193","schedule":"L-D: 24H","fuels":{"gasoline95":1.757,"diesel":1.647},"extra":{"saleType":"P","margin":"D","reportingType":"dm","ideess":"14118","idMunicipio":"1231","idProvincia":"09","idCCAA":"08"}}},{"type":"Feature","geometry":{"type":"Point","coordinates":[-3.728361,42.371861]},"properties":{"id":"es-14166","source":"ES","brand":"BEROIL","address":"CALLE LOPEZ BRAVO, 17","municipality":"Burgos","province":"BURGOS","postalCode":"09001","schedule":"L-D: 24H","fuels":{"gasoline95":1.779,"diesel":1.719,"adblue":0.6},"extra":{"saleType":"P","margin":"D","reportingType":"dm","ideess":"14166","idMunicipio":"1220","idProvincia":"09","idCCAA":"08"}}},{"type":"Feature","geometry":{"type":"Point","coordinates":[-3.650194,42.347111]},"properties":{"id":"es-14321","source":"ES","brand":"BALLENOIL","address":"CALLE PARAMO, 15","municipality":"Burgos","province":"BURGOS","postalCode":"09007","schedule":"L-D: 24H","fuels":{"gasoline95":1.799,"gasoline95Premium":1.809,"diesel":1.707,"dieselPremium":1.727},"extra":{"saleType":"P","margin":"D","reportingType":"OM","ideess":"14321","idMunicipio":"1220","idProvincia":"09","idCCAA":"08"}}},{"type":"Feature","geometry":{"type":"Point","coordinates":[-3.674806,42.365528]},"properties":{"id":"es-14516","source":"ES","brand":"TRIFON","address":"AVENIDA PRINCIPE DE ASTURIAS, SN","municipality":"Burgos","province":"BURGOS","postalCode":"09006","schedule":"L-V: 07:00-23:00","fuels":{"gasoline95":1.939,"gasoline98":2.079,"diesel":1.889,"dieselPremium":1.979},"extra":{"saleType":"P","margin":"D","reportingType":"dm","ideess":"14516","idMunicipio":"1220","idProvincia":"09","idCCAA":"08"}}},{"type":"Feature","geometry":{"type":"Point","coordinates":[-3.650972,42.358722]},"properties":{"id":"es-14580","source":"ES","brand":"BALLENOIL","address":"CALLE ALCALDE MARTIN COBOS  EN  BURGOS, 18","municipality":"Burgos","province":"BURGOS","postalCode":"09007","schedule":"L-D: 24H","fuels":{"gasoline95":1.759,"gasoline95Premium":1.769,"diesel":1.657,"dieselPremium":1.677},"extra":{"saleType":"P","margin":"N","reportingType":"OM","ideess":"14580","idMunicipio":"1220","idProvincia":"09","idCCAA":"08"}}},{"type":"Feature","geometry":{"type":"Point","coordinates":[-3.647722,42.351583]},"properties":{"id":"es-14798","source":"ES","brand":"NORPETROL ORY","address":"CALLE ALCALDE MARTIN COBOS  EN  BURGOS, 12","municipality":"Burgos","province":"BURGOS","postalCode":"09007","schedule":"L-D: 24H","fuels":{"gasoline95":1.749,"diesel":1.656,"dieselPremium":1.666,"adblue":0.966},"extra":{"saleType":"P","margin":"D","reportingType":"dm","ideess":"14798","idMunicipio":"1220","idProvincia":"09","idCCAA":"08"}}},{"type":"Feature","geometry":{"type":"Point","coordinates":[-3.6535,42.362]},"properties":{"id":"es-15572","source":"ES","brand":"PLENERGY","address":"CALLE ALCALDE MARTÍN COBOS, 26","municipality":"Burgos","province":"BURGOS","postalCode":"09007","schedule":"L-D: 24H","fuels":{"gasoline95":1.759,"diesel":1.655},"extra":{"saleType":"P","margin":"D","reportingType":"dm","ideess":"15572","idMunicipio":"1220","idProvincia":"09","idCCAA":"08"}}},{"type":"Feature","geometry":{"type":"Point","coordinates":[-3.660306,42.351167]},"properties":{"id":"es-15683","source":"ES","brand":"BALLENOIL","address":"CALLE JUAN RAMÓN JIMENEZ, S/N","municipality":"Burgos","province":"BURGOS","postalCode":"09007","schedule":"L-D: 24H","fuels":{"gasoline95":1.799,"diesel":1.707,"dieselPremium":1.727},"extra":{"saleType":"P","margin":"D","reportingType":"OM","ideess":"15683","idMunicipio":"1220","idProvincia":"09","idCCAA":"08"}}},{"type":"Feature","geometry":{"type":"Point","coordinates":[-3.843667,42.366583]},"properties":{"id":"es-16072","source":"ES","brand":"REPSOL","address":"CARRETERA A-231\t\t\t KM. 152","municipality":"Quintanillas (Las)","province":"BURGOS","postalCode":"09131","schedule":"L-D: 07:00-23:00","fuels":{"gasoline95":1.959,"gasoline98":2.129,"diesel":1.849,"dieselPremium":1.909},"extra":{"saleType":"P","margin":"D","reportingType":"OM","ideess":"16072","idMunicipio":"1402","idProvincia":"09","idCCAA":"08"}}},{"type":"Feature","geometry":{"type":"Point","coordinates":[-3.698778,42.365028]},"properties":{"id":"es-16126","source":"ES","brand":"NORPETROL","address":"CALLE DEL ALFOZ DE BRICIA  EN  BURGOS, 28","municipality":"Burgos","province":"BURGOS","postalCode":"09001","schedule":"L-D: 24H","fuels":{"gasoline95":1.729,"diesel":1.669,"dieselPremium":1.679,"adblue":0.966},"extra":{"saleType":"P","margin":"D","reportingType":"dm","ideess":"16126","idMunicipio":"1220","idProvincia":"09","idCCAA":"08"}}},{"type":"Feature","geometry":{"type":"Point","coordinates":[-3.702278,42.319611]},"properties":{"id":"es-16192","source":"ES","brand":"BALLENOIL","address":"CARRETERA NACIONAL I KM. 236","municipality":"Burgos","province":"BURGOS","postalCode":"09001","schedule":"L-D: 24H","fuels":{"gasoline95":1.759,"diesel":1.699,"dieselPremium":1.719},"extra":{"saleType":"P","margin":"D","reportingType":"OM","ideess":"16192","idMunicipio":"1220","idProvincia":"09","idCCAA":"08"}}},{"type":"Feature","geometry":{"type":"Point","coordinates":[-3.652806,42.360639]},"properties":{"id":"es-16220","source":"ES","brand":"BEROIL","address":"CALLE ALCALDE MARTIN COBOS  EN  BURGOS, 19","municipality":"Burgos","province":"BURGOS","postalCode":"09007","schedule":"L-D: 24H","fuels":{"gasoline95":1.779,"diesel":1.719,"adblue":0.6},"extra":{"saleType":"P","margin":"N","reportingType":"dm","ideess":"16220","idMunicipio":"1220","idProvincia":"09","idCCAA":"08"}}},{"type":"Feature","geometry":{"type":"Point","coordinates":[-3.013222,42.332556]},"properties":{"id":"es-2368","source":"ES","brand":"GALP","address":"CARRETERA CTRA. HARO-PRADOLUENGO KM. 33","municipality":"Ezcaray","province":"RIOJA (LA)","postalCode":"26280","schedule":"L-D: 08:00-21:00","fuels":{"gasoline95":1.829,"diesel":1.894,"dieselB":1.569},"extra":{"saleType":"P","margin":"D","reportingType":"dm","ideess":"2368","idMunicipio":"4095","idProvincia":"26","idCCAA":"17"}}},{"type":"Feature","geometry":{"type":"Point","coordinates":[-3.04575,42.755583]},"properties":{"id":"es-24","source":"ES","brand":"AVIA","address":"CARRETERA A-2122 KM. 11","municipality":"Lantarón","province":"ARABA/ÁLAVA","postalCode":"01423","schedule":"L-D: 07:00-21:00","fuels":{"gasoline95":1.67,"diesel":1.68},"extra":{"saleType":"P","margin":"I","reportingType":"dm","ideess":"24","idMunicipio":"28","idProvincia":"01","idCCAA":"16"}}},{"type":"Feature","geometry":{"type":"Point","coordinates":[-3.581222,42.920389]},"properties":{"id":"es-4737","source":"ES","brand":"AVIA","address":"C-629 (POLÍGONO LAS MERINDADES) km 62KMS","municipality":"Villarcayo de Merindad de Castilla la Vieja","province":"BURGOS","postalCode":"09550","schedule":"L: 07:00-23:00","fuels":{"gasoline95":1.779,"diesel":1.709,"dieselB":1.429},"extra":{"saleType":"P","margin":"N","reportingType":"dm","ideess":"4737","idMunicipio":"1525","idProvincia":"09","idCCAA":"08"}}},{"type":"Feature","geometry":{"type":"Point","coordinates":[-3.928167,42.379861]},"properties":{"id":"es-4750","source":"ES","brand":"E.S.SAIZ","address":"LOGROÑO-VIGO km 134,5","municipality":"Villanueva de Argaño","province":"BURGOS","postalCode":"09130","schedule":"L-D: 07:00-22:00","fuels":{"gasoline95":1.769,"gasoline98":1.81,"diesel":1.699,"dieselPremium":1.719,"dieselB":1.45,"adblue":0.75},"extra":{"saleType":"P","margin":"D","reportingType":"dm","ideess":"4750","idMunicipio":"1519","idProvincia":"09","idCCAA":"08"}}},{"type":"Feature","geometry":{"type":"Point","coordinates":[-3.590833,42.37675]},"properties":{"id":"es-4908","source":"ES","brand":"BEROIL, S.L.","address":"N-I km 249","municipality":"Rubena","province":"BURGOS","postalCode":"09199","schedule":"L-D: 24H","fuels":{"gasoline95":1.779,"diesel":1.719,"dieselPremium":1.729,"dieselB":1.489,"dieselRenewable":1.839,"cng":1.624,"lng":1.568,"adblue":0.6},"extra":{"saleType":"P","margin":"D","reportingType":"dm","ideess":"4908","idMunicipio":"1421","idProvincia":"09","idCCAA":"08"}}},{"type":"Feature","geometry":{"type":"Point","coordinates":[-3.681639,42.426861]},"properties":{"id":"es-4918","source":"ES","brand":"CEPSA","address":"CARRETERA N-623 KM. 10","municipality":"Quintanilla Vivar","province":"BURGOS","postalCode":"09140","schedule":"L-D: 07:00-23:00","fuels":{"gasoline95":1.944,"gasoline95Premium":2.044,"diesel":1.859,"dieselPremium":1.949},"extra":{"saleType":"P","margin":"D","reportingType":"OM","ideess":"4918","idMunicipio":"1401","idProvincia":"09","idCCAA":"08"}}},{"type":"Feature","geometry":{"type":"Point","coordinates":[-3.414722,42.734833]},"properties":{"id":"es-4920","source":"ES","brand":"AVIA","address":"CARRETERA LOGROÑO SANTANDER KM. 508","municipality":"Oña","province":"BURGOS","postalCode":"09530","schedule":"L-V: 07:30-21:00; S-D: 08:30-21:00","fuels":{"gasoline95":1.899,"diesel":1.799,"dieselPremium":1.839},"extra":{"saleType":"P","margin":"I","reportingType":"dm","ideess":"4920","idMunicipio":"1357","idProvincia":"09","idCCAA":"08"}}},{"type":"Feature","geometry":{"type":"Point","coordinates":[-3.570556,42.940389]},"properties":{"id":"es-4934","source":"ES","brand":"E.S. RIVERA","address":"CALLE CALLE SAN ROQUE (CARRETERA BURGOS-VILLARCAYO), 13","municipality":"Villarcayo de Merindad de Castilla la Vieja","province":"BURGOS","postalCode":"09556","schedule":"L-D: 07:30-23:00","fuels":{"gasoline95":1.799,"diesel":1.699,"dieselB":1.399},"extra":{"saleType":"P","margin":"I","reportingType":"dm","ideess":"4934","idMunicipio":"1525","idProvincia":"09","idCCAA":"08"}}},{"type":"Feature","geometry":{"type":"Point","coordinates":[-3.623861,42.637028]},"properties":{"id":"es-4938","source":"ES","brand":"E.S. LAS BRUJAS - CERNEGULA","address":"CARRETERA CL-629 KM. 35","municipality":"Merindad de Río Ubierna","province":"BURGOS","postalCode":"09141","schedule":"L-D: 07:00-22:00","fuels":{"gasoline95":1.799,"diesel":1.699,"adblue":0.75},"extra":{"saleType":"P","margin":"I","reportingType":"dm","ideess":"4938","idMunicipio":"1337","idProvincia":"09","idCCAA":"08"}}},{"type":"Feature","geometry":{"type":"Point","coordinates":[-3.849417,42.970556]},"properties":{"id":"es-4940","source":"ES","brand":"AVIA","address":" CTRA N-623  BURGOS-SANTANDER  KM 83, ","municipality":"Valle de Valdebezana","province":"BURGOS","postalCode":"09572","schedule":"L-D: 08:00-21:30","fuels":{"gasoline95":1.878,"gasoline98":1.988,"diesel":1.829,"dieselPremium":1.879},"extra":{"saleType":"P","margin":"I","reportingType":"dm","ideess":"4940","idMunicipio":"1488","idProvincia":"09","idCCAA":"08"}}},{"type":"Feature","geometry":{"type":"Point","coordinates":[-3.607611,42.369417]},"properties":{"id":"es-4942","source":"ES","brand":"URLAVE","address":"CARRETERA NACIONAL I KM. 247","municipality":"Burgos","province":"BURGOS","postalCode":"09192","schedule":"L-D: 24H","fuels":{"gasoline95":1.96,"diesel":1.99,"adblue":1.5},"extra":{"saleType":"P","margin":"I","reportingType":"dm","ideess":"4942","idMunicipio":"1220","idProvincia":"09","idCCAA":"08"}}},{"type":"Feature","geometry":{"type":"Point","coordinates":[-3.89175,42.278444]},"properties":{"id":"es-4970","source":"ES","brand":"BEROIL","address":"CARRETERA NACIONAL 620 KM. 20","municipality":"Estépar","province":"BURGOS","postalCode":"09230","schedule":"L-D: 24H","fuels":{"gasoline95":1.779,"diesel":1.719,"dieselPremium":1.809,"dieselB":1.489,"adblue":0.6},"extra":{"saleType":"P","margin":"N","reportingType":"dm","ideess":"4970","idMunicipio":"1271","idProvincia":"09","idCCAA":"08"}}},{"type":"Feature","geometry":{"type":"Point","coordinates":[-3.068028,42.651972]},"properties":{"id":"es-4983","source":"ES","brand":"MOEVE","address":"AUTOPISTA AP-1 (MRG.IZDO.) KM. 63,5","municipality":"Ameyugo","province":"BURGOS","postalCode":"09219","schedule":"L-D: 24H","fuels":{"gasoline95":1.944,"gasoline98":2.094,"diesel":1.859,"dieselPremium":1.949},"extra":{"saleType":"P","margin":"I","reportingType":"OM","ideess":"4983","idMunicipio":"1183","idProvincia":"09","idCCAA":"08"}}},{"type":"Feature","geometry":{"type":"Point","coordinates":[-3.069667,42.650611]},"properties":{"id":"es-4984","source":"ES","brand":"MOEVE","address":"AUTOPISTA AP-1 (MRG.DCHO.) KM. 63,5","municipality":"Ameyugo","province":"BURGOS","postalCode":"09219","schedule":"L-D: 24H","fuels":{"gasoline95":1.944,"gasoline98":2.094,"diesel":1.859,"dieselPremium":1.949},"extra":{"saleType":"P","margin":"D","reportingType":"OM","ideess":"4984","idMunicipio":"1183","idProvincia":"09","idCCAA":"08"}}},{"type":"Feature","geometry":{"type":"Point","coordinates":[-3.334111,42.526028]},"properties":{"id":"es-4989","source":"ES","brand":"MOEVE","address":"AUTOPISTA AP-1 (MRG.DCHO.) KM. 35,5","municipality":"Briviesca","province":"BURGOS","postalCode":"09240","schedule":"L-D: 24H","fuels":{"gasoline95":1.944,"gasoline98":2.094,"diesel":1.859,"dieselPremium":1.949},"extra":{"saleType":"P","margin":"D","reportingType":"OM","ideess":"4989","idMunicipio":"1217","idProvincia":"09","idCCAA":"08"}}},{"type":"Feature","geometry":{"type":"Point","coordinates":[-3.332083,42.528861]},"properties":{"id":"es-4991","source":"ES","brand":"MOEVE","address":"AUTOPISTA AP-1 (MRG.IZDO.) KM. 35,5","municipality":"Briviesca","province":"BURGOS","postalCode":"09240","schedule":"L-D: 24H","fuels":{"gasoline95":1.919,"gasoline98":2.079,"diesel":1.864,"dieselPremium":1.954,"lpg":1.169},"extra":{"saleType":"P","margin":"I","reportingType":"OM","ideess":"4991","idMunicipio":"1217","idProvincia":"09","idCCAA":"08"}}},{"type":"Feature","geometry":{"type":"Point","coordinates":[-3.716806,42.132361]},"properties":{"id":"es-5002","source":"ES","brand":"CEPSA","address":"AUTOVIA A-1 KM. 214,1","municipality":"Madrigalejo del Monte","province":"BURGOS","postalCode":"09330","schedule":"L-J: 08:00-21:00; V-D: 08:00-22:00","fuels":{"gasoline95":1.929,"diesel":1.874,"dieselPremium":1.964},"extra":{"saleType":"P","margin":"I","reportingType":"dm","ideess":"5002","idMunicipio":"1325","idProvincia":"09","idCCAA":"08"}}},{"type":"Feature","geometry":{"type":"Point","coordinates":[-3.999139,42.219944]},"properties":{"id":"es-5024","source":"ES","brand":"CEPSA","address":"CARRETERA N-620A KM. 32,3","municipality":"Villaquirán de los Infantes","province":"BURGOS","postalCode":"09226","schedule":"L-D: 24H","fuels":{"gasoline95":1.899,"gasoline98":2.029,"diesel":1.859,"dieselPremium":1.959,"dieselB":1.559,"adblue":0.819},"extra":{"saleType":"P","margin":"D","reportingType":"dm","ideess":"5024","idMunicipio":"1524","idProvincia":"09","idCCAA":"08"}}},{"type":"Feature","geometry":{"type":"Point","coordinates":[-3.705972,42.245333]},"properties":{"id":"es-5028","source":"ES","brand":"GALP","address":"CARRETERA N-I KM. 228,3","municipality":"Sarracín","province":"BURGOS","postalCode":"09620","schedule":"L-D: 24H","fuels":{"gasoline95":1.884,"gasoline95Premium":1.934,"diesel":1.794,"dieselPremium":1.884,"dieselRenewable":1.884,"adblue":0.799},"extra":{"saleType":"P","margin":"I","reportingType":"OM","ideess":"5028","idMunicipio":"1448","idProvincia":"09","idCCAA":"08"}}},{"type":"Feature","geometry":{"type":"Point","coordinates":[-3.692694,42.366083]},"properties":{"id":"es-5040","source":"ES","brand":"GALP","address":"CARRETERA N-623 KM. 0","municipality":"Burgos","province":"BURGOS","postalCode":"09006","schedule":"L-D: 06:30-22:30","fuels":{"gasoline95":1.829,"gasoline95Premium":1.879,"diesel":1.769,"dieselPremium":1.819},"extra":{"saleType":"P","margin":"N","reportingType":"OM","ideess":"5040","idMunicipio":"1220","idProvincia":"09","idCCAA":"08"}}},{"type":"Feature","geometry":{"type":"Point","coordinates":[-3.222722,42.978611]},"properties":{"id":"es-5043","source":"ES","brand":"GALP","address":"CARRETERA BU-550 KM. 27","municipality":"Valle de Losa","province":"BURGOS","postalCode":"09510","schedule":"L-D: 07:00-21:00","fuels":{"gasoline95":1.909,"diesel":1.879,"dieselPremium":1.929,"dieselB":1.519},"extra":{"saleType":"P","margin":"N","reportingType":"OM","ideess":"5043","idMunicipio":"1481","idProvincia":"09","idCCAA":"08"}}},{"type":"Feature","geometry":{"type":"Point","coordinates":[-3.980611,42.693778]},"properties":{"id":"es-5069","source":"ES","brand":"REPSOL","address":"CARRETERA N-627, BURGOS-AGUILAR DE CAMPOO KM. 51,550","municipality":"Basconcillos del Tozo","province":"BURGOS","postalCode":"09126","schedule":"L-D: 07:00-23:00","fuels":{"gasoline95":1.948,"gasoline98":2.078,"diesel":1.848,"dieselPremium":1.948},"extra":{"saleType":"P","margin":"D","reportingType":"dm","ideess":"5069","idMunicipio":"1208","idProvincia":"09","idCCAA":"08"}}},{"type":"Feature","geometry":{"type":"Point","coordinates":[-3.703139,42.245833]},"properties":{"id":"es-5074","source":"ES","brand":"GALP","address":"CARRETERA N-I KM. 228,4","municipality":"Sarracín","province":"BURGOS","postalCode":"09620","schedule":"L-D: 24H","fuels":{"gasoline95":1.914,"gasoline95Premium":1.964,"diesel":1.859,"dieselPremium":1.949,"dieselRenewable":1.949,"adblue":0.799},"extra":{"saleType":"P","margin":"D","reportingType":"OM","ideess":"5074","idMunicipio":"1448","idProvincia":"09","idCCAA":"08"}}},{"type":"Feature","geometry":{"type":"Point","coordinates":[-3.723556,42.309056]},"properties":{"id":"es-5076","source":"ES","brand":"REPSOL","address":"CR A-62, 5,7","municipality":"Villagonzalo Pedernales","province":"BURGOS","postalCode":"09195","schedule":"L-D: 24H","fuels":{"gasoline95":1.965,"gasoline98":2.105,"diesel":1.859,"dieselRenewable":1.969},"extra":{"saleType":"P","margin":"D","reportingType":"OM","ideess":"5076","idMunicipio":"1506","idProvincia":"09","idCCAA":"08"}}},{"type":"Feature","geometry":{"type":"Point","coordinates":[-3.549583,42.404111]},"properties":{"id":"es-5078","source":"ES","brand":"REPSOL","address":"AU AP-1  (DCHA), 12","municipality":"Quintanapalla","province":"BURGOS","postalCode":"09290","schedule":"L-D: 24H","fuels":{"gasoline95":1.945,"gasoline95Premium":2.015,"gasoline98":2.055,"diesel":1.855,"dieselPremium":1.905,"lpg":1.195},"extra":{"saleType":"P","margin":"D","reportingType":"OM","ideess":"5078","idMunicipio":"1394","idProvincia":"09","idCCAA":"08"}}},{"type":"Feature","geometry":{"type":"Point","coordinates":[-3.549556,42.40475]},"properties":{"id":"es-5079","source":"ES","brand":"REPSOL","address":"AU AP-1   (IZDA), 12","municipality":"Quintanapalla","province":"BURGOS","postalCode":"09290","schedule":"L-D: 24H","fuels":{"gasoline95":1.945,"gasoline98":2.055,"diesel":1.855,"dieselPremium":1.905,"lpg":1.175},"extra":{"saleType":"P","margin":"I","reportingType":"OM","ideess":"5079","idMunicipio":"1394","idProvincia":"09","idCCAA":"08"}}},{"type":"Feature","geometry":{"type":"Point","coordinates":[-3.612222,42.34125]},"properties":{"id":"es-5518","source":"ES","brand":"REPSOL","address":"CARRETERA N-120 KM. 106","municipality":"Cardeñajimeno","province":"BURGOS","postalCode":"09193","schedule":"L-D: 06:00-22:00","fuels":{"gasoline95":1.959,"gasoline98":2.129,"diesel":1.855,"dieselRenewable":1.965},"extra":{"saleType":"P","margin":"I","reportingType":"OM","ideess":"5518","idMunicipio":"1233","idProvincia":"09","idCCAA":"08"}}},{"type":"Feature","geometry":{"type":"Point","coordinates":[-3.677917,42.34875]},"properties":{"id":"es-5532","source":"ES","brand":"REPSOL","address":"CL GLORIETA LOGROÑO, S.N.","municipality":"Burgos","province":"BURGOS","postalCode":"09007","schedule":"L-D: 24H","fuels":{"gasoline95":1.979,"gasoline98":2.109,"diesel":1.869,"dieselPremium":1.929},"extra":{"saleType":"P","margin":"D","reportingType":"dm","ideess":"5532","idMunicipio":"1220","idProvincia":"09","idCCAA":"08"}}},{"type":"Feature","geometry":{"type":"Point","coordinates":[-3.207111,42.417333]},"properties":{"id":"es-5548","source":"ES","brand":"REPSOL","address":"CARRETERA N-120 KM. 68,3","municipality":"Belorado","province":"BURGOS","postalCode":"09250","schedule":"L-D: 07:00-22:00","fuels":{"gasoline95":1.978,"gasoline98":2.138,"diesel":1.898,"dieselB":1.698,"dieselRenewable":1.998,"adblue":0.88},"extra":{"saleType":"P","margin":"I","reportingType":"dm","ideess":"5548","idMunicipio":"1211","idProvincia":"09","idCCAA":"08"}}},{"type":"Feature","geometry":{"type":"Point","coordinates":[-3.8465,42.294444]},"properties":{"id":"es-5975","source":"ES","brand":"REPSOL","address":"AUTOVIA A-62 KM. 16,7","municipality":"Frandovínez","province":"BURGOS","postalCode":"09230","schedule":"L-D: 07:00-23:00","fuels":{"gasoline95":1.939,"gasoline98":2.109,"diesel":1.865,"dieselPremium":1.945},"extra":{"saleType":"P","margin":"D","reportingType":"OM","ideess":"5975","idMunicipio":"1273","idProvincia":"09","idCCAA":"08"}}},{"type":"Feature","geometry":{"type":"Point","coordinates":[-3.622139,42.364111]},"properties":{"id":"es-5982","source":"ES","brand":"REPSOL","address":"CALLE VITORIA, 290","municipality":"Burgos","province":"BURGOS","postalCode":"09192","schedule":"L-D: 07:00-23:00","fuels":{"gasoline95":1.919,"gasoline98":2.089,"diesel":1.839,"dieselRenewable":1.949},"extra":{"saleType":"P","margin":"D","reportingType":"OM","ideess":"5982","idMunicipio":"1220","idProvincia":"09","idCCAA":"08"}}},{"type":"Feature","geometry":{"type":"Point","coordinates":[-3.711889,42.337472]},"properties":{"id":"es-5986","source":"ES","brand":"REPSOL","address":"CL AVENIDA PALENCIA, S.N.","municipality":"Burgos","province":"BURGOS","postalCode":"09001","schedule":"L-D: 24H","fuels":{"gasoline95":1.979,"gasoline98":2.109,"diesel":1.869,"dieselPremium":1.929,"lpg":1.179},"extra":{"saleType":"P","margin":"D","reportingType":"dm","ideess":"5986","idMunicipio":"1220","idProvincia":"09","idCCAA":"08"}}},{"type":"Feature","geometry":{"type":"Point","coordinates":[-3.698667,42.344667]},"properties":{"id":"es-5989","source":"ES","brand":"REPSOL","address":"CL GENERAL SANZ PASTOR, S.N.","municipality":"Burgos","province":"BURGOS","postalCode":"09003","schedule":"L-V: 08:00-16:00","fuels":{"gasoline95":1.929,"diesel":1.839},"extra":{"saleType":"P","margin":"D","reportingType":"OM","ideess":"5989","idMunicipio":"1220","idProvincia":"09","idCCAA":"08"}}},{"type":"Feature","geometry":{"type":"Point","coordinates":[-3.703306,42.290056]},"properties":{"id":"es-5993","source":"ES","brand":"REPSOL","address":"CARRETERA MADRID-IRUN KM. 232,8","municipality":"Villagonzalo Pedernales","province":"BURGOS","postalCode":"09195","schedule":"L-D: 07:00-23:00","fuels":{"gasoline95":1.989,"gasoline98":2.119,"diesel":1.879,"dieselRenewable":1.949,"adblue":0.969},"extra":{"saleType":"P","margin":"D","reportingType":"dm","ideess":"5993","idMunicipio":"1506","idProvincia":"09","idCCAA":"08"}}},{"type":"Feature","geometry":{"type":"Point","coordinates":[-3.704944,42.290333]},"properties":{"id":"es-5994","source":"ES","brand":"REPSOL","address":"CARRETERA NACIONAL A-1 KM. 232,8","municipality":"Villagonzalo Pedernales","province":"BURGOS","postalCode":"09195","schedule":"L-D: 07:00-23:00","fuels":{"gasoline95":1.989,"gasoline98":2.119,"diesel":1.879,"dieselPremium":1.939,"adblue":0.969},"extra":{"saleType":"P","margin":"I","reportingType":"dm","ideess":"5994","idMunicipio":"1506","idProvincia":"09","idCCAA":"08"}}},{"type":"Feature","geometry":{"type":"Point","coordinates":[-3.29225,42.023583]},"properties":{"id":"es-5998","source":"ES","brand":"REPSOL","address":"CARRETERA N-234 KM. 437","municipality":"Salas de los Infantes","province":"BURGOS","postalCode":"09600","schedule":"L-D: 07:00-23:00","fuels":{"gasoline95":1.965,"gasoline98":2.135,"diesel":1.825,"dieselPremium":1.885},"extra":{"saleType":"P","margin":"D","reportingType":"OM","ideess":"5998","idMunicipio":"1425","idProvincia":"09","idCCAA":"08"}}},{"type":"Feature","geometry":{"type":"Point","coordinates":[-3.483,42.945]},"properties":{"id":"es-6004","source":"ES","brand":"REPSOL","address":"CARRETERA N-629 KM. 25,300","municipality":"Medina de Pomar","province":"BURGOS","postalCode":"09500","schedule":"L-D: 07:00-21:30","fuels":{"gasoline95":1.989,"gasoline98":2.149,"diesel":1.899,"dieselB":1.629,"dieselRenewable":1.989},"extra":{"saleType":"P","margin":"I","reportingType":"dm","ideess":"6004","idMunicipio":"1333","idProvincia":"09","idCCAA":"08"}}},{"type":"Feature","geometry":{"type":"Point","coordinates":[-3.720889,42.342417]},"properties":{"id":"es-6006","source":"ES","brand":"CEPSA","address":"PASEO LAS FUENTECILLAS, S/N","municipality":"Burgos","province":"BURGOS","postalCode":"09001","schedule":"L-S: 07:45-19:50","fuels":{"gasoline95":1.909,"gasoline95Premium":1.999,"diesel":1.847,"dieselPremium":1.894},"extra":{"saleType":"P","margin":"I","reportingType":"OM","ideess":"6006","idMunicipio":"1220","idProvincia":"09","idCCAA":"08"}}},{"type":"Feature","geometry":{"type":"Point","coordinates":[-3.767,42.340889]},"properties":{"id":"es-6008","source":"ES","brand":"REPSOL","address":"CARRETERA CARRETERA NACIONAL 120 KM. 119","municipality":"Villalbilla de Burgos","province":"BURGOS","postalCode":"09197","schedule":"L-D: 07:00-23:00","fuels":{"gasoline95":1.939,"gasoline98":2.069,"diesel":1.899,"dieselB":1.699,"dieselRenewable":1.959,"adblue":1.0},"extra":{"saleType":"P","margin":"I","reportingType":"dm","ideess":"6008","idMunicipio":"1509","idProvincia":"09","idCCAA":"08"}}},{"type":"Feature","geometry":{"type":"Point","coordinates":[-3.751667,42.041028]},"properties":{"id":"es-6025","source":"ES","brand":"REPSOL","address":"CARRETERA A-1, MADRID-BURGOS KM. 203,000","municipality":"Villalmanzo","province":"BURGOS","postalCode":"09390","schedule":"L-D: 24H","fuels":{"gasoline95":1.979,"gasoline98":1.979,"diesel":1.959,"dieselB":1.749,"dieselRenewable":2.016,"adblue":0.967},"extra":{"saleType":"P","margin":"D","reportingType":"dm","ideess":"6025","idMunicipio":"1512","idProvincia":"09","idCCAA":"08"}}},{"type":"Feature","geometry":{"type":"Point","coordinates":[-3.752778,42.040694]},"properties":{"id":"es-6026","source":"ES","brand":"REPSOL","address":"CARRETERA CRTA A-1,  MADRID-BURGOS KM. 203","municipality":"Villalmanzo","province":"BURGOS","postalCode":"09390","schedule":"L-D: 24H","fuels":{"gasoline95":1.979,"gasoline98":1.979,"diesel":1.959,"dieselB":1.749,"dieselRenewable":2.016,"adblue":0.967},"extra":{"saleType":"P","margin":"I","reportingType":"dm","ideess":"6026","idMunicipio":"1512","idProvincia":"09","idCCAA":"08"}}},{"type":"Feature","geometry":{"type":"Point","coordinates":[-3.061333,42.911833]},"properties":{"id":"es-6045","source":"ES","brand":"E.S.FERREIRA","address":"CR N-625, 337","municipality":"Berberana","province":"BURGOS","postalCode":"09511","schedule":"L-J: 08:00-20:00; V-D: 08:00-21:00","fuels":{"gasoline95":1.758,"gasoline98":1.858,"diesel":1.728,"dieselB":1.498},"extra":{"saleType":"P","margin":"I","reportingType":"dm","ideess":"6045","idMunicipio":"1212","idProvincia":"09","idCCAA":"08"}}},{"type":"Feature","geometry":{"type":"Point","coordinates":[-3.7005,42.330333]},"properties":{"id":"es-6053","source":"ES","brand":"REPSOL","address":"CL MADRID, 66","municipality":"Burgos","province":"BURGOS","postalCode":"09001","schedule":"L-D: 24H","fuels":{"gasoline95":1.979,"gasoline98":2.109,"diesel":1.869,"dieselPremium":1.929},"extra":{"saleType":"P","margin":"D","reportingType":"dm","ideess":"6053","idMunicipio":"1220","idProvincia":"09","idCCAA":"08"}}},{"type":"Feature","geometry":{"type":"Point","coordinates":[-3.647944,42.344583]},"properties":{"id":"es-6059","source":"ES","brand":"REPSOL","address":"CARRETERA NACIONAL 120 KM. 108,3","municipality":"Burgos","province":"BURGOS","postalCode":"09007","schedule":"L-D: 07:00-23:00","fuels":{"gasoline95":1.959,"gasoline98":2.099,"diesel":1.859,"dieselPremium":1.919,"lpg":1.179},"extra":{"saleType":"P","margin":"I","reportingType":"OM","ideess":"6059","idMunicipio":"1220","idProvincia":"09","idCCAA":"08"}}},{"type":"Feature","geometry":{"type":"Point","coordinates":[-3.680694,42.363611]},"properties":{"id":"es-6068","source":"ES","brand":"FUNDACION AIDA CEPSA","address":"AVENIDA ISLAS BALEARES, S/N","municipality":"Burgos","province":"BURGOS","postalCode":"09006","schedule":"L-D: 24H","fuels":{"gasoline95":1.929,"gasoline95Premium":2.029,"diesel":1.879,"dieselPremium":1.969},"extra":{"saleType":"P","margin":"D","reportingType":"dm","ideess":"6068","idMunicipio":"1220","idProvincia":"09","idCCAA":"08"}}},{"type":"Feature","geometry":{"type":"Point","coordinates":[-3.695111,42.358694]},"properties":{"id":"es-6073","source":"ES","brand":"BEROIL","address":"CARRETERA CARRETERA DE SANTANDER KM. 2","municipality":"Burgos","province":"BURGOS","postalCode":"09006","schedule":"L-D: 24H","fuels":{"gasoline95":1.779,"gasoline98":1.839,"diesel":1.719,"dieselPremium":1.809,"lpg":1.05,"adblue":0.6},"extra":{"saleType":"P","margin":"N","reportingType":"dm","ideess":"6073","idMunicipio":"1220","idProvincia":"09","idCCAA":"08"}}},{"type":"Feature","geometry":{"type":"Point","coordinates":[-3.897222,42.275278]},"properties":{"id":"es-8034","source":"ES","brand":"VALCARCE","address":"N-620 km 22","municipality":"Estépar","province":"BURGOS","postalCode":"09230","schedule":"L-D: 24H","fuels":{"gasoline95":1.909,"diesel":1.859,"dieselB":1.529,"adblue":0.779},"extra":{"saleType":"P","margin":"N","reportingType":"dm","ideess":"8034","idMunicipio":"1271","idProvincia":"09","idCCAA":"08"}}},{"type":"Feature","geometry":{"type":"Point","coordinates":[-3.70725,42.226389]},"properties":{"id":"es-8405","source":"ES","brand":"SHELL","address":"AUTV.A-1 (N-234) km 225,5","municipality":"Sarracín","province":"BURGOS","postalCode":"09620","schedule":"L-V: 06:30-23:00; S-D: 07:00-23:00","fuels":{"gasoline95":1.939,"diesel":1.839,"dieselPremium":1.909,"adblue":0.979},"extra":{"saleType":"P","margin":"I","reportingType":"dm","ideess":"8405","idMunicipio":"1448","idProvincia":"09","idCCAA":"08"}}},{"type":"Feature","geometry":{"type":"Point","coordinates":[-3.73225,42.306722]},"properties":{"id":"es-8406","source":"ES","brand":"SHELL","address":"CTRA.N-620 km 6,6","municipality":"Villagonzalo Pedernales","province":"BURGOS","postalCode":"09195","schedule":"L-D: 24H","fuels":{"gasoline95":1.969,"gasoline98":2.099,"diesel":1.859,"dieselPremium":1.92},"extra":{"saleType":"P","margin":"I","reportingType":"dm","ideess":"8406","idMunicipio":"1506","idProvincia":"09","idCCAA":"08"}}},{"type":"Feature","geometry":{"type":"Point","coordinates":[-3.331597,42.56325]},"properties":{"id":"es-8990","source":"ES","brand":"SUMINISTROS AGROBUREBA, SL","address":"CTRA.CORNUDILLA, KM.3,2","municipality":"Briviesca","province":"BURGOS","postalCode":"09240","schedule":"L-D: 24H","fuels":{"gasoline95":1.836,"diesel":1.755,"dieselB":1.5},"extra":{"saleType":"P","margin":"D","reportingType":"dm","ideess":"8990","idMunicipio":"1217","idProvincia":"09","idCCAA":"08"}}},{"type":"Feature","geometry":{"type":"Point","coordinates":[-3.766778,42.0375]},"properties":{"id":"es-9008","source":"ES","brand":"BV-CARBURANTES / \" DTO %\"","address":"CALLE GALERNA  EN  LERMA, 6","municipality":"Lerma","province":"BURGOS","postalCode":"09340","schedule":"L-D: 24H","fuels":{"gasoline95":1.839,"diesel":1.899},"extra":{"saleType":"P","margin":"D","reportingType":"dm","ideess":"9008","idMunicipio":"1322","idProvincia":"09","idCCAA":"08"}}},{"type":"Feature","geometry":{"type":"Point","coordinates":[-3.390056,42.806222]},"properties":{"id":"es-9284","source":"ES","brand":"E.S. BASURTO, S.L.","address":"CTRA. N-629 OÑA-SANTOÑA, KM. 7,7","municipality":"Trespaderne","province":"BURGOS","postalCode":"09540","schedule":"L-D: 24H","fuels":{"gasoline95":1.869,"gasoline98":1.969,"diesel":1.768,"dieselPremium":1.818,"dieselB":1.53},"extra":{"saleType":"P","margin":"D","reportingType":"dm","ideess":"9284","idMunicipio":"1471","idProvincia":"09","idCCAA":"08"}}},{"type":"Feature","geometry":{"type":"Point","coordinates":[-3.750306,42.043611]},"properties":{"id":"es-9306","source":"ES","brand":"COOP. ARLANZA","address":"CARRETERA MADRID-IRUN  EN  VILLALMANZO KM. 203,8","municipality":"Villalmanzo","province":"BURGOS","postalCode":"09390","schedule":"L-V: 09:00-14:00 y 16:00-19:00","fuels":{"gasoline95":1.749,"diesel":1.797,"adblue":0.62},"extra":{"saleType":"P","margin":"I","reportingType":"dm","ideess":"9306","idMunicipio":"1512","idProvincia":"09","idCCAA":"08"}}},{"type":"Feature","geometry":{"type":"Point","coordinates":[-3.320056,42.555889]},"properties":{"id":"es-9430","source":"ES","brand":"NORPETROL LA VEGA","address":"CALLE BURGOS, 11","municipality":"Briviesca","province":"BURGOS","postalCode":"09240","schedule":"L-D: 24H","fuels":{"gasoline95":1.835,"diesel":1.755},"extra":{"saleType":"P","margin":"D","reportingType":"dm","ideess":"9430","idMunicipio":"1217","idProvincia":"09","idCCAA":"08"}}},{"type":"Feature","geometry":{"type":"Point","coordinates":[-3.312889,42.536278]},"properties":{"id":"es-9431","source":"ES","brand":"NORPETROL LOS CARROS","address":"CARRETERA BELORADO BU-710 km 1","municipality":"Briviesca","province":"BURGOS","postalCode":"09240","schedule":"L-D: 24H","fuels":{"diesel":1.785,"dieselB":1.689,"adblue":0.966},"extra":{"saleType":"P","margin":"I","reportingType":"dm","ideess":"9431","idMunicipio":"1217","idProvincia":"09","idCCAA":"08"}}},{"type":"Feature","geometry":{"type":"Point","coordinates":[-3.762083,42.362528]},"properties":{"id":"es-9803","source":"ES","brand":"VILLALÓN","address":"LOPEZ BRAVO, 93","municipality":"Burgos","province":"BURGOS","postalCode":"09001","schedule":"L-V: 06:30-22:00; S: 08:00-14:30","fuels":{"gasoline95":1.879,"gasoline98":2.039,"diesel":1.779,"dieselPremium":1.899},"extra":{"saleType":"P","margin":"D","reportingType":"dm","ideess":"9803","idMunicipio":"1220","idProvincia":"09","idCCAA":"08"}}}]}