{"type":"FeatureCollection","features":[{"type":"Feature","geometry":{"type":"Point","coordinates":[-5.223472,38.731722]},"properties":{"id":"es-10137","source":"ES","brand":"COOPERATIVA OLIVARERA CABEZA DEL BUEY","address":"CARRETERA PUEBLA DE ALCOCER KM. 1","municipality":"Cabeza del Buey","province":"BADAJOZ","postalCode":"06600","schedule":"L-D: 24H","fuels":{"gasoline95":1.576,"diesel":1.733,"dieselB":1.392},"extra":{"saleType":"P","margin":"I","reportingType":"dm","ideess":"10137","idMunicipio":"652","idProvincia":"06","idCCAA":"11"}}},{"type":"Feature","geometry":{"type":"Point","coordinates":[-5.843278,38.363028]},"properties":{"id":"es-10361","source":"ES","brand":"IBERDOEX","address":"CALLE PISCINA, S/N","municipality":"Maguilla","province":"BADAJOZ","postalCode":"06969","schedule":"L-D: 07:00-22:00","fuels":{"gasoline95":1.779,"diesel":1.939,"dieselB":1.558},"extra":{"saleType":"P","margin":"D","reportingType":"dm","ideess":"10361","idMunicipio":"705","idProvincia":"06","idCCAA":"11"}}},{"type":"Feature","geometry":{"type":"Point","coordinates":[-5.014944,38.073806]},"properties":{"id":"es-10673","source":"ES","brand":"EL SURTIDOR","address":"CARRETERA DE POSADAS KM. 118,100","municipality":"Villaviciosa de Córdoba","province":"CÓRDOBA","postalCode":"14300","schedule":"L-D: 06:00-21:00","fuels":{"gasoline95":1.649,"diesel":1.799,"dieselB":1.505},"extra":{"saleType":"P","margin":"D","reportingType":"dm","ideess":"10673","idMunicipio":"2115","idProvincia":"14","idCCAA":"01"}}},{"type":"Feature","geometry":{"type":"Point","coordinates":[-5.223028,38.729806]},"properties":{"id":"es-11071","source":"ES","brand":"ESTACIÓN DE SERVICIO ARMENTERA S.L","address":"PUEBLA DE ALCOCER km 0.150","municipality":"Cabeza del Buey","province":"BADAJOZ","postalCode":"06600","schedule":"L: 07:00-22:00","fuels":{"gasoline95":1.62,"diesel":1.799,"dieselB":1.39},"extra":{"saleType":"P","margin":"D","reportingType":"dm","ideess":"11071","idMunicipio":"652","idProvincia":"06","idCCAA":"11"}}},{"type":"Feature","geometry":{"type":"Point","coordinates":[-5.861056,38.969028]},"properties":{"id":"es-11963","source":"ES","brand":"CASAT","address":"CALLE ALQUERIA, S/N","municipality":"Don Benito","province":"BADAJOZ","postalCode":"06400","schedule":"L-D: 24H","fuels":{"gasoline95":1.63,"diesel":1.72},"extra":{"saleType":"P","margin":"N","reportingType":"dm","ideess":"11963","idMunicipio":"673","idProvincia":"06","idCCAA":"11"}}},{"type":"Feature","geometry":{"type":"Point","coordinates":[-5.873083,38.96975]},"properties":{"id":"es-11992","source":"ES","brand":"REPSOL","address":"RAMAL AUTOVÍA EX. A-2, PARCELA 48, POLÍGONO 219, S/N","municipality":"Don Benito","province":"BADAJOZ","postalCode":"06400","schedule":"L-D: 06:00-23:00","fuels":{"gasoline95":1.779,"gasoline95Premium":1.829,"diesel":1.907,"dieselRenewable":2.075,"adblue":0.92},"extra":{"saleType":"P","margin":"D","reportingType":"dm","ideess":"11992","idMunicipio":"673","idProvincia":"06","idCCAA":"11"}}},{"type":"Feature","geometry":{"type":"Point","coordinates":[-5.834306,38.963528]},"properties":{"id":"es-12176","source":"ES","brand":"LUXOIL","address":"AVENIDA VEGAS ALTAS DE LAS, 120","municipality":"Don Benito","province":"BADAJOZ","postalCode":"06400","schedule":"L-V: 07:00-22:00; S-D: 08:00-22:00","fuels":{"gasoline95":1.659,"diesel":1.759},"extra":{"saleType":"P","margin":"D","reportingType":"dm","ideess":"12176","idMunicipio":"673","idProvincia":"06","idCCAA":"11"}}},{"type":"Feature","geometry":{"type":"Point","coordinates":[-5.800556,38.922167]},"properties":{"id":"es-12225","source":"ES","brand":"-","address":"CALLE VILLANUEVA, 46","municipality":"Haba (La)","province":"BADAJOZ","postalCode":"06714","schedule":"L-D: 07:00-14:25 y 14:30-22:00","fuels":{"gasoline95":1.769,"gasoline98":1.859,"diesel":1.889,"dieselPremium":1.919,"dieselB":1.729},"extra":{"saleType":"P","margin":"D","reportingType":"dm","ideess":"12225","idMunicipio":"690","idProvincia":"06","idCCAA":"11"}}},{"type":"Feature","geometry":{"type":"Point","coordinates":[-5.4365,38.586194]},"properties":{"id":"es-12234","source":"ES","brand":"LA MILAGROSA","address":"CALLE CUESTA DE LOS TEJARES S/N, S/N","municipality":"Monterrubio de la Serena","province":"BADAJOZ","postalCode":"06427","schedule":"L-V: 08:00-14:00","fuels":{"diesel":1.685,"dieselB":1.339},"extra":{"saleType":"P","margin":"D","reportingType":"dm","ideess":"12234","idMunicipio":"716","idProvincia":"06","idCCAA":"11"}}},{"type":"Feature","geometry":{"type":"Point","coordinates":[-5.796278,38.695278]},"properties":{"id":"es-12299","source":"ES","brand":"06/32718","address":"POLIGONO CTRA. HIGUERA DE LA SERENA, S/N","municipality":"Valle de la Serena","province":"BADAJOZ","postalCode":"06458","schedule":"L-D: 07:00-14:00 y 15:00-22:00","fuels":{"gasoline95":1.499,"diesel":1.399,"dieselB":1.599},"extra":{"saleType":"P","margin":"D","reportingType":"dm","ideess":"12299","idMunicipio":"773","idProvincia":"06","idCCAA":"11"}}},{"type":"Feature","geometry":{"type":"Point","coordinates":[-5.694639,38.260833]},"properties":{"id":"es-13079","source":"ES","brand":"CG CARBURANTES AZUAGA","address":"CALLE MINA LA OSCURIDAD, 61","municipality":"Azuaga","province":"BADAJOZ","postalCode":"06920","schedule":"L-D: 24H","fuels":{"gasoline95":1.649,"diesel":1.799},"extra":{"saleType":"P","margin":"D","reportingType":"dm","ideess":"13079","idMunicipio":"643","idProvincia":"06","idCCAA":"11"}}},{"type":"Feature","geometry":{"type":"Point","coordinates":[-5.880722,38.959444]},"properties":{"id":"es-13098","source":"ES","brand":"SHELL","address":"CALLE LEONARDO DA VINCI, 28","municipality":"Don Benito","province":"BADAJOZ","postalCode":"06400","schedule":"L-D: 24H","fuels":{"gasoline95":1.699,"diesel":1.799},"extra":{"saleType":"P","margin":"N","reportingType":"OM","ideess":"13098","idMunicipio":"673","idProvincia":"06","idCCAA":"11"}}},{"type":"Feature","geometry":{"type":"Point","coordinates":[-5.549639,38.732889]},"properties":{"id":"es-13137","source":"ES","brand":"FAST FUEL","address":"CARRETERA VILLANUEVA KM. 6","municipality":"Castuera","province":"BADAJOZ","postalCode":"06420","schedule":"L-D: 24H","fuels":{"gasoline95":1.679,"diesel":1.799,"adblue":0.969},"extra":{"saleType":"P","margin":"D","reportingType":"dm","ideess":"13137","idMunicipio":"665","idProvincia":"06","idCCAA":"11"}}},{"type":"Feature","geometry":{"type":"Point","coordinates":[-5.278306,38.301722]},"properties":{"id":"es-13258","source":"ES","brand":"RS PETROL","address":"POLIGONO LOS PINOS, 13","municipality":"Peñarroya-Pueblonuevo","province":"CÓRDOBA","postalCode":"14200","schedule":"L-D: 24H","fuels":{"gasoline95":1.639,"diesel":1.829},"extra":{"saleType":"P","margin":"D","reportingType":"dm","ideess":"13258","idMunicipio":"2094","idProvincia":"14","idCCAA":"01"}}},{"type":"Feature","geometry":{"type":"Point","coordinates":[-5.796028,38.991361]},"properties":{"id":"es-13286","source":"ES","brand":"PETROSTAR ENERGIA","address":"POLIGONO POLIGONO INDUSTRIAL LA BARCA, 1","municipality":"Villanueva de la Serena","province":"BADAJOZ","postalCode":"06700","schedule":"L-D: 24H","fuels":{"gasoline95":1.639,"diesel":1.739},"extra":{"saleType":"P","margin":"N","reportingType":"dm","ideess":"13286","idMunicipio":"784","idProvincia":"06","idCCAA":"11"}}},{"type":"Feature","geometry":{"type":"Point","coordinates":[-5.246222,38.294139]},"properties":{"id":"es-13287","source":"ES","brand":"SECSA","address":"POLIGONO EL ANTOLIN, S/N","municipality":"Peñarroya-Pueblonuevo","province":"CÓRDOBA","postalCode":"14200","schedule":"L-D: 24H","fuels":{"gasoline95":1.619,"diesel":1.819},"extra":{"saleType":"P","margin":"N","reportingType":"dm","ideess":"13287","idMunicipio":"2094","idProvincia":"14","idCCAA":"01"}}},{"type":"Feature","geometry":{"type":"Point","coordinates":[-5.546778,38.716]},"properties":{"id":"es-13403","source":"ES","brand":"UNIDAD SUMINISTRO COOPERATIVA GANADERA CASTUERA","address":"CARRETERA MONTERRRUBIO KM. S/N","municipality":"Castuera","province":"BADAJOZ","postalCode":"06420","schedule":"L-D: 24H","fuels":{"diesel":1.729},"extra":{"saleType":"P","margin":"D","reportingType":"dm","ideess":"13403","idMunicipio":"665","idProvincia":"06","idCCAA":"11"}}},{"type":"Feature","geometry":{"type":"Point","coordinates":[-5.659,38.738222]},"properties":{"id":"es-13587","source":"ES","brand":"FUELQUIN","address":"AVENIDA EJIDO, 12","municipality":"Quintana de la Serena","province":"BADAJOZ","postalCode":"06450","schedule":"L-D: 24H","fuels":{"gasoline95":1.649,"diesel":1.769},"extra":{"saleType":"P","margin":"D","reportingType":"dm","ideess":"13587","idMunicipio":"739","idProvincia":"06","idCCAA":"11"}}},{"type":"Feature","geometry":{"type":"Point","coordinates":[-5.443306,38.410528]},"properties":{"id":"es-13787","source":"ES","brand":"Q8","address":"CARRETERA A-3227 KM. 0750","municipality":"Blázquez (Los)","province":"CÓRDOBA","postalCode":"14208","schedule":"L-V: 08:00-14:00 y 15:30-21:00; S-D: 09:00-14:00","fuels":{"gasoline95":1.709,"diesel":1.939,"dieselB":1.59},"extra":{"saleType":"P","margin":"D","reportingType":"dm","ideess":"13787","idMunicipio":"2053","idProvincia":"14","idCCAA":"01"}}},{"type":"Feature","geometry":{"type":"Point","coordinates":[-5.808056,38.9715]},"properties":{"id":"es-14055","source":"ES","brand":"AVIA","address":"AVENIDA DULCE CHACON, 4","municipality":"Villanueva de la Serena","province":"BADAJOZ","postalCode":"06700","schedule":"L: 24H","fuels":{"gasoline95":1.699,"gasoline98":1.839,"diesel":1.849,"dieselPremium":1.889},"extra":{"saleType":"P","margin":"N","reportingType":"dm","ideess":"14055","idMunicipio":"784","idProvincia":"06","idCCAA":"11"}}},{"type":"Feature","geometry":{"type":"Point","coordinates":[-5.870111,38.964306]},"properties":{"id":"es-14457","source":"ES","brand":"DONBEX","address":"CALLE ISAAC PERAL, 3","municipality":"Don Benito","province":"BADAJOZ","postalCode":"06400","schedule":"L-D: 24H","fuels":{"gasoline95":1.71,"diesel":1.769},"extra":{"saleType":"P","margin":"I","reportingType":"dm","ideess":"14457","idMunicipio":"673","idProvincia":"06","idCCAA":"11"}}},{"type":"Feature","geometry":{"type":"Point","coordinates":[-5.121972,38.481444]},"properties":{"id":"es-14484","source":"ES","brand":"FAST FUEL HINOJOSA","address":"CALLE PP INDUSTRIAL LA DEHESA, S/N","municipality":"Hinojosa del Duque","province":"CÓRDOBA","postalCode":"14270","schedule":"L-D: 24H","fuels":{"gasoline95":1.658,"diesel":1.819,"adblue":1.05},"extra":{"saleType":"P","margin":"D","reportingType":"dm","ideess":"14484","idMunicipio":"2077","idProvincia":"14","idCCAA":"01"}}},{"type":"Feature","geometry":{"type":"Point","coordinates":[-5.414694,38.262528]},"properties":{"id":"es-14501","source":"ES","brand":"RSPETROL","address":"POLIGONO FUENTE LAS DOS, CALLE 2, 11","municipality":"Fuente Obejuna","province":"CÓRDOBA","postalCode":"14290","schedule":"L-D: 24H","fuels":{"gasoline95":1.679,"diesel":1.829,"dieselB":1.549},"extra":{"saleType":"P","margin":"D","reportingType":"dm","ideess":"14501","idMunicipio":"2071","idProvincia":"14","idCCAA":"01"}}},{"type":"Feature","geometry":{"type":"Point","coordinates":[-5.448139,38.593639]},"properties":{"id":"es-14665","source":"ES","brand":"AGLA","address":"CARRETERA POLIGONO INDUSTRIAL PARCELAS 13,14,15 KM. 18","municipality":"Monterrubio de la Serena","province":"BADAJOZ","postalCode":"06427","schedule":"L-D: 07:00-22:00","fuels":{"gasoline95":1.659,"diesel":1.829,"dieselB":1.391},"extra":{"saleType":"P","margin":"D","reportingType":"dm","ideess":"14665","idMunicipio":"716","idProvincia":"06","idCCAA":"11"}}},{"type":"Feature","geometry":{"type":"Point","coordinates":[-5.857028,38.964278]},"properties":{"id":"es-15220","source":"ES","brand":"PLENERGY","address":"AVENIDA MADRID DE, 23","municipality":"Don Benito","province":"BADAJOZ","postalCode":"06400","schedule":"L-D: 24H","fuels":{"gasoline95":1.659,"diesel":1.759},"extra":{"saleType":"P","margin":"D","reportingType":"dm","ideess":"15220","idMunicipio":"673","idProvincia":"06","idCCAA":"11"}}},{"type":"Feature","geometry":{"type":"Point","coordinates":[-5.85475,38.965917]},"properties":{"id":"es-15259","source":"ES","brand":"BALLENOIL","address":"AVENIDA MADRID DE, 68","municipality":"Don Benito","province":"BADAJOZ","postalCode":"06400","schedule":"L: 24H","fuels":{"gasoline95":1.659,"diesel":1.759,"dieselPremium":1.779},"extra":{"saleType":"P","margin":"D","reportingType":"OM","ideess":"15259","idMunicipio":"673","idProvincia":"06","idCCAA":"11"}}},{"type":"Feature","geometry":{"type":"Point","coordinates":[-5.806111,38.969389]},"properties":{"id":"es-15533","source":"ES","brand":"BALLENOIL","address":"POLIGONO INDUSTRIAL LA CAGANCHA, 9","municipality":"Villanueva de la Serena","province":"BADAJOZ","postalCode":"06700","schedule":"L-D: 24H","fuels":{"gasoline95":1.659,"diesel":1.759,"dieselPremium":1.779},"extra":{"saleType":"P","margin":"D","reportingType":"OM","ideess":"15533","idMunicipio":"784","idProvincia":"06","idCCAA":"11"}}},{"type":"Feature","geometry":{"type":"Point","coordinates":[-5.873583,38.960778]},"properties":{"id":"es-15577","source":"ES","brand":"GC ENERGY","address":"CALLE ISAAC PERAL, 27","municipality":"Don Benito","province":"BADAJOZ","postalCode":"06400","schedule":"L-D: 24H","fuels":{"gasoline95":1.635,"diesel":1.735,"adblue":0.92},"extra":{"saleType":"P","margin":"D","reportingType":"dm","ideess":"15577","idMunicipio":"673","idProvincia":"06","idCCAA":"11"}}},{"type":"Feature","geometry":{"type":"Point","coordinates":[-5.824,38.966639]},"properties":{"id":"es-15783","source":"ES","brand":"BALLENOIL","address":"AVENIDA VEGAS ALTAS DE LAS, 121","municipality":"Don Benito","province":"BADAJOZ","postalCode":"06400","schedule":"L-D: 24H","fuels":{"gasoline95":1.659,"diesel":1.759,"dieselPremium":1.779},"extra":{"saleType":"P","margin":"D","reportingType":"OM","ideess":"15783","idMunicipio":"673","idProvincia":"06","idCCAA":"11"}}},{"type":"Feature","geometry":{"type":"Point","coordinates":[-5.794167,38.982278]},"properties":{"id":"es-15908","source":"ES","brand":"BALLENOIL","address":"AVENIDA HERNAN CORTÉS, 235","municipality":"Villanueva de la Serena","province":"BADAJOZ","postalCode":"06700","schedule":"L-D: 24H","fuels":{"gasoline95":1.659,"diesel":1.759,"dieselPremium":1.779},"extra":{"saleType":"P","margin":"N","reportingType":"OM","ideess":"15908","idMunicipio":"784","idProvincia":"06","idCCAA":"11"}}},{"type":"Feature","geometry":{"type":"Point","coordinates":[-5.849306,38.962861]},"properties":{"id":"es-16000","source":"ES","brand":"BALLENOIL","address":"AVENIDA VEGAS ALTAS DE LAS, 23","municipality":"Don Benito","province":"BADAJOZ","postalCode":"06400","schedule":"L-D: 24H","fuels":{"gasoline95":1.659,"diesel":1.759},"extra":{"saleType":"P","margin":"I","reportingType":"OM","ideess":"16000","idMunicipio":"673","idProvincia":"06","idCCAA":"11"}}},{"type":"Feature","geometry":{"type":"Point","coordinates":[-5.687333,38.260972]},"properties":{"id":"es-16229","source":"ES","brand":"BALLENOIL","address":"CALLE MINA DE BOCANEGRA, 1","municipality":"Azuaga","province":"BADAJOZ","postalCode":"06920","schedule":"L-D: 24H","fuels":{"gasoline95":1.619,"gasoline95Premium":1.629,"diesel":1.779,"dieselPremium":1.799},"extra":{"saleType":"P","margin":"N","reportingType":"OM","ideess":"16229","idMunicipio":"643","idProvincia":"06","idCCAA":"11"}}},{"type":"Feature","geometry":{"type":"Point","coordinates":[-5.106444,38.819722]},"properties":{"id":"es-5820","source":"ES","brand":"IBERDOEX","address":"CTRA.PEÑALSORDO-ALMADEN","municipality":"Peñalsordo","province":"BADAJOZ","postalCode":"06610","schedule":"L: 06:00-00:00","fuels":{"gasoline95":1.609,"diesel":1.809,"dieselB":1.409},"extra":{"saleType":"P","margin":"D","reportingType":"dm","ideess":"5820","idMunicipio":"729","idProvincia":"06","idCCAA":"11"}}},{"type":"Feature","geometry":{"type":"Point","coordinates":[-5.865083,38.264417]},"properties":{"id":"es-5839","source":"ES","brand":"LUKOIL","address":"CARRETERA NACIONAL 435 KM. 127","municipality":"Ahillones","province":"BADAJOZ","postalCode":"06940","schedule":"L-D: 06:30-22:30","fuels":{"gasoline95":1.74,"diesel":1.89},"extra":{"saleType":"P","margin":"I","reportingType":"dm","ideess":"5839","idMunicipio":"632","idProvincia":"06","idCCAA":"11"}}},{"type":"Feature","geometry":{"type":"Point","coordinates":[-5.808667,38.971333]},"properties":{"id":"es-5853","source":"ES","brand":"CARREFOUR","address":"CARRETERA CTRA. DE CIRCUNVALACIÓN, S/N KM. S/N","municipality":"Villanueva de la Serena","province":"BADAJOZ","postalCode":"06712","schedule":"L-D: 24H","fuels":{"gasoline95":1.699,"diesel":1.859,"dieselPremium":1.899},"extra":{"saleType":"P","margin":"N","reportingType":"dm","ideess":"5853","idMunicipio":"784","idProvincia":"06","idCCAA":"11"}}},{"type":"Feature","geometry":{"type":"Point","coordinates":[-5.594083,38.304833]},"properties":{"id":"es-5859","source":"ES","brand":"REPSOL","address":"AVENIDA EXTREMADURA, 67","municipality":"Granja de Torrehermosa","province":"BADAJOZ","postalCode":"06910","schedule":"L-S: 08:00-14:00 y 16:00-21:00","fuels":{"diesel":1.905,"dieselB":1.609},"extra":{"saleType":"P","margin":"D","reportingType":"OM","ideess":"5859","idMunicipio":"688","idProvincia":"06","idCCAA":"11"}}},{"type":"Feature","geometry":{"type":"Point","coordinates":[-5.85575,38.965611]},"properties":{"id":"es-5870","source":"ES","brand":"REPSOL","address":"AVENIDA AVENIDA DE MADRID, 56","municipality":"Don Benito","province":"BADAJOZ","postalCode":"06400","schedule":"L: 06:30-22:00","fuels":{"gasoline95":1.795,"gasoline98":1.915,"diesel":1.955,"dieselRenewable":2.075,"lpg":1.165},"extra":{"saleType":"P","margin":"D","reportingType":"OM","ideess":"5870","idMunicipio":"673","idProvincia":"06","idCCAA":"11"}}},{"type":"Feature","geometry":{"type":"Point","coordinates":[-5.948528,38.963056]},"properties":{"id":"es-5885","source":"ES","brand":"REPSOL","address":"CARRETERA C-520 KM. 90","municipality":"Medellín","province":"BADAJOZ","postalCode":"06411","schedule":"L-V: 06:30-21:30; S: 07:30-15:00","fuels":{"gasoline95":1.779,"diesel":1.907,"dieselB":1.499,"dieselRenewable":2.075},"extra":{"saleType":"P","margin":"I","reportingType":"dm","ideess":"5885","idMunicipio":"709","idProvincia":"06","idCCAA":"11"}}},{"type":"Feature","geometry":{"type":"Point","coordinates":[-5.677667,38.741944]},"properties":{"id":"es-5906","source":"ES","brand":"REPSOL","address":"AVENIDA CONSTITUCIÓN, 3","municipality":"Quintana de la Serena","province":"BADAJOZ","postalCode":"06450","schedule":"L: 07:00-22:00","fuels":{"gasoline95":1.729,"diesel":1.905,"dieselPremium":2.005,"dieselB":1.565},"extra":{"saleType":"P","margin":"I","reportingType":"OM","ideess":"5906","idMunicipio":"739","idProvincia":"06","idCCAA":"11"}}},{"type":"Feature","geometry":{"type":"Point","coordinates":[-5.823806,38.501222]},"properties":{"id":"es-5925","source":"ES","brand":"CAMPSA","address":"CR BA-4026 0,2","municipality":"Campillo de Llerena","province":"BADAJOZ","postalCode":"06443","schedule":"L-V: 08:00-14:00 y 16:00-18:00","fuels":{"gasoline95":1.729,"diesel":1.905,"dieselPremium":2.015},"extra":{"saleType":"P","margin":"D","reportingType":"OM","ideess":"5925","idMunicipio":"658","idProvincia":"06","idCCAA":"11"}}},{"type":"Feature","geometry":{"type":"Point","coordinates":[-5.795111,38.984194]},"properties":{"id":"es-5928","source":"ES","brand":"REPSOL","address":"AVENIDA HERNÁN CORTÉS, SN","municipality":"Villanueva de la Serena","province":"BADAJOZ","postalCode":"06712","schedule":"L-D: 06:00-00:00","fuels":{"gasoline95":1.729,"gasoline98":1.899,"diesel":1.915,"dieselPremium":2.005},"extra":{"saleType":"P","margin":"D","reportingType":"OM","ideess":"5928","idMunicipio":"784","idProvincia":"06","idCCAA":"11"}}},{"type":"Feature","geometry":{"type":"Point","coordinates":[-5.832472,38.273722]},"properties":{"id":"es-5935","source":"ES","brand":"PETRONOR","address":"CR N-432A, 131,1","municipality":"Berlanga","province":"BADAJOZ","postalCode":"06930","schedule":"L-D: 07:00-22:00","fuels":{"gasoline95":1.779,"diesel":1.929,"dieselPremium":1.999,"dieselB":1.539},"extra":{"saleType":"P","margin":"D","reportingType":"dm","ideess":"5935","idMunicipio":"648","idProvincia":"06","idCCAA":"11"}}},{"type":"Feature","geometry":{"type":"Point","coordinates":[-5.230861,38.716528]},"properties":{"id":"es-5938","source":"ES","brand":"REPSOL","address":"AVENIDA NUESTRA SEÑORA DE BELEN, S/N","municipality":"Cabeza del Buey","province":"BADAJOZ","postalCode":"06600","schedule":"L: 06:00-22:00; D: 06:00-22:00","fuels":{"gasoline95":1.719,"diesel":1.899,"dieselB":1.559,"dieselRenewable":2.019},"extra":{"saleType":"P","margin":"D","reportingType":"OM","ideess":"5938","idMunicipio":"652","idProvincia":"06","idCCAA":"11"}}},{"type":"Feature","geometry":{"type":"Point","coordinates":[-5.535,38.716333]},"properties":{"id":"es-5959","source":"ES","brand":"MOEVE","address":"AVENIDA DE EXTREMADURA, 16","municipality":"Castuera","province":"BADAJOZ","postalCode":"06420","schedule":"L: 05:00-23:00","fuels":{"gasoline95":1.804,"gasoline95Premium":1.884,"diesel":1.954,"dieselPremium":2.034,"dieselB":1.574},"extra":{"saleType":"P","margin":"I","reportingType":"dm","ideess":"5959","idMunicipio":"665","idProvincia":"06","idCCAA":"11"}}},{"type":"Feature","geometry":{"type":"Point","coordinates":[-5.438639,38.589389]},"properties":{"id":"es-5963","source":"ES","brand":"REPSOL","address":"CALLE PEON DE LA VILLA, 0,5","municipality":"Monterrubio de la Serena","province":"BADAJOZ","postalCode":"06427","schedule":"L: 09:00-14:30","fuels":{"gasoline95":1.829,"diesel":1.869,"dieselB":1.149},"extra":{"saleType":"P","margin":"D","reportingType":"dm","ideess":"5963","idMunicipio":"716","idProvincia":"06","idCCAA":"11"}}},{"type":"Feature","geometry":{"type":"Point","coordinates":[-5.141444,38.212778]},"properties":{"id":"es-6465","source":"ES","brand":"SHELL","address":"CARRETERA CARRETERA PROVINCIAL Nº 16 KM. 1,7","municipality":"Villanueva del Rey","province":"CÓRDOBA","postalCode":"14230","schedule":"L-D: 07:00-22:00","fuels":{"gasoline95":1.759,"diesel":1.939},"extra":{"saleType":"P","margin":"I","reportingType":"dm","ideess":"6465","idMunicipio":"2113","idProvincia":"14","idCCAA":"01"}}},{"type":"Feature","geometry":{"type":"Point","coordinates":[-5.261361,38.296417]},"properties":{"id":"es-6639","source":"ES","brand":"GPB","address":"AVENIDA ANDALUCIA, S/N","municipality":"Peñarroya-Pueblonuevo","province":"CÓRDOBA","postalCode":"14200","schedule":"L: 07:00-23:00","fuels":{"gasoline95":1.649,"gasoline98":1.689,"diesel":1.839,"dieselPremium":1.979},"extra":{"saleType":"P","margin":"N","reportingType":"dm","ideess":"6639","idMunicipio":"2094","idProvincia":"14","idCCAA":"01"}}},{"type":"Feature","geometry":{"type":"Point","coordinates":[-5.010528,38.074278]},"properties":{"id":"es-6796","source":"ES","brand":"CAMPSA","address":"CARRETERA CO-110 KM. 110","municipality":"Villaviciosa de Córdoba","province":"CÓRDOBA","postalCode":"14300","schedule":"L-S: 08:00-20:00","fuels":{"gasoline95":1.705,"diesel":1.915,"dieselPremium":2.025},"extra":{"saleType":"P","margin":"I","reportingType":"dm","ideess":"6796","idMunicipio":"2115","idProvincia":"14","idCCAA":"01"}}},{"type":"Feature","geometry":{"type":"Point","coordinates":[-5.403361,38.275583]},"properties":{"id":"es-6811","source":"ES","brand":"REPSOL","address":"N-432 km 179,6","municipality":"Fuente Obejuna","province":"CÓRDOBA","postalCode":"14290","schedule":"L-D: 06:00-23:00","fuels":{"gasoline95":1.715,"gasoline95Premium":1.785,"diesel":1.925,"dieselB":1.595,"dieselRenewable":2.045},"extra":{"saleType":"P","margin":"D","reportingType":"OM","ideess":"6811","idMunicipio":"2071","idProvincia":"14","idCCAA":"01"}}},{"type":"Feature","geometry":{"type":"Point","coordinates":[-5.205694,38.272444]},"properties":{"id":"es-6814","source":"ES","brand":"REPSOL","address":"CALLE TRAJANO, 8","municipality":"Belmez","province":"CÓRDOBA","postalCode":"14240","schedule":"L-V: 07:00-15:00 y 17:00-21:00; S: 07:00-15:00","fuels":{"gasoline95":1.719,"diesel":1.929,"dieselB":1.585,"dieselRenewable":2.049},"extra":{"saleType":"P","margin":"D","reportingType":"OM","ideess":"6814","idMunicipio":"2051","idProvincia":"14","idCCAA":"01"}}},{"type":"Feature","geometry":{"type":"Point","coordinates":[-5.27525,38.300639]},"properties":{"id":"es-6934","source":"ES","brand":"REPSOL","address":"CARRETERA N-432 KM. 192,2","municipality":"Peñarroya-Pueblonuevo","province":"CÓRDOBA","postalCode":"14200","schedule":"L-D: 06:00-00:00","fuels":{"gasoline95":1.725,"gasoline98":1.895,"diesel":1.935,"dieselB":1.629,"dieselRenewable":2.055},"extra":{"saleType":"P","margin":"I","reportingType":"OM","ideess":"6934","idMunicipio":"2094","idProvincia":"14","idCCAA":"01"}}},{"type":"Feature","geometry":{"type":"Point","coordinates":[-5.708417,38.034278]},"properties":{"id":"es-7081","source":"ES","brand":"REPSOL","address":"CR SE-162, 21,6","municipality":"Alanís","province":"SEVILLA","postalCode":"41380","schedule":"L: 06:00-22:00","fuels":{"gasoline95":1.769,"diesel":1.899,"dieselPremium":1.959,"dieselB":1.619},"extra":{"saleType":"P","margin":"D","reportingType":"dm","ideess":"7081","idMunicipio":"6056","idProvincia":"41","idCCAA":"01"}}},{"type":"Feature","geometry":{"type":"Point","coordinates":[-5.822444,38.090306]},"properties":{"id":"es-7157","source":"ES","brand":"REPSOL","address":"CARRETERA CAZALLA P.K 25,200 KM. 25,200","municipality":"Guadalcanal","province":"SEVILLA","postalCode":"41390","schedule":"L-D: 24H","fuels":{"gasoline95":1.769,"gasoline98":2.219,"diesel":1.899,"dieselPremium":1.959},"extra":{"saleType":"P","margin":"I","reportingType":"dm","ideess":"7157","idMunicipio":"6104","idProvincia":"41","idCCAA":"01"}}},{"type":"Feature","geometry":{"type":"Point","coordinates":[-5.677333,38.275139]},"properties":{"id":"es-7487","source":"ES","brand":"SEA","address":"CARRETERA BADAJOZ-GRANADA KM. 146,7","municipality":"Azuaga","province":"BADAJOZ","postalCode":"06920","schedule":"L-D: 06:00-22:00","fuels":{"gasoline95":1.709,"gasoline98":1.939,"diesel":1.869,"dieselPremium":2.019,"dieselB":1.599},"extra":{"saleType":"P","margin":"D","reportingType":"dm","ideess":"7487","idMunicipio":"643","idProvincia":"06","idCCAA":"11"}}},{"type":"Feature","geometry":{"type":"Point","coordinates":[-5.085167,38.976861]},"properties":{"id":"es-7491","source":"ES","brand":"C.CERRO/E.S. QUINTO P.","address":"CARRETERA BA-136 KM. 16,700","municipality":"Siruela","province":"BADAJOZ","postalCode":"06650","schedule":"L-S: 07:00-21:00; D: 07:00-14:00","fuels":{"gasoline95":1.805,"diesel":1.875,"dieselPremium":1.975,"dieselB":1.425},"extra":{"saleType":"P","margin":"I","reportingType":"dm","ideess":"7491","idMunicipio":"755","idProvincia":"06","idCCAA":"11"}}},{"type":"Feature","geometry":{"type":"Point","coordinates":[-5.67825,38.919556]},"properties":{"id":"es-7492","source":"ES","brand":"PK 11","address":"CARRETERA EX-104 KM. 11","municipality":"Coronada (La)","province":"BADAJOZ","postalCode":"06469","schedule":"L-S: 06:00-22:00; D: 07:00-22:00","fuels":{"gasoline95":1.688,"gasoline98":1.778,"diesel":1.778,"dieselB":1.568},"extra":{"saleType":"P","margin":"I","reportingType":"dm","ideess":"7492","idMunicipio":"669","idProvincia":"06","idCCAA":"11"}}},{"type":"Feature","geometry":{"type":"Point","coordinates":[-5.68025,38.748667]},"properties":{"id":"es-7493","source":"ES","brand":"REPSOL","address":"CTRA. BA-624 km 30,49","municipality":"Quintana de la Serena","province":"BADAJOZ","postalCode":"06450","schedule":"L-D: 07:00-23:00","fuels":{"gasoline95":1.819,"diesel":1.895,"adblue":1.1},"extra":{"saleType":"P","margin":"I","reportingType":"dm","ideess":"7493","idMunicipio":"739","idProvincia":"06","idCCAA":"11"}}},{"type":"Feature","geometry":{"type":"Point","coordinates":[-5.65925,38.654667]},"properties":{"id":"es-7496","source":"ES","brand":"REPSOL","address":"TRAVESÍA FUENTE, S/N","municipality":"Zalamea de la Serena","province":"BADAJOZ","postalCode":"06430","schedule":"L-D: 07:00-22:00","fuels":{"gasoline95":1.729,"diesel":1.905},"extra":{"saleType":"P","margin":"D","reportingType":"OM","ideess":"7496","idMunicipio":"791","idProvincia":"06","idCCAA":"11"}}},{"type":"Feature","geometry":{"type":"Point","coordinates":[-5.684944,38.261556]},"properties":{"id":"es-7545","source":"ES","brand":"REPSOL","address":"AVENIDA ESTALAJES, S,N","municipality":"Azuaga","province":"BADAJOZ","postalCode":"06920","schedule":"L-D: 07:00-22:00","fuels":{"gasoline95":1.759,"gasoline98":1.929,"diesel":1.959,"dieselPremium":2.019},"extra":{"saleType":"P","margin":"I","reportingType":"OM","ideess":"7545","idMunicipio":"643","idProvincia":"06","idCCAA":"11"}}},{"type":"Feature","geometry":{"type":"Point","coordinates":[-5.607944,38.304361]},"properties":{"id":"es-7581","source":"ES","brand":"REPSOL","address":"URBANIZACIÓN ANTIGUA NACIONAL 432, S/N","municipality":"Granja de Torrehermosa","province":"BADAJOZ","postalCode":"06910","schedule":"L-S: 07:00-21:00; D: 08:00-14:00","fuels":{"gasoline95":1.729,"gasoline98":1.899,"diesel":1.905,"dieselPremium":2.015},"extra":{"saleType":"P","margin":"I","reportingType":"OM","ideess":"7581","idMunicipio":"688","idProvincia":"06","idCCAA":"11"}}},{"type":"Feature","geometry":{"type":"Point","coordinates":[-5.623583,38.859861]},"properties":{"id":"es-7582","source":"ES","brand":"REPSOL","address":"CARRETERA EXT104 KM. 20,2","municipality":"Campanario","province":"BADAJOZ","postalCode":"06460","schedule":"L: 06:00-22:00","fuels":{"gasoline95":1.789,"diesel":1.949,"dieselPremium":1.999},"extra":{"saleType":"P","margin":"I","reportingType":"dm","ideess":"7582","idMunicipio":"657","idProvincia":"06","idCCAA":"11"}}},{"type":"Feature","geometry":{"type":"Point","coordinates":[-5.851861,38.961167]},"properties":{"id":"es-7609","source":"ES","brand":"CEPSA","address":"AVENIDA VEGAS ALTAS, 1","municipality":"Don Benito","province":"BADAJOZ","postalCode":"06400","schedule":"L-D: 06:30-23:00","fuels":{"gasoline95":1.779,"gasoline95Premium":1.845,"gasoline98":1.919,"diesel":1.909,"dieselPremium":1.999,"dieselB":1.729,"adblue":0.8},"extra":{"saleType":"P","margin":"I","reportingType":"dm","ideess":"7609","idMunicipio":"673","idProvincia":"06","idCCAA":"11"}}},{"type":"Feature","geometry":{"type":"Point","coordinates":[-5.883722,38.958417]},"properties":{"id":"es-7613","source":"ES","brand":"CEPSA","address":"CARRETERA EX-206 KM. 96,5","municipality":"Don Benito","province":"BADAJOZ","postalCode":"06400","schedule":"L-S: 06:00-22:00; D: 06:30-22:00","fuels":{"gasoline95":1.794,"diesel":1.889,"dieselPremium":1.979},"extra":{"saleType":"P","margin":"D","reportingType":"dm","ideess":"7613","idMunicipio":"673","idProvincia":"06","idCCAA":"11"}}},{"type":"Feature","geometry":{"type":"Point","coordinates":[-5.029528,38.18525]},"properties":{"id":"es-8054","source":"ES","brand":"MEROIL","address":"CARRETERA COMARCAL CO-150 KM. 0,5","municipality":"Espiel","province":"CÓRDOBA","postalCode":"14220","schedule":"L-S: 06:00-22:00","fuels":{"gasoline95":1.699,"diesel":1.859},"extra":{"saleType":"P","margin":"D","reportingType":"dm","ideess":"8054","idMunicipio":"2068","idProvincia":"14","idCCAA":"01"}}},{"type":"Feature","geometry":{"type":"Point","coordinates":[-5.735861,38.647417]},"properties":{"id":"es-8310","source":"ES","brand":"BLANCA","address":"CARRETERA EX-103 KM. 109","municipality":"Higuera de la Serena","province":"BADAJOZ","postalCode":"06441","schedule":"L-D: 07:00-23:00","fuels":{"gasoline95":1.689,"diesel":1.839,"dieselB":1.389},"extra":{"saleType":"P","margin":"I","reportingType":"dm","ideess":"8310","idMunicipio":"693","idProvincia":"06","idCCAA":"11"}}},{"type":"Feature","geometry":{"type":"Point","coordinates":[-5.785389,38.970833]},"properties":{"id":"es-9187","source":"ES","brand":"CEPSA","address":"AVENIDA DE CHILE, 54","municipality":"Villanueva de la Serena","province":"BADAJOZ","postalCode":"06700","schedule":"L-D: 06:00-00:00","fuels":{"gasoline95":1.789,"gasoline98":1.939,"diesel":1.919,"dieselPremium":2.009,"adblue":0.89},"extra":{"saleType":"P","margin":"D","reportingType":"dm","ideess":"9187","idMunicipio":"784","idProvincia":"06","idCCAA":"11"}}},{"type":"Feature","geometry":{"type":"Point","coordinates":[-5.139694,38.498361]},"properties":{"id":"es-9279","source":"ES","brand":"AGLA","address":"AVENIDA MARQUES DE SANTILLANA, S/N","municipality":"Hinojosa del Duque","province":"CÓRDOBA","postalCode":"14270","schedule":"L-D: 06:00-22:00","fuels":{"gasoline95":1.658,"gasoline98":1.865,"diesel":1.818,"dieselB":1.356},"extra":{"saleType":"P","margin":"D","reportingType":"dm","ideess":"9279","idMunicipio":"2077","idProvincia":"14","idCCAA":"01"}}},{"type":"Feature","geometry":{"type":"Point","coordinates":[-5.163278,38.572861]},"properties":{"id":"es-9477","source":"ES","brand":"AGLA","address":"CARRETERA COMARCAL 420 KM. 93,700","municipality":"Belalcázar","province":"CÓRDOBA","postalCode":"14280","schedule":"L-S: 06:00-22:00","fuels":{"gasoline95":1.658,"diesel":1.818,"dieselB":1.356,"adblue":0.91},"extra":{"saleType":"P","margin":"I","reportingType":"dm","ideess":"9477","idMunicipio":"2050","idProvincia":"14","idCCAA":"01"}}}]}