{"type":"FeatureCollection","features":[{"type":"Feature","geometry":{"type":"Point","coordinates":[-1.083528,39.862028]},"properties":{"id":"es-10009","source":"ES","brand":"E.S.TITAGUAS S.L","address":"CARRETERA VALENCIA ADEMUZ KM. 87","municipality":"Titaguas","province":"VALENCIA / VALÈNCIA","postalCode":"46178","schedule":"L-V: 07:45-14:15 y 16:30-20:00; S-D: 09:00-14:00 y 18:00-20:00","fuels":{"gasoline95":1.796,"gasoline95Premium":1.866,"diesel":1.87,"dieselB":1.632},"extra":{"saleType":"P","margin":"D","reportingType":"OM","ideess":"10009","idMunicipio":"7205","idProvincia":"46","idCCAA":"10"}}},{"type":"Feature","geometry":{"type":"Point","coordinates":[-1.59325,39.367333]},"properties":{"id":"es-10053","source":"ES","brand":"BODEGAS SAAC","address":"CALLE VALENCIA, 41","municipality":"Villamalea","province":"ALBACETE","postalCode":"02270","schedule":"L-D: 24H","fuels":{"diesel":1.609,"dieselB":1.315},"extra":{"saleType":"P","margin":"I","reportingType":"dm","ideess":"10053","idMunicipio":"131","idProvincia":"02","idCCAA":"07"}}},{"type":"Feature","geometry":{"type":"Point","coordinates":[-1.75275,39.443528]},"properties":{"id":"es-10082","source":"ES","brand":"161100-09363","address":"CALLE SAN  ILDEFONSO, 1","municipality":"Iniesta","province":"CUENCA","postalCode":"16235","schedule":"L-D: 24H","fuels":{"diesel":1.589,"dieselB":1.259},"extra":{"saleType":"P","margin":"D","reportingType":"dm","ideess":"10082","idMunicipio":"2315","idProvincia":"16","idCCAA":"07"}}},{"type":"Feature","geometry":{"type":"Point","coordinates":[-1.889417,39.012472]},"properties":{"id":"es-10129","source":"ES","brand":"AVANZA OIL","address":"POLIGONO CAMPOLLANO C/.F, 13","municipality":"Albacete","province":"ALBACETE","postalCode":"02007","schedule":"L-D: 24H","fuels":{"diesel":1.769,"adblue":0.999},"extra":{"saleType":"P","margin":"D","reportingType":"dm","ideess":"10129","idMunicipio":"54","idProvincia":"02","idCCAA":"07"}}},{"type":"Feature","geometry":{"type":"Point","coordinates":[-1.800611,39.226611]},"properties":{"id":"es-10983","source":"ES","brand":"Q8","address":"CARRETERA C-3222 KM. 9","municipality":"Madrigueras","province":"ALBACETE","postalCode":"02230","schedule":"L-S: 07:00-15:00","fuels":{"gasoline95":1.659,"diesel":1.809},"extra":{"saleType":"P","margin":"D","reportingType":"dm","ideess":"10983","idMunicipio":"96","idProvincia":"02","idCCAA":"07"}}},{"type":"Feature","geometry":{"type":"Point","coordinates":[-1.891361,39.031528]},"properties":{"id":"es-11087","source":"ES","brand":"REPSOL","address":"AUTOVIA A-31 KM. 69","municipality":"Albacete","province":"ALBACETE","postalCode":"02007","schedule":"L-D: 06:00-22:00","fuels":{"gasoline95":1.79,"gasoline98":1.94,"diesel":1.97,"dieselPremium":2.04,"lpg":1.145},"extra":{"saleType":"P","margin":"I","reportingType":"OM","ideess":"11087","idMunicipio":"54","idProvincia":"02","idCCAA":"07"}}},{"type":"Feature","geometry":{"type":"Point","coordinates":[-1.124583,39.505417]},"properties":{"id":"es-11827","source":"ES","brand":"GALP - AMERICAN PETROL","address":"CALLE TRANSPORTE, 9","municipality":"Requena","province":"VALENCIA / VALÈNCIA","postalCode":"46340","schedule":"L-D: 24H","fuels":{"gasoline95":1.699,"diesel":1.859},"extra":{"saleType":"P","margin":"D","reportingType":"dm","ideess":"11827","idMunicipio":"7176","idProvincia":"46","idCCAA":"10"}}},{"type":"Feature","geometry":{"type":"Point","coordinates":[-1.093361,39.486306]},"properties":{"id":"es-11950","source":"ES","brand":"GASEXPRESS","address":"CALLE CONSTITUCIÓN, 77","municipality":"Requena","province":"VALENCIA / VALÈNCIA","postalCode":"46340","schedule":"L-D: 06:00-22:00","fuels":{"gasoline95":1.649,"diesel":1.739},"extra":{"saleType":"P","margin":"D","reportingType":"dm","ideess":"11950","idMunicipio":"7176","idProvincia":"46","idCCAA":"10"}}},{"type":"Feature","geometry":{"type":"Point","coordinates":[-1.832,39.054694]},"properties":{"id":"es-12054","source":"ES","brand":"BP ROMICA","address":"CALLE PRINCIPE DE ASTURIAS (POLÍGONO DE ROMICA), 5","municipality":"Albacete","province":"ALBACETE","postalCode":"02001","schedule":"L-D: 06:00-22:00","fuels":{"gasoline95":1.779,"gasoline98":1.919,"diesel":1.969,"dieselPremium":2.059,"adblue":1.125},"extra":{"saleType":"P","margin":"I","reportingType":"OM","ideess":"12054","idMunicipio":"54","idProvincia":"02","idCCAA":"07"}}},{"type":"Feature","geometry":{"type":"Point","coordinates":[-1.664167,39.301]},"properties":{"id":"es-12074","source":"ES","brand":"VIRGEN DE LAS NIEVES","address":"CALLE VIRGEN DE LAS NIEVES, 17","municipality":"Cenizate","province":"ALBACETE","postalCode":"02247","schedule":"L-D: 24H","fuels":{"gasoline95":1.518,"diesel":1.687,"dieselB":1.43},"extra":{"saleType":"P","margin":"D","reportingType":"dm","ideess":"12074","idMunicipio":"77","idProvincia":"02","idCCAA":"07"}}},{"type":"Feature","geometry":{"type":"Point","coordinates":[-1.283556,39.550083]},"properties":{"id":"es-12185","source":"ES","brand":"STAROIL","address":"AUTOVIA A-3 KM. 270","municipality":"Caudete de las Fuentes","province":"VALENCIA / VALÈNCIA","postalCode":"46315","schedule":"L-D: 24H","fuels":{"gasoline95":1.699,"gasoline98":1.799,"diesel":1.798,"dieselPremium":1.869,"adblue":1.099},"extra":{"saleType":"P","margin":"D","reportingType":"dm","ideess":"12185","idMunicipio":"7061","idProvincia":"46","idCCAA":"10"}}},{"type":"Feature","geometry":{"type":"Point","coordinates":[-1.902806,39.55375]},"properties":{"id":"es-12302","source":"ES","brand":"LA GAVIOTA GASOLINERA 24 HORAS","address":"CARRETERA N-320 KM. 72","municipality":"Motilla del Palancar","province":"CUENCA","postalCode":"16200","schedule":"L-D: 24H","fuels":{"gasoline95":1.575,"diesel":1.699,"dieselB":1.399,"lpg":0.939,"adblue":0.872},"extra":{"saleType":"P","margin":"I","reportingType":"dm","ideess":"12302","idMunicipio":"2333","idProvincia":"16","idCCAA":"07"}}},{"type":"Feature","geometry":{"type":"Point","coordinates":[-1.512611,39.081278]},"properties":{"id":"es-12334","source":"ES","brand":"SAT SANTA CRUZ DE POZO LORENTE","address":"POLIGONO PARAJE RECIAL, 2","municipality":"Pozo-Lorente","province":"ALBACETE","postalCode":"02154","schedule":"L-D: 24H","fuels":{"diesel":1.629,"dieselB":1.35},"extra":{"saleType":"P","margin":"I","reportingType":"dm","ideess":"12334","idMunicipio":"116","idProvincia":"02","idCCAA":"07"}}},{"type":"Feature","geometry":{"type":"Point","coordinates":[-1.075722,39.138306]},"properties":{"id":"es-12430","source":"ES","brand":"E.S. SAN CORONADO","address":"AVENIDA PAIS VALENCIANO, S/N","municipality":"Jarafuel","province":"VALENCIA / VALÈNCIA","postalCode":"46623","schedule":"L-D: 24H","fuels":{"gasoline95":1.619,"diesel":1.719,"dieselB":1.399},"extra":{"saleType":"P","margin":"D","reportingType":"dm","ideess":"12430","idMunicipio":"7105","idProvincia":"46","idCCAA":"10"}}},{"type":"Feature","geometry":{"type":"Point","coordinates":[-1.92825,39.330972]},"properties":{"id":"es-12563","source":"ES","brand":"E.S. VALERO 24 H","address":"CARRETERA N-320 KM. KM 43.100","municipality":"Quintanar del Rey","province":"CUENCA","postalCode":"16220","schedule":"L-D: 24H","fuels":{"gasoline95":1.624,"diesel":1.73},"extra":{"saleType":"P","margin":"D","reportingType":"dm","ideess":"12563","idMunicipio":"2370","idProvincia":"16","idCCAA":"07"}}},{"type":"Feature","geometry":{"type":"Point","coordinates":[-1.885694,39.009417]},"properties":{"id":"es-12763","source":"ES","brand":"FAST & GAS","address":"AVENIDA 3ª ESQUINA C/ F Nº3, 3","municipality":"Albacete","province":"ALBACETE","postalCode":"02007","schedule":"L-D: 24H","fuels":{"gasoline95":1.589,"diesel":1.699},"extra":{"saleType":"P","margin":"N","reportingType":"dm","ideess":"12763","idMunicipio":"54","idProvincia":"02","idCCAA":"07"}}},{"type":"Feature","geometry":{"type":"Point","coordinates":[-1.874333,39.018]},"properties":{"id":"es-12801","source":"ES","brand":"ENERCOM CARBURANTES","address":"POLIGONO AVDA. 3ª, ESQUINA C/AUTOVIA, 69","municipality":"Albacete","province":"ALBACETE","postalCode":"02007","schedule":"L-D: 24H","fuels":{"gasoline95":1.609,"gasoline98":1.749,"diesel":1.769,"dieselPremium":1.819,"adblue":0.959},"extra":{"saleType":"P","margin":"D","reportingType":"dm","ideess":"12801","idMunicipio":"54","idProvincia":"02","idCCAA":"07"}}},{"type":"Feature","geometry":{"type":"Point","coordinates":[-1.076917,39.186194]},"properties":{"id":"es-12903","source":"ES","brand":"EL VALLE","address":"POLIGONO POLIGONO INDUSTRIAL EL CERRO, 1","municipality":"Jalance","province":"VALENCIA / VALÈNCIA","postalCode":"46624","schedule":"L-D: 24H","fuels":{"gasoline95":1.579,"gasoline98":1.679,"diesel":1.629,"dieselPremium":1.689},"extra":{"saleType":"P","margin":"D","reportingType":"dm","ideess":"12903","idMunicipio":"7104","idProvincia":"46","idCCAA":"10"}}},{"type":"Feature","geometry":{"type":"Point","coordinates":[-1.912194,39.256194]},"properties":{"id":"es-12953","source":"ES","brand":"LA GAVIOTA GASOLINERAS","address":"AVENIDA ALBACETE, 35","municipality":"Tarazona de la Mancha","province":"ALBACETE","postalCode":"02100","schedule":"L-D: 24H","fuels":{"gasoline95":1.539,"diesel":1.649},"extra":{"saleType":"P","margin":"D","reportingType":"dm","ideess":"12953","idMunicipio":"125","idProvincia":"02","idCCAA":"07"}}},{"type":"Feature","geometry":{"type":"Point","coordinates":[-1.564972,39.531694]},"properties":{"id":"es-13344","source":"ES","brand":"SUMERGY -  GRUPO SERTRANIN","address":"POLIGONO FUENTE DE LOS ARRIEROS, 2","municipality":"Minglanilla","province":"CUENCA","postalCode":"16260","schedule":"L-D: 24H","fuels":{"gasoline95":1.639,"diesel":1.779,"adblue":0.895},"extra":{"saleType":"P","margin":"N","reportingType":"dm","ideess":"13344","idMunicipio":"2325","idProvincia":"16","idCCAA":"07"}}},{"type":"Feature","geometry":{"type":"Point","coordinates":[-1.882056,39.022139]},"properties":{"id":"es-13369","source":"ES","brand":"GMOIL","address":"AVENIDA PRIMERA, S/N","municipality":"Albacete","province":"ALBACETE","postalCode":"02007","schedule":"L-D: 24H","fuels":{"gasoline95":1.479,"diesel":1.699},"extra":{"saleType":"P","margin":"D","reportingType":"dm","ideess":"13369","idMunicipio":"54","idProvincia":"02","idCCAA":"07"}}},{"type":"Feature","geometry":{"type":"Point","coordinates":[-1.902944,39.553778]},"properties":{"id":"es-13450","source":"ES","brand":"NATURGY","address":"CARRETERA ALBACETE, N-320 KM. 72","municipality":"Motilla del Palancar","province":"CUENCA","postalCode":"16200","schedule":"L-D: 24H","fuels":{"cng":1.646,"lng":1.499},"extra":{"saleType":"P","margin":"I","reportingType":"dm","ideess":"13450","idMunicipio":"2333","idProvincia":"16","idCCAA":"07"}}},{"type":"Feature","geometry":{"type":"Point","coordinates":[-1.871361,39.015444]},"properties":{"id":"es-13620","source":"ES","brand":"CEPSA","address":"POLIGONO CAMPOLLANO, 55","municipality":"Albacete","province":"ALBACETE","postalCode":"02007","schedule":"L-V: 05:30-23:00; S: 06:30-22:30; D: 07:30-21:00","fuels":{"gasoline95":1.689,"gasoline98":1.789,"diesel":1.869,"dieselPremium":1.869},"extra":{"saleType":"P","margin":"N","reportingType":"dm","ideess":"13620","idMunicipio":"54","idProvincia":"02","idCCAA":"07"}}},{"type":"Feature","geometry":{"type":"Point","coordinates":[-1.72125,39.367861]},"properties":{"id":"es-13867","source":"ES","brand":"U.S GASOLEOS GUILLEN S.L","address":"CARRETERA CRTA. INIESTA, POLIGONO 32, PARCELA 68 KM. 27,200","municipality":"Ledaña","province":"CUENCA","postalCode":"16237","schedule":"L-D: 24H","fuels":{"gasoline95":1.659,"diesel":1.689},"extra":{"saleType":"P","margin":"I","reportingType":"dm","ideess":"13867","idMunicipio":"2319","idProvincia":"16","idCCAA":"07"}}},{"type":"Feature","geometry":{"type":"Point","coordinates":[-1.886556,39.021583]},"properties":{"id":"es-13930","source":"ES","brand":"VALERO 24H","address":"AVENIDA POLIGONO CAMPOLLANO AVENIDA 0, 67","municipality":"Albacete","province":"ALBACETE","postalCode":"02007","schedule":"L-D: 24H","fuels":{"gasoline95":1.599,"diesel":1.719},"extra":{"saleType":"P","margin":"N","reportingType":"dm","ideess":"13930","idMunicipio":"54","idProvincia":"02","idCCAA":"07"}}},{"type":"Feature","geometry":{"type":"Point","coordinates":[-1.849833,39.000861]},"properties":{"id":"es-13933","source":"ES","brand":"PLENERGY","address":"CALLE FEDERICO GARCIA LORCA, 1","municipality":"Albacete","province":"ALBACETE","postalCode":"02001","schedule":"L-D: 24H","fuels":{"gasoline95":1.509,"diesel":1.659},"extra":{"saleType":"P","margin":"D","reportingType":"dm","ideess":"13933","idMunicipio":"54","idProvincia":"02","idCCAA":"07"}}},{"type":"Feature","geometry":{"type":"Point","coordinates":[-1.959667,39.442917]},"properties":{"id":"es-13936","source":"ES","brand":"E.S.D VILLANUEVA DE LA JARA","address":"CARRETERA N-310 KM. 197","municipality":"Villanueva de la Jara","province":"CUENCA","postalCode":"16230","schedule":"L-D: 24H","fuels":{"gasoline95":1.659,"diesel":1.809},"extra":{"saleType":"P","margin":"D","reportingType":"dm","ideess":"13936","idMunicipio":"2427","idProvincia":"16","idCCAA":"07"}}},{"type":"Feature","geometry":{"type":"Point","coordinates":[-1.859917,39.005083]},"properties":{"id":"es-14123","source":"ES","brand":"MOEVE","address":"PASEO CUBA (LA), 36","municipality":"Albacete","province":"ALBACETE","postalCode":"02005","schedule":"L-D: 06:00-22:00","fuels":{"gasoline95":1.769,"gasoline98":1.899,"diesel":1.949,"dieselPremium":2.049,"lpg":1.159},"extra":{"saleType":"P","margin":"N","reportingType":"OM","ideess":"14123","idMunicipio":"54","idProvincia":"02","idCCAA":"07"}}},{"type":"Feature","geometry":{"type":"Point","coordinates":[-1.02,39.887889]},"properties":{"id":"es-14201","source":"ES","brand":"CCOOPERATIVA DE ALPUENTE","address":"POLIGONO PARCELAS 281 Y 283, 281/283","municipality":"Alpuente","province":"VALENCIA / VALÈNCIA","postalCode":"46178","schedule":"L-D: 24H","fuels":{"diesel":1.709,"dieselB":1.389},"extra":{"saleType":"P","margin":"N","reportingType":"dm","ideess":"14201","idMunicipio":"7001","idProvincia":"46","idCCAA":"10"}}},{"type":"Feature","geometry":{"type":"Point","coordinates":[-1.952528,39.518361]},"properties":{"id":"es-14605","source":"ES","brand":"REPSOL","address":"AUTOVIA AUTOVIA A-3 KM. 207","municipality":"Pozorrubielos de la Mancha","province":"CUENCA","postalCode":"16212","schedule":"L-D: 24H","fuels":{"gasoline95":1.759,"gasoline98":1.909,"diesel":1.919,"dieselPremium":2.029},"extra":{"saleType":"P","margin":"I","reportingType":"dm","ideess":"14605","idMunicipio":"2362","idProvincia":"16","idCCAA":"07"}}},{"type":"Feature","geometry":{"type":"Point","coordinates":[-1.888083,39.029583]},"properties":{"id":"es-14612","source":"ES","brand":"NATURGY ES  GNV ALBACETE","address":"CALLE C/ AUTOVIA C/V AVD. SEXTA, S/N","municipality":"Albacete","province":"ALBACETE","postalCode":"02007","schedule":"L-D: 24H","fuels":{"cng":1.646,"lng":1.499},"extra":{"saleType":"P","margin":"D","reportingType":"dm","ideess":"14612","idMunicipio":"54","idProvincia":"02","idCCAA":"07"}}},{"type":"Feature","geometry":{"type":"Point","coordinates":[-1.885361,39.006889]},"properties":{"id":"es-15000","source":"ES","brand":"A&A","address":"AVENIDA ESCRITOR RODRIGO RUBIO, 3","municipality":"Albacete","province":"ALBACETE","postalCode":"02005","schedule":"L-S: 09:00-21:30","fuels":{"gasoline95":1.599,"diesel":1.699,"dieselPremium":1.749,"lpg":0.969},"extra":{"saleType":"P","margin":"D","reportingType":"dm","ideess":"15000","idMunicipio":"54","idProvincia":"02","idCCAA":"07"}}},{"type":"Feature","geometry":{"type":"Point","coordinates":[-1.737139,39.440889]},"properties":{"id":"es-15301","source":"ES","brand":"COINTRANS","address":"AVENIDA CONSTITUCION, 78","municipality":"Iniesta","province":"CUENCA","postalCode":"16235","schedule":"L-D: 24H","fuels":{"diesel":1.666},"extra":{"saleType":"P","margin":"D","reportingType":"dm","ideess":"15301","idMunicipio":"2315","idProvincia":"16","idCCAA":"07"}}},{"type":"Feature","geometry":{"type":"Point","coordinates":[-1.694306,39.767806]},"properties":{"id":"es-15374","source":"ES","brand":"ESTACION DE SERVICIO CARDENETE","address":"CARRETERA CAMPORROBLES KM. 0","municipality":"Cardenete","province":"CUENCA","postalCode":"16373","schedule":"D: 24H","fuels":{"gasoline95":1.7,"diesel":1.93},"extra":{"saleType":"P","margin":"D","reportingType":"dm","ideess":"15374","idMunicipio":"2264","idProvincia":"16","idCCAA":"07"}}},{"type":"Feature","geometry":{"type":"Point","coordinates":[-1.888333,39.029167]},"properties":{"id":"es-15547","source":"ES","brand":"LA GAVIOTA GASOLINERA 24 HORA","address":"CALLE AUTOVIA, SN","municipality":"Albacete","province":"ALBACETE","postalCode":"02007","schedule":"L-D: 24H","fuels":{"gasoline95":1.579,"diesel":1.729,"adblue":0.899},"extra":{"saleType":"P","margin":"N","reportingType":"dm","ideess":"15547","idMunicipio":"54","idProvincia":"02","idCCAA":"07"}}},{"type":"Feature","geometry":{"type":"Point","coordinates":[-1.613194,39.35025]},"properties":{"id":"es-15605","source":"ES","brand":"CHAMPINTER","address":"CARRETERA CENIZATE KM. 1,5","municipality":"Villamalea","province":"ALBACETE","postalCode":"02270","schedule":"L-D: 00:00-23:59","fuels":{"gasoline95":1.539,"diesel":1.628,"adblue":0.644},"extra":{"saleType":"P","margin":"D","reportingType":"dm","ideess":"15605","idMunicipio":"131","idProvincia":"02","idCCAA":"07"}}},{"type":"Feature","geometry":{"type":"Point","coordinates":[-1.087639,39.484333]},"properties":{"id":"es-15679","source":"ES","brand":"BALLENOIL","address":"CARRETERA NACIONAL III KM. 277","municipality":"Requena","province":"VALENCIA / VALÈNCIA","postalCode":"46340","schedule":"L-D: 24H","fuels":{"gasoline95":1.649,"diesel":1.739,"dieselPremium":1.749},"extra":{"saleType":"P","margin":"D","reportingType":"OM","ideess":"15679","idMunicipio":"7176","idProvincia":"46","idCCAA":"10"}}},{"type":"Feature","geometry":{"type":"Point","coordinates":[-1.227361,39.563]},"properties":{"id":"es-15851","source":"ES","brand":"GALP-3CAMINOS UTIEL","address":"CALLE LAGAR, 5","municipality":"Utiel","province":"VALENCIA / VALÈNCIA","postalCode":"46300","schedule":"L-D: 24H","fuels":{"gasoline95":1.599,"diesel":1.659,"dieselB":1.399},"extra":{"saleType":"P","margin":"N","reportingType":"dm","ideess":"15851","idMunicipio":"7213","idProvincia":"46","idCCAA":"10"}}},{"type":"Feature","geometry":{"type":"Point","coordinates":[-1.753444,39.517361]},"properties":{"id":"es-15941","source":"ES","brand":"MOLGAS","address":"AUTOVIA AUTOVIA DEL ESTE KM. 224","municipality":"Castillejo de Iniesta","province":"CUENCA","postalCode":"16250","schedule":"L-D: 00:00-23:59","fuels":{"lng":1.549},"extra":{"saleType":"P","margin":"D","reportingType":"dm","ideess":"15941","idMunicipio":"2275","idProvincia":"16","idCCAA":"07"}}},{"type":"Feature","geometry":{"type":"Point","coordinates":[-1.884444,39.005528]},"properties":{"id":"es-16011","source":"ES","brand":"PLENERGY","address":"CALLE CONSTANTINO ROMERO, S/N","municipality":"Albacete","province":"ALBACETE","postalCode":"02005","schedule":"L-D: 24H","fuels":{"gasoline95":1.569,"diesel":1.699},"extra":{"saleType":"P","margin":"D","reportingType":"dm","ideess":"16011","idMunicipio":"54","idProvincia":"02","idCCAA":"07"}}},{"type":"Feature","geometry":{"type":"Point","coordinates":[-1.363111,39.583417]},"properties":{"id":"es-1873","source":"ES","brand":"(SIN RÓTULO)","address":"CALLE PATROCINIO, 27","municipality":"Fuenterrobles","province":"VALENCIA / VALÈNCIA","postalCode":"46314","schedule":"L-D: 24H","fuels":{"gasoline95":1.795,"diesel":1.855,"dieselB":1.629},"extra":{"saleType":"P","margin":"N","reportingType":"dm","ideess":"1873","idMunicipio":"7090","idProvincia":"46","idCCAA":"10"}}},{"type":"Feature","geometry":{"type":"Point","coordinates":[-1.106194,39.484028]},"properties":{"id":"es-1885","source":"ES","brand":"REPSOL","address":"CARRETERA MADRID-VALENCIA KM. 275,5","municipality":"Requena","province":"VALENCIA / VALÈNCIA","postalCode":"46340","schedule":"L-S: 06:00-22:00; D: 07:00-22:00","fuels":{"gasoline95":1.85,"gasoline98":2.03,"diesel":1.93,"dieselPremium":2.0,"dieselB":1.586},"extra":{"saleType":"P","margin":"I","reportingType":"OM","ideess":"1885","idMunicipio":"7176","idProvincia":"46","idCCAA":"10"}}},{"type":"Feature","geometry":{"type":"Point","coordinates":[-1.056167,39.055556]},"properties":{"id":"es-1922","source":"ES","brand":"LA AYORENSE CARBURANTES","address":"CALLE FUENTEZUELA, 45","municipality":"Ayora","province":"VALENCIA / VALÈNCIA","postalCode":"46620","schedule":"L-D: 24H","fuels":{"gasoline95":1.618,"diesel":1.718,"dieselB":1.348},"extra":{"saleType":"P","margin":"N","reportingType":"dm","ideess":"1922","idMunicipio":"7009","idProvincia":"46","idCCAA":"10"}}},{"type":"Feature","geometry":{"type":"Point","coordinates":[-1.437167,39.525889]},"properties":{"id":"es-3776","source":"ES","brand":"GALP","address":"CARRETERA N III KM. 255,08","municipality":"Villargordo del Cabriel","province":"VALENCIA / VALÈNCIA","postalCode":"46317","schedule":"L-D: 24H","fuels":{"gasoline95":1.834,"gasoline98":1.964,"diesel":1.944,"dieselPremium":2.034,"adblue":0.799},"extra":{"saleType":"P","margin":"D","reportingType":"OM","ideess":"3776","idMunicipio":"7223","idProvincia":"46","idCCAA":"10"}}},{"type":"Feature","geometry":{"type":"Point","coordinates":[-1.010944,39.471694]},"properties":{"id":"es-3839","source":"ES","brand":"REPSOL","address":"AUTOVIA A- 3 KM. 297","municipality":"Requena","province":"VALENCIA / VALÈNCIA","postalCode":"46340","schedule":"L-S: 06:00-22:00; D: 07:00-22:00","fuels":{"gasoline95":1.86,"gasoline98":2.04,"diesel":1.93,"dieselPremium":2.0},"extra":{"saleType":"P","margin":"I","reportingType":"OM","ideess":"3839","idMunicipio":"7176","idProvincia":"46","idCCAA":"10"}}},{"type":"Feature","geometry":{"type":"Point","coordinates":[-1.197333,39.563306]},"properties":{"id":"es-3882","source":"ES","brand":"CAMPSA","address":"CARRETERA N-III KM. 263,1","municipality":"Utiel","province":"VALENCIA / VALÈNCIA","postalCode":"46300","schedule":"L-D: 24H","fuels":{"gasoline95":1.846,"gasoline98":2.026,"diesel":1.916,"dieselPremium":1.986,"dieselB":1.606},"extra":{"saleType":"P","margin":"D","reportingType":"OM","ideess":"3882","idMunicipio":"7213","idProvincia":"46","idCCAA":"10"}}},{"type":"Feature","geometry":{"type":"Point","coordinates":[-1.236806,39.723833]},"properties":{"id":"es-3890","source":"ES","brand":"MANCEBO","address":"ACCESO N-330 KM 208,6, 330","municipality":"Sinarcas","province":"VALENCIA / VALÈNCIA","postalCode":"46320","schedule":"L: 07:00-21:00; D: 08:30-21:00","fuels":{"gasoline95":1.658,"gasoline98":1.788,"diesel":1.788,"dieselPremium":1.858,"dieselB":1.238,"adblue":0.895},"extra":{"saleType":"P","margin":"I","reportingType":"dm","ideess":"3890","idMunicipio":"7196","idProvincia":"46","idCCAA":"10"}}},{"type":"Feature","geometry":{"type":"Point","coordinates":[-1.1245,39.474639]},"properties":{"id":"es-3894","source":"ES","brand":"REPSOL","address":"CARRETERA N-322 KM. 454,100","municipality":"Requena","province":"VALENCIA / VALÈNCIA","postalCode":"46357","schedule":"L-D: 06:00-22:00","fuels":{"gasoline95":1.789,"diesel":1.935,"dieselB":1.529,"dieselRenewable":1.969},"extra":{"saleType":"P","margin":"I","reportingType":"dm","ideess":"3894","idMunicipio":"7176","idProvincia":"46","idCCAA":"10"}}},{"type":"Feature","geometry":{"type":"Point","coordinates":[-1.212861,39.563583]},"properties":{"id":"es-3909","source":"ES","brand":"REPSOL","address":"CARRETERA N-3 KM. 262","municipality":"Utiel","province":"VALENCIA / VALÈNCIA","postalCode":"46300","schedule":"L-V: 06:00-22:00","fuels":{"gasoline95":1.846,"gasoline98":2.026,"diesel":1.916,"dieselRenewable":1.986},"extra":{"saleType":"P","margin":"D","reportingType":"dm","ideess":"3909","idMunicipio":"7213","idProvincia":"46","idCCAA":"10"}}},{"type":"Feature","geometry":{"type":"Point","coordinates":[-1.213667,39.563]},"properties":{"id":"es-3910","source":"ES","brand":"REPSOL","address":"CARRETERA N-3 KM. 262","municipality":"Utiel","province":"VALENCIA / VALÈNCIA","postalCode":"46300","schedule":"L-D: 24H","fuels":{"gasoline95":1.846,"gasoline98":2.026,"diesel":1.916,"dieselB":1.606,"dieselRenewable":1.986,"lpg":1.09},"extra":{"saleType":"P","margin":"I","reportingType":"dm","ideess":"3910","idMunicipio":"7213","idProvincia":"46","idCCAA":"10"}}},{"type":"Feature","geometry":{"type":"Point","coordinates":[-1.294167,39.421056]},"properties":{"id":"es-3976","source":"ES","brand":"CEPSA","address":"AVENIDA ALBACETE, 52","municipality":"Requena","province":"VALENCIA / VALÈNCIA","postalCode":"46354","schedule":"L-D: 07:00-22:00","fuels":{"gasoline95":1.65,"diesel":1.74,"dieselPremium":1.79,"dieselB":1.21},"extra":{"saleType":"P","margin":"I","reportingType":"dm","ideess":"3976","idMunicipio":"7176","idProvincia":"46","idCCAA":"10"}}},{"type":"Feature","geometry":{"type":"Point","coordinates":[-1.433389,39.528806]},"properties":{"id":"es-4005","source":"ES","brand":"GALP","address":"CARRETERA N III KM. 0","municipality":"Villargordo del Cabriel","province":"VALENCIA / VALÈNCIA","postalCode":"46317","schedule":"L-D: 06:00-22:00","fuels":{"gasoline95":1.834,"gasoline98":1.964,"diesel":1.944,"dieselPremium":2.034,"adblue":0.799},"extra":{"saleType":"P","margin":"I","reportingType":"OM","ideess":"4005","idMunicipio":"7223","idProvincia":"46","idCCAA":"10"}}},{"type":"Feature","geometry":{"type":"Point","coordinates":[-1.095056,39.483861]},"properties":{"id":"es-4020","source":"ES","brand":"BP","address":"CARRETERA MADRID VALENCIA KM 276 KM. ","municipality":"Requena","province":"VALENCIA / VALÈNCIA","postalCode":"46340","schedule":"L-D: 06:00-23:00","fuels":{"gasoline95":1.829,"diesel":1.909,"dieselPremium":1.979,"dieselB":1.125},"extra":{"saleType":"P","margin":"I","reportingType":"dm","ideess":"4020","idMunicipio":"7176","idProvincia":"46","idCCAA":"10"}}},{"type":"Feature","geometry":{"type":"Point","coordinates":[-1.053306,39.059722]},"properties":{"id":"es-4021","source":"ES","brand":"REPSOL","address":"TRAVESÍA VIRGEN DEL ROSARIO, S/N","municipality":"Ayora","province":"VALENCIA / VALÈNCIA","postalCode":"46620","schedule":"L: 06:00-22:00","fuels":{"gasoline95":1.796,"gasoline98":1.976,"diesel":1.946,"dieselPremium":2.016},"extra":{"saleType":"P","margin":"I","reportingType":"OM","ideess":"4021","idMunicipio":"7009","idProvincia":"46","idCCAA":"10"}}},{"type":"Feature","geometry":{"type":"Point","coordinates":[-1.404056,39.651556]},"properties":{"id":"es-4038","source":"ES","brand":"REPSOL","address":"CR VL-502  DE MIRA, 1,1","municipality":"Camporrobles","province":"VALENCIA / VALÈNCIA","postalCode":"46330","schedule":"L-S: 08:00-14:00; D: 15:00-21:00","fuels":{"gasoline95":1.729,"diesel":1.779,"dieselPremium":1.839,"dieselB":1.635},"extra":{"saleType":"P","margin":"I","reportingType":"OM","ideess":"4038","idMunicipio":"7046","idProvincia":"46","idCCAA":"10"}}},{"type":"Feature","geometry":{"type":"Point","coordinates":[-1.165306,39.530556]},"properties":{"id":"es-4081","source":"ES","brand":"BP","address":"AT A-3, 281","municipality":"Requena","province":"VALENCIA / VALÈNCIA","postalCode":"46340","schedule":"L-D: 24H","fuels":{"gasoline95":1.839,"gasoline98":2.009,"diesel":1.909,"dieselPremium":1.999,"dieselB":1.1},"extra":{"saleType":"P","margin":"I","reportingType":"dm","ideess":"4081","idMunicipio":"7176","idProvincia":"46","idCCAA":"10"}}},{"type":"Feature","geometry":{"type":"Point","coordinates":[-1.311667,39.539694]},"properties":{"id":"es-4094","source":"ES","brand":"REPSOL","address":"CR  A-3 P.K. 266,1 M.D.","municipality":"Caudete de las Fuentes","province":"VALENCIA / VALÈNCIA","postalCode":"46315","schedule":"L-D: 24H","fuels":{"gasoline95":1.846,"diesel":1.916,"dieselPremium":1.986,"dieselB":1.616},"extra":{"saleType":"P","margin":"D","reportingType":"OM","ideess":"4094","idMunicipio":"7061","idProvincia":"46","idCCAA":"10"}}},{"type":"Feature","geometry":{"type":"Point","coordinates":[-1.864917,39.003333]},"properties":{"id":"es-4369","source":"ES","brand":"PLENERGY","address":"AVENIDA MENÉNDEZ PIDAL, 58","municipality":"Albacete","province":"ALBACETE","postalCode":"02005","schedule":"L-D: 24H","fuels":{"gasoline95":1.469,"diesel":1.619},"extra":{"saleType":"P","margin":"D","reportingType":"dm","ideess":"4369","idMunicipio":"54","idProvincia":"02","idCCAA":"07"}}},{"type":"Feature","geometry":{"type":"Point","coordinates":[-1.539167,39.211417]},"properties":{"id":"es-4375","source":"ES","brand":"Nº 10.935","address":"AVENIDA CASTILLA LA MANCHA, 26","municipality":"Abengibre","province":"ALBACETE","postalCode":"02250","schedule":"L-D: 07:00-22:00","fuels":{"gasoline95":1.549,"diesel":1.669,"dieselB":1.399},"extra":{"saleType":"P","margin":"D","reportingType":"dm","ideess":"4375","idMunicipio":"52","idProvincia":"02","idCCAA":"07"}}},{"type":"Feature","geometry":{"type":"Point","coordinates":[-1.560857,39.100792]},"properties":{"id":"es-4390","source":"ES","brand":"GASOLINERAS DEL REY","address":"AVDA. ALBACETE, 33","municipality":"Casas de Juan Núñez","province":"ALBACETE","postalCode":"02151","schedule":"L-D: 07:00-23:00","fuels":{"gasoline95":1.699,"diesel":1.789,"dieselB":1.199},"extra":{"saleType":"P","margin":"D","reportingType":"dm","ideess":"4390","idMunicipio":"72","idProvincia":"02","idCCAA":"07"}}},{"type":"Feature","geometry":{"type":"Point","coordinates":[-1.548639,39.269972]},"properties":{"id":"es-4403","source":"ES","brand":"ES SAN ANTONIOABAD. FUENTEALBILLA","address":"N-322 (CORDOBA-VALENCIA) km 399","municipality":"Fuentealbilla","province":"ALBACETE","postalCode":"02260","schedule":"L-D: 07:00-20:00","fuels":{"gasoline95":1.529,"diesel":1.599,"dieselB":1.379},"extra":{"saleType":"P","margin":"I","reportingType":"dm","ideess":"4403","idMunicipio":"85","idProvincia":"02","idCCAA":"07"}}},{"type":"Feature","geometry":{"type":"Point","coordinates":[-1.879639,39.021972]},"properties":{"id":"es-4413","source":"ES","brand":"CSM COMBUSTIBLES","address":"POLIGONO CAMPOLLANO AVENIDA -0-, 69","municipality":"Albacete","province":"ALBACETE","postalCode":"02007","schedule":"L-V: 07:00-21:00; S-D: 09:00-14:00","fuels":{"gasoline95":1.579,"diesel":1.709},"extra":{"saleType":"P","margin":"D","reportingType":"dm","ideess":"4413","idMunicipio":"54","idProvincia":"02","idCCAA":"07"}}},{"type":"Feature","geometry":{"type":"Point","coordinates":[-1.893944,39.016389]},"properties":{"id":"es-4417","source":"ES","brand":"INPEALSA","address":"POLIGONO CAMPOLLANO AVENIDA 1, 0","municipality":"Albacete","province":"ALBACETE","postalCode":"02007","schedule":"L-V: 06:00-22:00; S: 06:00-14:00","fuels":{"gasoline95":1.639,"diesel":1.779,"dieselPremium":1.829,"adblue":0.95},"extra":{"saleType":"P","margin":"N","reportingType":"dm","ideess":"4417","idMunicipio":"54","idProvincia":"02","idCCAA":"07"}}},{"type":"Feature","geometry":{"type":"Point","coordinates":[-1.899472,39.538444]},"properties":{"id":"es-4420","source":"ES","brand":"REPSOL","address":"CTRA. ALBACETE, S/N (N-320 km 69)","municipality":"Motilla del Palancar","province":"CUENCA","postalCode":"16200","schedule":"L-D: 24H","fuels":{"gasoline95":1.758,"gasoline98":1.898,"diesel":1.958,"dieselPremium":2.048},"extra":{"saleType":"P","margin":"N","reportingType":"dm","ideess":"4420","idMunicipio":"2333","idProvincia":"16","idCCAA":"07"}}},{"type":"Feature","geometry":{"type":"Point","coordinates":[-1.635111,39.238111]},"properties":{"id":"es-4789","source":"ES","brand":"MOEVE","address":"CARRETERA NACIONAL 322 KM. 390","municipality":"Golosalvo","province":"ALBACETE","postalCode":"02253","schedule":"L: 06:00-22:00","fuels":{"gasoline95":1.776,"gasoline98":1.866,"diesel":1.94,"dieselPremium":2.028,"adblue":0.999},"extra":{"saleType":"P","margin":"D","reportingType":"dm","ideess":"4789","idMunicipio":"87","idProvincia":"02","idCCAA":"07"}}},{"type":"Feature","geometry":{"type":"Point","coordinates":[-1.272889,39.846556]},"properties":{"id":"es-4839","source":"ES","brand":"REPSOL","address":"CR N-330 227","municipality":"Talayuelas","province":"CUENCA","postalCode":"16320","schedule":"L-S: 08:00-20:00","fuels":{"gasoline95":1.785,"gasoline98":1.965,"diesel":1.895,"dieselPremium":1.975,"adblue":0.89},"extra":{"saleType":"P","margin":"D","reportingType":"dm","ideess":"4839","idMunicipio":"2390","idProvincia":"16","idCCAA":"07"}}},{"type":"Feature","geometry":{"type":"Point","coordinates":[-1.963944,39.086278]},"properties":{"id":"es-4841","source":"ES","brand":"REPSOL","address":"CR A-31, 235","municipality":"Gineta (La)","province":"ALBACETE","postalCode":"02110","schedule":"L-D: 06:00-22:00","fuels":{"gasoline95":1.79,"gasoline95Premium":1.86,"gasoline98":1.94,"diesel":1.97,"dieselRenewable":2.09},"extra":{"saleType":"P","margin":"I","reportingType":"OM","ideess":"4841","idMunicipio":"86","idProvincia":"02","idCCAA":"07"}}},{"type":"Feature","geometry":{"type":"Point","coordinates":[-1.752472,39.519389]},"properties":{"id":"es-4876","source":"ES","brand":"REPSOL","address":"CR A-3, 225","municipality":"Castillejo de Iniesta","province":"CUENCA","postalCode":"16250","schedule":"L-D: 24H","fuels":{"gasoline95":1.816,"gasoline98":1.946,"diesel":1.976,"dieselRenewable":2.096},"extra":{"saleType":"P","margin":"I","reportingType":"OM","ideess":"4876","idMunicipio":"2275","idProvincia":"16","idCCAA":"07"}}},{"type":"Feature","geometry":{"type":"Point","coordinates":[-1.942417,39.439667]},"properties":{"id":"es-4902","source":"ES","brand":"PETRONOR","address":"CR N-320, 56","municipality":"Villanueva de la Jara","province":"CUENCA","postalCode":"16230","schedule":"L-D: 07:00-21:30","fuels":{"gasoline95":1.77,"gasoline95Premium":1.84,"diesel":1.93,"dieselRenewable":2.05},"extra":{"saleType":"P","margin":"D","reportingType":"OM","ideess":"4902","idMunicipio":"2427","idProvincia":"16","idCCAA":"07"}}},{"type":"Feature","geometry":{"type":"Point","coordinates":[-1.327639,39.741444]},"properties":{"id":"es-5109","source":"ES","brand":"(SIN RÓTULO)","address":" AVENIDA TEJEDA, 12","municipality":"Aliaguilla","province":"CUENCA","postalCode":"16313","schedule":"L-D: 24H","fuels":{"gasoline95":1.555,"diesel":1.699,"dieselB":1.299},"extra":{"saleType":"P","margin":"D","reportingType":"dm","ideess":"5109","idMunicipio":"2225","idProvincia":"16","idCCAA":"07"}}},{"type":"Feature","geometry":{"type":"Point","coordinates":[-1.346083,39.100389]},"properties":{"id":"es-5122","source":"ES","brand":"REPSOL","address":"CR CM-332, 46,4","municipality":"Alatoz","province":"ALBACETE","postalCode":"02152","schedule":"L-D: 7:00-23:00","fuels":{"gasoline95":1.799,"diesel":1.979,"dieselPremium":2.079},"extra":{"saleType":"P","margin":"I","reportingType":"dm","ideess":"5122","idMunicipio":"53","idProvincia":"02","idCCAA":"07"}}},{"type":"Feature","geometry":{"type":"Point","coordinates":[-1.805833,39.90425]},"properties":{"id":"es-5138","source":"ES","brand":"REAL CONTRERAS E HIJOS, S.L.","address":"CARRETERA N-420 KM. 473,200","municipality":"Carboneras de Guadazaón","province":"CUENCA","postalCode":"16350","schedule":"L-V: 08:00-20:00; S: 09:00-14:00 y 15:00-20:00","fuels":{"gasoline95":1.827,"diesel":1.899,"dieselPremium":1.899,"dieselB":1.034},"extra":{"saleType":"P","margin":"I","reportingType":"dm","ideess":"5138","idMunicipio":"2263","idProvincia":"16","idCCAA":"07"}}},{"type":"Feature","geometry":{"type":"Point","coordinates":[-1.911028,39.56425]},"properties":{"id":"es-5150","source":"ES","brand":"REPSOL","address":"CARRETERA N-3 KM. 199,3","municipality":"Motilla del Palancar","province":"CUENCA","postalCode":"16200","schedule":"L-D: 06:00-22:00","fuels":{"gasoline95":1.77,"gasoline98":1.95,"diesel":1.976,"dieselPremium":2.096},"extra":{"saleType":"P","margin":"D","reportingType":"OM","ideess":"5150","idMunicipio":"2333","idProvincia":"16","idCCAA":"07"}}},{"type":"Feature","geometry":{"type":"Point","coordinates":[-1.93325,39.059806]},"properties":{"id":"es-5173","source":"ES","brand":"MOEVE","address":"AUTOVIA A-30 KM. 239,4","municipality":"Albacete","province":"ALBACETE","postalCode":"02080","schedule":"L-D: 07:00-23:00","fuels":{"gasoline95":1.779,"gasoline98":1.919,"diesel":1.969,"dieselPremium":2.059},"extra":{"saleType":"P","margin":"D","reportingType":"OM","ideess":"5173","idMunicipio":"54","idProvincia":"02","idCCAA":"07"}}},{"type":"Feature","geometry":{"type":"Point","coordinates":[-1.933056,39.060528]},"properties":{"id":"es-5174","source":"ES","brand":"MOEVE","address":"AUTOVIA A-30 KM. 239,4","municipality":"Albacete","province":"ALBACETE","postalCode":"02080","schedule":"L-D: 24H","fuels":{"gasoline95":1.779,"diesel":1.969,"dieselPremium":2.059},"extra":{"saleType":"P","margin":"I","reportingType":"OM","ideess":"5174","idMunicipio":"54","idProvincia":"02","idCCAA":"07"}}},{"type":"Feature","geometry":{"type":"Point","coordinates":[-1.874972,39.012583]},"properties":{"id":"es-5191","source":"ES","brand":"REPSOL","address":"PG CAMPOLLANO-P. 2-CT, S.N.","municipality":"Albacete","province":"ALBACETE","postalCode":"02006","schedule":"L-V: 06:00-22:00; S: 07:30-15:30; D: 09:00-15:00","fuels":{"gasoline95":1.8,"gasoline98":1.98,"diesel":1.98,"dieselPremium":2.05},"extra":{"saleType":"P","margin":"D","reportingType":"OM","ideess":"5191","idMunicipio":"54","idProvincia":"02","idCCAA":"07"}}},{"type":"Feature","geometry":{"type":"Point","coordinates":[-1.477806,39.283944]},"properties":{"id":"es-5204","source":"ES","brand":"MOEVE","address":"CARRETERA ALBACETE KM. 94","municipality":"Casas-Ibáñez","province":"ALBACETE","postalCode":"02200","schedule":"L-D: 07:00-21:00","fuels":{"gasoline95":1.739,"gasoline98":1.859,"diesel":1.859,"dieselPremium":1.919,"dieselB":1.659},"extra":{"saleType":"P","margin":"I","reportingType":"dm","ideess":"5204","idMunicipio":"75","idProvincia":"02","idCCAA":"07"}}},{"type":"Feature","geometry":{"type":"Point","coordinates":[-1.892972,39.027778]},"properties":{"id":"es-5208","source":"ES","brand":"REPSOL","address":"CR N-301, 244","municipality":"Albacete","province":"ALBACETE","postalCode":"02006","schedule":"L-D: 24H","fuels":{"gasoline95":1.8,"gasoline98":1.94,"diesel":1.976,"dieselRenewable":2.096},"extra":{"saleType":"P","margin":"I","reportingType":"OM","ideess":"5208","idMunicipio":"54","idProvincia":"02","idCCAA":"07"}}},{"type":"Feature","geometry":{"type":"Point","coordinates":[-1.799472,39.233056]},"properties":{"id":"es-5232","source":"ES","brand":"REPSOL","address":"AVENIDA LEVANTE, 15","municipality":"Madrigueras","province":"ALBACETE","postalCode":"02230","schedule":"L-D: 06:00-22:00","fuels":{"gasoline95":1.746,"diesel":1.936,"dieselB":1.692,"dieselRenewable":2.056},"extra":{"saleType":"P","margin":"I","reportingType":"OM","ideess":"5232","idMunicipio":"96","idProvincia":"02","idCCAA":"07"}}},{"type":"Feature","geometry":{"type":"Point","coordinates":[-1.745472,39.440278]},"properties":{"id":"es-5236","source":"ES","brand":"REPSOL","address":"CARRETERA CM-311 KM. 17,3","municipality":"Iniesta","province":"CUENCA","postalCode":"16235","schedule":"L-D: 06:00-23:00","fuels":{"gasoline95":1.776,"gasoline98":1.956,"diesel":1.93,"dieselPremium":2.05},"extra":{"saleType":"P","margin":"D","reportingType":"OM","ideess":"5236","idMunicipio":"2315","idProvincia":"16","idCCAA":"07"}}},{"type":"Feature","geometry":{"type":"Point","coordinates":[-1.990194,39.107667]},"properties":{"id":"es-5237","source":"ES","brand":"REPSOL","address":"CR N-301, 231,8","municipality":"Gineta (La)","province":"ALBACETE","postalCode":"02110","schedule":"L-D: 07:00-21:00","fuels":{"gasoline95":1.8,"gasoline98":1.98,"diesel":1.96,"dieselPremium":2.07},"extra":{"saleType":"P","margin":"D","reportingType":"OM","ideess":"5237","idMunicipio":"86","idProvincia":"02","idCCAA":"07"}}},{"type":"Feature","geometry":{"type":"Point","coordinates":[-1.902278,39.724528]},"properties":{"id":"es-5243","source":"ES","brand":"CAMPSA","address":"CR N-320, 91,9","municipality":"Almodóvar del Pinar","province":"CUENCA","postalCode":"16215","schedule":"L-D: 07:00-22:00","fuels":{"gasoline95":1.739,"diesel":1.909,"dieselPremium":1.979,"dieselB":1.299},"extra":{"saleType":"P","margin":"I","reportingType":"dm","ideess":"5243","idMunicipio":"2228","idProvincia":"16","idCCAA":"07"}}},{"type":"Feature","geometry":{"type":"Point","coordinates":[-1.592778,39.366861]},"properties":{"id":"es-5258","source":"ES","brand":"REPSOL","address":"CARRETERA CM-3201 KM. 22,70","municipality":"Villamalea","province":"ALBACETE","postalCode":"02270","schedule":"L-S: 07:00-21:00; D: 07:00-14:00","fuels":{"gasoline95":1.746,"gasoline98":1.926,"diesel":1.95,"dieselPremium":2.02,"dieselB":1.656},"extra":{"saleType":"P","margin":"D","reportingType":"OM","ideess":"5258","idMunicipio":"131","idProvincia":"02","idCCAA":"07"}}},{"type":"Feature","geometry":{"type":"Point","coordinates":[-1.911389,39.25975]},"properties":{"id":"es-5284","source":"ES","brand":"REPSOL","address":"CL AVENIDA DE LA RODA, 1","municipality":"Tarazona de la Mancha","province":"ALBACETE","postalCode":"02100","schedule":"L-D: 07:00-23:00","fuels":{"gasoline95":1.746,"gasoline95Premium":1.816,"diesel":1.93,"dieselRenewable":2.05},"extra":{"saleType":"P","margin":"I","reportingType":"OM","ideess":"5284","idMunicipio":"125","idProvincia":"02","idCCAA":"07"}}},{"type":"Feature","geometry":{"type":"Point","coordinates":[-1.845083,39.033139]},"properties":{"id":"es-5289","source":"ES","brand":"REPSOL","address":"CARRETERA N-322 KM. 359","municipality":"Albacete","province":"ALBACETE","postalCode":"02006","schedule":"L-V: 07:00-21:00; S-D: 09:00-14:00","fuels":{"gasoline95":1.719,"gasoline98":1.889,"diesel":1.879,"adblue":1.499},"extra":{"saleType":"P","margin":"D","reportingType":"dm","ideess":"5289","idMunicipio":"54","idProvincia":"02","idCCAA":"07"}}},{"type":"Feature","geometry":{"type":"Point","coordinates":[-1.359611,39.902806]},"properties":{"id":"es-5291","source":"ES","brand":"INVERSIONES CASTELLANO CANTABRICA, S.L.U.","address":"CARRETERA NACIONAL 330 KM. 238","municipality":"Landete","province":"CUENCA","postalCode":"16330","schedule":"L-S: 07:30-21:00; D: 09:00-21:00","fuels":{"gasoline95":1.855,"diesel":1.925},"extra":{"saleType":"P","margin":"D","reportingType":"dm","ideess":"5291","idMunicipio":"2318","idProvincia":"16","idCCAA":"07"}}},{"type":"Feature","geometry":{"type":"Point","coordinates":[-1.753639,39.517083]},"properties":{"id":"es-5311","source":"ES","brand":"MOEVE","address":"AUTOVIA A-3 KM. 224","municipality":"Castillejo de Iniesta","province":"CUENCA","postalCode":"16250","schedule":"L-D: 24H","fuels":{"gasoline95":1.809,"gasoline95Premium":1.899,"diesel":1.979,"dieselRenewable":2.129},"extra":{"saleType":"P","margin":"D","reportingType":"OM","ideess":"5311","idMunicipio":"2275","idProvincia":"16","idCCAA":"07"}}},{"type":"Feature","geometry":{"type":"Point","coordinates":[-1.433222,39.203167]},"properties":{"id":"es-8097","source":"ES","brand":"EL JUCAR","address":"CARRETERA CM-3201 47,1 KM. 47,1","municipality":"Alcalá del Júcar","province":"ALBACETE","postalCode":"02210","schedule":"L-D: 08:00-20:00","fuels":{"gasoline95":1.689,"diesel":1.839},"extra":{"saleType":"P","margin":"D","reportingType":"dm","ideess":"8097","idMunicipio":"58","idProvincia":"02","idCCAA":"07"}}},{"type":"Feature","geometry":{"type":"Point","coordinates":[-1.046806,39.05125]},"properties":{"id":"es-8174","source":"ES","brand":"CARBURANTES Y SERVICIOS AYORA SL","address":"POLIGONO CALLE 3 PAR 32 36, ","municipality":"Ayora","province":"VALENCIA / VALÈNCIA","postalCode":"46620","schedule":"L-D: 24H","fuels":{"gasoline95":1.609,"gasoline98":1.799,"diesel":1.709,"adblue":0.849},"extra":{"saleType":"P","margin":"N","reportingType":"dm","ideess":"8174","idMunicipio":"7009","idProvincia":"46","idCCAA":"10"}}},{"type":"Feature","geometry":{"type":"Point","coordinates":[-1.680944,39.137222]},"properties":{"id":"es-8900","source":"ES","brand":"NO HAY","address":"CALLE SANTA CRUZ, 16","municipality":"Valdeganga","province":"ALBACETE","postalCode":"02150","schedule":"L-D: 24H","fuels":{"gasoline95":1.679,"diesel":1.689,"dieselB":1.359},"extra":{"saleType":"P","margin":"D","reportingType":"dm","ideess":"8900","idMunicipio":"127","idProvincia":"02","idCCAA":"07"}}},{"type":"Feature","geometry":{"type":"Point","coordinates":[-1.792972,39.612694]},"properties":{"id":"es-8906","source":"ES","brand":"S. ANDRES APOSTOL SOCIEDAD COOP. DE C-LM","address":"CARRETERA VALENCIA 1 KM. 1","municipality":"Campillo de Altobuey","province":"CUENCA","postalCode":"16210","schedule":"L-D: 24H","fuels":{"diesel":1.599,"dieselB":1.21},"extra":{"saleType":"P","margin":"D","reportingType":"dm","ideess":"8906","idMunicipio":"2250","idProvincia":"16","idCCAA":"07"}}},{"type":"Feature","geometry":{"type":"Point","coordinates":[-1.930056,39.349167]},"properties":{"id":"es-9194","source":"ES","brand":"SUPEROIL","address":"CARRETERA N320 KM. 45,3","municipality":"Quintanar del Rey","province":"CUENCA","postalCode":"16220","schedule":"L-J: 06:30-22:30; V-S: 06:30-03:00; D: 06:30-22:30","fuels":{"gasoline95":1.629,"diesel":1.739},"extra":{"saleType":"P","margin":"D","reportingType":"dm","ideess":"9194","idMunicipio":"2370","idProvincia":"16","idCCAA":"07"}}},{"type":"Feature","geometry":{"type":"Point","coordinates":[-1.928833,39.333472]},"properties":{"id":"es-9197","source":"ES","brand":"E.S.QUINTANAR","address":"CARRETERA N320 KM. 43,5","municipality":"Quintanar del Rey","province":"CUENCA","postalCode":"16220","schedule":"L-D: 06:00-22:00","fuels":{"gasoline95":1.629,"diesel":1.739,"dieselB":1.479,"adblue":0.799},"extra":{"saleType":"P","margin":"I","reportingType":"dm","ideess":"9197","idMunicipio":"2370","idProvincia":"16","idCCAA":"07"}}},{"type":"Feature","geometry":{"type":"Point","coordinates":[-1.878111,39.009639]},"properties":{"id":"es-9601","source":"ES","brand":"ALCAMPO","address":"SECTOR PARCELA T-3 LOCAL52, 14","municipality":"Albacete","province":"ALBACETE","postalCode":"02007","schedule":"L-D: 24H","fuels":{"gasoline95":1.469,"gasoline98":1.559,"diesel":1.619,"dieselPremium":1.689},"extra":{"saleType":"P","margin":"N","reportingType":"dm","ideess":"9601","idMunicipio":"54","idProvincia":"02","idCCAA":"07"}}}]}