{"type":"FeatureCollection","features":[{"type":"Feature","geometry":{"type":"Point","coordinates":[3.853444,40.005611]},"properties":{"id":"es-13041","source":"ES","brand":"GALP","address":"CALLE FERRERS, 1","municipality":"Ciutadella de Menorca","province":"BALEARS (ILLES)","postalCode":"07760","schedule":"L-D: 24H","fuels":{"gasoline95":1.879,"diesel":1.999},"extra":{"saleType":"P","margin":"D","reportingType":"dm","ideess":"13041","idMunicipio":"810","idProvincia":"07","idCCAA":"04"}}},{"type":"Feature","geometry":{"type":"Point","coordinates":[3.853361,40.007139]},"properties":{"id":"es-13088","source":"ES","brand":"AUTONETOIL","address":"CALLE FERRERS, 12","municipality":"Ciutadella de Menorca","province":"BALEARS (ILLES)","postalCode":"07760","schedule":"L-D: 24H","fuels":{"gasoline95":1.819,"diesel":1.939,"dieselPremium":1.969},"extra":{"saleType":"P","margin":"D","reportingType":"dm","ideess":"13088","idMunicipio":"810","idProvincia":"07","idCCAA":"04"}}},{"type":"Feature","geometry":{"type":"Point","coordinates":[3.833056,40.007833]},"properties":{"id":"es-2569","source":"ES","brand":"REPSOL","address":"CALLE PINTOR TORRENT, 10","municipality":"Ciutadella de Menorca","province":"BALEARS (ILLES)","postalCode":"07760","schedule":"L-D: 06:00-22:00","fuels":{"gasoline95":1.845,"diesel":1.965,"lpg":1.145},"extra":{"saleType":"P","margin":"D","reportingType":"OM","ideess":"2569","idMunicipio":"810","idProvincia":"07","idCCAA":"04"}}},{"type":"Feature","geometry":{"type":"Point","coordinates":[3.850583,40.004639]},"properties":{"id":"es-2667","source":"ES","brand":"BP ENERGIA ESPAÑA SAU","address":"AUTOVIA CTRA. MAHON - CIUDADELA KM. 43,9","municipality":"Ciutadella de Menorca","province":"BALEARS (ILLES)","postalCode":"07760","schedule":"L-D: 06:00-22:00","fuels":{"gasoline95":1.869,"diesel":1.999,"dieselPremium":2.089},"extra":{"saleType":"P","margin":"D","reportingType":"dm","ideess":"2667","idMunicipio":"810","idProvincia":"07","idCCAA":"04"}}},{"type":"Feature","geometry":{"type":"Point","coordinates":[3.843556,40.001389]},"properties":{"id":"es-2668","source":"ES","brand":"MOEVE COMERCIAL SAU","address":"CALLE CAUTIVOS DE CONSTANTINIPLA, S/N","municipality":"Ciutadella de Menorca","province":"BALEARS (ILLES)","postalCode":"07760","schedule":"L-D: 06:00-22:00","fuels":{"gasoline95":1.999,"diesel":2.069},"extra":{"saleType":"P","margin":"D","reportingType":"dm","ideess":"2668","idMunicipio":"810","idProvincia":"07","idCCAA":"04"}}}]}