{"type":"FeatureCollection","features":[{"type":"Feature","geometry":{"type":"Point","coordinates":[2.880333,42.403278]},"properties":{"id":"es-10161","source":"ES","brand":"ESCUDEROIL","address":"CARRETERA GI-601 A CANTALLOPS, ESQ. N-II, POL. SECTOR LES OLIVERES KM. 128","municipality":"Jonquera (La)","province":"GIRONA","postalCode":"17700","schedule":"L-D: 24H","fuels":{"gasoline95":1.699,"diesel":1.799,"lpg":0.99,"adblue":0.85},"extra":{"saleType":"P","margin":"N","reportingType":"dm","ideess":"10161","idMunicipio":"2531","idProvincia":"17","idCCAA":"09"}}},{"type":"Feature","geometry":{"type":"Point","coordinates":[2.984444,42.26725]},"properties":{"id":"es-10177","source":"ES","brand":"PETROLIS INDEPENDENTS","address":"CTRA. DE ROSES km 31","municipality":"Figueres","province":"GIRONA","postalCode":"17600","schedule":"L-D: 24H","fuels":{"gasoline95":1.619,"diesel":1.749,"dieselPremium":1.849},"extra":{"saleType":"P","margin":"I","reportingType":"dm","ideess":"10177","idMunicipio":"2511","idProvincia":"17","idCCAA":"09"}}},{"type":"Feature","geometry":{"type":"Point","coordinates":[2.920083,42.337278]},"properties":{"id":"es-10453","source":"ES","brand":"BP","address":"CARRETERA N-2 KM. 764,800","municipality":"Biure","province":"GIRONA","postalCode":"17723","schedule":"L-D: 24H","fuels":{"gasoline95":1.729,"gasoline98":1.849,"diesel":1.847,"dieselPremium":1.937,"adblue":0.899},"extra":{"saleType":"P","margin":"I","reportingType":"dm","ideess":"10453","idMunicipio":"2469","idProvincia":"17","idCCAA":"09"}}},{"type":"Feature","geometry":{"type":"Point","coordinates":[2.868972,42.424139]},"properties":{"id":"es-10458","source":"ES","brand":"BP","address":"CARRETERA N2 KM. 0","municipality":"Jonquera (La)","province":"GIRONA","postalCode":"17700","schedule":"L-D: 06:00-22:00","fuels":{"gasoline95":1.779,"gasoline98":1.899,"diesel":1.917,"dieselPremium":1.997,"adblue":0.899},"extra":{"saleType":"P","margin":"I","reportingType":"dm","ideess":"10458","idMunicipio":"2531","idProvincia":"17","idCCAA":"09"}}},{"type":"Feature","geometry":{"type":"Point","coordinates":[2.878639,42.400556]},"properties":{"id":"es-10517","source":"ES","brand":"VALCARCE","address":"CALLE LES SALINES, 9","municipality":"Jonquera (La)","province":"GIRONA","postalCode":"17700","schedule":"L-D: 24H","fuels":{"gasoline95":1.759,"diesel":1.929,"dieselB":1.649,"adblue":0.799},"extra":{"saleType":"P","margin":"N","reportingType":"dm","ideess":"10517","idMunicipio":"2531","idProvincia":"17","idCCAA":"09"}}},{"type":"Feature","geometry":{"type":"Point","coordinates":[2.955889,42.229778]},"properties":{"id":"es-11191","source":"ES","brand":"GALP","address":"AVENIDA D'ÀLGUEMA, 2","municipality":"Santa Llogaia d'Àlguema","province":"GIRONA","postalCode":"17771","schedule":"L-D: 06:00-22:00","fuels":{"gasoline95":1.759,"gasoline98":1.879,"diesel":1.884,"dieselPremium":1.934,"dieselB":1.599,"adblue":0.799},"extra":{"saleType":"P","margin":"I","reportingType":"OM","ideess":"11191","idMunicipio":"2622","idProvincia":"17","idCCAA":"09"}}},{"type":"Feature","geometry":{"type":"Point","coordinates":[2.031889,42.009278]},"properties":{"id":"es-11248","source":"ES","brand":"ESTACIO SERVEI LLUÇANÈS","address":"AVINGUDA POMPEU FABRA, 3","municipality":"Prats de Lluçanès","province":"BARCELONA","postalCode":"08513","schedule":"L-D: 24H","fuels":{"gasoline95":1.679,"gasoline98":1.799,"diesel":1.899,"dieselB":1.599},"extra":{"saleType":"P","margin":"D","reportingType":"dm","ideess":"11248","idMunicipio":"1036","idProvincia":"08","idCCAA":"09"}}},{"type":"Feature","geometry":{"type":"Point","coordinates":[2.258028,42.055528]},"properties":{"id":"es-11628","source":"ES","brand":"ESCLATOIL","address":"CARRER COMPTE BORREL, 1","municipality":"Torelló","province":"BARCELONA","postalCode":"08570","schedule":"L-D: 24H","fuels":{"gasoline95":1.589,"diesel":1.769},"extra":{"saleType":"P","margin":"N","reportingType":"dm","ideess":"11628","idMunicipio":"1145","idProvincia":"08","idCCAA":"09"}}},{"type":"Feature","geometry":{"type":"Point","coordinates":[2.936389,42.317833]},"properties":{"id":"es-12115","source":"ES","brand":"CALSINA CARRE","address":"CAMI DEL ROURE, 5","municipality":"Pont de Molins","province":"GIRONA","postalCode":"17706","schedule":"L-D: 24H","fuels":{"gasoline95":1.699,"diesel":1.899,"dieselB":1.489,"adblue":0.91},"extra":{"saleType":"P","margin":"N","reportingType":"dm","ideess":"12115","idMunicipio":"2574","idProvincia":"17","idCCAA":"09"}}},{"type":"Feature","geometry":{"type":"Point","coordinates":[2.999944,42.268417]},"properties":{"id":"es-12153","source":"ES","brand":"CARREFOUR","address":"CARRETERA FIGUERES A ROSES KM 29 KM. 29","municipality":"Figueres","province":"GIRONA","postalCode":"17484","schedule":"L-D: 24H","fuels":{"gasoline95":1.729,"gasoline98":1.889,"diesel":1.829,"dieselPremium":1.869},"extra":{"saleType":"P","margin":"N","reportingType":"dm","ideess":"12153","idMunicipio":"2511","idProvincia":"17","idCCAA":"09"}}},{"type":"Feature","geometry":{"type":"Point","coordinates":[2.476472,42.169778]},"properties":{"id":"es-12154","source":"ES","brand":"CARREFOUR","address":"AVENIDA SANTA COLOMA, 74","municipality":"Olot","province":"GIRONA","postalCode":"17800","schedule":"L-D: 24H","fuels":{"gasoline95":1.739,"diesel":1.809,"dieselPremium":1.849},"extra":{"saleType":"P","margin":"N","reportingType":"dm","ideess":"12154","idMunicipio":"2556","idProvincia":"17","idCCAA":"09"}}},{"type":"Feature","geometry":{"type":"Point","coordinates":[2.947778,42.258083]},"properties":{"id":"es-12237","source":"ES","brand":"E.S.AVINYONET","address":"CARRETERA C-260 DE BESALU A ROSES KM. 41,000","municipality":"Avinyonet de Puigventós","province":"GIRONA","postalCode":"17742","schedule":"L-D: 24H","fuels":{"gasoline95":1.699,"gasoline98":1.859,"diesel":1.829,"dieselPremium":1.879},"extra":{"saleType":"P","margin":"I","reportingType":"dm","ideess":"12237","idMunicipio":"2460","idProvincia":"17","idCCAA":"09"}}},{"type":"Feature","geometry":{"type":"Point","coordinates":[2.776778,42.116833]},"properties":{"id":"es-12435","source":"ES","brand":"AVIA","address":"RONDA CANALETA, 63","municipality":"Banyoles","province":"GIRONA","postalCode":"17820","schedule":"L-D: 24H","fuels":{"gasoline95":1.709,"diesel":1.849,"dieselPremium":1.939,"adblue":0.999},"extra":{"saleType":"P","margin":"D","reportingType":"dm","ideess":"12435","idMunicipio":"2461","idProvincia":"17","idCCAA":"09"}}},{"type":"Feature","geometry":{"type":"Point","coordinates":[2.775639,42.112611]},"properties":{"id":"es-12518","source":"ES","brand":"ESCLATOIL","address":"CALLE DE LA BASSA DEL CANEM, 22","municipality":"Banyoles","province":"GIRONA","postalCode":"17820","schedule":"L-D: 24H","fuels":{"gasoline95":1.589,"diesel":1.769,"adblue":0.529},"extra":{"saleType":"P","margin":"N","reportingType":"dm","ideess":"12518","idMunicipio":"2461","idProvincia":"17","idCCAA":"09"}}},{"type":"Feature","geometry":{"type":"Point","coordinates":[2.241556,42.010278]},"properties":{"id":"es-12545","source":"ES","brand":"PETROVOLTREGÀ","address":"CALLE ONZE DE SETEMBRE, 34","municipality":"Masies de Voltregà (Les)","province":"BARCELONA","postalCode":"08509","schedule":"L-D: 24H","fuels":{"gasoline95":1.529,"diesel":1.689,"adblue":0.699},"extra":{"saleType":"P","margin":"D","reportingType":"dm","ideess":"12545","idMunicipio":"983","idProvincia":"08","idCCAA":"09"}}},{"type":"Feature","geometry":{"type":"Point","coordinates":[2.990833,42.229111]},"properties":{"id":"es-12680","source":"ES","brand":"MOEVE","address":"POLIGONO LA BISBAL, 10","municipality":"Vilamalla","province":"GIRONA","postalCode":"17469","schedule":"L-D: 24H","fuels":{"gasoline95":1.834,"diesel":1.944,"dieselB":1.764},"extra":{"saleType":"P","margin":"N","reportingType":"OM","ideess":"12680","idMunicipio":"2664","idProvincia":"17","idCCAA":"09"}}},{"type":"Feature","geometry":{"type":"Point","coordinates":[2.450972,42.12975]},"properties":{"id":"es-12985","source":"ES","brand":"Q8","address":"CARRETERA POLIGANO INDUSTRIAL LA SERRA KM. 1","municipality":"Vall d'en Bas (La)","province":"GIRONA","postalCode":"17176","schedule":"L-D: 24H","fuels":{"gasoline95":1.639,"diesel":1.759},"extra":{"saleType":"P","margin":"D","reportingType":"dm","ideess":"12985","idMunicipio":"2647","idProvincia":"17","idCCAA":"09"}}},{"type":"Feature","geometry":{"type":"Point","coordinates":[2.498306,42.186833]},"properties":{"id":"es-12988","source":"ES","brand":"PLENERGY","address":"CARRER Ignasi Buxó i Gou, 11","municipality":"Olot","province":"GIRONA","postalCode":"17800","schedule":"L-D: 24H","fuels":{"gasoline95":1.559,"diesel":1.719},"extra":{"saleType":"P","margin":"D","reportingType":"dm","ideess":"12988","idMunicipio":"2556","idProvincia":"17","idCCAA":"09"}}},{"type":"Feature","geometry":{"type":"Point","coordinates":[2.917833,42.066611]},"properties":{"id":"es-13173","source":"ES","brand":"CERVIA OIL","address":"CAMI FONTANALS, S/N","municipality":"Cervià de Ter","province":"GIRONA","postalCode":"17464","schedule":"L-D: 06:00-23:00","fuels":{"gasoline95":1.589,"diesel":1.739,"adblue":0.82},"extra":{"saleType":"P","margin":"D","reportingType":"dm","ideess":"13173","idMunicipio":"2496","idProvincia":"17","idCCAA":"09"}}},{"type":"Feature","geometry":{"type":"Point","coordinates":[2.956083,42.231333]},"properties":{"id":"es-13216","source":"ES","brand":"PETREM","address":"CALLE CORAL ROIG, S/N","municipality":"Santa Llogaia d'Àlguema","province":"GIRONA","postalCode":"17771","schedule":"L-D: 24H","fuels":{"gasoline95":1.619,"diesel":1.749,"dieselB":1.599,"lpg":1.099,"cng":1.579,"lng":1.529,"adblue":0.899},"extra":{"saleType":"P","margin":"D","reportingType":"dm","ideess":"13216","idMunicipio":"2622","idProvincia":"17","idCCAA":"09"}}},{"type":"Feature","geometry":{"type":"Point","coordinates":[2.979778,42.231139]},"properties":{"id":"es-13225","source":"ES","brand":"GLOBALTANK","address":"AVENIDA EUROPA D', 1","municipality":"Vilamalla","province":"GIRONA","postalCode":"17469","schedule":"L-D: 24H","fuels":{"gasoline95":1.619,"diesel":1.749,"dieselB":1.469,"dieselRenewable":1.939,"adblue":0.899},"extra":{"saleType":"P","margin":"N","reportingType":"dm","ideess":"13225","idMunicipio":"2664","idProvincia":"17","idCCAA":"09"}}},{"type":"Feature","geometry":{"type":"Point","coordinates":[2.274861,42.039528]},"properties":{"id":"es-13256","source":"ES","brand":"ESCLATOIL","address":"CALLE NOU, 264","municipality":"Torelló","province":"BARCELONA","postalCode":"08570","schedule":"L-D: 24H","fuels":{"gasoline95":1.589,"diesel":1.769},"extra":{"saleType":"P","margin":"N","reportingType":"dm","ideess":"13256","idMunicipio":"1145","idProvincia":"08","idCCAA":"09"}}},{"type":"Feature","geometry":{"type":"Point","coordinates":[2.499139,42.196083]},"properties":{"id":"es-13475","source":"ES","brand":"MDIESEL","address":"CARRETERA DE LA CANYA KM. 115","municipality":"Olot","province":"GIRONA","postalCode":"17800","schedule":"L-D: 24H","fuels":{"diesel":1.759},"extra":{"saleType":"P","margin":"D","reportingType":"dm","ideess":"13475","idMunicipio":"2556","idProvincia":"17","idCCAA":"09"}}},{"type":"Feature","geometry":{"type":"Point","coordinates":[2.581611,42.220972]},"properties":{"id":"es-13491","source":"ES","brand":"CEPSA","address":"ROTONDA GIP5233, SN","municipality":"Sant Jaume de Llierca","province":"GIRONA","postalCode":"17854","schedule":"L-D: 06:00-22:00","fuels":{"gasoline95":1.844,"gasoline98":1.974,"diesel":1.944,"dieselPremium":2.044},"extra":{"saleType":"P","margin":"D","reportingType":"OM","ideess":"13491","idMunicipio":"2605","idProvincia":"17","idCCAA":"09"}}},{"type":"Feature","geometry":{"type":"Point","coordinates":[2.47325,42.189944]},"properties":{"id":"es-13990","source":"ES","brand":"ESCLATOIL","address":"CALLE DE LLUIS COMPANYS, 14,16","municipality":"Olot","province":"GIRONA","postalCode":"17600","schedule":"L-D: 24H","fuels":{"gasoline95":1.609,"diesel":1.779,"dieselPremium":1.829,"adblue":0.529},"extra":{"saleType":"P","margin":"D","reportingType":"dm","ideess":"13990","idMunicipio":"2556","idProvincia":"17","idCCAA":"09"}}},{"type":"Feature","geometry":{"type":"Point","coordinates":[2.872,42.416778]},"properties":{"id":"es-13997","source":"ES","brand":"HAM","address":"CARRETERA N-II KM. 774","municipality":"Jonquera (La)","province":"GIRONA","postalCode":"17700","schedule":"L-D: 24H","fuels":{"cng":1.644,"lng":1.599,"bioCng":1.624,"bioLng":1.569},"extra":{"saleType":"P","margin":"D","reportingType":"dm","ideess":"13997","idMunicipio":"2531","idProvincia":"17","idCCAA":"09"}}},{"type":"Feature","geometry":{"type":"Point","coordinates":[2.824194,42.002694]},"properties":{"id":"es-14152","source":"ES","brand":"EROSKI","address":"RONDA PEDRET, 101","municipality":"Girona","province":"GIRONA","postalCode":"17007","schedule":"L-D: 24H","fuels":{"gasoline95":1.498,"diesel":1.638},"extra":{"saleType":"P","margin":"N","reportingType":"dm","ideess":"14152","idMunicipio":"2524","idProvincia":"17","idCCAA":"09"}}},{"type":"Feature","geometry":{"type":"Point","coordinates":[2.940389,42.295722]},"properties":{"id":"es-14390","source":"ES","brand":"REPSOL","address":"CALLE KARPETAN, S/N","municipality":"Llers","province":"GIRONA","postalCode":"17730","schedule":"L-D: 24H","fuels":{"diesel":1.919,"dieselB":1.774,"cng":1.594,"lng":1.559},"extra":{"saleType":"P","margin":"N","reportingType":"OM","ideess":"14390","idMunicipio":"2538","idProvincia":"17","idCCAA":"09"}}},{"type":"Feature","geometry":{"type":"Point","coordinates":[2.979778,42.231139]},"properties":{"id":"es-14684","source":"ES","brand":"AVANZA OIL","address":"AVENIDA EUROPA D', 1","municipality":"Vilamalla","province":"GIRONA","postalCode":"17469","schedule":"L-D: 24H","fuels":{"gasoline95":1.619,"diesel":1.749,"adblue":0.899},"extra":{"saleType":"P","margin":"N","reportingType":"dm","ideess":"14684","idMunicipio":"2664","idProvincia":"17","idCCAA":"09"}}},{"type":"Feature","geometry":{"type":"Point","coordinates":[2.471056,42.210528]},"properties":{"id":"es-14788","source":"ES","brand":"PETREM VALL DE BIANYA","address":"CALLE INDUSTRIA, 1","municipality":"Vall de Bianya (La)","province":"GIRONA","postalCode":"17813","schedule":"L-D: 24H","fuels":{"diesel":1.749,"dieselB":1.599},"extra":{"saleType":"P","margin":"D","reportingType":"dm","ideess":"14788","idMunicipio":"2646","idProvincia":"17","idCCAA":"09"}}},{"type":"Feature","geometry":{"type":"Point","coordinates":[2.939972,42.294583]},"properties":{"id":"es-14813","source":"ES","brand":"EUROWAG FIGUERES","address":"CALLE LAYETAN, S/N","municipality":"Llers","province":"GIRONA","postalCode":"17730","schedule":"L-D: 24H","fuels":{"diesel":1.968,"dieselB":1.642,"dieselRenewable":2.014,"adblue":1.228},"extra":{"saleType":"P","margin":"D","reportingType":"dm","ideess":"14813","idMunicipio":"2538","idProvincia":"17","idCCAA":"09"}}},{"type":"Feature","geometry":{"type":"Point","coordinates":[2.441972,42.133111]},"properties":{"id":"es-14825","source":"ES","brand":"PETREM VALL D'EN BAS","address":"CALLE PRAT DE CAN GRONXA, 1","municipality":"Vall d'en Bas (La)","province":"GIRONA","postalCode":"17176","schedule":"L-D: 24H","fuels":{"gasoline95":1.619,"diesel":1.749,"dieselB":1.599},"extra":{"saleType":"P","margin":"D","reportingType":"dm","ideess":"14825","idMunicipio":"2647","idProvincia":"17","idCCAA":"09"}}},{"type":"Feature","geometry":{"type":"Point","coordinates":[2.878806,42.403028]},"properties":{"id":"es-14925","source":"ES","brand":"MOLGAS","address":"CALLE BASSEGODA, 4","municipality":"Jonquera (La)","province":"GIRONA","postalCode":"17700","schedule":"L-D: 24H","fuels":{"lng":1.599},"extra":{"saleType":"P","margin":"I","reportingType":"dm","ideess":"14925","idMunicipio":"2531","idProvincia":"17","idCCAA":"09"}}},{"type":"Feature","geometry":{"type":"Point","coordinates":[2.937806,42.295333]},"properties":{"id":"es-14962","source":"ES","brand":"NIEVES","address":"CARRER CARPETAN, S/N","municipality":"Llers","province":"GIRONA","postalCode":"17730","schedule":"L-D: 24H","fuels":{"diesel":1.879,"dieselB":1.629,"adblue":0.899},"extra":{"saleType":"P","margin":"I","reportingType":"dm","ideess":"14962","idMunicipio":"2538","idProvincia":"17","idCCAA":"09"}}},{"type":"Feature","geometry":{"type":"Point","coordinates":[2.824944,42.004139]},"properties":{"id":"es-14972","source":"ES","brand":"SEROIL ENERGY","address":"PASSEIG SAN JUAN BOSCO, 8","municipality":"Girona","province":"GIRONA","postalCode":"17007","schedule":"L-D: 24H","fuels":{"gasoline95":1.498,"diesel":1.638,"adblue":0.48},"extra":{"saleType":"P","margin":"D","reportingType":"dm","ideess":"14972","idMunicipio":"2524","idProvincia":"17","idCCAA":"09"}}},{"type":"Feature","geometry":{"type":"Point","coordinates":[2.979389,42.267083]},"properties":{"id":"es-15020","source":"ES","brand":"AVANZA OIL FIGUERES","address":"AVENIDA DE ROSES, 5","municipality":"Figueres","province":"GIRONA","postalCode":"17600","schedule":"L-D: 24H","fuels":{"gasoline95":1.619,"gasoline98":1.719,"diesel":1.749,"dieselPremium":1.779,"adblue":0.899},"extra":{"saleType":"P","margin":"N","reportingType":"dm","ideess":"15020","idMunicipio":"2511","idProvincia":"17","idCCAA":"09"}}},{"type":"Feature","geometry":{"type":"Point","coordinates":[2.879083,42.402472]},"properties":{"id":"es-15096","source":"ES","brand":"AND GO","address":"CALLE CARRER PEDRAFORCA Nº3, 3","municipality":"Jonquera (La)","province":"GIRONA","postalCode":"17700","schedule":"L-D: 24H","fuels":{"gasoline95":1.689,"gasoline98":1.839,"diesel":1.798,"dieselPremium":1.848,"adblue":0.924},"extra":{"saleType":"P","margin":"I","reportingType":"dm","ideess":"15096","idMunicipio":"2531","idProvincia":"17","idCCAA":"09"}}},{"type":"Feature","geometry":{"type":"Point","coordinates":[2.9385,42.300472]},"properties":{"id":"es-15191","source":"ES","brand":"ANDAMUR","address":"CALLE PEGASO, S/N","municipality":"Llers","province":"GIRONA","postalCode":"17730","schedule":"L-D: 24H","fuels":{"diesel":1.888,"dieselB":1.786,"adblue":0.924},"extra":{"saleType":"P","margin":"D","reportingType":"dm","ideess":"15191","idMunicipio":"2538","idProvincia":"17","idCCAA":"09"}}},{"type":"Feature","geometry":{"type":"Point","coordinates":[2.817444,42.009722]},"properties":{"id":"es-15245","source":"ES","brand":"NATURGY SARRIA DE TER - GIRONA","address":"CARRETERA N-IIA KM. 719,4","municipality":"Sarrià de Ter","province":"GIRONA","postalCode":"17840","schedule":"L-D: 00:00-23:59","fuels":{"cng":1.646},"extra":{"saleType":"P","margin":"D","reportingType":"dm","ideess":"15245","idMunicipio":"2624","idProvincia":"17","idCCAA":"09"}}},{"type":"Feature","geometry":{"type":"Point","coordinates":[2.791556,42.101472]},"properties":{"id":"es-15277","source":"ES","brand":"SERGASA","address":"PARATGE MAS FERREROS, S","municipality":"Porqueres","province":"GIRONA","postalCode":"17834","schedule":"L-V: 08:00-20:00","fuels":{"diesel":1.895},"extra":{"saleType":"P","margin":"N","reportingType":"dm","ideess":"15277","idMunicipio":"2576","idProvincia":"17","idCCAA":"09"}}},{"type":"Feature","geometry":{"type":"Point","coordinates":[2.979694,42.266611]},"properties":{"id":"es-15284","source":"ES","brand":"PETROFIGUERES NF","address":"AVENIDA DE ROSES, 4","municipality":"Figueres","province":"GIRONA","postalCode":"17600","schedule":"L-D: 24H","fuels":{"gasoline95":1.569,"diesel":1.689},"extra":{"saleType":"P","margin":"D","reportingType":"dm","ideess":"15284","idMunicipio":"2511","idProvincia":"17","idCCAA":"09"}}},{"type":"Feature","geometry":{"type":"Point","coordinates":[2.072472,42.012361]},"properties":{"id":"es-15471","source":"ES","brand":"E.S. SANT MARTI D'ALBARS","address":"CARRETERA C-62 KM. 13","municipality":"Sant Martí d'Albars","province":"BARCELONA","postalCode":"08515","schedule":"L-D: 24H","fuels":{"gasoline95":1.705,"gasoline98":1.825,"diesel":1.905},"extra":{"saleType":"P","margin":"D","reportingType":"dm","ideess":"15471","idMunicipio":"1086","idProvincia":"08","idCCAA":"09"}}},{"type":"Feature","geometry":{"type":"Point","coordinates":[2.8785,42.406889]},"properties":{"id":"es-1551","source":"ES","brand":"TORTUGA","address":"CARRETERA N-II KM. 773,5","municipality":"Jonquera (La)","province":"GIRONA","postalCode":"17700","schedule":"L-D: 24H","fuels":{"gasoline95":1.789,"diesel":1.905,"dieselB":1.719,"adblue":0.948},"extra":{"saleType":"P","margin":"D","reportingType":"dm","ideess":"1551","idMunicipio":"2531","idProvincia":"17","idCCAA":"09"}}},{"type":"Feature","geometry":{"type":"Point","coordinates":[2.279722,42.008806]},"properties":{"id":"es-1554","source":"ES","brand":"ESCLATOIL","address":"CARRETERA MANLLEU TORELLO KM. 1","municipality":"Manlleu","province":"BARCELONA","postalCode":"08560","schedule":"L-D: 24H","fuels":{"gasoline95":1.589,"diesel":1.769,"adblue":0.529},"extra":{"saleType":"P","margin":"D","reportingType":"dm","ideess":"1554","idMunicipio":"977","idProvincia":"08","idCCAA":"09"}}},{"type":"Feature","geometry":{"type":"Point","coordinates":[2.362917,42.032056]},"properties":{"id":"es-1563","source":"ES","brand":"PETROVOLTREGÀ - ÀREA DEL COLLSACABRA","address":"CARRETERA VIC-OLOT KM. 15,70","municipality":"Santa Maria de Corcó","province":"BARCELONA","postalCode":"08511","schedule":"L-D: 24H","fuels":{"gasoline95":1.539,"dieselPremium":1.689,"dieselB":1.369},"extra":{"saleType":"P","margin":"D","reportingType":"dm","ideess":"1563","idMunicipio":"1119","idProvincia":"08","idCCAA":"09"}}},{"type":"Feature","geometry":{"type":"Point","coordinates":[2.20725,42.214389]},"properties":{"id":"es-1582","source":"ES","brand":"RUTA DEL FERRO E.S.","address":"CALLE SOROLLA, 33","municipality":"Ripoll","province":"GIRONA","postalCode":"17500","schedule":"L-D: 06:00-22:00","fuels":{"gasoline95":1.749,"gasoline98":1.839,"diesel":1.839,"dieselPremium":1.969},"extra":{"saleType":"P","margin":"D","reportingType":"dm","ideess":"1582","idMunicipio":"2587","idProvincia":"17","idCCAA":"09"}}},{"type":"Feature","geometry":{"type":"Point","coordinates":[2.8235,42.020111]},"properties":{"id":"es-1583","source":"ES","brand":"PETREM","address":"N-II km 728","municipality":"Sarrià de Ter","province":"GIRONA","postalCode":"17840","schedule":"L-D: 24H","fuels":{"gasoline95":1.539,"gasoline98":1.815,"diesel":1.699,"dieselB":1.599,"dieselRenewable":1.919,"adblue":0.899},"extra":{"saleType":"P","margin":"D","reportingType":"dm","ideess":"1583","idMunicipio":"2624","idProvincia":"17","idCCAA":"09"}}},{"type":"Feature","geometry":{"type":"Point","coordinates":[2.931083,42.320917]},"properties":{"id":"es-15835","source":"ES","brand":"PETREM","address":"POLIGONO SECTOR SUD I-2 RICARDELL, 15","municipality":"Pont de Molins","province":"GIRONA","postalCode":"17706","schedule":"L-D: 24H","fuels":{"gasoline95":1.619,"diesel":1.749,"dieselB":1.599,"adblue":0.899},"extra":{"saleType":"P","margin":"D","reportingType":"dm","ideess":"15835","idMunicipio":"2574","idProvincia":"17","idCCAA":"09"}}},{"type":"Feature","geometry":{"type":"Point","coordinates":[2.890583,42.380333]},"properties":{"id":"es-1584","source":"ES","brand":"SHELL","address":"CARRETERA A-II KM. 770,35","municipality":"Capmany","province":"GIRONA","postalCode":"17750","schedule":"L-D: 06:00-22:00","fuels":{"gasoline95":1.789,"diesel":1.899,"dieselPremium":1.979,"adblue":1.39},"extra":{"saleType":"P","margin":"D","reportingType":"OM","ideess":"1584","idMunicipio":"2489","idProvincia":"17","idCCAA":"09"}}},{"type":"Feature","geometry":{"type":"Point","coordinates":[2.222861,42.096722]},"properties":{"id":"es-1587","source":"ES","brand":"NADA","address":"C-17 km 81.20000","municipality":"Sant Quirze de Besora","province":"BARCELONA","postalCode":"08580","schedule":"L-D: 06:00-22:00","fuels":{"gasoline95":1.609,"gasoline98":1.699,"diesel":1.759,"adblue":0.65},"extra":{"saleType":"P","margin":"D","reportingType":"dm","ideess":"1587","idMunicipio":"1099","idProvincia":"08","idCCAA":"09"}}},{"type":"Feature","geometry":{"type":"Point","coordinates":[2.816111,42.006167]},"properties":{"id":"es-15875","source":"ES","brand":"ESCLATOIL","address":"AVINGUDA DE FRANÇA, 125","municipality":"Sarrià de Ter","province":"GIRONA","postalCode":"17840","schedule":"L-D: 24H","fuels":{"gasoline95":1.599,"diesel":1.749,"dieselPremium":1.799,"adblue":0.529},"extra":{"saleType":"P","margin":"D","reportingType":"dm","ideess":"15875","idMunicipio":"2624","idProvincia":"17","idCCAA":"09"}}},{"type":"Feature","geometry":{"type":"Point","coordinates":[2.87525,42.412]},"properties":{"id":"es-15904","source":"ES","brand":"TRAMUNTANA","address":"AVENIDA 11 DE SETEMBRE, 4","municipality":"Jonquera (La)","province":"GIRONA","postalCode":"17700","schedule":"L-D: 24H","fuels":{"gasoline95":1.699,"diesel":1.839,"adblue":0.99},"extra":{"saleType":"P","margin":"D","reportingType":"dm","ideess":"15904","idMunicipio":"2531","idProvincia":"17","idCCAA":"09"}}},{"type":"Feature","geometry":{"type":"Point","coordinates":[2.878639,42.402972]},"properties":{"id":"es-1594","source":"ES","brand":"ANDAMUR \"LA JONQUERA\"","address":"CARRETERA NACIONAL II KM. 765","municipality":"Jonquera (La)","province":"GIRONA","postalCode":"17700","schedule":"L-D: 24H","fuels":{"diesel":1.888,"dieselB":1.786,"adblue":0.924},"extra":{"saleType":"P","margin":"I","reportingType":"dm","ideess":"1594","idMunicipio":"2531","idProvincia":"17","idCCAA":"09"}}},{"type":"Feature","geometry":{"type":"Point","coordinates":[2.5385,42.204306]},"properties":{"id":"es-1598","source":"ES","brand":"PANAWAY ROAD","address":"CARRETERA N-260 KM. 79,60","municipality":"Sant Joan les Fonts","province":"GIRONA","postalCode":"17857","schedule":"L-D: 24H","fuels":{"gasoline95":1.639,"diesel":1.782,"adblue":0.9},"extra":{"saleType":"P","margin":"I","reportingType":"dm","ideess":"1598","idMunicipio":"2608","idProvincia":"17","idCCAA":"09"}}},{"type":"Feature","geometry":{"type":"Point","coordinates":[2.889167,42.381222]},"properties":{"id":"es-1616","source":"ES","brand":"SHELL","address":"CARRETERA A-II KM. 770,52","municipality":"Capmany","province":"GIRONA","postalCode":"17750","schedule":"L-D: 24H","fuels":{"gasoline95":1.789,"diesel":1.899,"dieselPremium":1.979,"dieselB":1.764,"dieselRenewable":2.079,"adblue":1.39},"extra":{"saleType":"P","margin":"I","reportingType":"OM","ideess":"1616","idMunicipio":"2489","idProvincia":"17","idCCAA":"09"}}},{"type":"Feature","geometry":{"type":"Point","coordinates":[2.993694,42.251583]},"properties":{"id":"es-16162","source":"ES","brand":"SHELL","address":"CARRER CARRER LA PIRETA PARCELA 11, 11","municipality":"Far d'Empordà (El)","province":"GIRONA","postalCode":"17469","schedule":"L-D: 00:00-23:59","fuels":{"gasoline95":1.779,"diesel":1.889,"dieselB":1.754,"dieselRenewable":2.079,"cng":1.624,"lng":1.579,"adblue":1.39},"extra":{"saleType":"P","margin":"N","reportingType":"OM","ideess":"16162","idMunicipio":"2510","idProvincia":"17","idCCAA":"09"}}},{"type":"Feature","geometry":{"type":"Point","coordinates":[2.973167,42.266667]},"properties":{"id":"es-1617","source":"ES","brand":"PETREM","address":"VILALLONGA, 61 (CTRA.260)","municipality":"Figueres","province":"GIRONA","postalCode":"17600","schedule":"L: 24H","fuels":{"gasoline95":1.619,"gasoline98":1.815,"diesel":1.749,"dieselB":1.599,"dieselRenewable":1.919,"adblue":0.899},"extra":{"saleType":"P","margin":"I","reportingType":"dm","ideess":"1617","idMunicipio":"2511","idProvincia":"17","idCCAA":"09"}}},{"type":"Feature","geometry":{"type":"Point","coordinates":[2.967361,42.269833]},"properties":{"id":"es-1618","source":"ES","brand":"PETREM","address":"FINAL CALLE NORTE,S/N","municipality":"Figueres","province":"GIRONA","postalCode":"17600","schedule":"L-D: 24H","fuels":{"gasoline95":1.669,"gasoline98":1.815,"diesel":1.799,"dieselRenewable":1.919,"adblue":0.899},"extra":{"saleType":"P","margin":"I","reportingType":"dm","ideess":"1618","idMunicipio":"2511","idProvincia":"17","idCCAA":"09"}}},{"type":"Feature","geometry":{"type":"Point","coordinates":[2.873667,42.406472]},"properties":{"id":"es-16262","source":"ES","brand":"HAM","address":"AUTOPISTA AP7 KM. 7","municipality":"Jonquera (La)","province":"GIRONA","postalCode":"17700","schedule":"L-D: 24H","fuels":{"cng":1.644,"lng":1.599,"bioCng":1.624,"bioLng":1.569},"extra":{"saleType":"P","margin":"D","reportingType":"dm","ideess":"16262","idMunicipio":"2531","idProvincia":"17","idCCAA":"09"}}},{"type":"Feature","geometry":{"type":"Point","coordinates":[2.242389,42.004194]},"properties":{"id":"es-1628","source":"ES","brand":"GALP","address":"CARRETERA TER KM. S/N","municipality":"Masies de Voltregà (Les)","province":"BARCELONA","postalCode":"08519","schedule":"L-D: 06:00-22:00","fuels":{"gasoline95":1.644,"gasoline98":1.804,"diesel":1.824,"dieselPremium":1.874},"extra":{"saleType":"P","margin":"N","reportingType":"OM","ideess":"1628","idMunicipio":"983","idProvincia":"08","idCCAA":"09"}}},{"type":"Feature","geometry":{"type":"Point","coordinates":[2.876306,42.410333]},"properties":{"id":"es-1636","source":"ES","brand":"GALP","address":"CARRETERA N-II KM. 774","municipality":"Jonquera (La)","province":"GIRONA","postalCode":"17700","schedule":"L-D: 24H","fuels":{"gasoline95":1.749,"diesel":1.859,"dieselPremium":1.949,"dieselB":1.629,"adblue":0.799},"extra":{"saleType":"P","margin":"N","reportingType":"OM","ideess":"1636","idMunicipio":"2531","idProvincia":"17","idCCAA":"09"}}},{"type":"Feature","geometry":{"type":"Point","coordinates":[2.253,42.048694]},"properties":{"id":"es-1638","source":"ES","brand":"GALP","address":"CALLE CALLE DEL TER, 45","municipality":"Torelló","province":"BARCELONA","postalCode":"08570","schedule":"L-V: 05:00-22:00; S-D: 06:00-22:00","fuels":{"gasoline95":1.644,"gasoline98":1.804,"diesel":1.754,"dieselPremium":1.804},"extra":{"saleType":"P","margin":"N","reportingType":"OM","ideess":"1638","idMunicipio":"1145","idProvincia":"08","idCCAA":"09"}}},{"type":"Feature","geometry":{"type":"Point","coordinates":[2.826056,42.013556]},"properties":{"id":"es-16475","source":"ES","brand":"BALLENOIL","address":"CALLE PONT MAJOR, 131","municipality":"Girona","province":"GIRONA","postalCode":"17007","schedule":"L-D: 24H","fuels":{"gasoline95":1.549,"gasoline95Premium":1.559,"diesel":1.699,"dieselPremium":1.709},"extra":{"saleType":"P","margin":"N","reportingType":"OM","ideess":"16475","idMunicipio":"2524","idProvincia":"17","idCCAA":"09"}}},{"type":"Feature","geometry":{"type":"Point","coordinates":[2.899889,42.033722]},"properties":{"id":"es-1649","source":"ES","brand":"Q8","address":"CARRETERA C-66 KM. 27,5","municipality":"Juià","province":"GIRONA","postalCode":"17462","schedule":"L-D: 06:00-22:00","fuels":{"gasoline95":1.739,"gasoline98":1.829,"diesel":1.829,"dieselB":1.419},"extra":{"saleType":"P","margin":"D","reportingType":"dm","ideess":"1649","idMunicipio":"2532","idProvincia":"17","idCCAA":"09"}}},{"type":"Feature","geometry":{"type":"Point","coordinates":[2.993028,42.266889]},"properties":{"id":"es-16505","source":"ES","brand":"TRAMUNTANA FIGUERES","address":"AVENIDA DE ROSES, 74","municipality":"Figueres","province":"GIRONA","postalCode":"17484","schedule":"L-D: 24H","fuels":{"gasoline95":1.619,"gasoline98":1.819,"diesel":1.829,"dieselPremium":1.92,"adblue":0.999},"extra":{"saleType":"P","margin":"D","reportingType":"dm","ideess":"16505","idMunicipio":"2511","idProvincia":"17","idCCAA":"09"}}},{"type":"Feature","geometry":{"type":"Point","coordinates":[2.544889,42.053028]},"properties":{"id":"es-1655","source":"ES","brand":"Q8","address":"CARRETERA CTRA. C-63 KM. KM 54,34","municipality":"Planes d'Hostoles (Les)","province":"GIRONA","postalCode":"17172","schedule":"L-D: 24H","fuels":{"gasoline95":1.719,"gasoline98":1.819,"diesel":1.799},"extra":{"saleType":"P","margin":"N","reportingType":"dm","ideess":"1655","idMunicipio":"2572","idProvincia":"17","idCCAA":"09"}}},{"type":"Feature","geometry":{"type":"Point","coordinates":[2.169111,42.215861]},"properties":{"id":"es-1659","source":"ES","brand":"Q8","address":"POLIGONO POL. IND. CASA NOVA DEL BAIX, 8, ","municipality":"Ripoll","province":"GIRONA","postalCode":"17500","schedule":"L-D: 06:00-22:00","fuels":{"gasoline95":1.799,"gasoline98":1.879,"diesel":1.869},"extra":{"saleType":"P","margin":"N","reportingType":"dm","ideess":"1659","idMunicipio":"2587","idProvincia":"17","idCCAA":"09"}}},{"type":"Feature","geometry":{"type":"Point","coordinates":[2.296472,42.004306]},"properties":{"id":"es-1668","source":"ES","brand":"FEIXAS AULET","address":"CALLE FRANCESC PUGET MONTFORT, 2","municipality":"Manlleu","province":"BARCELONA","postalCode":"08560","schedule":"L-D: 24H","fuels":{"gasoline95":1.539,"gasoline98":1.639,"diesel":1.719,"dieselPremium":1.809,"dieselB":1.399,"adblue":0.729},"extra":{"saleType":"P","margin":"N","reportingType":"dm","ideess":"1668","idMunicipio":"977","idProvincia":"08","idCCAA":"09"}}},{"type":"Feature","geometry":{"type":"Point","coordinates":[2.950972,42.260861]},"properties":{"id":"es-1709","source":"ES","brand":"ESCLATOIL","address":"HIPER ESCLAT. AVDA.PAISOS CATALANS, 2","municipality":"Figueres","province":"GIRONA","postalCode":"17600","schedule":"L-D: 24H","fuels":{"gasoline95":1.629,"diesel":1.799,"adblue":0.529},"extra":{"saleType":"P","margin":"N","reportingType":"dm","ideess":"1709","idMunicipio":"2511","idProvincia":"17","idCCAA":"09"}}},{"type":"Feature","geometry":{"type":"Point","coordinates":[2.774861,42.113444]},"properties":{"id":"es-1710","source":"ES","brand":"CONDIS","address":"PASEO DE LA FARGA, 0","municipality":"Banyoles","province":"GIRONA","postalCode":"17820","schedule":"L-D: 24H","fuels":{"gasoline95":1.539,"diesel":1.679},"extra":{"saleType":"P","margin":"N","reportingType":"dm","ideess":"1710","idMunicipio":"2461","idProvincia":"17","idCCAA":"09"}}},{"type":"Feature","geometry":{"type":"Point","coordinates":[2.88675,42.030917]},"properties":{"id":"es-1713","source":"ES","brand":"SHELL","address":"CARRETERA DE PALAMÒS C255 KM. 5","municipality":"Celrà","province":"GIRONA","postalCode":"17460","schedule":"L-V: 09:00-13:00 y 15:00-18:00","fuels":{"gasoline95":1.709,"diesel":1.789},"extra":{"saleType":"P","margin":"N","reportingType":"OM","ideess":"1713","idMunicipio":"2495","idProvincia":"17","idCCAA":"09"}}},{"type":"Feature","geometry":{"type":"Point","coordinates":[2.82375,42.221]},"properties":{"id":"es-1726","source":"ES","brand":"CEPSA","address":"CARRETERA N-260 KM. 50","municipality":"Cabanelles","province":"GIRONA","postalCode":"17746","schedule":"L-D: 06:00-22:00","fuels":{"gasoline95":1.839,"gasoline98":1.979,"diesel":1.949,"dieselPremium":2.049},"extra":{"saleType":"P","margin":"N","reportingType":"dm","ideess":"1726","idMunicipio":"2477","idProvincia":"17","idCCAA":"09"}}},{"type":"Feature","geometry":{"type":"Point","coordinates":[2.465361,42.155417]},"properties":{"id":"es-1765","source":"ES","brand":"Q8","address":"CARRETERA CRTA.N 152 ESQ.ST.MIQUEL CORB KM. ","municipality":"Preses (Les)","province":"GIRONA","postalCode":"17178","schedule":"L-D: 24H","fuels":{"gasoline95":1.639,"gasoline98":1.809,"diesel":1.769,"dieselPremium":1.839},"extra":{"saleType":"P","margin":"N","reportingType":"dm","ideess":"1765","idMunicipio":"2579","idProvincia":"17","idCCAA":"09"}}},{"type":"Feature","geometry":{"type":"Point","coordinates":[2.745139,42.165083]},"properties":{"id":"es-1795","source":"ES","brand":"REPSOL","address":"CARRETERA C-66 KM. 24","municipality":"Serinyà","province":"GIRONA","postalCode":"17852","schedule":"L-D: 06:00-22:00","fuels":{"gasoline95":1.819,"gasoline98":1.959,"diesel":1.919,"dieselPremium":2.029,"adblue":0.99},"extra":{"saleType":"P","margin":"D","reportingType":"dm","ideess":"1795","idMunicipio":"2627","idProvincia":"17","idCCAA":"09"}}},{"type":"Feature","geometry":{"type":"Point","coordinates":[2.273222,42.061472]},"properties":{"id":"es-1814","source":"ES","brand":"PETROVOLTREGÀ","address":"AVINGUDA DEL CASTELL, 4","municipality":"Sant Vicenç de Torelló","province":"BARCELONA","postalCode":"08571","schedule":"L-D: 24H","fuels":{"gasoline95":1.529,"diesel":1.699},"extra":{"saleType":"P","margin":"D","reportingType":"dm","ideess":"1814","idMunicipio":"1107","idProvincia":"08","idCCAA":"09"}}},{"type":"Feature","geometry":{"type":"Point","coordinates":[2.865167,42.025389]},"properties":{"id":"es-1818","source":"ES","brand":"REPSOL","address":"CR C-66, 30,5","municipality":"Celrà","province":"GIRONA","postalCode":"17460","schedule":"L-D: 06:00-22:00","fuels":{"gasoline95":1.835,"gasoline98":1.955,"diesel":1.949,"dieselPremium":2.009,"lpg":1.189},"extra":{"saleType":"P","margin":"I","reportingType":"OM","ideess":"1818","idMunicipio":"2495","idProvincia":"17","idCCAA":"09"}}},{"type":"Feature","geometry":{"type":"Point","coordinates":[2.98175,42.266611]},"properties":{"id":"es-1824","source":"ES","brand":"REPSOL","address":"CARRETERA C-260 KM. 27,5","municipality":"Figueres","province":"GIRONA","postalCode":"17600","schedule":"L-D: 06:00-22:00","fuels":{"gasoline95":1.815,"gasoline98":1.935,"diesel":1.919,"dieselPremium":1.979,"lpg":1.195},"extra":{"saleType":"P","margin":"D","reportingType":"OM","ideess":"1824","idMunicipio":"2511","idProvincia":"17","idCCAA":"09"}}},{"type":"Feature","geometry":{"type":"Point","coordinates":[2.947806,42.215194]},"properties":{"id":"es-1836","source":"ES","brand":"AOIL","address":"CARRETERA CTRA N II KM. 747","municipality":"Borrassà","province":"GIRONA","postalCode":"17770","schedule":"L: 24H","fuels":{"gasoline95":1.609,"diesel":1.729,"dieselB":1.299,"adblue":0.79},"extra":{"saleType":"P","margin":"I","reportingType":"dm","ideess":"1836","idMunicipio":"2474","idProvincia":"17","idCCAA":"09"}}},{"type":"Feature","geometry":{"type":"Point","coordinates":[2.872,42.417083]},"properties":{"id":"es-1850","source":"ES","brand":"GALP","address":"CARRETERA N-II KM. 774,800","municipality":"Jonquera (La)","province":"GIRONA","postalCode":"17700","schedule":"L-D: 06:00-22:00","fuels":{"gasoline95":1.749,"gasoline98":1.859,"diesel":1.859,"dieselPremium":1.949,"adblue":0.799},"extra":{"saleType":"P","margin":"D","reportingType":"OM","ideess":"1850","idMunicipio":"2531","idProvincia":"17","idCCAA":"09"}}},{"type":"Feature","geometry":{"type":"Point","coordinates":[2.9405,42.299833]},"properties":{"id":"es-2009","source":"ES","brand":"PETROMIRALLES","address":"CARRETERA N-II KM. 760","municipality":"Llers","province":"GIRONA","postalCode":"17730","schedule":"L-D: 24H","fuels":{"gasoline95":1.789,"diesel":1.909,"dieselB":1.659,"adblue":0.789},"extra":{"saleType":"P","margin":"N","reportingType":"dm","ideess":"2009","idMunicipio":"2538","idProvincia":"17","idCCAA":"09"}}},{"type":"Feature","geometry":{"type":"Point","coordinates":[2.817361,42.009639]},"properties":{"id":"es-2047","source":"ES","brand":"SYM SARRIA","address":"N-II km 719,4","municipality":"Sarrià de Ter","province":"GIRONA","postalCode":"17840","schedule":"L-D: 24H","fuels":{"gasoline95":1.619,"gasoline98":1.809,"diesel":1.729,"dieselPremium":1.739},"extra":{"saleType":"P","margin":"D","reportingType":"dm","ideess":"2047","idMunicipio":"2624","idProvincia":"17","idCCAA":"09"}}},{"type":"Feature","geometry":{"type":"Point","coordinates":[2.591833,42.022694]},"properties":{"id":"es-2069","source":"ES","brand":"REPSOL","address":"CARRETERA C-63 KM. 48,61","municipality":"Amer","province":"GIRONA","postalCode":"17170","schedule":"L-V: 06:00-22:00; S: 07:00-22:00; D: 08:00-14:30","fuels":{"gasoline95":1.819,"gasoline98":1.989,"diesel":1.929,"dieselPremium":1.999,"dieselB":1.709},"extra":{"saleType":"P","margin":"D","reportingType":"dm","ideess":"2069","idMunicipio":"2455","idProvincia":"17","idCCAA":"09"}}},{"type":"Feature","geometry":{"type":"Point","coordinates":[2.19075,42.197083]},"properties":{"id":"es-2070","source":"ES","brand":"REPSOL","address":"PASSEIG REGULL, 12","municipality":"Ripoll","province":"GIRONA","postalCode":"17500","schedule":"L-D: 24H","fuels":{"gasoline95":1.849,"gasoline98":1.969,"diesel":1.949,"dieselPremium":2.059},"extra":{"saleType":"P","margin":"D","reportingType":"OM","ideess":"2070","idMunicipio":"2587","idProvincia":"17","idCCAA":"09"}}},{"type":"Feature","geometry":{"type":"Point","coordinates":[2.751833,42.385833]},"properties":{"id":"es-2089","source":"ES","brand":"PETROCAT","address":"CAMI DE LES ROVIRES, S/N","municipality":"Maçanet de Cabrenys","province":"GIRONA","postalCode":"17720","schedule":"L-D: 24H","fuels":{"gasoline95":1.815,"gasoline98":1.935,"diesel":1.919},"extra":{"saleType":"P","margin":"D","reportingType":"OM","ideess":"2089","idMunicipio":"2542","idProvincia":"17","idCCAA":"09"}}},{"type":"Feature","geometry":{"type":"Point","coordinates":[2.950056,42.260889]},"properties":{"id":"es-2232","source":"ES","brand":"PETRONOR","address":"CARRETERA OLOT KM. 38,5","municipality":"Figueres","province":"GIRONA","postalCode":"17600","schedule":"L-D: 06:00-22:00","fuels":{"gasoline95":1.805,"gasoline98":1.925,"diesel":1.899,"dieselB":1.699,"dieselRenewable":2.029,"adblue":0.92},"extra":{"saleType":"P","margin":"D","reportingType":"dm","ideess":"2232","idMunicipio":"2511","idProvincia":"17","idCCAA":"09"}}},{"type":"Feature","geometry":{"type":"Point","coordinates":[2.976639,42.261222]},"properties":{"id":"es-2264","source":"ES","brand":"GALP","address":"CAMINO SECTOR \"RECINTO FERIAL\",CNO CEMENTERIO, S/N","municipality":"Figueres","province":"GIRONA","postalCode":"17600","schedule":"L-D: 06:00-22:30","fuels":{"gasoline95":1.678,"gasoline98":1.808,"diesel":1.798,"dieselPremium":1.928,"adblue":0.848},"extra":{"saleType":"P","margin":"N","reportingType":"dm","ideess":"2264","idMunicipio":"2511","idProvincia":"17","idCCAA":"09"}}},{"type":"Feature","geometry":{"type":"Point","coordinates":[2.491861,42.176083]},"properties":{"id":"es-2266","source":"ES","brand":"BP VULCANO","address":"CARRETERA SANTA PAU KM. 0,523","municipality":"Olot","province":"GIRONA","postalCode":"17800","schedule":"L-D: 06:00-22:00","fuels":{"gasoline95":1.829,"gasoline98":1.969,"diesel":1.929,"dieselPremium":2.019},"extra":{"saleType":"P","margin":"N","reportingType":"OM","ideess":"2266","idMunicipio":"2556","idProvincia":"17","idCCAA":"09"}}},{"type":"Feature","geometry":{"type":"Point","coordinates":[2.475611,42.189417]},"properties":{"id":"es-2267","source":"ES","brand":"PETROPRIX","address":"CALLE DOCTOR BARTRINA, 10","municipality":"Olot","province":"GIRONA","postalCode":"17800","schedule":"L-D: 24H","fuels":{"gasoline95":1.559,"diesel":1.719},"extra":{"saleType":"P","margin":"D","reportingType":"dm","ideess":"2267","idMunicipio":"2556","idProvincia":"17","idCCAA":"09"}}},{"type":"Feature","geometry":{"type":"Point","coordinates":[2.8695,42.424444]},"properties":{"id":"es-2269","source":"ES","brand":"BP","address":"CARRETERA N2 KM. 0","municipality":"Jonquera (La)","province":"GIRONA","postalCode":"17700","schedule":"L-D: 24H","fuels":{"gasoline95":1.779,"gasoline98":1.899,"diesel":1.917,"dieselPremium":1.997,"adblue":0.899},"extra":{"saleType":"P","margin":"D","reportingType":"dm","ideess":"2269","idMunicipio":"2531","idProvincia":"17","idCCAA":"09"}}},{"type":"Feature","geometry":{"type":"Point","coordinates":[2.482639,42.192861]},"properties":{"id":"es-2270","source":"ES","brand":"PETROLIS","address":"AVENIDA EUROPA - PARCELA, 7","municipality":"Olot","province":"GIRONA","postalCode":"17800","schedule":"L-D: 06:00-22:00","fuels":{"gasoline95":1.829,"gasoline98":1.949,"diesel":1.935,"dieselPremium":2.045},"extra":{"saleType":"P","margin":"D","reportingType":"OM","ideess":"2270","idMunicipio":"2556","idProvincia":"17","idCCAA":"09"}}},{"type":"Feature","geometry":{"type":"Point","coordinates":[2.866278,42.428333]},"properties":{"id":"es-2271","source":"ES","brand":"GALP","address":"ZONA COMERCIAL SECTOR DUANA, S/N","municipality":"Jonquera (La)","province":"GIRONA","postalCode":"17700","schedule":"L-D: 24H","fuels":{"gasoline95":1.694,"diesel":1.839},"extra":{"saleType":"P","margin":"N","reportingType":"OM","ideess":"2271","idMunicipio":"2531","idProvincia":"17","idCCAA":"09"}}},{"type":"Feature","geometry":{"type":"Point","coordinates":[2.968667,42.255889]},"properties":{"id":"es-2288","source":"ES","brand":"REPSOL","address":"CR N-2 A ,P.K.4,5","municipality":"Figueres","province":"GIRONA","postalCode":"17600","schedule":"L-D: 24H","fuels":{"gasoline95":1.815,"gasoline98":1.935,"diesel":1.919,"dieselPremium":1.989},"extra":{"saleType":"P","margin":"D","reportingType":"OM","ideess":"2288","idMunicipio":"2511","idProvincia":"17","idCCAA":"09"}}},{"type":"Feature","geometry":{"type":"Point","coordinates":[2.874361,42.405722]},"properties":{"id":"es-2291","source":"ES","brand":"GALP","address":"AUTOPISTA AP 7 KM 7 KM. 7","municipality":"Jonquera (La)","province":"GIRONA","postalCode":"17700","schedule":"L-D: 24H","fuels":{"gasoline95":1.789,"gasoline98":1.919,"diesel":1.899,"dieselPremium":1.989,"dieselRenewable":1.989,"adblue":0.799},"extra":{"saleType":"P","margin":"I","reportingType":"OM","ideess":"2291","idMunicipio":"2531","idProvincia":"17","idCCAA":"09"}}},{"type":"Feature","geometry":{"type":"Point","coordinates":[2.763417,42.123361]},"properties":{"id":"es-2311","source":"ES","brand":"REPSOL","address":"CL ALFONSO XII, 161","municipality":"Banyoles","province":"GIRONA","postalCode":"17820","schedule":"L-D: 06:00-22:00","fuels":{"gasoline95":1.815,"gasoline95Premium":1.885,"gasoline98":1.935,"diesel":1.925,"dieselPremium":1.985,"lpg":1.195},"extra":{"saleType":"P","margin":"I","reportingType":"OM","ideess":"2311","idMunicipio":"2461","idProvincia":"17","idCCAA":"09"}}},{"type":"Feature","geometry":{"type":"Point","coordinates":[2.504278,42.189556]},"properties":{"id":"es-2316","source":"ES","brand":"REPSOL","address":"CALLE LES TRIES, 70","municipality":"Olot","province":"GIRONA","postalCode":"17800","schedule":"L-D: 06:00-22:00","fuels":{"gasoline95":1.825,"gasoline98":1.945,"diesel":1.945,"dieselPremium":2.055,"dieselB":1.74},"extra":{"saleType":"P","margin":"D","reportingType":"OM","ideess":"2316","idMunicipio":"2556","idProvincia":"17","idCCAA":"09"}}},{"type":"Feature","geometry":{"type":"Point","coordinates":[2.951028,42.279278]},"properties":{"id":"es-2330","source":"ES","brand":"REPSOL","address":"CARRETERA C-260 KM. 28,7","municipality":"Figueres","province":"GIRONA","postalCode":"17600","schedule":"L-S: 06:00-22:00","fuels":{"gasoline95":1.815,"gasoline98":1.935,"diesel":1.919,"dieselPremium":1.979},"extra":{"saleType":"P","margin":"I","reportingType":"OM","ideess":"2330","idMunicipio":"2511","idProvincia":"17","idCCAA":"09"}}},{"type":"Feature","geometry":{"type":"Point","coordinates":[2.87225,42.405278]},"properties":{"id":"es-2332","source":"ES","brand":"REPSOL","address":"AUTOPISTA AP-7 KM. 7","municipality":"Jonquera (La)","province":"GIRONA","postalCode":"17700","schedule":"L-D: 24H","fuels":{"gasoline95":1.799,"gasoline98":1.919,"diesel":1.919,"dieselRenewable":2.039,"lpg":1.165},"extra":{"saleType":"P","margin":"D","reportingType":"OM","ideess":"2332","idMunicipio":"2531","idProvincia":"17","idCCAA":"09"}}},{"type":"Feature","geometry":{"type":"Point","coordinates":[2.930083,42.173417]},"properties":{"id":"es-2341","source":"ES","brand":"REPSOL","address":"AUTOPISTA AP-7 KM. 35","municipality":"Garrigàs","province":"GIRONA","postalCode":"17476","schedule":"L-D: 24H","fuels":{"gasoline95":1.825,"gasoline98":1.945,"diesel":1.949,"dieselB":1.754,"dieselRenewable":2.069,"lpg":1.165},"extra":{"saleType":"P","margin":"D","reportingType":"OM","ideess":"2341","idMunicipio":"2520","idProvincia":"17","idCCAA":"09"}}},{"type":"Feature","geometry":{"type":"Point","coordinates":[2.290778,42.234417]},"properties":{"id":"es-2492","source":"ES","brand":"REPSOL","address":"CARRETERA C-151 KM. 10,6","municipality":"Sant Joan de les Abadesses","province":"GIRONA","postalCode":"17860","schedule":"L-D: 06:00-22:00","fuels":{"gasoline95":1.849,"gasoline98":1.969,"diesel":1.965},"extra":{"saleType":"P","margin":"I","reportingType":"OM","ideess":"2492","idMunicipio":"2606","idProvincia":"17","idCCAA":"09"}}},{"type":"Feature","geometry":{"type":"Point","coordinates":[2.951806,42.279583]},"properties":{"id":"es-2511","source":"ES","brand":"REPSOL","address":"AVINGUDA SALVADOR DALI DOMENECH, 172","municipality":"Figueres","province":"GIRONA","postalCode":"17600","schedule":"L-V: 06:00-22:00","fuels":{"gasoline95":1.815,"gasoline98":1.935,"diesel":1.919,"dieselPremium":1.989,"dieselB":1.754},"extra":{"saleType":"P","margin":"D","reportingType":"OM","ideess":"2511","idMunicipio":"2511","idProvincia":"17","idCCAA":"09"}}},{"type":"Feature","geometry":{"type":"Point","coordinates":[2.951389,42.27925]},"properties":{"id":"es-2512","source":"ES","brand":"REPSOL","address":"AVINGUDA SALVADOR DALI DOMENECH, 147","municipality":"Figueres","province":"GIRONA","postalCode":"17600","schedule":"L-D: 06:00-22:00","fuels":{"gasoline95":1.815,"gasoline98":1.935,"diesel":1.919,"dieselPremium":1.989,"dieselB":1.754},"extra":{"saleType":"P","margin":"I","reportingType":"OM","ideess":"2512","idMunicipio":"2511","idProvincia":"17","idCCAA":"09"}}},{"type":"Feature","geometry":{"type":"Point","coordinates":[2.359167,42.304222]},"properties":{"id":"es-2519","source":"ES","brand":"REPSOL","address":"CARRETERA C-151 KM. 23","municipality":"Camprodon","province":"GIRONA","postalCode":"17867","schedule":"L-D: 06:00-22:00","fuels":{"gasoline95":1.855,"gasoline98":1.975,"diesel":1.965},"extra":{"saleType":"P","margin":"I","reportingType":"OM","ideess":"2519","idMunicipio":"2486","idProvincia":"17","idCCAA":"09"}}},{"type":"Feature","geometry":{"type":"Point","coordinates":[2.691889,42.202083]},"properties":{"id":"es-2532","source":"ES","brand":"REPSOL","address":"CARRETERA N-260 KM. 63","municipality":"Besalú","province":"GIRONA","postalCode":"17850","schedule":"L-S: 07:00-21:00; D: 07:00-14:00 y 17:00-21:00","fuels":{"gasoline95":1.819,"gasoline98":1.959,"diesel":1.919,"dieselRenewable":2.029},"extra":{"saleType":"P","margin":"I","reportingType":"dm","ideess":"2532","idMunicipio":"2465","idProvincia":"17","idCCAA":"09"}}},{"type":"Feature","geometry":{"type":"Point","coordinates":[2.478556,42.171889]},"properties":{"id":"es-2559","source":"ES","brand":"REPSOL","address":"CL CRTA. STA. COLOMA S.N.","municipality":"Olot","province":"GIRONA","postalCode":"17800","schedule":"L-D: 06:00-22:00","fuels":{"gasoline95":1.855,"gasoline98":1.975,"diesel":1.939,"dieselPremium":2.049,"lpg":1.195},"extra":{"saleType":"P","margin":"D","reportingType":"OM","ideess":"2559","idMunicipio":"2556","idProvincia":"17","idCCAA":"09"}}},{"type":"Feature","geometry":{"type":"Point","coordinates":[2.983472,42.025278]},"properties":{"id":"es-2759","source":"ES","brand":"REPSOL","address":"CARRETERA C-66 KM. 18,800","municipality":"Pera (La)","province":"GIRONA","postalCode":"17120","schedule":"L-D: 07:00-20:00","fuels":{"gasoline95":1.829,"gasoline98":1.949,"diesel":1.939,"dieselPremium":2.019},"extra":{"saleType":"P","margin":"D","reportingType":"OM","ideess":"2759","idMunicipio":"2570","idProvincia":"17","idCCAA":"09"}}},{"type":"Feature","geometry":{"type":"Point","coordinates":[2.888639,42.086583]},"properties":{"id":"es-2768","source":"ES","brand":"REPSOL","address":"CARRETERA N-2 KM. 731","municipality":"Vilademuls","province":"GIRONA","postalCode":"17468","schedule":"L-D: 06:00-22:00","fuels":{"gasoline95":1.815,"gasoline98":1.985,"diesel":1.919,"dieselPremium":1.979},"extra":{"saleType":"P","margin":"I","reportingType":"OM","ideess":"2768","idMunicipio":"2658","idProvincia":"17","idCCAA":"09"}}},{"type":"Feature","geometry":{"type":"Point","coordinates":[2.160667,42.286806]},"properties":{"id":"es-2772","source":"ES","brand":"REPSOL","address":"CARRETERA N-152 KM. 118","municipality":"Campelles","province":"GIRONA","postalCode":"17534","schedule":"L-D: 06:00-22:00","fuels":{"gasoline95":1.855,"diesel":1.949,"dieselRenewable":2.069},"extra":{"saleType":"P","margin":"D","reportingType":"OM","ideess":"2772","idMunicipio":"2484","idProvincia":"17","idCCAA":"09"}}},{"type":"Feature","geometry":{"type":"Point","coordinates":[2.8805,42.399056]},"properties":{"id":"es-2816","source":"ES","brand":"REPSOL","address":"CR N-2, 772,5","municipality":"Jonquera (La)","province":"GIRONA","postalCode":"17700","schedule":"L-D: 24H","fuels":{"gasoline95":1.799,"gasoline98":1.919,"diesel":1.919,"dieselB":1.76,"dieselRenewable":2.039},"extra":{"saleType":"P","margin":"I","reportingType":"OM","ideess":"2816","idMunicipio":"2531","idProvincia":"17","idCCAA":"09"}}},{"type":"Feature","geometry":{"type":"Point","coordinates":[2.882667,42.398417]},"properties":{"id":"es-2831","source":"ES","brand":"REPSOL","address":"CARRETERA N-2 KM. 772,5","municipality":"Jonquera (La)","province":"GIRONA","postalCode":"17700","schedule":"L-D: 24H","fuels":{"gasoline95":1.799,"gasoline98":1.919,"diesel":1.919,"dieselB":1.744,"dieselRenewable":2.039,"lpg":1.165},"extra":{"saleType":"P","margin":"D","reportingType":"OM","ideess":"2831","idMunicipio":"2531","idProvincia":"17","idCCAA":"09"}}},{"type":"Feature","geometry":{"type":"Point","coordinates":[2.866833,42.427056]},"properties":{"id":"es-2851","source":"ES","brand":"MOEVE","address":"CARRETERA UNIDIRECCIONAL - UNE ADUANA DE LA JUNQUERA (N-II) KM. 783","municipality":"Jonquera (La)","province":"GIRONA","postalCode":"17700","schedule":"L-D: 24H","fuels":{"diesel":1.944,"dieselB":1.774,"dieselRenewable":2.084},"extra":{"saleType":"P","margin":"I","reportingType":"OM","ideess":"2851","idMunicipio":"2531","idProvincia":"17","idCCAA":"09"}}},{"type":"Feature","geometry":{"type":"Point","coordinates":[2.922361,42.126444]},"properties":{"id":"es-3001","source":"ES","brand":"MLC","address":"CARRETERA GI-623 KM. 1,8","municipality":"Bàscara","province":"GIRONA","postalCode":"17483","schedule":"L-D: 24H","fuels":{"gasoline95":1.849,"diesel":1.949,"dieselB":1.659,"adblue":0.899},"extra":{"saleType":"P","margin":"I","reportingType":"dm","ideess":"3001","idMunicipio":"2462","idProvincia":"17","idCCAA":"09"}}},{"type":"Feature","geometry":{"type":"Point","coordinates":[2.880528,42.397861]},"properties":{"id":"es-3016","source":"ES","brand":"GALP","address":"CARRETERA N-2 KM. 772,500","municipality":"Jonquera (La)","province":"GIRONA","postalCode":"17700","schedule":"L-D: 24H","fuels":{"gasoline95":1.749,"gasoline98":1.859,"diesel":1.869,"dieselPremium":1.959,"adblue":0.799},"extra":{"saleType":"P","margin":"N","reportingType":"OM","ideess":"3016","idMunicipio":"2531","idProvincia":"17","idCCAA":"09"}}},{"type":"Feature","geometry":{"type":"Point","coordinates":[2.931806,42.173833]},"properties":{"id":"es-3034","source":"ES","brand":"CEPSA","address":"AUTOPISTA AP-7 (MRG.IZDO.) KM. 35","municipality":"Garrigàs","province":"GIRONA","postalCode":"17476","schedule":"L-D: 24H","fuels":{"gasoline95":1.834,"gasoline98":1.954,"diesel":1.964,"dieselPremium":2.024},"extra":{"saleType":"P","margin":"I","reportingType":"OM","ideess":"3034","idMunicipio":"2520","idProvincia":"17","idCCAA":"09"}}},{"type":"Feature","geometry":{"type":"Point","coordinates":[2.823472,42.020139]},"properties":{"id":"es-8237","source":"ES","brand":"PETREM","address":"N-II km 728","municipality":"Sarrià de Ter","province":"GIRONA","postalCode":"17840","schedule":"L-D: 24H","fuels":{"gasoline95":1.539,"gasoline98":1.815,"diesel":1.699,"dieselRenewable":1.919,"adblue":0.899},"extra":{"saleType":"P","margin":"I","reportingType":"dm","ideess":"8237","idMunicipio":"2624","idProvincia":"17","idCCAA":"09"}}},{"type":"Feature","geometry":{"type":"Point","coordinates":[2.819472,42.048111]},"properties":{"id":"es-8253","source":"ES","brand":"REPSOL","address":"CARRETERA C-66 KM. 36","municipality":"Palol de Revardit","province":"GIRONA","postalCode":"17843","schedule":"L-D: 06:00-22:00","fuels":{"gasoline95":1.825,"gasoline98":1.945,"diesel":1.945,"dieselPremium":2.005},"extra":{"saleType":"P","margin":"D","reportingType":"OM","ideess":"8253","idMunicipio":"2564","idProvincia":"17","idCCAA":"09"}}},{"type":"Feature","geometry":{"type":"Point","coordinates":[2.489222,42.192667]},"properties":{"id":"es-8790","source":"ES","brand":"GECKOIL","address":"AVENIDA FRANÇA, 30","municipality":"Olot","province":"GIRONA","postalCode":"17800","schedule":"L-D: 24H","fuels":{"gasoline95":1.698,"diesel":1.798},"extra":{"saleType":"P","margin":"D","reportingType":"dm","ideess":"8790","idMunicipio":"2556","idProvincia":"17","idCCAA":"09"}}},{"type":"Feature","geometry":{"type":"Point","coordinates":[2.9835,42.131111]},"properties":{"id":"es-9067","source":"ES","brand":"EMPÚRIES OILS SAUS","address":"CARRETERA ORRIOLS A L'ESCALA KM. 7","municipality":"Saus","province":"GIRONA","postalCode":"17467","schedule":"L-D: 07:30-21:30","fuels":{"gasoline95":1.848,"gasoline98":1.957,"diesel":1.919,"dieselPremium":1.997},"extra":{"saleType":"P","margin":"I","reportingType":"dm","ideess":"9067","idMunicipio":"2625","idProvincia":"17","idCCAA":"09"}}},{"type":"Feature","geometry":{"type":"Point","coordinates":[2.290806,42.070389]},"properties":{"id":"es-9166","source":"ES","brand":"SHELL","address":"AVINGUDA JOAN MARAGALL, S/N","municipality":"Sant Pere de Torelló","province":"BARCELONA","postalCode":"08572","schedule":"L-D: 24H","fuels":{"gasoline95":1.649,"gasoline98":1.829,"diesel":1.799,"dieselPremium":1.939,"adblue":0.699},"extra":{"saleType":"P","margin":"D","reportingType":"dm","ideess":"9166","idMunicipio":"1094","idProvincia":"08","idCCAA":"09"}}},{"type":"Feature","geometry":{"type":"Point","coordinates":[2.95875,42.070694]},"properties":{"id":"es-9207","source":"ES","brand":"ENCO SANT JORDI","address":"AV.GENERALITAT.25","municipality":"Sant Jordi Desvalls","province":"GIRONA","postalCode":"17464","schedule":"L-S: 07:00-21:00; D: 09:00-14:00","fuels":{"gasoline95":1.588,"gasoline98":1.699,"diesel":1.738,"dieselPremium":1.834,"dieselB":1.44},"extra":{"saleType":"P","margin":"N","reportingType":"dm","ideess":"9207","idMunicipio":"2609","idProvincia":"17","idCCAA":"09"}}},{"type":"Feature","geometry":{"type":"Point","coordinates":[2.885583,42.399528]},"properties":{"id":"es-9212","source":"ES","brand":"DYNEFF","address":"AVINGUDA EUSKADI, 11","municipality":"Jonquera (La)","province":"GIRONA","postalCode":"17700","schedule":"L-D: 24H","fuels":{"diesel":1.895,"dieselRenewable":2.41,"adblue":0.859},"extra":{"saleType":"P","margin":"N","reportingType":"dm","ideess":"9212","idMunicipio":"2531","idProvincia":"17","idCCAA":"09"}}},{"type":"Feature","geometry":{"type":"Point","coordinates":[2.919917,42.337167]},"properties":{"id":"es-9248","source":"ES","brand":"BP","address":"CARRETERA N-2 KM. 764,800","municipality":"Biure","province":"GIRONA","postalCode":"17723","schedule":"L-D: 06:00-22:00","fuels":{"gasoline95":1.759,"gasoline98":1.879,"diesel":1.877,"dieselPremium":1.967,"adblue":0.899},"extra":{"saleType":"P","margin":"D","reportingType":"dm","ideess":"9248","idMunicipio":"2469","idProvincia":"17","idCCAA":"09"}}},{"type":"Feature","geometry":{"type":"Point","coordinates":[2.959417,42.231]},"properties":{"id":"es-9360","source":"ES","brand":"AVANZA","address":"CALLE PONENT, 10","municipality":"Vilamalla","province":"GIRONA","postalCode":"17469","schedule":"L-D: 24H","fuels":{"gasoline95":1.619,"diesel":1.749,"adblue":0.899},"extra":{"saleType":"P","margin":"D","reportingType":"dm","ideess":"9360","idMunicipio":"2664","idProvincia":"17","idCCAA":"09"}}},{"type":"Feature","geometry":{"type":"Point","coordinates":[2.811722,42.063833]},"properties":{"id":"es-9554","source":"ES","brand":"PETROESTANY","address":"CTRA. C-66 km 38","municipality":"Palol de Revardit","province":"GIRONA","postalCode":"17843","schedule":"L-D: 24H","fuels":{"gasoline95":1.699,"gasoline98":1.869,"diesel":1.769,"dieselPremium":1.849,"adblue":1.0},"extra":{"saleType":"P","margin":"I","reportingType":"dm","ideess":"9554","idMunicipio":"2564","idProvincia":"17","idCCAA":"09"}}},{"type":"Feature","geometry":{"type":"Point","coordinates":[2.777944,42.108583]},"properties":{"id":"es-9638","source":"ES","brand":"POSTE DE MATA","address":"CRTA. C-150 km 16,630","municipality":"Banyoles","province":"GIRONA","postalCode":"17820","schedule":"L-D: 24H","fuels":{"gasoline95":1.759,"gasoline98":1.889,"diesel":1.899,"dieselPremium":1.929,"dieselB":1.519,"adblue":1.169},"extra":{"saleType":"P","margin":"I","reportingType":"dm","ideess":"9638","idMunicipio":"2461","idProvincia":"17","idCCAA":"09"}}},{"type":"Feature","geometry":{"type":"Point","coordinates":[2.7785,42.109083]},"properties":{"id":"es-9818","source":"ES","brand":"POSTE DE MATA","address":"CRTA. C-150 km 16,700","municipality":"Banyoles","province":"GIRONA","postalCode":"17820","schedule":"L-D: 24H","fuels":{"gasoline95":1.579,"gasoline98":1.839,"diesel":1.749,"dieselPremium":1.879},"extra":{"saleType":"P","margin":"D","reportingType":"dm","ideess":"9818","idMunicipio":"2461","idProvincia":"17","idCCAA":"09"}}}]}