{"type":"FeatureCollection","features":[{"type":"Feature","geometry":{"type":"Point","coordinates":[-5.329472,42.360083]},"properties":{"id":"es-10041","source":"ES","brand":"PETRONOR","address":"AVENIDA LEON 1","municipality":"Santa Cristina de Valmadrigal","province":"LEÓN","postalCode":"24290","schedule":"L-S: 07:00-22:00; D: 09:00-22:00","fuels":{"gasoline95":1.845,"gasoline98":2.005,"diesel":1.855,"dieselPremium":1.955},"extra":{"saleType":"P","margin":"D","reportingType":"OM","ideess":"10041","idMunicipio":"3731","idProvincia":"24","idCCAA":"08"}}},{"type":"Feature","geometry":{"type":"Point","coordinates":[-5.137889,42.761139]},"properties":{"id":"es-10062","source":"ES","brand":"FAST FUEL","address":"PEDRO FERNANDEZ VALLADARES S/N","municipality":"Cistierna","province":"LEÓN","postalCode":"24950","schedule":"L-D: 00:00-00:01","fuels":{"gasoline95":1.749,"diesel":1.769,"adblue":0.899},"extra":{"saleType":"P","margin":"I","reportingType":"dm","ideess":"10062","idMunicipio":"3645","idProvincia":"24","idCCAA":"08"}}},{"type":"Feature","geometry":{"type":"Point","coordinates":[-5.205583,42.091944]},"properties":{"id":"es-10379","source":"ES","brand":"AGROPAL","address":"CTRA DE  RIOSECO , KM258","municipality":"Becilla de Valderaduey","province":"VALLADOLID","postalCode":"47670","schedule":"L-D: 24H","fuels":{"diesel":1.757},"extra":{"saleType":"P","margin":"D","reportingType":"dm","ideess":"10379","idMunicipio":"7246","idProvincia":"47","idCCAA":"08"}}},{"type":"Feature","geometry":{"type":"Point","coordinates":[-5.604056,42.607694]},"properties":{"id":"es-10607","source":"ES","brand":"PASO HONROSO","address":"AZORIN S/N","municipality":"San Andrés del Rabanedo","province":"LEÓN","postalCode":"24191","schedule":"L-V: 07:00-23:00; S-D: 08:00-00:00","fuels":{"gasoline95":1.789,"gasoline98":1.909,"diesel":1.799,"dieselPremium":1.849},"extra":{"saleType":"P","margin":"D","reportingType":"dm","ideess":"10607","idMunicipio":"3721","idProvincia":"24","idCCAA":"08"}}},{"type":"Feature","geometry":{"type":"Point","coordinates":[-5.886778,42.428889]},"properties":{"id":"es-10922","source":"ES","brand":"AGROCANTABRIA LAR","address":"DELICIAS 3","municipality":"Villarejo de Órbigo","province":"LEÓN","postalCode":"24350","schedule":"L-D: 24H","fuels":{"gasoline95":1.699,"diesel":1.759},"extra":{"saleType":"P","margin":"D","reportingType":"dm","ideess":"10922","idMunicipio":"3796","idProvincia":"24","idCCAA":"08"}}},{"type":"Feature","geometry":{"type":"Point","coordinates":[-5.324444,42.859028]},"properties":{"id":"es-11012","source":"ES","brand":"REPSOL","address":"AVENIDA MADRID, 28","municipality":"Boñar","province":"LEÓN","postalCode":"24850","schedule":"L-D: 07:00-23:00","fuels":{"gasoline95":1.869,"gasoline95Premium":1.929,"gasoline98":2.029,"diesel":1.879,"dieselPremium":1.929},"extra":{"saleType":"P","margin":"I","reportingType":"OM","ideess":"11012","idMunicipio":"3612","idProvincia":"24","idCCAA":"08"}}},{"type":"Feature","geometry":{"type":"Point","coordinates":[-5.462361,42.547667]},"properties":{"id":"es-11013","source":"ES","brand":"REPSOL","address":"CARRETERA GENERAL ADANERO -GIJON N-601 KM. 316","municipality":"Villaturiel","province":"LEÓN","postalCode":"24226","schedule":"L-D: 07:00-23:00","fuels":{"gasoline95":1.745,"gasoline98":1.915,"diesel":1.975,"dieselPremium":2.035},"extra":{"saleType":"P","margin":"D","reportingType":"OM","ideess":"11013","idMunicipio":"3800","idProvincia":"24","idCCAA":"08"}}},{"type":"Feature","geometry":{"type":"Point","coordinates":[-5.51875,42.345972]},"properties":{"id":"es-11049","source":"ES","brand":"PRIO","address":"CARRETERA LE512 KM. 21,000","municipality":"Fresno de la Vega","province":"LEÓN","postalCode":"24223","schedule":"L-D: 07:00-23:00","fuels":{"gasoline95":1.854,"diesel":1.774},"extra":{"saleType":"P","margin":"I","reportingType":"dm","ideess":"11049","idMunicipio":"3660","idProvincia":"24","idCCAA":"08"}}},{"type":"Feature","geometry":{"type":"Point","coordinates":[-5.4965,42.282806]},"properties":{"id":"es-11103","source":"ES","brand":"E.S. ESLA MÓVIL S.L.","address":"POLIGONO EL TESORO, S/N","municipality":"Valencia de Don Juan","province":"LEÓN","postalCode":"24200","schedule":"L-V: 08:00-21:30; S: 09:00-20:00","fuels":{"gasoline95":1.769,"diesel":1.829,"adblue":0.73},"extra":{"saleType":"P","margin":"D","reportingType":"dm","ideess":"11103","idMunicipio":"3765","idProvincia":"24","idCCAA":"08"}}},{"type":"Feature","geometry":{"type":"Point","coordinates":[-5.808528,42.604278]},"properties":{"id":"es-11141","source":"ES","brand":"CARBUCRIAL","address":"CARRETERA LA BAÑEZA- LA MAGDALENA KM. 37","municipality":"Carrizo","province":"LEÓN","postalCode":"24270","schedule":"L: 07:30-21:00","fuels":{"gasoline95":1.85,"gasoline98":2.0,"diesel":1.85},"extra":{"saleType":"P","margin":"I","reportingType":"dm","ideess":"11141","idMunicipio":"3629","idProvincia":"24","idCCAA":"08"}}},{"type":"Feature","geometry":{"type":"Point","coordinates":[-5.512083,42.395944]},"properties":{"id":"es-11318","source":"ES","brand":"AN ENERGÉTICOS - CABREROS DEL RIO UCOGAL","address":"POLIGONO PARCELAS 88 Y 89, S/N","municipality":"Cabreros del Río","province":"LEÓN","postalCode":"24224","schedule":"L-D: 24H","fuels":{"gasoline95":1.754,"diesel":1.718,"dieselB":1.506,"adblue":0.705},"extra":{"saleType":"P","margin":"N","reportingType":"dm","ideess":"11318","idMunicipio":"3619","idProvincia":"24","idCCAA":"08"}}},{"type":"Feature","geometry":{"type":"Point","coordinates":[-5.499333,42.451222]},"properties":{"id":"es-11480","source":"ES","brand":"VALCARCE","address":"AUTOVIA CAMINO DE SANTIAGO KM. 9,5","municipality":"Villanueva de las Manzanas","province":"LEÓN","postalCode":"24225","schedule":"L-V: 06:00-00:00; S: 06:00-22:00; D: 06:00-00:00","fuels":{"gasoline95":1.899,"diesel":1.849,"adblue":0.799},"extra":{"saleType":"P","margin":"D","reportingType":"dm","ideess":"11480","idMunicipio":"3791","idProvincia":"24","idCCAA":"08"}}},{"type":"Feature","geometry":{"type":"Point","coordinates":[-5.646722,42.155861]},"properties":{"id":"es-11488","source":"ES","brand":"BEROIL","address":"CARRETERA LE-412 KM. 3,850","municipality":"Antigua (La)","province":"LEÓN","postalCode":"24796","schedule":"L-D: 24H","fuels":{"gasoline95":1.87,"gasoline98":1.99,"diesel":1.849,"dieselPremium":1.899,"adblue":0.95},"extra":{"saleType":"P","margin":"D","reportingType":"dm","ideess":"11488","idMunicipio":"3597","idProvincia":"24","idCCAA":"08"}}},{"type":"Feature","geometry":{"type":"Point","coordinates":[-5.585333,42.526]},"properties":{"id":"es-11600","source":"ES","brand":"PASO HONROSO","address":"CARRETERA N-630 KM. 154,500","municipality":"Onzonilla","province":"LEÓN","postalCode":"24231","schedule":"L-D: 24H","fuels":{"diesel":1.729},"extra":{"saleType":"P","margin":"D","reportingType":"dm","ideess":"11600","idMunicipio":"3690","idProvincia":"24","idCCAA":"08"}}},{"type":"Feature","geometry":{"type":"Point","coordinates":[-5.575,42.540361]},"properties":{"id":"es-11750","source":"ES","brand":"GASOLEOS ARIAS MARTINEZ, S.L.","address":"POLIGONO INDUSTRIAL C/3 G-7B, S/N","municipality":"Onzonilla","province":"LEÓN","postalCode":"24231","schedule":"L-D: 24H","fuels":{"gasoline95":1.719,"gasoline98":1.859,"diesel":1.769,"adblue":0.799},"extra":{"saleType":"P","margin":"D","reportingType":"dm","ideess":"11750","idMunicipio":"3690","idProvincia":"24","idCCAA":"08"}}},{"type":"Feature","geometry":{"type":"Point","coordinates":[-5.034861,42.366194]},"properties":{"id":"es-11812","source":"ES","brand":"RIALCE, S.L.","address":"CARRETERA MAYORGA KM. 1","municipality":"Sahagún","province":"LEÓN","postalCode":"24320","schedule":"L-D: 24H","fuels":{"gasoline95":1.795,"diesel":1.769,"adblue":0.679},"extra":{"saleType":"P","margin":"D","reportingType":"dm","ideess":"11812","idMunicipio":"3719","idProvincia":"24","idCCAA":"08"}}},{"type":"Feature","geometry":{"type":"Point","coordinates":[-5.58625,42.64475]},"properties":{"id":"es-11891","source":"ES","brand":"REPSOL","address":"POLIGONO LA HUERGA, 17","municipality":"Villaquilambre","province":"LEÓN","postalCode":"24193","schedule":"L-V: 08:00-13:30 y 15:30-19:00","fuels":{"gasoline95":1.879,"diesel":1.859,"dieselPremium":1.919,"dieselB":1.699,"adblue":0.999},"extra":{"saleType":"P","margin":"D","reportingType":"dm","ideess":"11891","idMunicipio":"3795","idProvincia":"24","idCCAA":"08"}}},{"type":"Feature","geometry":{"type":"Point","coordinates":[-5.663639,42.005972]},"properties":{"id":"es-11894","source":"ES","brand":"IDS","address":"CALLE VILAREAL, S/N","municipality":"Benavente","province":"ZAMORA","postalCode":"49600","schedule":"L-D: 24H","fuels":{"diesel":1.928,"dieselB":1.776,"adblue":1.105},"extra":{"saleType":"P","margin":"I","reportingType":"dm","ideess":"11894","idMunicipio":"7588","idProvincia":"49","idCCAA":"08"}}},{"type":"Feature","geometry":{"type":"Point","coordinates":[-5.597917,42.614222]},"properties":{"id":"es-12005","source":"ES","brand":"PASO HONROSO","address":"AVENIDA PAIS LEONES, 12","municipality":"León","province":"LEÓN","postalCode":"24010","schedule":"L-V: 07:00-23:00; S-D: 08:00-00:00","fuels":{"gasoline95":1.789,"gasoline98":1.909,"diesel":1.799,"dieselPremium":1.849},"extra":{"saleType":"P","margin":"D","reportingType":"dm","ideess":"12005","idMunicipio":"3674","idProvincia":"24","idCCAA":"08"}}},{"type":"Feature","geometry":{"type":"Point","coordinates":[-5.600917,42.323778]},"properties":{"id":"es-12021","source":"ES","brand":"MOEVE","address":"CARRETERA C-621 KM. 32,78","municipality":"Villamañán","province":"LEÓN","postalCode":"24234","schedule":"L-D: 00:00-23:59","fuels":{"gasoline95":1.829,"gasoline95Premium":1.829,"diesel":1.854,"dieselPremium":1.944},"extra":{"saleType":"P","margin":"I","reportingType":"OM","ideess":"12021","idMunicipio":"3785","idProvincia":"24","idCCAA":"08"}}},{"type":"Feature","geometry":{"type":"Point","coordinates":[-5.767833,42.516917]},"properties":{"id":"es-12063","source":"ES","brand":"CEPSA","address":"CALLE UNO CELADILLA, S/N","municipality":"Villadangos del Páramo","province":"LEÓN","postalCode":"24392","schedule":"L-V: 07:00-22:00; S: 09:00-14:00","fuels":{"gasoline95":1.845,"gasoline98":1.955,"diesel":1.838,"dieselPremium":1.898},"extra":{"saleType":"P","margin":"N","reportingType":"dm","ideess":"12063","idMunicipio":"3778","idProvincia":"24","idCCAA":"08"}}},{"type":"Feature","geometry":{"type":"Point","coordinates":[-5.935528,42.375139]},"properties":{"id":"es-12400","source":"ES","brand":"COOPERATIVA SAN BLAS","address":"CALLE EL PARQUE, 9","municipality":"Santa María de la Isla","province":"LEÓN","postalCode":"24795","schedule":"L-D: 24H","fuels":{"gasoline95":1.679,"diesel":1.719,"dieselB":1.389,"adblue":0.549},"extra":{"saleType":"P","margin":"N","reportingType":"dm","ideess":"12400","idMunicipio":"3733","idProvincia":"24","idCCAA":"08"}}},{"type":"Feature","geometry":{"type":"Point","coordinates":[-5.615167,42.591222]},"properties":{"id":"es-12507","source":"ES","brand":"VALCARCE","address":"AVENIDA PARROCO PABLO DIEZ, 462","municipality":"San Andrés del Rabanedo","province":"LEÓN","postalCode":"24010","schedule":"L-D: 07:00-23:00","fuels":{"gasoline95":1.899,"diesel":1.849,"dieselPremium":1.889,"adblue":0.799},"extra":{"saleType":"P","margin":"D","reportingType":"dm","ideess":"12507","idMunicipio":"3721","idProvincia":"24","idCCAA":"08"}}},{"type":"Feature","geometry":{"type":"Point","coordinates":[-5.555667,42.585917]},"properties":{"id":"es-12826","source":"ES","brand":"CARREFOUR","address":"CALLE ARRABAL, S/N","municipality":"León","province":"LEÓN","postalCode":"24005","schedule":"L-D: 24H","fuels":{"gasoline95":1.799,"gasoline98":1.919,"diesel":1.799,"dieselPremium":1.839},"extra":{"saleType":"P","margin":"N","reportingType":"dm","ideess":"12826","idMunicipio":"3674","idProvincia":"24","idCCAA":"08"}}},{"type":"Feature","geometry":{"type":"Point","coordinates":[-5.869194,42.462389]},"properties":{"id":"es-12850","source":"ES","brand":"AREA DE SERVICIO URAL","address":"CARRETERA N-120 KM. 334,000","municipality":"Hospital de Órbigo","province":"LEÓN","postalCode":"24286","schedule":"L-D: 24H","fuels":{"gasoline95":1.699,"diesel":1.699,"dieselPremium":1.799,"adblue":0.9},"extra":{"saleType":"P","margin":"I","reportingType":"dm","ideess":"12850","idMunicipio":"3668","idProvincia":"24","idCCAA":"08"}}},{"type":"Feature","geometry":{"type":"Point","coordinates":[-5.558028,42.603028]},"properties":{"id":"es-12967","source":"ES","brand":"REPSOL","address":"AVENIDA JOSE MARIA GONZALEZ SUAREZ, S/N","municipality":"León","province":"LEÓN","postalCode":"24007","schedule":"L-D: 07:00-23:00","fuels":{"gasoline95":1.865,"gasoline98":1.975,"diesel":1.859,"dieselPremium":1.909,"lpg":1.185},"extra":{"saleType":"P","margin":"D","reportingType":"OM","ideess":"12967","idMunicipio":"3674","idProvincia":"24","idCCAA":"08"}}},{"type":"Feature","geometry":{"type":"Point","coordinates":[-5.662333,42.0075]},"properties":{"id":"es-13002","source":"ES","brand":"STAROIL","address":"CALLE SIMON BOLIVAR, S/N","municipality":"Benavente","province":"ZAMORA","postalCode":"49600","schedule":"L-D: 24H","fuels":{"gasoline95":1.899,"diesel":1.818,"dieselPremium":1.918,"dieselB":1.599,"adblue":1.099},"extra":{"saleType":"P","margin":"N","reportingType":"dm","ideess":"13002","idMunicipio":"7588","idProvincia":"49","idCCAA":"08"}}},{"type":"Feature","geometry":{"type":"Point","coordinates":[-5.914278,42.287833]},"properties":{"id":"es-13027","source":"ES","brand":"CEPSA","address":"AUTOVIA A6 KM. 303","municipality":"Bañeza (La)","province":"LEÓN","postalCode":"24750","schedule":"L-D: 24H","fuels":{"gasoline95":1.879,"diesel":1.859,"dieselPremium":1.939},"extra":{"saleType":"P","margin":"D","reportingType":"dm","ideess":"13027","idMunicipio":"3602","idProvincia":"24","idCCAA":"08"}}},{"type":"Feature","geometry":{"type":"Point","coordinates":[-5.634028,42.057361]},"properties":{"id":"es-13551","source":"ES","brand":"FERTIBLEND","address":"CARRETERA NACIONAL 630 KM. 207","municipality":"San Cristóbal de Entreviñas","province":"ZAMORA","postalCode":"49690","schedule":"L-D: 24H","fuels":{"gasoline95":1.728,"diesel":1.669},"extra":{"saleType":"P","margin":"D","reportingType":"dm","ideess":"13551","idMunicipio":"7740","idProvincia":"49","idCCAA":"08"}}},{"type":"Feature","geometry":{"type":"Point","coordinates":[-5.90325,42.305722]},"properties":{"id":"es-13608","source":"ES","brand":"EROSKI","address":"CARRETERA N-VI KM. 303","municipality":"Bañeza (La)","province":"LEÓN","postalCode":"24750","schedule":"L-D: 24H","fuels":{"gasoline95":1.689,"gasoline98":1.819,"diesel":1.749},"extra":{"saleType":"P","margin":"N","reportingType":"dm","ideess":"13608","idMunicipio":"3602","idProvincia":"24","idCCAA":"08"}}},{"type":"Feature","geometry":{"type":"Point","coordinates":[-5.549611,42.553861]},"properties":{"id":"es-14224","source":"ES","brand":"DISTROL","address":"CALLE CAÑADA REAL-MR  EN  MARIALBA-MR, 107","municipality":"Villaturiel","province":"LEÓN","postalCode":"24199","schedule":"L-D: 24H","fuels":{"gasoline95":1.727,"diesel":1.727,"dieselPremium":1.767,"adblue":0.97},"extra":{"saleType":"P","margin":"D","reportingType":"dm","ideess":"14224","idMunicipio":"3800","idProvincia":"24","idCCAA":"08"}}},{"type":"Feature","geometry":{"type":"Point","coordinates":[-5.557667,42.584417]},"properties":{"id":"es-14440","source":"ES","brand":"PETROPRIX","address":"AVENIDA ALCALDE MIGUEL CASTAÑO, 119","municipality":"León","province":"LEÓN","postalCode":"24005","schedule":"L-D: 24H","fuels":{"gasoline95":1.719,"diesel":1.727},"extra":{"saleType":"P","margin":"I","reportingType":"dm","ideess":"14440","idMunicipio":"3674","idProvincia":"24","idCCAA":"08"}}},{"type":"Feature","geometry":{"type":"Point","coordinates":[-5.584028,42.585861]},"properties":{"id":"es-14467","source":"ES","brand":"E-LECLERC","address":"AVENIDA ANTIBIOTICOS, 41","municipality":"León","province":"LEÓN","postalCode":"24009","schedule":"L-D: 24H","fuels":{"gasoline95":1.719,"diesel":1.679,"dieselPremium":1.729},"extra":{"saleType":"P","margin":"D","reportingType":"dm","ideess":"14467","idMunicipio":"3674","idProvincia":"24","idCCAA":"08"}}},{"type":"Feature","geometry":{"type":"Point","coordinates":[-5.599417,42.631861]},"properties":{"id":"es-14577","source":"ES","brand":"CEPSA","address":"CARRETERA CARBAJAL 85 KM. 1,3","municipality":"León","province":"LEÓN","postalCode":"24008","schedule":"L-D: 06:00-00:00","fuels":{"gasoline95":1.839,"gasoline98":1.989,"diesel":1.829,"dieselPremium":1.909,"lpg":1.159},"extra":{"saleType":"P","margin":"N","reportingType":"dm","ideess":"14577","idMunicipio":"3674","idProvincia":"24","idCCAA":"08"}}},{"type":"Feature","geometry":{"type":"Point","coordinates":[-5.550278,42.602222]},"properties":{"id":"es-14710","source":"ES","brand":"VALCARCE","address":"CALLE EL VAGO, 1","municipality":"Villaquilambre","province":"LEÓN","postalCode":"24007","schedule":"L-D: 24H","fuels":{"gasoline95":1.899,"gasoline98":1.999,"diesel":1.849,"dieselPremium":1.889,"adblue":0.799},"extra":{"saleType":"P","margin":"N","reportingType":"dm","ideess":"14710","idMunicipio":"3795","idProvincia":"24","idCCAA":"08"}}},{"type":"Feature","geometry":{"type":"Point","coordinates":[-5.557083,42.583833]},"properties":{"id":"es-14758","source":"ES","brand":"BALLENOIL","address":"AVENIDA ALCALDE MIGUEL CASTAÑO, 125","municipality":"León","province":"LEÓN","postalCode":"24005","schedule":"L-D: 24H","fuels":{"gasoline95":1.719,"diesel":1.727,"dieselPremium":1.747},"extra":{"saleType":"P","margin":"D","reportingType":"OM","ideess":"14758","idMunicipio":"3674","idProvincia":"24","idCCAA":"08"}}},{"type":"Feature","geometry":{"type":"Point","coordinates":[-5.890694,42.512611]},"properties":{"id":"es-14898","source":"ES","brand":"GUAY","address":"CARRETERA LA BAÑEZA-LA MAGDALENA KM. 87,3","municipality":"Turcia","province":"LEÓN","postalCode":"24285","schedule":"L-D: 07:00-23:00","fuels":{"gasoline95":1.729,"diesel":1.769,"dieselPremium":1.849,"dieselB":1.699,"adblue":0.689},"extra":{"saleType":"P","margin":"D","reportingType":"dm","ideess":"14898","idMunicipio":"3751","idProvincia":"24","idCCAA":"08"}}},{"type":"Feature","geometry":{"type":"Point","coordinates":[-5.552278,42.618361]},"properties":{"id":"es-14974","source":"ES","brand":"BALLENOIL","address":"CALLE CERRADA-VO  EN  VILLAOBISPO-VO-, 2","municipality":"Villaquilambre","province":"LEÓN","postalCode":"24007","schedule":"L-D: 24H","fuels":{"gasoline95":1.719,"diesel":1.727,"dieselPremium":1.747},"extra":{"saleType":"P","margin":"D","reportingType":"OM","ideess":"14974","idMunicipio":"3795","idProvincia":"24","idCCAA":"08"}}},{"type":"Feature","geometry":{"type":"Point","coordinates":[-5.582861,42.574361]},"properties":{"id":"es-14977","source":"ES","brand":"BALLENOIL","address":"AVENIDA ANTIBIOTICOS, 63","municipality":"León","province":"LEÓN","postalCode":"24009","schedule":"L-D: 24H","fuels":{"gasoline95":1.719,"diesel":1.727,"dieselPremium":1.747},"extra":{"saleType":"P","margin":"D","reportingType":"OM","ideess":"14977","idMunicipio":"3674","idProvincia":"24","idCCAA":"08"}}},{"type":"Feature","geometry":{"type":"Point","coordinates":[-5.889222,42.298083]},"properties":{"id":"es-15408","source":"ES","brand":"SDAD COOPERATIVA DE TRANSPORTES BAÑEZANA","address":"CALLE CAMINO ARROTE, SN","municipality":"Bañeza (La)","province":"LEÓN","postalCode":"24750","schedule":"L-D: 24H","fuels":{"diesel":1.719,"adblue":0.8},"extra":{"saleType":"P","margin":"N","reportingType":"dm","ideess":"15408","idMunicipio":"3602","idProvincia":"24","idCCAA":"08"}}},{"type":"Feature","geometry":{"type":"Point","coordinates":[-5.894778,42.304083]},"properties":{"id":"es-15694","source":"ES","brand":"PLENERGY","address":"CARRETERA MADRID KM. 64","municipality":"Bañeza (La)","province":"LEÓN","postalCode":"24750","schedule":"L-D: 24H","fuels":{"gasoline95":1.689,"diesel":1.759},"extra":{"saleType":"P","margin":"D","reportingType":"dm","ideess":"15694","idMunicipio":"3602","idProvincia":"24","idCCAA":"08"}}},{"type":"Feature","geometry":{"type":"Point","coordinates":[-5.566556,42.580361]},"properties":{"id":"es-16009","source":"ES","brand":"BALLENOIL","address":"SECTOR LA LASTRA, PARCELA E-2-Q - CENTRO COMERCIAL LA LASTRA, S/N","municipality":"León","province":"LEÓN","postalCode":"24005","schedule":"L-D: 24H","fuels":{"gasoline95":1.719,"diesel":1.727,"dieselPremium":1.747},"extra":{"saleType":"P","margin":"N","reportingType":"OM","ideess":"16009","idMunicipio":"3674","idProvincia":"24","idCCAA":"08"}}},{"type":"Feature","geometry":{"type":"Point","coordinates":[-5.619306,42.588972]},"properties":{"id":"es-16350","source":"ES","brand":"BALLENOIL","address":"AVENIDA DEL PÁRROCO PABLO DIEZ, 487","municipality":"San Andrés del Rabanedo","province":"LEÓN","postalCode":"24010","schedule":"L-D: 24H","fuels":{"gasoline95":1.719,"gasoline95Premium":1.739,"diesel":1.727,"dieselPremium":1.747},"extra":{"saleType":"P","margin":"N","reportingType":"OM","ideess":"16350","idMunicipio":"3721","idProvincia":"24","idCCAA":"08"}}},{"type":"Feature","geometry":{"type":"Point","coordinates":[-5.742722,42.538556]},"properties":{"id":"es-16487","source":"ES","brand":"HAM","address":"POLIGONO CALLE 3, 8","municipality":"Villadangos del Páramo","province":"LEÓN","postalCode":"24392","schedule":"L-D: 24H","fuels":{"cng":1.644,"lng":1.599,"bioCng":1.624,"bioLng":1.569},"extra":{"saleType":"P","margin":"D","reportingType":"dm","ideess":"16487","idMunicipio":"3778","idProvincia":"24","idCCAA":"08"}}},{"type":"Feature","geometry":{"type":"Point","coordinates":[-5.59775,42.601111]},"properties":{"id":"es-16501","source":"ES","brand":"PASO HONROSO","address":"CALLE POLICÍA NACIONAL, 12","municipality":"San Andrés del Rabanedo","province":"LEÓN","postalCode":"24010","schedule":"L-D: 24H","fuels":{"gasoline95":1.759,"diesel":1.739,"dieselPremium":1.789},"extra":{"saleType":"P","margin":"D","reportingType":"dm","ideess":"16501","idMunicipio":"3721","idProvincia":"24","idCCAA":"08"}}},{"type":"Feature","geometry":{"type":"Point","coordinates":[-5.618333,42.590167]},"properties":{"id":"es-4732","source":"ES","brand":"E.LECLERC LEON","address":"AVDA. PÁRROCO PABLO DIEZ S/N (C.C. LECLERC)","municipality":"San Andrés del Rabanedo","province":"LEÓN","postalCode":"24191","schedule":"L-D: 24H","fuels":{"gasoline95":1.719,"diesel":1.679,"dieselPremium":1.729},"extra":{"saleType":"P","margin":"N","reportingType":"dm","ideess":"4732","idMunicipio":"3721","idProvincia":"24","idCCAA":"08"}}},{"type":"Feature","geometry":{"type":"Point","coordinates":[-5.832583,42.135111]},"properties":{"id":"es-4733","source":"ES","brand":"ALIJA ENERGIA","address":"CARRETERA LA BAÑEZA KM. 35","municipality":"Alija del Infantado","province":"LEÓN","postalCode":"24761","schedule":"L-D: 08:00-23:00","fuels":{"gasoline95":1.769,"diesel":1.899,"dieselPremium":1.999},"extra":{"saleType":"P","margin":"D","reportingType":"dm","ideess":"4733","idMunicipio":"3595","idProvincia":"24","idCCAA":"08"}}},{"type":"Feature","geometry":{"type":"Point","coordinates":[-5.623778,42.660667]},"properties":{"id":"es-4745","source":"ES","brand":"JOVINO ESTHER E HIJOS S.L.","address":"C-623 km 8,5","municipality":"Sariegos","province":"LEÓN","postalCode":"24121","schedule":"L-D: 08:00-22:00","fuels":{"gasoline95":1.798,"gasoline98":1.828,"diesel":1.796},"extra":{"saleType":"P","margin":"D","reportingType":"dm","ideess":"4745","idMunicipio":"3741","idProvincia":"24","idCCAA":"08"}}},{"type":"Feature","geometry":{"type":"Point","coordinates":[-5.592944,42.533611]},"properties":{"id":"es-4758","source":"ES","brand":"REPSOL","address":"C-622   LEÓN-PORTUGAL km 2,6","municipality":"Santovenia de la Valdoncina","province":"LEÓN","postalCode":"24391","schedule":"L-D: 07:00-23:00","fuels":{"gasoline95":1.909,"gasoline98":2.009,"diesel":1.869,"dieselPremium":1.919,"adblue":1.059},"extra":{"saleType":"P","margin":"D","reportingType":"dm","ideess":"4758","idMunicipio":"3740","idProvincia":"24","idCCAA":"08"}}},{"type":"Feature","geometry":{"type":"Point","coordinates":[-5.673722,42.86225]},"properties":{"id":"es-4910","source":"ES","brand":"SERVIGORDON","address":"CTRA. GIJÓN-SEVILLA km 110,5","municipality":"Pola de Gordón (La)","province":"LEÓN","postalCode":"24600","schedule":"L: 07:00-23:00","fuels":{"gasoline95":1.839,"gasoline98":1.939,"diesel":1.859},"extra":{"saleType":"P","margin":"D","reportingType":"dm","ideess":"4910","idMunicipio":"3698","idProvincia":"24","idCCAA":"08"}}},{"type":"Feature","geometry":{"type":"Point","coordinates":[-5.584028,42.534083]},"properties":{"id":"es-4912","source":"ES","brand":"VALCARCE","address":"CARRETERA NACIONAL 630 KM. 153,6","municipality":"Onzonilla","province":"LEÓN","postalCode":"24231","schedule":"L-D: 24H","fuels":{"gasoline95":1.899,"diesel":1.849,"dieselB":1.469,"adblue":0.799},"extra":{"saleType":"P","margin":"D","reportingType":"dm","ideess":"4912","idMunicipio":"3690","idProvincia":"24","idCCAA":"08"}}},{"type":"Feature","geometry":{"type":"Point","coordinates":[-5.624444,42.660389]},"properties":{"id":"es-4929","source":"ES","brand":"JOVINO ESTHER E HIJOS S.L.","address":"CARRERA CABOALLES, 6","municipality":"Sariegos","province":"LEÓN","postalCode":"24121","schedule":"L-D: 08:00-22:00","fuels":{"gasoline95":1.798,"gasoline98":1.828,"diesel":1.796},"extra":{"saleType":"P","margin":"I","reportingType":"dm","ideess":"4929","idMunicipio":"3741","idProvincia":"24","idCCAA":"08"}}},{"type":"Feature","geometry":{"type":"Point","coordinates":[-5.787083,42.784111]},"properties":{"id":"es-4948","source":"ES","brand":"E.S.CARGOSA","address":"CARRETERA CYL 626 KM. 80","municipality":"Carrocera","province":"LEÓN","postalCode":"24123","schedule":"L: 07:00-23:00","fuels":{"gasoline95":1.828,"gasoline98":1.948,"diesel":1.798,"dieselPremium":1.878,"dieselB":1.548},"extra":{"saleType":"P","margin":"I","reportingType":"dm","ideess":"4948","idMunicipio":"3630","idProvincia":"24","idCCAA":"08"}}},{"type":"Feature","geometry":{"type":"Point","coordinates":[-5.589778,42.636833]},"properties":{"id":"es-4950","source":"ES","brand":"ALTO LEON","address":"CARRETERA N-630 KM. 140","municipality":"Villaquilambre","province":"LEÓN","postalCode":"24193","schedule":"L-D: 06:00-00:00","fuels":{"gasoline95":1.699,"gasoline98":1.799,"diesel":1.669},"extra":{"saleType":"P","margin":"I","reportingType":"dm","ideess":"4950","idMunicipio":"3795","idProvincia":"24","idCCAA":"08"}}},{"type":"Feature","geometry":{"type":"Point","coordinates":[-5.985685,42.384277]},"properties":{"id":"es-4964","source":"ES","brand":"COMPOSTRA OIL","address":"N-VI km 314,1","municipality":"Riego de la Vega","province":"LEÓN","postalCode":"24794","schedule":"L-D: 24H","fuels":{"gasoline95":1.849,"diesel":1.827,"adblue":0.84},"extra":{"saleType":"P","margin":"I","reportingType":"dm","ideess":"4964","idMunicipio":"3713","idProvincia":"24","idCCAA":"08"}}},{"type":"Feature","geometry":{"type":"Point","coordinates":[-5.577389,42.590833]},"properties":{"id":"es-4974","source":"ES","brand":"REPSOL","address":"AVENIDA SAENZ DE MIERA S/N, S/N","municipality":"León","province":"LEÓN","postalCode":"24009","schedule":"L-V: 07:00-21:00; S: 09:00-15:00 y 18:00-21:00","fuels":{"gasoline95":1.869,"gasoline98":2.029,"diesel":1.855,"dieselPremium":1.905},"extra":{"saleType":"P","margin":"I","reportingType":"OM","ideess":"4974","idMunicipio":"3674","idProvincia":"24","idCCAA":"08"}}},{"type":"Feature","geometry":{"type":"Point","coordinates":[-5.756778,42.525194]},"properties":{"id":"es-4975","source":"ES","brand":"GALP","address":"CARRETERA N-120 (LEON-ASTORGA) KM. 322,300","municipality":"Villadangos del Páramo","province":"LEÓN","postalCode":"24397","schedule":"L-D: 07:00-22:00","fuels":{"gasoline95":1.869,"gasoline98":2.009,"diesel":1.859,"dieselPremium":1.909,"adblue":0.799},"extra":{"saleType":"P","margin":"D","reportingType":"OM","ideess":"4975","idMunicipio":"3778","idProvincia":"24","idCCAA":"08"}}},{"type":"Feature","geometry":{"type":"Point","coordinates":[-5.573972,42.582222]},"properties":{"id":"es-4977","source":"ES","brand":"PASO HONROSO","address":"CARRETERA VILECHA-TR KM. S/N","municipality":"León","province":"LEÓN","postalCode":"24192","schedule":"L-D: 24H","fuels":{"gasoline95":1.789,"gasoline98":1.909,"diesel":1.799,"dieselPremium":1.849,"adblue":0.849},"extra":{"saleType":"P","margin":"N","reportingType":"dm","ideess":"4977","idMunicipio":"3674","idProvincia":"24","idCCAA":"08"}}},{"type":"Feature","geometry":{"type":"Point","coordinates":[-5.882444,42.458556]},"properties":{"id":"es-4993","source":"ES","brand":"CEPSA","address":"CARRETERA NACIONAL 120 KM. 335","municipality":"Hospital de Órbigo","province":"LEÓN","postalCode":"24286","schedule":"L: 06:00-22:00","fuels":{"gasoline95":1.829,"gasoline95Premium":1.899,"gasoline98":1.949,"diesel":1.824,"dieselPremium":1.894,"dieselB":1.669},"extra":{"saleType":"P","margin":"I","reportingType":"dm","ideess":"4993","idMunicipio":"3668","idProvincia":"24","idCCAA":"08"}}},{"type":"Feature","geometry":{"type":"Point","coordinates":[-5.007,42.976556]},"properties":{"id":"es-5003","source":"ES","brand":"MOEVE","address":"CARRETERA N-621 KM. 98","municipality":"Riaño","province":"LEÓN","postalCode":"24900","schedule":"L-D: 09:00-20:00","fuels":{"gasoline95Premium":1.899,"diesel":1.824,"dieselPremium":1.894},"extra":{"saleType":"P","margin":"D","reportingType":"OM","ideess":"5003","idMunicipio":"3712","idProvincia":"24","idCCAA":"08"}}},{"type":"Feature","geometry":{"type":"Point","coordinates":[-5.024222,42.369111]},"properties":{"id":"es-5006","source":"ES","brand":"CEPSA","address":"C-611 km 1,1","municipality":"Sahagún","province":"LEÓN","postalCode":"24320","schedule":"L-D: 07:30-21:30","fuels":{"gasoline95":1.845,"gasoline98":1.92,"diesel":1.828,"dieselPremium":1.898},"extra":{"saleType":"P","margin":"D","reportingType":"dm","ideess":"5006","idMunicipio":"3719","idProvincia":"24","idCCAA":"08"}}},{"type":"Feature","geometry":{"type":"Point","coordinates":[-5.444278,42.076444]},"properties":{"id":"es-5017","source":"ES","brand":"GALP","address":"CARRETERA BENAVENTE KM. 0,4","municipality":"Valderas","province":"LEÓN","postalCode":"24220","schedule":"L-D: 07:00-22:00","fuels":{"gasoline95":1.799,"diesel":1.919,"dieselPremium":1.969,"dieselB":1.669},"extra":{"saleType":"P","margin":"I","reportingType":"dm","ideess":"5017","idMunicipio":"3760","idProvincia":"24","idCCAA":"08"}}},{"type":"Feature","geometry":{"type":"Point","coordinates":[-5.658611,42.938111]},"properties":{"id":"es-5022","source":"ES","brand":"CEPSA","address":"N-630 km 99,5","municipality":"Villamanín","province":"LEÓN","postalCode":"24680","schedule":"L-D: 07:00-22:30","fuels":{"gasoline95":1.925,"gasoline98":2.035,"diesel":1.868,"dieselPremium":1.948,"adblue":1.0},"extra":{"saleType":"P","margin":"D","reportingType":"dm","ideess":"5022","idMunicipio":"3784","idProvincia":"24","idCCAA":"08"}}},{"type":"Feature","geometry":{"type":"Point","coordinates":[-5.924861,42.777778]},"properties":{"id":"es-5032","source":"ES","brand":"CEPSA","address":"CARRETERA LE-493 KM. 43","municipality":"Riello","province":"LEÓN","postalCode":"24126","schedule":"L-D: 08:00-22:00","fuels":{"gasoline95":1.819,"gasoline98":1.949,"diesel":1.849,"dieselPremium":1.899,"adblue":1.0},"extra":{"saleType":"P","margin":"D","reportingType":"dm","ideess":"5032","idMunicipio":"3714","idProvincia":"24","idCCAA":"08"}}},{"type":"Feature","geometry":{"type":"Point","coordinates":[-5.542083,42.673083]},"properties":{"id":"es-5035","source":"ES","brand":"BEROIL","address":"CARRETERA LE-311 KM. 7","municipality":"Villaquilambre","province":"LEÓN","postalCode":"24193","schedule":"L-D: 24H","fuels":{"gasoline95":1.739,"diesel":1.669,"adblue":0.6},"extra":{"saleType":"P","margin":"I","reportingType":"dm","ideess":"5035","idMunicipio":"3795","idProvincia":"24","idCCAA":"08"}}},{"type":"Feature","geometry":{"type":"Point","coordinates":[-5.784917,42.382806]},"properties":{"id":"es-5042","source":"ES","brand":"CEPSA","address":"CARRETERA C-621 MAYORGA-ASTORGA KM. 50,400","municipality":"Urdiales del Páramo","province":"LEÓN","postalCode":"24248","schedule":"L-S: 07:00-22:00; D: 08:00-22:00","fuels":{"gasoline95":1.789,"gasoline95Premium":1.859,"diesel":1.879,"dieselPremium":1.929,"adblue":0.79},"extra":{"saleType":"P","margin":"I","reportingType":"dm","ideess":"5042","idMunicipio":"3752","idProvincia":"24","idCCAA":"08"}}},{"type":"Feature","geometry":{"type":"Point","coordinates":[-5.867917,42.548556]},"properties":{"id":"es-5044","source":"ES","brand":"REPSOL","address":"CARRETERA LE-420 KM. 91,5","municipality":"Turcia","province":"LEÓN","postalCode":"24284","schedule":"L-V: 07:00-23:00; S-D: 08:00-23:00","fuels":{"gasoline95":1.839,"gasoline98":1.969,"diesel":1.889,"dieselRenewable":1.999,"adblue":0.798},"extra":{"saleType":"P","margin":"I","reportingType":"dm","ideess":"5044","idMunicipio":"3751","idProvincia":"24","idCCAA":"08"}}},{"type":"Feature","geometry":{"type":"Point","coordinates":[-5.888556,42.382972]},"properties":{"id":"es-5047","source":"ES","brand":"PASO HONROSO","address":"CARRETERA LE-420 KM. 72","municipality":"San Cristóbal de la Polantera","province":"LEÓN","postalCode":"24359","schedule":"L-D: 24H","fuels":{"gasoline95":1.789,"diesel":1.789,"adblue":0.849},"extra":{"saleType":"P","margin":"I","reportingType":"dm","ideess":"5047","idMunicipio":"3722","idProvincia":"24","idCCAA":"08"}}},{"type":"Feature","geometry":{"type":"Point","coordinates":[-5.965917,42.447667]},"properties":{"id":"es-5064","source":"ES","brand":"REPSOL","address":"CARRETERA NACIONAL 120 KM. 342","municipality":"Villarejo de Órbigo","province":"LEÓN","postalCode":"24288","schedule":"L: 06:00-22:00","fuels":{"gasoline95":1.905,"gasoline98":2.065,"diesel":1.885,"dieselRenewable":1.995},"extra":{"saleType":"P","margin":"D","reportingType":"OM","ideess":"5064","idMunicipio":"3796","idProvincia":"24","idCCAA":"08"}}},{"type":"Feature","geometry":{"type":"Point","coordinates":[-5.282639,42.560028]},"properties":{"id":"es-5067","source":"ES","brand":"PETRONOR","address":"CARRETERA NACIONAL 625 KM 31.4 (N-625 km 31,4)","municipality":"Valdepolo","province":"LEÓN","postalCode":"24920","schedule":"L-S: 08:00-15:00","fuels":{"gasoline95":1.819,"diesel":2.005,"dieselPremium":2.099,"dieselB":1.685},"extra":{"saleType":"P","margin":"D","reportingType":"dm","ideess":"5067","idMunicipio":"3759","idProvincia":"24","idCCAA":"08"}}},{"type":"Feature","geometry":{"type":"Point","coordinates":[-5.579694,42.462444]},"properties":{"id":"es-5071","source":"ES","brand":"CAMPSA","address":"CARRETERA N-630 KM. 161,500","municipality":"Ardón","province":"LEÓN","postalCode":"24232","schedule":"L-V: 08:00-22:00; S: 08:00-15:00; D: 15:00-22:00","fuels":{"gasoline95":1.849,"gasoline98":1.999,"diesel":1.779,"dieselPremium":1.799,"dieselB":1.599},"extra":{"saleType":"P","margin":"I","reportingType":"dm","ideess":"5071","idMunicipio":"3598","idProvincia":"24","idCCAA":"08"}}},{"type":"Feature","geometry":{"type":"Point","coordinates":[-5.049028,42.380083]},"properties":{"id":"es-5082","source":"ES","brand":"MOEVE","address":"A-231 km 49","municipality":"Sahagún","province":"LEÓN","postalCode":"24320","schedule":"L-D: 06:00-23:59","fuels":{"gasoline95":1.869,"gasoline98":1.979,"diesel":1.874,"dieselPremium":1.944},"extra":{"saleType":"P","margin":"D","reportingType":"OM","ideess":"5082","idMunicipio":"3719","idProvincia":"24","idCCAA":"08"}}},{"type":"Feature","geometry":{"type":"Point","coordinates":[-5.049028,42.381389]},"properties":{"id":"es-5514","source":"ES","brand":"MOEVE","address":"A-231 km 50","municipality":"Sahagún","province":"LEÓN","postalCode":"24320","schedule":"L-D: 06:00-23:59","fuels":{"gasoline95":1.869,"gasoline98":1.979,"diesel":1.874,"dieselPremium":1.944},"extra":{"saleType":"P","margin":"I","reportingType":"OM","ideess":"5514","idMunicipio":"3719","idProvincia":"24","idCCAA":"08"}}},{"type":"Feature","geometry":{"type":"Point","coordinates":[-5.130639,42.809972]},"properties":{"id":"es-5519","source":"ES","brand":"REPSOL","address":"AVENIDA CONSTITUCION, 177","municipality":"Cistierna","province":"LEÓN","postalCode":"24800","schedule":"L-D: 07:00-23:00","fuels":{"gasoline95":1.869,"gasoline98":2.029,"diesel":1.879,"dieselPremium":1.929},"extra":{"saleType":"P","margin":"D","reportingType":"OM","ideess":"5519","idMunicipio":"3645","idProvincia":"24","idCCAA":"08"}}},{"type":"Feature","geometry":{"type":"Point","coordinates":[-5.570389,42.594222]},"properties":{"id":"es-5523","source":"ES","brand":"CEPSA","address":"PLAZA SAN FRANCISCO, S/N","municipality":"León","province":"LEÓN","postalCode":"24004","schedule":"L-V: 07:00-21:30; S: 10:00-15:00 y 18:00-21:00","fuels":{"gasoline95":1.755,"diesel":1.819,"dieselPremium":1.889},"extra":{"saleType":"P","margin":"D","reportingType":"dm","ideess":"5523","idMunicipio":"3674","idProvincia":"24","idCCAA":"08"}}},{"type":"Feature","geometry":{"type":"Point","coordinates":[-5.602306,42.617306]},"properties":{"id":"es-5530","source":"ES","brand":"PETRONOR","address":"CARRETERA C-623 KM. 3,4","municipality":"León","province":"LEÓN","postalCode":"24191","schedule":"L-D: 07:00-23:00","fuels":{"gasoline95":1.879,"gasoline98":1.989,"diesel":1.855,"dieselPremium":1.905},"extra":{"saleType":"P","margin":"D","reportingType":"OM","ideess":"5530","idMunicipio":"3674","idProvincia":"24","idCCAA":"08"}}},{"type":"Feature","geometry":{"type":"Point","coordinates":[-5.559667,42.633222]},"properties":{"id":"es-5535","source":"ES","brand":"GALP","address":"CARRETERA LE-311 KM. 3,5","municipality":"Villaquilambre","province":"LEÓN","postalCode":"24008","schedule":"L-D: 07:00-23:00","fuels":{"gasoline95":1.834,"diesel":1.749,"dieselPremium":1.799},"extra":{"saleType":"P","margin":"D","reportingType":"OM","ideess":"5535","idMunicipio":"3795","idProvincia":"24","idCCAA":"08"}}},{"type":"Feature","geometry":{"type":"Point","coordinates":[-5.435583,42.523611]},"properties":{"id":"es-5537","source":"ES","brand":"GALP","address":"CARRETERA N-601 KM. 312,4","municipality":"Mansilla Mayor","province":"LEÓN","postalCode":"24217","schedule":"L-D: 07:00-23:00","fuels":{"gasoline95":1.834,"gasoline98":1.974,"diesel":1.859,"dieselPremium":1.909},"extra":{"saleType":"P","margin":"D","reportingType":"OM","ideess":"5537","idMunicipio":"3680","idProvincia":"24","idCCAA":"08"}}},{"type":"Feature","geometry":{"type":"Point","coordinates":[-5.583944,42.577972]},"properties":{"id":"es-5538","source":"ES","brand":"GALP","address":"AVENIDA ANTIBIOTICOS, S/N","municipality":"León","province":"LEÓN","postalCode":"24003","schedule":"L-D: 07:00-23:00","fuels":{"gasoline95":1.764,"gasoline98":1.904,"diesel":1.739,"dieselPremium":1.789},"extra":{"saleType":"P","margin":"D","reportingType":"OM","ideess":"5538","idMunicipio":"3674","idProvincia":"24","idCCAA":"08"}}},{"type":"Feature","geometry":{"type":"Point","coordinates":[-5.911417,42.292389]},"properties":{"id":"es-5539","source":"ES","brand":"GALP","address":"AVENIDA PORTUGAL, 46","municipality":"Bañeza (La)","province":"LEÓN","postalCode":"24750","schedule":"L-D: 07:00-23:59","fuels":{"gasoline95":1.759,"gasoline98":1.869,"diesel":1.859,"dieselPremium":1.989,"lpg":0.985,"adblue":0.699},"extra":{"saleType":"P","margin":"N","reportingType":"dm","ideess":"5539","idMunicipio":"3602","idProvincia":"24","idCCAA":"08"}}},{"type":"Feature","geometry":{"type":"Point","coordinates":[-5.559389,42.585611]},"properties":{"id":"es-5541","source":"ES","brand":"REPSOL","address":"AVENIDA ALCALDE MIGUEL CASTAÑO, 98","municipality":"León","province":"LEÓN","postalCode":"24005","schedule":"L-D: 24H","fuels":{"gasoline95":1.875,"gasoline95Premium":1.935,"gasoline98":1.975,"diesel":1.859,"dieselPremium":1.909},"extra":{"saleType":"P","margin":"D","reportingType":"OM","ideess":"5541","idMunicipio":"3674","idProvincia":"24","idCCAA":"08"}}},{"type":"Feature","geometry":{"type":"Point","coordinates":[-5.997528,42.946917]},"properties":{"id":"es-5542","source":"ES","brand":"LISARMINIA","address":" CL  626, ","municipality":"San Emiliano","province":"LEÓN","postalCode":"24144","schedule":"L-D: 08:00-20:00","fuels":{"gasoline95":1.795,"diesel":1.815,"dieselPremium":1.875},"extra":{"saleType":"P","margin":"I","reportingType":"dm","ideess":"5542","idMunicipio":"3723","idProvincia":"24","idCCAA":"08"}}},{"type":"Feature","geometry":{"type":"Point","coordinates":[-5.548,42.626417]},"properties":{"id":"es-5547","source":"ES","brand":"REPSOL","address":"CARRETERA N-621 KM. 5","municipality":"Villaquilambre","province":"LEÓN","postalCode":"24193","schedule":"L-S: 08:00-14:30","fuels":{"gasoline95":1.859,"gasoline98":2.019,"diesel":1.855,"dieselPremium":1.925},"extra":{"saleType":"P","margin":"I","reportingType":"OM","ideess":"5547","idMunicipio":"3795","idProvincia":"24","idCCAA":"08"}}},{"type":"Feature","geometry":{"type":"Point","coordinates":[-5.856583,42.928972]},"properties":{"id":"es-5968","source":"ES","brand":"CEPSA","address":"AUTOPISTA A-66 KM. 89","municipality":"Sena de Luna","province":"LEÓN","postalCode":"24146","schedule":"L-D: 24H","fuels":{"gasoline95":1.859,"gasoline98":1.979,"diesel":1.874,"dieselPremium":1.944,"lpg":1.189},"extra":{"saleType":"P","margin":"I","reportingType":"OM","ideess":"5968","idMunicipio":"3742","idProvincia":"24","idCCAA":"08"}}},{"type":"Feature","geometry":{"type":"Point","coordinates":[-5.770944,42.691639]},"properties":{"id":"es-5969","source":"ES","brand":"REPSOL","address":"AT AP-66, 126","municipality":"Rioseco de Tapia","province":"LEÓN","postalCode":"24275","schedule":"L-D: 07:00-23:00","fuels":{"gasoline95":1.899,"gasoline98":2.029,"diesel":1.869,"dieselPremium":1.919},"extra":{"saleType":"P","margin":"I","reportingType":"OM","ideess":"5969","idMunicipio":"3715","idProvincia":"24","idCCAA":"08"}}},{"type":"Feature","geometry":{"type":"Point","coordinates":[-5.7675,42.690583]},"properties":{"id":"es-5970","source":"ES","brand":"REPSOL","address":"AT AP-66, 126","municipality":"Rioseco de Tapia","province":"LEÓN","postalCode":"24275","schedule":"L-D: 24H","fuels":{"gasoline95":1.899,"gasoline98":2.029,"diesel":1.869,"dieselPremium":1.919},"extra":{"saleType":"P","margin":"D","reportingType":"OM","ideess":"5970","idMunicipio":"3715","idProvincia":"24","idCCAA":"08"}}},{"type":"Feature","geometry":{"type":"Point","coordinates":[-5.520528,42.570944]},"properties":{"id":"es-5999","source":"ES","brand":"REPSOL","address":"CARRETERA N-601 KM. 321","municipality":"Valdefresno","province":"LEÓN","postalCode":"24227","schedule":"L-V: 07:00-21:00","fuels":{"gasoline95":1.849,"gasoline98":2.009,"diesel":1.859,"dieselPremium":1.909},"extra":{"saleType":"P","margin":"D","reportingType":"OM","ideess":"5999","idMunicipio":"3754","idProvincia":"24","idCCAA":"08"}}},{"type":"Feature","geometry":{"type":"Point","coordinates":[-5.519194,42.569722]},"properties":{"id":"es-6000","source":"ES","brand":"REPSOL","address":"CARRETERA N-601 KM. 321","municipality":"Valdefresno","province":"LEÓN","postalCode":"24227","schedule":"L-D: 06:15-22:15","fuels":{"gasoline95":1.849,"gasoline98":2.009,"diesel":1.859,"dieselPremium":1.909},"extra":{"saleType":"P","margin":"I","reportingType":"OM","ideess":"6000","idMunicipio":"3754","idProvincia":"24","idCCAA":"08"}}},{"type":"Feature","geometry":{"type":"Point","coordinates":[-5.631944,42.584861]},"properties":{"id":"es-6010","source":"ES","brand":"REPSOL","address":"CARRETERA NACIONAL 120 KM. 309,9","municipality":"San Andrés del Rabanedo","province":"LEÓN","postalCode":"24010","schedule":"L-D: 07:00-22:00","fuels":{"gasoline95":1.879,"diesel":1.865,"dieselPremium":1.915},"extra":{"saleType":"P","margin":"D","reportingType":"OM","ideess":"6010","idMunicipio":"3721","idProvincia":"24","idCCAA":"08"}}},{"type":"Feature","geometry":{"type":"Point","coordinates":[-5.570611,42.241972]},"properties":{"id":"es-6012","source":"ES","brand":"REPSOL","address":"CARRETERA N-630 KM. 186,300","municipality":"Toral de los Guzmanes","province":"LEÓN","postalCode":"24237","schedule":"L-V: 08:00-22:00; S: 08:00-15:00; D: 08:00-22:00","fuels":{"gasoline95":1.859,"gasoline98":1.999,"diesel":1.799,"dieselPremium":1.829,"adblue":0.739},"extra":{"saleType":"P","margin":"D","reportingType":"dm","ideess":"6012","idMunicipio":"3746","idProvincia":"24","idCCAA":"08"}}},{"type":"Feature","geometry":{"type":"Point","coordinates":[-5.576833,42.322167]},"properties":{"id":"es-6013","source":"ES","brand":"REPSOL","address":"CARRETERA N-630 KM. 176,600","municipality":"Villamañán","province":"LEÓN","postalCode":"24234","schedule":"L-V: 08:00-15:00","fuels":{"gasoline95":1.839,"diesel":1.759,"dieselPremium":1.789,"dieselB":1.599,"adblue":0.699},"extra":{"saleType":"P","margin":"I","reportingType":"dm","ideess":"6013","idMunicipio":"3785","idProvincia":"24","idCCAA":"08"}}},{"type":"Feature","geometry":{"type":"Point","coordinates":[-5.615583,42.590472]},"properties":{"id":"es-6021","source":"ES","brand":"BP LEON - TROBAJO MD","address":"CARRETERA NN 120 KM. 308","municipality":"San Andrés del Rabanedo","province":"LEÓN","postalCode":"24010","schedule":"L-D: 07:00-23:00","fuels":{"gasoline95":1.839,"gasoline98":1.979,"diesel":1.849,"dieselPremium":1.939},"extra":{"saleType":"P","margin":"D","reportingType":"OM","ideess":"6021","idMunicipio":"3721","idProvincia":"24","idCCAA":"08"}}},{"type":"Feature","geometry":{"type":"Point","coordinates":[-5.616,42.590722]},"properties":{"id":"es-6022","source":"ES","brand":"BP LEON - TROBAJO MI","address":"N-120 km 308","municipality":"León","province":"LEÓN","postalCode":"24191","schedule":"L-D: 07:00-23:00","fuels":{"gasoline95":1.839,"diesel":1.849,"dieselPremium":1.939},"extra":{"saleType":"P","margin":"I","reportingType":"OM","ideess":"6022","idMunicipio":"3674","idProvincia":"24","idCCAA":"08"}}},{"type":"Feature","geometry":{"type":"Point","coordinates":[-5.628194,42.792139]},"properties":{"id":"es-6023","source":"ES","brand":"REPSOL","address":"CARRETERA N-630 KM. 121","municipality":"Robla (La)","province":"LEÓN","postalCode":"24640","schedule":"L-D: 07:00-23:00","fuels":{"gasoline95":1.809,"gasoline98":1.979,"diesel":1.969,"dieselRenewable":2.089},"extra":{"saleType":"P","margin":"D","reportingType":"OM","ideess":"6023","idMunicipio":"3716","idProvincia":"24","idCCAA":"08"}}},{"type":"Feature","geometry":{"type":"Point","coordinates":[-5.414389,42.495472]},"properties":{"id":"es-6024","source":"ES","brand":"REPSOL","address":"CR N-601 308","municipality":"Mansilla de las Mulas","province":"LEÓN","postalCode":"24210","schedule":"L-D: 07:00-23:00","fuels":{"gasoline95":1.855,"gasoline98":2.015,"diesel":1.865,"dieselB":1.665,"dieselRenewable":1.975},"extra":{"saleType":"P","margin":"I","reportingType":"OM","ideess":"6024","idMunicipio":"3679","idProvincia":"24","idCCAA":"08"}}},{"type":"Feature","geometry":{"type":"Point","coordinates":[-5.739417,42.352028]},"properties":{"id":"es-6027","source":"ES","brand":"REPSOL","address":"CARRETERA MAYORGA ASTORGA KM. 46","municipality":"Santa María del Páramo","province":"LEÓN","postalCode":"24240","schedule":"L-D: 06:45-22:45","fuels":{"gasoline95":1.865,"gasoline98":2.025,"diesel":1.835,"dieselB":1.639,"dieselRenewable":1.945},"extra":{"saleType":"P","margin":"D","reportingType":"OM","ideess":"6027","idMunicipio":"3736","idProvincia":"24","idCCAA":"08"}}},{"type":"Feature","geometry":{"type":"Point","coordinates":[-5.692611,42.436167]},"properties":{"id":"es-6029","source":"ES","brand":"REPSOL","address":"CARRETERA LEÓN - LA BAÑEZA KM. 17","municipality":"Valdevimbre","province":"LEÓN","postalCode":"24250","schedule":"L-V: 07:00-22:00; S: 08:00-14:00; D: 08:00-22:00","fuels":{"gasoline95":1.859,"diesel":1.829,"dieselPremium":1.909},"extra":{"saleType":"P","margin":"D","reportingType":"OM","ideess":"6029","idMunicipio":"3764","idProvincia":"24","idCCAA":"08"}}},{"type":"Feature","geometry":{"type":"Point","coordinates":[-5.639972,42.613278]},"properties":{"id":"es-6030","source":"ES","brand":"REPSOL","address":"CARRETERA LE-441 KM. 4,6","municipality":"San Andrés del Rabanedo","province":"LEÓN","postalCode":"24191","schedule":"L-S: 09:00-14:30 y 16:30-19:00","fuels":{"gasoline95":1.849,"gasoline98":2.009,"diesel":1.845,"dieselPremium":1.895},"extra":{"saleType":"P","margin":"D","reportingType":"OM","ideess":"6030","idMunicipio":"3721","idProvincia":"24","idCCAA":"08"}}},{"type":"Feature","geometry":{"type":"Point","coordinates":[-5.665556,42.235]},"properties":{"id":"es-6034","source":"ES","brand":"REPSOL","address":"CARRETERA CTRA L411 PKM 11,2 KM. 11","municipality":"Laguna de Negrillos","province":"LEÓN","postalCode":"24234","schedule":"L-V: 08:00-20:30; S: 09:00-20:00; D: 10:00-14:00","fuels":{"gasoline95":1.859,"diesel":1.829,"dieselPremium":1.899},"extra":{"saleType":"P","margin":"D","reportingType":"OM","ideess":"6034","idMunicipio":"3673","idProvincia":"24","idCCAA":"08"}}},{"type":"Feature","geometry":{"type":"Point","coordinates":[-5.583278,42.572556]},"properties":{"id":"es-6039","source":"ES","brand":"REPSOL","address":"CARRETERA N-630 KM. 149","municipality":"León","province":"LEÓN","postalCode":"24009","schedule":"L-D: 07:00-22:00","fuels":{"gasoline95":1.855,"gasoline98":2.015,"diesel":1.865,"dieselPremium":1.915},"extra":{"saleType":"P","margin":"D","reportingType":"OM","ideess":"6039","idMunicipio":"3674","idProvincia":"24","idCCAA":"08"}}},{"type":"Feature","geometry":{"type":"Point","coordinates":[-5.582444,42.570917]},"properties":{"id":"es-6040","source":"ES","brand":"REPSOL","address":"CARRETERA N-630 KM. 149","municipality":"León","province":"LEÓN","postalCode":"24009","schedule":"L-V: 08:00-21:30; S: 08:00-14:00","fuels":{"gasoline95":1.855,"gasoline98":2.015,"diesel":1.865,"dieselPremium":1.915},"extra":{"saleType":"P","margin":"I","reportingType":"OM","ideess":"6040","idMunicipio":"3674","idProvincia":"24","idCCAA":"08"}}},{"type":"Feature","geometry":{"type":"Point","coordinates":[-5.549667,42.622167]},"properties":{"id":"es-6055","source":"ES","brand":"REPSOL","address":"CARRETERA SANTANDER KM. 4,02","municipality":"Villaquilambre","province":"LEÓN","postalCode":"24007","schedule":"L-D: 07:00-23:00","fuels":{"gasoline95":1.859,"gasoline98":2.019,"diesel":1.855,"dieselRenewable":1.965},"extra":{"saleType":"P","margin":"D","reportingType":"OM","ideess":"6055","idMunicipio":"3795","idProvincia":"24","idCCAA":"08"}}},{"type":"Feature","geometry":{"type":"Point","coordinates":[-5.579194,42.604667]},"properties":{"id":"es-6057","source":"ES","brand":"REPSOL","address":"CL CRUZ ROJA DE LEON, S.N.","municipality":"León","province":"LEÓN","postalCode":"24001","schedule":"L-D: 24H","fuels":{"gasoline95":1.875,"gasoline98":2.035,"diesel":1.875,"dieselPremium":1.925,"lpg":1.185},"extra":{"saleType":"P","margin":"D","reportingType":"OM","ideess":"6057","idMunicipio":"3674","idProvincia":"24","idCCAA":"08"}}},{"type":"Feature","geometry":{"type":"Point","coordinates":[-5.518139,42.455528]},"properties":{"id":"es-6061","source":"ES","brand":"REPSOL","address":"CARRETERA A231 KM. 8","municipality":"Villanueva de las Manzanas","province":"LEÓN","postalCode":"24225","schedule":"L-D: 07:00-23:00","fuels":{"gasoline95":1.885,"gasoline98":2.005,"diesel":1.869,"dieselPremium":1.909},"extra":{"saleType":"P","margin":"I","reportingType":"OM","ideess":"6061","idMunicipio":"3791","idProvincia":"24","idCCAA":"08"}}},{"type":"Feature","geometry":{"type":"Point","coordinates":[-5.520889,42.454889]},"properties":{"id":"es-6062","source":"ES","brand":"REPSOL","address":"CARRETERA A231 KM. 8","municipality":"Campo de Villavidel","province":"LEÓN","postalCode":"24225","schedule":"L-D: 07:00-23:00","fuels":{"gasoline95":1.885,"gasoline98":2.005,"diesel":1.859,"dieselPremium":1.909},"extra":{"saleType":"P","margin":"D","reportingType":"OM","ideess":"6062","idMunicipio":"3624","idProvincia":"24","idCCAA":"08"}}},{"type":"Feature","geometry":{"type":"Point","coordinates":[-5.724889,42.540639]},"properties":{"id":"es-6066","source":"ES","brand":"CEPSA","address":"AUTOPISTA AP-71 (MRG.IZDO.) KM. 6,8","municipality":"Valverde de la Virgen","province":"LEÓN","postalCode":"24391","schedule":"L-D: 24H","fuels":{"gasoline95":1.859,"gasoline98":1.959,"diesel":1.874,"dieselPremium":1.944},"extra":{"saleType":"P","margin":"I","reportingType":"OM","ideess":"6066","idMunicipio":"3767","idProvincia":"24","idCCAA":"08"}}},{"type":"Feature","geometry":{"type":"Point","coordinates":[-5.725139,42.541833]},"properties":{"id":"es-6067","source":"ES","brand":"CEPSA","address":"AUTOPISTA AP-71 (MRG.DCHO.) KM. 6,8","municipality":"Valverde de la Virgen","province":"LEÓN","postalCode":"24391","schedule":"L-D: 24H","fuels":{"gasoline95":1.849,"gasoline98":1.959,"diesel":1.884,"dieselPremium":1.954},"extra":{"saleType":"P","margin":"D","reportingType":"OM","ideess":"6067","idMunicipio":"3767","idProvincia":"24","idCCAA":"08"}}},{"type":"Feature","geometry":{"type":"Point","coordinates":[-5.898028,42.304444]},"properties":{"id":"es-6070","source":"ES","brand":"CEPSA","address":"CARRETERA N-VI KM. 302,6","municipality":"Bañeza (La)","province":"LEÓN","postalCode":"24750","schedule":"L-D: 24H","fuels":{"gasoline95":1.849,"gasoline98":1.959,"diesel":1.849,"dieselPremium":1.889,"dieselB":1.5},"extra":{"saleType":"P","margin":"I","reportingType":"dm","ideess":"6070","idMunicipio":"3602","idProvincia":"24","idCCAA":"08"}}},{"type":"Feature","geometry":{"type":"Point","coordinates":[-5.515528,42.296694]},"properties":{"id":"es-6076","source":"ES","brand":"SAENZ DE MIERA SL","address":"AVENIDA PALANQUINOS, 2","municipality":"Valencia de Don Juan","province":"LEÓN","postalCode":"24200","schedule":"L-D: 06:00-00:00","fuels":{"gasoline95":1.799,"gasoline98":1.829,"diesel":1.829,"dieselPremium":1.869,"dieselB":1.639},"extra":{"saleType":"P","margin":"D","reportingType":"dm","ideess":"6076","idMunicipio":"3765","idProvincia":"24","idCCAA":"08"}}},{"type":"Feature","geometry":{"type":"Point","coordinates":[-5.671472,42.002389]},"properties":{"id":"es-6101","source":"ES","brand":"MOEVE","address":"AVENIDA FEDERICO SILVA MUÑOZ, 21","municipality":"Benavente","province":"ZAMORA","postalCode":"49600","schedule":"L-D: 06:00-23:00","fuels":{"gasoline95":1.879,"gasoline95Premium":1.949,"diesel":1.864,"dieselPremium":1.944},"extra":{"saleType":"P","margin":"I","reportingType":"OM","ideess":"6101","idMunicipio":"7588","idProvincia":"49","idCCAA":"08"}}},{"type":"Feature","geometry":{"type":"Point","coordinates":[-5.206722,42.091944]},"properties":{"id":"es-6104","source":"ES","brand":"MOEVE","address":"CARRETERA NACIONAL 6O1 ADANERO A GIJON KM. 259,7","municipality":"Becilla de Valderaduey","province":"VALLADOLID","postalCode":"47670","schedule":"L-V: 07:00-22:00; S-D: 07:30-22:00","fuels":{"gasoline95":1.829,"gasoline98":1.909,"diesel":1.929,"dieselPremium":1.979,"dieselB":1.689},"extra":{"saleType":"P","margin":"D","reportingType":"dm","ideess":"6104","idMunicipio":"7246","idProvincia":"47","idCCAA":"08"}}},{"type":"Feature","geometry":{"type":"Point","coordinates":[-5.683278,42.051889]},"properties":{"id":"es-6159","source":"ES","brand":"MLC","address":"CARRETERA N-VI KM. 267,8","municipality":"Villabrázaro","province":"ZAMORA","postalCode":"49770","schedule":"L: 07:00-23:00","fuels":{"gasoline95":1.899,"diesel":1.851,"dieselPremium":1.921,"dieselB":1.599,"dieselRenewable":2.051,"adblue":0.899},"extra":{"saleType":"P","margin":"D","reportingType":"dm","ideess":"6159","idMunicipio":"7782","idProvincia":"49","idCCAA":"08"}}},{"type":"Feature","geometry":{"type":"Point","coordinates":[-5.650056,42.033167]},"properties":{"id":"es-6187","source":"ES","brand":"REPSOL","address":"CARRETERA NACIONAL 630 KM. 210,1","municipality":"San Cristóbal de Entreviñas","province":"ZAMORA","postalCode":"49690","schedule":"L-V: 07:30-21:30; S: 08:00-15:00; D: 15:00-21:30","fuels":{"gasoline95":1.889,"gasoline98":2.049,"diesel":1.869,"dieselPremium":1.929,"dieselB":1.579},"extra":{"saleType":"P","margin":"I","reportingType":"dm","ideess":"6187","idMunicipio":"7740","idProvincia":"49","idCCAA":"08"}}},{"type":"Feature","geometry":{"type":"Point","coordinates":[-5.032389,42.098056]},"properties":{"id":"es-6252","source":"ES","brand":"REPSOL","address":"CALLE CARCABA, 2","municipality":"Villalón de Campos","province":"VALLADOLID","postalCode":"47600","schedule":"L-V: 07:30-21:30; S: 08:00-15:00","fuels":{"gasoline95":1.905,"diesel":1.885,"dieselPremium":1.955},"extra":{"saleType":"P","margin":"D","reportingType":"OM","ideess":"6252","idMunicipio":"7437","idProvincia":"47","idCCAA":"08"}}},{"type":"Feature","geometry":{"type":"Point","coordinates":[-5.267278,42.160417]},"properties":{"id":"es-6324","source":"ES","brand":"GALP","address":"CARRETERA N-601 KM. 269","municipality":"Mayorga","province":"VALLADOLID","postalCode":"47680","schedule":"L-V: 08:00-22:00; S-D: 09:00-21:00","fuels":{"gasoline95":1.789,"diesel":1.919,"dieselPremium":1.969},"extra":{"saleType":"P","margin":"I","reportingType":"OM","ideess":"6324","idMunicipio":"7314","idProvincia":"47","idCCAA":"08"}}},{"type":"Feature","geometry":{"type":"Point","coordinates":[-5.852722,42.022111]},"properties":{"id":"es-6407","source":"ES","brand":"REPSOL","address":"AUTOVIA A-52 KM. 14,4","municipality":"Quintanilla de Urz","province":"ZAMORA","postalCode":"49622","schedule":"L-D: 07:00-23:00","fuels":{"gasoline95":1.909,"gasoline98":2.019,"diesel":1.869,"dieselRenewable":1.979},"extra":{"saleType":"P","margin":"D","reportingType":"OM","ideess":"6407","idMunicipio":"7722","idProvincia":"49","idCCAA":"08"}}},{"type":"Feature","geometry":{"type":"Point","coordinates":[-5.713278,42.087806]},"properties":{"id":"es-6411","source":"ES","brand":"REPSOL","address":"CARRETERA A6 KM. 273","municipality":"Torre del Valle (La)","province":"ZAMORA","postalCode":"49781","schedule":"L-D: 24H","fuels":{"gasoline95":1.865,"gasoline98":2.025,"diesel":1.865,"dieselPremium":1.965},"extra":{"saleType":"P","margin":"D","reportingType":"OM","ideess":"6411","idMunicipio":"7764","idProvincia":"49","idCCAA":"08"}}},{"type":"Feature","geometry":{"type":"Point","coordinates":[-5.715528,42.089278]},"properties":{"id":"es-6412","source":"ES","brand":"REPSOL","address":"CARRETERA A6 KM. 273","municipality":"Torre del Valle (La)","province":"ZAMORA","postalCode":"49781","schedule":"L-D: 24H","fuels":{"gasoline95":1.865,"gasoline98":2.025,"diesel":1.865,"dieselPremium":1.965},"extra":{"saleType":"P","margin":"I","reportingType":"OM","ideess":"6412","idMunicipio":"7764","idProvincia":"49","idCCAA":"08"}}},{"type":"Feature","geometry":{"type":"Point","coordinates":[-5.59025,42.585083]},"properties":{"id":"es-8048","source":"ES","brand":"SHELL","address":"AVENIDA PORTUGAL, S/N","municipality":"León","province":"LEÓN","postalCode":"24009","schedule":"L-D: 24H","fuels":{"gasoline95":1.709,"gasoline98":1.909,"diesel":1.649,"dieselPremium":1.749},"extra":{"saleType":"P","margin":"D","reportingType":"OM","ideess":"8048","idMunicipio":"3674","idProvincia":"24","idCCAA":"08"}}},{"type":"Feature","geometry":{"type":"Point","coordinates":[-5.563778,42.622389]},"properties":{"id":"es-8068","source":"ES","brand":"SHELL","address":"AVDA.DE LA LIBERTAD, 40","municipality":"Villaquilambre","province":"LEÓN","postalCode":"24193","schedule":"L-D: 06:00-00:00","fuels":{"gasoline95":1.769,"gasoline98":1.909,"diesel":1.739,"dieselPremium":1.819},"extra":{"saleType":"P","margin":"D","reportingType":"OM","ideess":"8068","idMunicipio":"3795","idProvincia":"24","idCCAA":"08"}}},{"type":"Feature","geometry":{"type":"Point","coordinates":[-5.601111,42.587833]},"properties":{"id":"es-8777","source":"ES","brand":"BALLENOIL","address":"AVENIDA AGUSTINOS, 27","municipality":"León","province":"LEÓN","postalCode":"24009","schedule":"L-D: 24H","fuels":{"gasoline95":1.719,"diesel":1.727,"dieselPremium":1.747},"extra":{"saleType":"P","margin":"I","reportingType":"OM","ideess":"8777","idMunicipio":"3674","idProvincia":"24","idCCAA":"08"}}},{"type":"Feature","geometry":{"type":"Point","coordinates":[-5.660472,42.003056]},"properties":{"id":"es-9039","source":"ES","brand":"AVIA","address":"AVENIDA SIMON BOLIVAR, S/N","municipality":"Benavente","province":"ZAMORA","postalCode":"49600","schedule":"L-D: 24H","fuels":{"gasoline95":1.889,"diesel":1.819,"adblue":0.799},"extra":{"saleType":"P","margin":"D","reportingType":"dm","ideess":"9039","idMunicipio":"7588","idProvincia":"49","idCCAA":"08"}}},{"type":"Feature","geometry":{"type":"Point","coordinates":[-5.215694,42.418944]},"properties":{"id":"es-9041","source":"ES","brand":"AVIA","address":"CARRETERA LAS GRAÑERAS KM. S/N","municipality":"Burgo Ranero (El)","province":"LEÓN","postalCode":"24343","schedule":"L-D: 24H","fuels":{"gasoline95":1.869,"gasoline98":1.969,"diesel":1.829,"adblue":0.799},"extra":{"saleType":"P","margin":"D","reportingType":"dm","ideess":"9041","idMunicipio":"3615","idProvincia":"24","idCCAA":"08"}}},{"type":"Feature","geometry":{"type":"Point","coordinates":[-5.894417,42.289694]},"properties":{"id":"es-9044","source":"ES","brand":"AVIA","address":"CARRETERA ALIJA KM. 1,400","municipality":"Bañeza (La)","province":"LEÓN","postalCode":"24750","schedule":"L-D: 24H","fuels":{"gasoline95":1.789,"diesel":1.819,"adblue":0.799},"extra":{"saleType":"P","margin":"I","reportingType":"dm","ideess":"9044","idMunicipio":"3602","idProvincia":"24","idCCAA":"08"}}},{"type":"Feature","geometry":{"type":"Point","coordinates":[-5.849111,42.018889]},"properties":{"id":"es-9470","source":"ES","brand":"REPSOL","address":"AUTOVIA A 52 KM. 15,400","municipality":"Quintanilla de Urz","province":"ZAMORA","postalCode":"49622","schedule":"L: 24H; M-V: 07:00-00:00; S: 00:00-23:00; D: 07:00-23:59","fuels":{"gasoline95":1.969,"gasoline98":2.149,"diesel":1.879,"dieselPremium":2.049,"adblue":1.409},"extra":{"saleType":"P","margin":"I","reportingType":"dm","ideess":"9470","idMunicipio":"7722","idProvincia":"49","idCCAA":"08"}}},{"type":"Feature","geometry":{"type":"Point","coordinates":[-5.840944,42.009222]},"properties":{"id":"es-9487","source":"ES","brand":"AGROPAL","address":"CTRA RIO CHICO km S/N","municipality":"Quiruelas de Vidriales","province":"ZAMORA","postalCode":"49622","schedule":"L-V: 09:00-13:30 y 16:00-18:30; S: 09:00-13:30","fuels":{"dieselB":1.428},"extra":{"saleType":"P","margin":"N","reportingType":"dm","ideess":"9487","idMunicipio":"7725","idProvincia":"49","idCCAA":"08"}}},{"type":"Feature","geometry":{"type":"Point","coordinates":[-5.60025,42.141389]},"properties":{"id":"es-9505","source":"ES","brand":"AGROPAL","address":"CARRETERA VILLAFER  EN  VILLAQUEJIDA KM. 1","municipality":"Villaquejida","province":"LEÓN","postalCode":"24235","schedule":"L-V: 09:00-13:30 y 16:00-18:30; S: 09:00-13:30","fuels":{"diesel":1.757,"dieselB":1.428},"extra":{"saleType":"P","margin":"D","reportingType":"dm","ideess":"9505","idMunicipio":"3794","idProvincia":"24","idCCAA":"08"}}},{"type":"Feature","geometry":{"type":"Point","coordinates":[-5.566194,42.251222]},"properties":{"id":"es-9509","source":"ES","brand":"AGROPAL","address":"CARRETERA VALENCIA DE DON JUAN KM. SN","municipality":"Toral de los Guzmanes","province":"LEÓN","postalCode":"24237","schedule":"L-V: 09:00-13:30 y 16:00-18:30; S: 09:00-13:30","fuels":{"diesel":1.757,"dieselB":1.428},"extra":{"saleType":"P","margin":"D","reportingType":"dm","ideess":"9509","idMunicipio":"3746","idProvincia":"24","idCCAA":"08"}}},{"type":"Feature","geometry":{"type":"Point","coordinates":[-5.801917,42.218889]},"properties":{"id":"es-9511","source":"ES","brand":"AGROPAL","address":"CARRETERA CT.ESTACION DE VALCABADO-VILLADANGOS S/N KM. ","municipality":"Roperuelos del Páramo","province":"LEÓN","postalCode":"24790","schedule":"L-V: 09:00-13:30 y 16:00-18:30; S: 09:00-13:30","fuels":{"dieselB":1.428},"extra":{"saleType":"P","margin":"N","reportingType":"dm","ideess":"9511","idMunicipio":"3717","idProvincia":"24","idCCAA":"08"}}},{"type":"Feature","geometry":{"type":"Point","coordinates":[-5.271028,42.161139]},"properties":{"id":"es-9626","source":"ES","brand":"AGROPAL","address":"CALLE DISEMINADOS, 17","municipality":"Mayorga","province":"VALLADOLID","postalCode":"47680","schedule":"L-D: 24H","fuels":{"gasoline95":1.617,"diesel":1.757},"extra":{"saleType":"P","margin":"I","reportingType":"dm","ideess":"9626","idMunicipio":"7314","idProvincia":"47","idCCAA":"08"}}},{"type":"Feature","geometry":{"type":"Point","coordinates":[-5.556528,42.60825]},"properties":{"id":"es-9670","source":"ES","brand":"MOEVE","address":"CALLE LA SERNA, 86","municipality":"León","province":"LEÓN","postalCode":"24007","schedule":"L-D: 24H","fuels":{"gasoline95":1.829,"gasoline98":1.949,"diesel":1.864,"dieselPremium":1.934,"lpg":1.199},"extra":{"saleType":"P","margin":"D","reportingType":"OM","ideess":"9670","idMunicipio":"3674","idProvincia":"24","idCCAA":"08"}}},{"type":"Feature","geometry":{"type":"Point","coordinates":[-5.497806,42.45575]},"properties":{"id":"es-9782","source":"ES","brand":"ES ESLA","address":"CALLE ALMIRANTE MARTIN GRANIZO, 53","municipality":"Villanueva de las Manzanas","province":"LEÓN","postalCode":"24225","schedule":"S: 07:00-15:00","fuels":{"gasoline95":1.86,"diesel":1.84},"extra":{"saleType":"P","margin":"D","reportingType":"dm","ideess":"9782","idMunicipio":"3791","idProvincia":"24","idCCAA":"08"}}}]}