{"type":"FeatureCollection","features":[{"type":"Feature","geometry":{"type":"Point","coordinates":[-2.825389,39.484833]},"properties":{"id":"es-10610","source":"ES","brand":"CEPSA","address":"AUTOPISTA AP-36 (MRG.DCHO.) KM. 84","municipality":"Santa María de los Llanos","province":"CUENCA","postalCode":"16639","schedule":"L-D: 24H","fuels":{"gasoline95":1.794,"gasoline95Premium":1.884,"diesel":1.934,"dieselPremium":2.034},"extra":{"saleType":"P","margin":"D","reportingType":"OM","ideess":"10610","idMunicipio":"2384","idProvincia":"16","idCCAA":"07"}}},{"type":"Feature","geometry":{"type":"Point","coordinates":[-2.824472,39.485972]},"properties":{"id":"es-10611","source":"ES","brand":"CEPSA","address":"AUTOPISTA AP-36 (MRG.IZDO.) KM. 84","municipality":"Santa María de los Llanos","province":"CUENCA","postalCode":"16639","schedule":"L-D: 24H","fuels":{"gasoline95":1.794,"gasoline95Premium":1.884,"diesel":1.934,"dieselPremium":2.034},"extra":{"saleType":"P","margin":"I","reportingType":"OM","ideess":"10611","idMunicipio":"2384","idProvincia":"16","idCCAA":"07"}}},{"type":"Feature","geometry":{"type":"Point","coordinates":[-2.587889,39.413333]},"properties":{"id":"es-10949","source":"ES","brand":"CEPSA","address":"AUTOPISTA AP-36 (MRG.IZDO.) KM. 120","municipality":"Provencio (El)","province":"CUENCA","postalCode":"16670","schedule":"L-D: 24H","fuels":{"gasoline95":1.789,"gasoline98":1.939,"diesel":1.954,"dieselPremium":2.054},"extra":{"saleType":"P","margin":"I","reportingType":"dm","ideess":"10949","idMunicipio":"2366","idProvincia":"16","idCCAA":"07"}}},{"type":"Feature","geometry":{"type":"Point","coordinates":[-2.407889,39.394028]},"properties":{"id":"es-10981","source":"ES","brand":"MOEVE","address":"AUTOVIA A-43 (MRG.DCHO.) KM. 430,1","municipality":"San Clemente","province":"CUENCA","postalCode":"16600","schedule":"L-D: 07:00-23:00","fuels":{"gasoline95":1.769,"gasoline98":1.899,"diesel":1.924,"dieselPremium":2.004},"extra":{"saleType":"P","margin":"D","reportingType":"dm","ideess":"10981","idMunicipio":"2379","idProvincia":"16","idCCAA":"07"}}},{"type":"Feature","geometry":{"type":"Point","coordinates":[-2.409139,39.395083]},"properties":{"id":"es-10982","source":"ES","brand":"MOEVE","address":"AUTOVIA A-43 (MRG.IZDO.) KM. 430,1","municipality":"San Clemente","province":"CUENCA","postalCode":"16600","schedule":"L-D: 24H","fuels":{"gasoline95":1.784,"gasoline95Premium":1.884,"diesel":1.924,"dieselPremium":2.024},"extra":{"saleType":"P","margin":"I","reportingType":"OM","ideess":"10982","idMunicipio":"2379","idProvincia":"16","idCCAA":"07"}}},{"type":"Feature","geometry":{"type":"Point","coordinates":[-2.589,39.412194]},"properties":{"id":"es-11054","source":"ES","brand":"CEPSA","address":"AUTOPISTA AP-36 (MRG.DCHO.) KM. 120","municipality":"Provencio (El)","province":"CUENCA","postalCode":"16670","schedule":"L-D: 07:00-23:00","fuels":{"gasoline95":1.845,"gasoline98":1.995,"diesel":1.989,"dieselPremium":2.089},"extra":{"saleType":"P","margin":"D","reportingType":"dm","ideess":"11054","idMunicipio":"2366","idProvincia":"16","idCCAA":"07"}}},{"type":"Feature","geometry":{"type":"Point","coordinates":[-2.38575,39.686833]},"properties":{"id":"es-11136","source":"ES","brand":"PLUS-24","address":"CARRETERA MADRID-VALENCIA km 155","municipality":"Almarcha (La)","province":"CUENCA","postalCode":"16740","schedule":"L-D: 06:00-02:00","fuels":{"gasoline95":1.749,"diesel":1.859,"adblue":0.88},"extra":{"saleType":"P","margin":"N","reportingType":"dm","ideess":"11136","idMunicipio":"2226","idProvincia":"16","idCCAA":"07"}}},{"type":"Feature","geometry":{"type":"Point","coordinates":[-2.156278,39.484889]},"properties":{"id":"es-11199","source":"ES","brand":"DILAMOR","address":"ENLACE CU-V-8307/A3 KM 186,400 km 1,6","municipality":"Tébar","province":"CUENCA","postalCode":"16710","schedule":"L-D: 07:00-23:30","fuels":{"gasoline95":1.699,"diesel":1.869,"adblue":0.81},"extra":{"saleType":"P","margin":"I","reportingType":"dm","ideess":"11199","idMunicipio":"2392","idProvincia":"16","idCCAA":"07"}}},{"type":"Feature","geometry":{"type":"Point","coordinates":[-2.280694,39.602528]},"properties":{"id":"es-11201","source":"ES","brand":"BP MOYA - HONRUBIA","address":"AUTOVIA A-3 KM. 168","municipality":"Honrubia","province":"CUENCA","postalCode":"16730","schedule":"L-D: 24H","fuels":{"gasoline95":1.749,"gasoline98":1.889,"diesel":1.915,"dieselPremium":2.005,"adblue":0.999},"extra":{"saleType":"P","margin":"I","reportingType":"dm","ideess":"11201","idMunicipio":"2305","idProvincia":"16","idCCAA":"07"}}},{"type":"Feature","geometry":{"type":"Point","coordinates":[-2.144639,39.200944]},"properties":{"id":"es-11427","source":"ES","brand":"REPSOL","address":"AUTOVIA A-31 KM. 40","municipality":"Roda (La)","province":"ALBACETE","postalCode":"02630","schedule":"L-D: 06:00-22:00","fuels":{"gasoline95":1.775,"gasoline98":1.895,"diesel":1.939,"dieselPremium":2.019},"extra":{"saleType":"P","margin":"D","reportingType":"OM","ideess":"11427","idMunicipio":"121","idProvincia":"02","idCCAA":"07"}}},{"type":"Feature","geometry":{"type":"Point","coordinates":[-2.937778,39.396167]},"properties":{"id":"es-11483","source":"ES","brand":"SUMNISTROS AGRICOLAS DE PEDRO MUÑOZ S. COOP. DE C-LM","address":"CARRETERA PEDRO MUÑOZ A SOCUELLAMOS KM. 1","municipality":"Pedro Muñoz","province":"CIUDAD REAL","postalCode":"13620","schedule":"L-D: 24H","fuels":{"diesel":1.719,"dieselB":1.34,"adblue":0.75},"extra":{"saleType":"P","margin":"D","reportingType":"dm","ideess":"11483","idMunicipio":"2003","idProvincia":"13","idCCAA":"07"}}},{"type":"Feature","geometry":{"type":"Point","coordinates":[-2.782694,39.277639]},"properties":{"id":"es-11657","source":"ES","brand":"OLIVARERA DE SOCUELLAMOS, S.COOP. DE C-LM","address":"POLIGONO EL LLANO, CALLE A, PARCELA, 134","municipality":"Socuéllamos","province":"CIUDAD REAL","postalCode":"13630","schedule":"L-D: 24H","fuels":{"diesel":1.638,"dieselB":1.328},"extra":{"saleType":"P","margin":"N","reportingType":"dm","ideess":"11657","idMunicipio":"2022","idProvincia":"13","idCCAA":"07"}}},{"type":"Feature","geometry":{"type":"Point","coordinates":[-2.586778,39.258778]},"properties":{"id":"es-11797","source":"ES","brand":"REPSOL","address":"AUTOVIA A-43 KM. 129","municipality":"Villarrobledo","province":"ALBACETE","postalCode":"02600","schedule":"L-D: 24H","fuels":{"gasoline95":1.705,"gasoline98":1.885,"diesel":1.889,"dieselRenewable":1.999},"extra":{"saleType":"P","margin":"D","reportingType":"dm","ideess":"11797","idMunicipio":"133","idProvincia":"02","idCCAA":"07"}}},{"type":"Feature","geometry":{"type":"Point","coordinates":[-2.591722,39.277056]},"properties":{"id":"es-11976","source":"ES","brand":"BP VILLARROBLEDO","address":"AVENIDA REYES CATOLICOS, 133","municipality":"Villarrobledo","province":"ALBACETE","postalCode":"02600","schedule":"L-D: 06:00-22:00","fuels":{"gasoline95":1.729,"gasoline98":1.869,"diesel":1.899,"dieselPremium":1.989,"adblue":1.125},"extra":{"saleType":"P","margin":"D","reportingType":"OM","ideess":"11976","idMunicipio":"133","idProvincia":"02","idCCAA":"07"}}},{"type":"Feature","geometry":{"type":"Point","coordinates":[-2.806417,39.286639]},"properties":{"id":"es-12006","source":"ES","brand":"FELIX FOOD LOGISTICS, S.L.","address":"CALLE CAMPO DE CRIPTANA, 29","municipality":"Socuéllamos","province":"CIUDAD REAL","postalCode":"13630","schedule":"L-V: 08:00-14:00 y 16:00-21:00; S: 08:00-14:00","fuels":{"diesel":1.69,"adblue":0.85},"extra":{"saleType":"P","margin":"N","reportingType":"dm","ideess":"12006","idMunicipio":"2022","idProvincia":"13","idCCAA":"07"}}},{"type":"Feature","geometry":{"type":"Point","coordinates":[-2.591111,39.276917]},"properties":{"id":"es-12015","source":"ES","brand":"PLENERGY","address":"AVENIDA REYES CATOLICOS, 138","municipality":"Villarrobledo","province":"ALBACETE","postalCode":"02600","schedule":"L-D: 24H","fuels":{"gasoline95":1.625,"diesel":1.739},"extra":{"saleType":"P","margin":"D","reportingType":"dm","ideess":"12015","idMunicipio":"133","idProvincia":"02","idCCAA":"07"}}},{"type":"Feature","geometry":{"type":"Point","coordinates":[-2.426222,39.562389]},"properties":{"id":"es-12108","source":"ES","brand":"CARBURANTES MUÑOZ PORRAS","address":"CALLE CAMINO DEL CEMENTERIO, 3","municipality":"Santa María del Campo Rus","province":"CUENCA","postalCode":"16621","schedule":"L-D: 24H","fuels":{"diesel":1.739,"dieselB":1.33},"extra":{"saleType":"P","margin":"N","reportingType":"dm","ideess":"12108","idMunicipio":"2385","idProvincia":"16","idCCAA":"07"}}},{"type":"Feature","geometry":{"type":"Point","coordinates":[-2.708528,39.205194]},"properties":{"id":"es-12146","source":"ES","brand":"MOEVE","address":"AUTOVIA A-43 KM. 390","municipality":"Villarrobledo","province":"ALBACETE","postalCode":"02600","schedule":"L-D: 06:00-23:59","fuels":{"gasoline95":1.744,"gasoline95Premium":1.834,"diesel":1.904,"dieselPremium":1.974},"extra":{"saleType":"P","margin":"I","reportingType":"OM","ideess":"12146","idMunicipio":"133","idProvincia":"02","idCCAA":"07"}}},{"type":"Feature","geometry":{"type":"Point","coordinates":[-2.040278,39.383083]},"properties":{"id":"es-12448","source":"ES","brand":"U.S. DAVID COLLADO","address":"AVENIDA DE LA INDUSTRIA, 11","municipality":"Casasimarro","province":"CUENCA","postalCode":"16239","schedule":"L-D: 24H","fuels":{"gasoline95":1.619,"diesel":1.779},"extra":{"saleType":"P","margin":"N","reportingType":"dm","ideess":"12448","idMunicipio":"2273","idProvincia":"16","idCCAA":"07"}}},{"type":"Feature","geometry":{"type":"Point","coordinates":[-2.158028,39.218389]},"properties":{"id":"es-13480","source":"ES","brand":"GASPLAY","address":"CARRETERA AB101 KM. 0,2","municipality":"Roda (La)","province":"ALBACETE","postalCode":"02630","schedule":"L-D: 24H","fuels":{"gasoline95":1.479,"diesel":1.669,"adblue":0.7},"extra":{"saleType":"P","margin":"N","reportingType":"dm","ideess":"13480","idMunicipio":"121","idProvincia":"02","idCCAA":"07"}}},{"type":"Feature","geometry":{"type":"Point","coordinates":[-2.161972,39.485778]},"properties":{"id":"es-13971","source":"ES","brand":"BEROIL","address":"AUTOVIA DISEMINADOS POLIGONO 511 PARCELA 39 KM. 386","municipality":"Tébar","province":"CUENCA","postalCode":"16710","schedule":"L-D: 24H","fuels":{"gasoline95":1.649,"diesel":1.719,"dieselB":1.399,"adblue":0.6},"extra":{"saleType":"P","margin":"D","reportingType":"dm","ideess":"13971","idMunicipio":"2392","idProvincia":"16","idCCAA":"07"}}},{"type":"Feature","geometry":{"type":"Point","coordinates":[-2.134056,39.358806]},"properties":{"id":"es-14061","source":"ES","brand":"E.S. LA CUESTA","address":"CARRETERA CUV-8307 KM. 23700","municipality":"Casas de Benítez","province":"CUENCA","postalCode":"16707","schedule":"L-D: 24H","fuels":{"gasoline95":1.569,"diesel":1.729},"extra":{"saleType":"P","margin":"N","reportingType":"dm","ideess":"14061","idMunicipio":"2267","idProvincia":"16","idCCAA":"07"}}},{"type":"Feature","geometry":{"type":"Point","coordinates":[-2.160528,39.654583]},"properties":{"id":"es-14456","source":"ES","brand":"GRUPO BARAMBIO","address":"CALLE MADRID, 15","municipality":"Buenache de Alarcón","province":"CUENCA","postalCode":"16114","schedule":"L-D: 24H","fuels":{"gasoline95":1.745,"diesel":1.919,"dieselB":1.3},"extra":{"saleType":"P","margin":"D","reportingType":"dm","ideess":"14456","idMunicipio":"2247","idProvincia":"16","idCCAA":"07"}}},{"type":"Feature","geometry":{"type":"Point","coordinates":[-2.596944,39.266417]},"properties":{"id":"es-14804","source":"ES","brand":"PLENERGY","address":"CALLE GENERAL MARTI, 2","municipality":"Villarrobledo","province":"ALBACETE","postalCode":"02600","schedule":"L-D: 24H","fuels":{"gasoline95":1.625,"diesel":1.739},"extra":{"saleType":"P","margin":"D","reportingType":"dm","ideess":"14804","idMunicipio":"133","idProvincia":"02","idCCAA":"07"}}},{"type":"Feature","geometry":{"type":"Point","coordinates":[-2.143056,39.19125]},"properties":{"id":"es-14811","source":"ES","brand":"HAM","address":"POLIGONO AVENIDA PRIMERA, 17","municipality":"Roda (La)","province":"ALBACETE","postalCode":"02630","schedule":"L-D: 24H","fuels":{"cng":1.574,"lng":1.529,"bioCng":1.554,"bioLng":1.499},"extra":{"saleType":"P","margin":"D","reportingType":"dm","ideess":"14811","idMunicipio":"121","idProvincia":"02","idCCAA":"07"}}},{"type":"Feature","geometry":{"type":"Point","coordinates":[-2.796722,39.915194]},"properties":{"id":"es-15169","source":"ES","brand":"STAROIL","address":"TRAVESÍA CR VIEJA MADRID-VALENCIA, S/N","municipality":"Saelices","province":"CUENCA","postalCode":"16430","schedule":"L-D: 24H","fuels":{"gasoline95":1.699,"diesel":1.858,"dieselPremium":1.899,"adblue":1.099},"extra":{"saleType":"P","margin":"I","reportingType":"dm","ideess":"15169","idMunicipio":"2375","idProvincia":"16","idCCAA":"07"}}},{"type":"Feature","geometry":{"type":"Point","coordinates":[-2.583361,39.283917]},"properties":{"id":"es-15192","source":"ES","brand":"GALERA AREAS DE SERVICIO","address":"CALLE NOBEL, 64","municipality":"Villarrobledo","province":"ALBACETE","postalCode":"02600","schedule":"L-D: 24H","fuels":{"gasoline95":1.609,"diesel":1.719,"dieselPremium":1.729,"adblue":0.699},"extra":{"saleType":"P","margin":"N","reportingType":"dm","ideess":"15192","idMunicipio":"133","idProvincia":"02","idCCAA":"07"}}},{"type":"Feature","geometry":{"type":"Point","coordinates":[-2.583778,39.282167]},"properties":{"id":"es-15264","source":"ES","brand":"COMBUSTIBLES FIEL, S.L.","address":"CALLE ARQUIMEDES, 62","municipality":"Villarrobledo","province":"ALBACETE","postalCode":"02600","schedule":"L-S: 07:00-22:00","fuels":{"gasoline95":1.629,"diesel":1.749,"dieselB":1.595,"adblue":0.699},"extra":{"saleType":"P","margin":"N","reportingType":"dm","ideess":"15264","idMunicipio":"133","idProvincia":"02","idCCAA":"07"}}},{"type":"Feature","geometry":{"type":"Point","coordinates":[-2.827167,39.608722]},"properties":{"id":"es-15380","source":"ES","brand":"MEROIL","address":"CALLE JOSE ANTONIO VALVELDE 41, 0,400","municipality":"Hinojosos (Los)","province":"CUENCA","postalCode":"16417","schedule":"L-D: 07:00-22:00","fuels":{"gasoline95":1.659,"diesel":1.719},"extra":{"saleType":"P","margin":"I","reportingType":"dm","ideess":"15380","idMunicipio":"2303","idProvincia":"16","idCCAA":"07"}}},{"type":"Feature","geometry":{"type":"Point","coordinates":[-2.587083,39.268472]},"properties":{"id":"es-15524","source":"ES","brand":"MOLGAS","address":"CALLE FERNANDO ZEPPELIN, 13","municipality":"Villarrobledo","province":"ALBACETE","postalCode":"02600","schedule":"L-D: 00:00-23:59","fuels":{"lng":1.579},"extra":{"saleType":"P","margin":"D","reportingType":"dm","ideess":"15524","idMunicipio":"133","idProvincia":"02","idCCAA":"07"}}},{"type":"Feature","geometry":{"type":"Point","coordinates":[-2.590194,39.278333]},"properties":{"id":"es-15620","source":"ES","brand":"PAÑALON","address":"AVENIDA REYES CATOLICOS, 150","municipality":"Villarrobledo","province":"ALBACETE","postalCode":"02600","schedule":"L-D: 24H","fuels":{"diesel":1.899,"adblue":1.2},"extra":{"saleType":"P","margin":"D","reportingType":"dm","ideess":"15620","idMunicipio":"133","idProvincia":"02","idCCAA":"07"}}},{"type":"Feature","geometry":{"type":"Point","coordinates":[-2.943833,39.394028]},"properties":{"id":"es-16142","source":"ES","brand":"SHELL","address":"AVENIDA JUAN CARLOS I, 99","municipality":"Pedro Muñoz","province":"CIUDAD REAL","postalCode":"13620","schedule":"L-D: 06:00-22:00","fuels":{"gasoline95":1.745,"diesel":1.905,"dieselPremium":1.955,"adblue":0.89},"extra":{"saleType":"P","margin":"D","reportingType":"dm","ideess":"16142","idMunicipio":"2003","idProvincia":"13","idCCAA":"07"}}},{"type":"Feature","geometry":{"type":"Point","coordinates":[-2.201361,39.410333]},"properties":{"id":"es-16333","source":"ES","brand":"NTRO. PADRE JESUS NAZARENO, SDAD. COOP DE CLM","address":"CALLE DEPORTES,, 4","municipality":"Sisante","province":"CUENCA","postalCode":"16700","schedule":"L-D: 24H","fuels":{"diesel":1.707,"dieselB":1.37},"extra":{"saleType":"P","margin":"N","reportingType":"dm","ideess":"16333","idMunicipio":"2387","idProvincia":"16","idCCAA":"07"}}},{"type":"Feature","geometry":{"type":"Point","coordinates":[-2.147972,39.200528]},"properties":{"id":"es-16431","source":"ES","brand":"GASPLAY","address":"CALLE ALFREDO ATIENZA, 168","municipality":"Roda (La)","province":"ALBACETE","postalCode":"02630","schedule":"L-D: 24H","fuels":{"gasoline95":1.479,"diesel":1.669,"adblue":0.7},"extra":{"saleType":"P","margin":"D","reportingType":"dm","ideess":"16431","idMunicipio":"121","idProvincia":"02","idCCAA":"07"}}},{"type":"Feature","geometry":{"type":"Point","coordinates":[-2.407778,39.406361]},"properties":{"id":"es-16497","source":"ES","brand":"VEN Y VEN OIL","address":"POLIGONO INDUSTRIAL SAN JOSE CALLE A, 33","municipality":"San Clemente","province":"CUENCA","postalCode":"16600","schedule":"L-D: 24H","fuels":{"gasoline95":1.639,"diesel":1.799,"dieselPremium":1.849,"dieselB":1.405,"lpg":1.059},"extra":{"saleType":"P","margin":"D","reportingType":"dm","ideess":"16497","idMunicipio":"2379","idProvincia":"16","idCCAA":"07"}}},{"type":"Feature","geometry":{"type":"Point","coordinates":[-2.617083,39.27225]},"properties":{"id":"es-4368","source":"ES","brand":"MOEVE","address":"CARRETERA DE LAS MESAS KM. 005","municipality":"Villarrobledo","province":"ALBACETE","postalCode":"02600","schedule":"L-D: 06:00-22:30","fuels":{"gasoline95":1.729,"gasoline95Premium":1.819,"diesel":1.879,"dieselPremium":1.969,"dieselB":1.619,"adblue":0.899},"extra":{"saleType":"P","margin":"N","reportingType":"dm","ideess":"4368","idMunicipio":"133","idProvincia":"02","idCCAA":"07"}}},{"type":"Feature","geometry":{"type":"Point","coordinates":[-2.195139,39.043139]},"properties":{"id":"es-4399","source":"ES","brand":"E.S. BARRAX S.L.","address":"CALLE ALBACETE, 57","municipality":"Barrax","province":"ALBACETE","postalCode":"02639","schedule":"L-D: 06:00-22:00","fuels":{"gasoline95":1.769,"diesel":1.895,"dieselB":1.599},"extra":{"saleType":"P","margin":"I","reportingType":"dm","ideess":"4399","idMunicipio":"66","idProvincia":"02","idCCAA":"07"}}},{"type":"Feature","geometry":{"type":"Point","coordinates":[-2.993944,39.161167]},"properties":{"id":"es-4426","source":"ES","brand":"FAMILY ENERGY","address":"CARRETERA N-310 KM. 93","municipality":"Tomelloso","province":"CIUDAD REAL","postalCode":"13700","schedule":"L-S: 08:00-22:00","fuels":{"gasoline95":1.499,"gasoline98":1.629,"diesel":1.599},"extra":{"saleType":"P","margin":"N","reportingType":"dm","ideess":"4426","idMunicipio":"2026","idProvincia":"13","idCCAA":"07"}}},{"type":"Feature","geometry":{"type":"Point","coordinates":[-2.579639,39.285722]},"properties":{"id":"es-4442","source":"ES","brand":"CARREFOUR","address":"AVENIDA REYES CATÓLICOS (APARCAMIENTO DEL CARREFOUR), S/N","municipality":"Villarrobledo","province":"ALBACETE","postalCode":"02600","schedule":"L-S: 08:00-22:00","fuels":{"gasoline95":1.669,"gasoline98":1.849,"diesel":1.849,"dieselPremium":1.889},"extra":{"saleType":"P","margin":"N","reportingType":"dm","ideess":"4442","idMunicipio":"133","idProvincia":"02","idCCAA":"07"}}},{"type":"Feature","geometry":{"type":"Point","coordinates":[-2.166139,39.770444]},"properties":{"id":"es-4776","source":"ES","brand":"MEROIL","address":"CARRETERA CM-2100   CUENCA-ALBACETE KM. 32,940","municipality":"Valeras (Las)","province":"CUENCA","postalCode":"16120","schedule":"L-S: 07:00-21:00; D: 08:00-15:00 y 16:30-21:00","fuels":{"gasoline95":1.839,"diesel":2.019},"extra":{"saleType":"P","margin":"D","reportingType":"dm","ideess":"4776","idMunicipio":"2410","idProvincia":"16","idCCAA":"07"}}},{"type":"Feature","geometry":{"type":"Point","coordinates":[-2.599417,39.261472]},"properties":{"id":"es-4785","source":"ES","brand":"CEPSA","address":"AVENIDA REYES CATOLICOS, 26","municipality":"Villarrobledo","province":"ALBACETE","postalCode":"02600","schedule":"L-V: 07:00-21:00; S: 08:00-13:00","fuels":{"gasoline95":1.744,"diesel":1.904,"dieselPremium":1.974},"extra":{"saleType":"P","margin":"D","reportingType":"OM","ideess":"4785","idMunicipio":"133","idProvincia":"02","idCCAA":"07"}}},{"type":"Feature","geometry":{"type":"Point","coordinates":[-2.681611,39.455389]},"properties":{"id":"es-4811","source":"ES","brand":"PEDROGAS S.L. (JULIO CHARCO)","address":"CALLE JORGE MANRIQUE, 1","municipality":"Pedroñeras (Las)","province":"CUENCA","postalCode":"16660","schedule":"L-V: 06:00-22:00; S: 07:00-22:00; D: 08:00-14:00","fuels":{"gasoline95":1.689,"gasoline98":1.859,"diesel":1.869,"dieselB":1.459,"adblue":0.779},"extra":{"saleType":"P","margin":"I","reportingType":"dm","ideess":"4811","idMunicipio":"2350","idProvincia":"16","idCCAA":"07"}}},{"type":"Feature","geometry":{"type":"Point","coordinates":[-2.200972,39.361667]},"properties":{"id":"es-4818","source":"ES","brand":"REPSOL","address":"AUTOVIA A-31 SALIDA19 KM. 19","municipality":"Pozoamargo","province":"CUENCA","postalCode":"16708","schedule":"L-D: 06:00-23:00","fuels":{"gasoline95":1.779,"gasoline98":1.949,"diesel":1.915,"dieselPremium":2.025},"extra":{"saleType":"P","margin":"I","reportingType":"OM","ideess":"4818","idMunicipio":"2361","idProvincia":"16","idCCAA":"07"}}},{"type":"Feature","geometry":{"type":"Point","coordinates":[-2.671694,39.442944]},"properties":{"id":"es-4830","source":"ES","brand":"CEPSA","address":"CARRETERA N-301 KM. 160","municipality":"Pedroñeras (Las)","province":"CUENCA","postalCode":"16660","schedule":"L-D: 06:00-22:00","fuels":{"gasoline95":1.794,"gasoline95Premium":1.894,"gasoline98":1.954,"diesel":1.934,"dieselPremium":2.024},"extra":{"saleType":"P","margin":"I","reportingType":"OM","ideess":"4830","idMunicipio":"2350","idProvincia":"16","idCCAA":"07"}}},{"type":"Feature","geometry":{"type":"Point","coordinates":[-2.577083,39.864361]},"properties":{"id":"es-4843","source":"ES","brand":"REPSOL","address":"CAMINO CAMINO CASALONGA, ,120","municipality":"Villares del Saz","province":"CUENCA","postalCode":"16442","schedule":"L-D: 07:00-23:00","fuels":{"gasoline95":1.765,"gasoline98":1.885,"diesel":1.929,"dieselPremium":2.039},"extra":{"saleType":"P","margin":"D","reportingType":"OM","ideess":"4843","idMunicipio":"2438","idProvincia":"16","idCCAA":"07"}}},{"type":"Feature","geometry":{"type":"Point","coordinates":[-2.438556,39.392028]},"properties":{"id":"es-4853","source":"ES","brand":"REPSOL","address":"CARRETERA NACIONAL 310 KM. 153,3","municipality":"San Clemente","province":"CUENCA","postalCode":"16600","schedule":"L-D: 07:00-22:00","fuels":{"gasoline95":1.755,"diesel":1.897,"dieselPremium":1.957,"dieselB":1.39,"adblue":1.24},"extra":{"saleType":"P","margin":"I","reportingType":"dm","ideess":"4853","idMunicipio":"2379","idProvincia":"16","idCCAA":"07"}}},{"type":"Feature","geometry":{"type":"Point","coordinates":[-2.744389,39.9135]},"properties":{"id":"es-4855","source":"ES","brand":"REPSOL","address":"CARRETERA CRTA. N-III KM. 108,4","municipality":"Huete","province":"CUENCA","postalCode":"16500","schedule":"L-D: 24H","fuels":{"gasoline95":1.779,"gasoline98":1.919,"diesel":1.919,"dieselPremium":1.999},"extra":{"saleType":"P","margin":"I","reportingType":"dm","ideess":"4855","idMunicipio":"2314","idProvincia":"16","idCCAA":"07"}}},{"type":"Feature","geometry":{"type":"Point","coordinates":[-2.743472,39.912]},"properties":{"id":"es-4856","source":"ES","brand":"REPSOL","address":"AUTOVIA CRTRA. N-III KM. 108,4","municipality":"Huete","province":"CUENCA","postalCode":"16500","schedule":"L-D: 24H","fuels":{"gasoline95":1.779,"gasoline98":1.919,"diesel":1.919,"dieselPremium":1.999,"adblue":1.509},"extra":{"saleType":"P","margin":"D","reportingType":"dm","ideess":"4856","idMunicipio":"2314","idProvincia":"16","idCCAA":"07"}}},{"type":"Feature","geometry":{"type":"Point","coordinates":[-2.60975,39.872806]},"properties":{"id":"es-4868","source":"ES","brand":"REPSOL","address":"AUTOVIA CARRETERA NACIONAL A3\t\t\t KM. KM 121,300\t\t\t","municipality":"Zafra de Záncara","province":"CUENCA","postalCode":"16771","schedule":"L-D: 07:00-23:00","fuels":{"gasoline95":1.765,"gasoline95Premium":1.845,"gasoline98":1.885,"diesel":1.929,"dieselPremium":2.039},"extra":{"saleType":"P","margin":"I","reportingType":"OM","ideess":"4868","idMunicipio":"2446","idProvincia":"16","idCCAA":"07"}}},{"type":"Feature","geometry":{"type":"Point","coordinates":[-2.330556,39.63825]},"properties":{"id":"es-4870","source":"ES","brand":"MOEVE","address":"AUTOVIA A-3 KM. 161,9","municipality":"Castillo de Garcimuñoz","province":"CUENCA","postalCode":"16623","schedule":"L-D: 24H","fuels":{"gasoline95":1.794,"gasoline95Premium":1.884,"diesel":1.924,"dieselPremium":1.984,"dieselRenewable":2.074},"extra":{"saleType":"P","margin":"D","reportingType":"OM","ideess":"4870","idMunicipio":"2277","idProvincia":"16","idCCAA":"07"}}},{"type":"Feature","geometry":{"type":"Point","coordinates":[-2.328028,39.638556]},"properties":{"id":"es-4871","source":"ES","brand":"MOEVE","address":"AUTOVIA A-3 KM. 162,1","municipality":"Castillo de Garcimuñoz","province":"CUENCA","postalCode":"16623","schedule":"L-D: 06:00-22:00","fuels":{"gasoline95":1.794,"gasoline95Premium":1.884,"diesel":1.924,"dieselPremium":1.984,"dieselRenewable":2.074},"extra":{"saleType":"P","margin":"I","reportingType":"OM","ideess":"4871","idMunicipio":"2277","idProvincia":"16","idCCAA":"07"}}},{"type":"Feature","geometry":{"type":"Point","coordinates":[-2.28075,39.596361]},"properties":{"id":"es-4873","source":"ES","brand":"REPSOL","address":"AUTOVIA A-3 KM. 166","municipality":"Honrubia","province":"CUENCA","postalCode":"16730","schedule":"L-D: 24H","fuels":{"gasoline95":1.779,"gasoline98":1.899,"diesel":1.959,"dieselPremium":2.019,"lpg":1.139},"extra":{"saleType":"P","margin":"D","reportingType":"OM","ideess":"4873","idMunicipio":"2305","idProvincia":"16","idCCAA":"07"}}},{"type":"Feature","geometry":{"type":"Point","coordinates":[-2.253889,39.53775]},"properties":{"id":"es-4874","source":"ES","brand":"REPSOL","address":"CARRETERA CUV8306 KM. 6,6","municipality":"Atalaya del Cañavate","province":"CUENCA","postalCode":"16710","schedule":"L-D: 07:00-23:00","fuels":{"gasoline95":1.799,"diesel":1.949,"dieselRenewable":2.049,"adblue":1.295},"extra":{"saleType":"P","margin":"D","reportingType":"dm","ideess":"4874","idMunicipio":"2236","idProvincia":"16","idCCAA":"07"}}},{"type":"Feature","geometry":{"type":"Point","coordinates":[-2.158278,39.484444]},"properties":{"id":"es-4875","source":"ES","brand":"REPSOL","address":"AUTOVIA DE VALENCIA km 186","municipality":"Tébar","province":"CUENCA","postalCode":"16710","schedule":"L-D: 24H","fuels":{"gasoline95":1.779,"gasoline98":1.899,"diesel":1.939,"dieselPremium":2.029,"lpg":1.135},"extra":{"saleType":"P","margin":"D","reportingType":"OM","ideess":"4875","idMunicipio":"2392","idProvincia":"16","idCCAA":"07"}}},{"type":"Feature","geometry":{"type":"Point","coordinates":[-2.714278,39.903833]},"properties":{"id":"es-4890","source":"ES","brand":"BP SEGÓBRIGA","address":"AUTOVIA DEL ESTE KM. 111","municipality":"Hito (El)","province":"CUENCA","postalCode":"16441","schedule":"L-D: 07:00-23:00","fuels":{"gasoline95":1.745,"gasoline98":1.885,"diesel":1.915,"dieselPremium":2.005,"adblue":0.899},"extra":{"saleType":"P","margin":"I","reportingType":"OM","ideess":"4890","idMunicipio":"2304","idProvincia":"16","idCCAA":"07"}}},{"type":"Feature","geometry":{"type":"Point","coordinates":[-2.171028,39.212361]},"properties":{"id":"es-4891","source":"ES","brand":"MOEVE ES JUANITO","address":"CARRETERA MADRID CARTAGENA KM. 209","municipality":"Roda (La)","province":"ALBACETE","postalCode":"02630","schedule":"L-D: 06:00-22:00","fuels":{"gasoline95":1.809,"diesel":1.939,"dieselPremium":2.039},"extra":{"saleType":"P","margin":"N","reportingType":"dm","ideess":"4891","idMunicipio":"121","idProvincia":"02","idCCAA":"07"}}},{"type":"Feature","geometry":{"type":"Point","coordinates":[-2.149,39.201667]},"properties":{"id":"es-4894","source":"ES","brand":"REPSOL","address":"CALLE ALFREDO ATIENZA, 156","municipality":"Roda (La)","province":"ALBACETE","postalCode":"02630","schedule":"L-D: 06:00-22:55","fuels":{"gasoline95":1.765,"gasoline98":1.885,"diesel":1.929,"dieselRenewable":2.049},"extra":{"saleType":"P","margin":"D","reportingType":"OM","ideess":"4894","idMunicipio":"121","idProvincia":"02","idCCAA":"07"}}},{"type":"Feature","geometry":{"type":"Point","coordinates":[-2.067639,39.302389]},"properties":{"id":"es-4895","source":"ES","brand":"E.S EL GORRION","address":"CARRETERA CM-3114 KM. 12,7","municipality":"Villalgordo del Júcar","province":"ALBACETE","postalCode":"02636","schedule":"L-D: 07:30-21:30","fuels":{"gasoline95":1.629,"diesel":1.779},"extra":{"saleType":"P","margin":"I","reportingType":"dm","ideess":"4895","idMunicipio":"130","idProvincia":"02","idCCAA":"07"}}},{"type":"Feature","geometry":{"type":"Point","coordinates":[-2.924444,39.735806]},"properties":{"id":"es-4898","source":"ES","brand":"E.S. VALENCIANO MEDINA","address":"CARRETERA CM-310 KM. 47,6","municipality":"Villamayor de Santiago","province":"CUENCA","postalCode":"16415","schedule":"L-V: 06:30-21:30; S-D: 07:30-21:30","fuels":{"gasoline95":1.599,"diesel":1.739,"dieselB":1.419},"extra":{"saleType":"P","margin":"I","reportingType":"dm","ideess":"4898","idMunicipio":"2425","idProvincia":"16","idCCAA":"07"}}},{"type":"Feature","geometry":{"type":"Point","coordinates":[-2.487694,39.520639]},"properties":{"id":"es-4899","source":"ES","brand":"REPSOL","address":"CALLE SAN ISIDRO, 67","municipality":"Alberca de Záncara (La)","province":"CUENCA","postalCode":"16620","schedule":"L-S: 08:00-14:00 y 15:00-20:00; D: 08:00-14:00","fuels":{"gasoline95":1.735,"diesel":1.919,"dieselRenewable":2.039},"extra":{"saleType":"P","margin":"I","reportingType":"OM","ideess":"4899","idMunicipio":"2218","idProvincia":"16","idCCAA":"07"}}},{"type":"Feature","geometry":{"type":"Point","coordinates":[-2.785167,39.278444]},"properties":{"id":"es-5101","source":"ES","brand":"REPSOL","address":"CR CR-100, 0,9","municipality":"Socuéllamos","province":"CIUDAD REAL","postalCode":"13630","schedule":"L-D: 06:00-23:59","fuels":{"gasoline95":1.709,"gasoline98":1.879,"diesel":1.875,"dieselB":1.575,"dieselRenewable":1.995},"extra":{"saleType":"P","margin":"D","reportingType":"OM","ideess":"5101","idMunicipio":"2022","idProvincia":"13","idCCAA":"07"}}},{"type":"Feature","geometry":{"type":"Point","coordinates":[-2.613778,39.257528]},"properties":{"id":"es-5123","source":"ES","brand":"REPSOL","address":"CARRETERA OSSA DE MONTIEL KM. 21","municipality":"Villarrobledo","province":"ALBACETE","postalCode":"02600","schedule":"L-S: 06:00-22:00; D: 06:00-15:00","fuels":{"gasoline95":1.719,"gasoline98":1.889,"diesel":1.899,"dieselB":1.625,"dieselRenewable":2.019},"extra":{"saleType":"P","margin":"I","reportingType":"OM","ideess":"5123","idMunicipio":"133","idProvincia":"02","idCCAA":"07"}}},{"type":"Feature","geometry":{"type":"Point","coordinates":[-2.211028,39.409722]},"properties":{"id":"es-5137","source":"ES","brand":"REPSOL","address":"CARRETERA N-310 KM. 18,70","municipality":"Sisante","province":"CUENCA","postalCode":"16700","schedule":"L: 06:00-22:00","fuels":{"gasoline95":1.799,"diesel":1.949},"extra":{"saleType":"P","margin":"I","reportingType":"dm","ideess":"5137","idMunicipio":"2387","idProvincia":"16","idCCAA":"07"}}},{"type":"Feature","geometry":{"type":"Point","coordinates":[-2.568083,39.375472]},"properties":{"id":"es-5139","source":"ES","brand":"BP MOYA - EL PROVENCIO","address":"CARRETERA N-301 (MADRID-ALICANTE) KM. 171,9","municipality":"Provencio (El)","province":"CUENCA","postalCode":"16670","schedule":"L-D: 24H","fuels":{"gasoline95":1.739,"gasoline98":1.879,"diesel":1.905,"dieselPremium":1.995,"dieselB":1.478,"adblue":0.999},"extra":{"saleType":"P","margin":"D","reportingType":"dm","ideess":"5139","idMunicipio":"2366","idProvincia":"16","idCCAA":"07"}}},{"type":"Feature","geometry":{"type":"Point","coordinates":[-2.87675,39.503167]},"properties":{"id":"es-5152","source":"ES","brand":"REPSOL","address":"CALLE CAMINO REAL BAJO, 27","municipality":"Mota del Cuervo","province":"CUENCA","postalCode":"16630","schedule":"L-S: 07:30-22:00; D: 08:00-15:00 y 16:30-22:00","fuels":{"gasoline95":1.735,"gasoline98":1.905,"diesel":1.915,"dieselRenewable":2.035},"extra":{"saleType":"P","margin":"D","reportingType":"dm","ideess":"5152","idMunicipio":"2332","idProvincia":"16","idCCAA":"07"}}},{"type":"Feature","geometry":{"type":"Point","coordinates":[-2.156667,39.213722]},"properties":{"id":"es-5162","source":"ES","brand":"REPSOL","address":"CARRETERA CM-3114 KM. 0,1","municipality":"Roda (La)","province":"ALBACETE","postalCode":"02630","schedule":"L-V: 06:00-10:00; S: 06:00-14:00","fuels":{"gasoline95":1.765,"gasoline98":1.935,"diesel":1.929,"dieselRenewable":2.049},"extra":{"saleType":"P","margin":"I","reportingType":"OM","ideess":"5162","idMunicipio":"121","idProvincia":"02","idCCAA":"07"}}},{"type":"Feature","geometry":{"type":"Point","coordinates":[-2.567139,39.293722]},"properties":{"id":"es-5167","source":"ES","brand":"REPSOL","address":"CARRETERA NACIONAL 310 KM. 137,7","municipality":"Villarrobledo","province":"ALBACETE","postalCode":"02600","schedule":"L-S: 07:00-22:00","fuels":{"gasoline95":1.719,"gasoline98":1.889,"diesel":1.899,"dieselRenewable":2.019},"extra":{"saleType":"P","margin":"I","reportingType":"OM","ideess":"5167","idMunicipio":"133","idProvincia":"02","idCCAA":"07"}}},{"type":"Feature","geometry":{"type":"Point","coordinates":[-2.422306,39.40825]},"properties":{"id":"es-5172","source":"ES","brand":"BP SAN CLEMENTE","address":"CL DEL CARMEN,  S/N","municipality":"San Clemente","province":"CUENCA","postalCode":"16600","schedule":"L: 06:30-23:00","fuels":{"gasoline95":1.729,"gasoline98":1.869,"diesel":1.889,"dieselPremium":1.929},"extra":{"saleType":"P","margin":"D","reportingType":"dm","ideess":"5172","idMunicipio":"2379","idProvincia":"16","idCCAA":"07"}}},{"type":"Feature","geometry":{"type":"Point","coordinates":[-2.784694,39.283611]},"properties":{"id":"es-5175","source":"ES","brand":"BALLENOIL","address":"CALLE MANIGUA, 4","municipality":"Socuéllamos","province":"CIUDAD REAL","postalCode":"13630","schedule":"L-D: 24H","fuels":{"gasoline95":1.599,"gasoline95Premium":1.619,"diesel":1.689,"dieselPremium":1.699},"extra":{"saleType":"P","margin":"D","reportingType":"OM","ideess":"5175","idMunicipio":"2022","idProvincia":"13","idCCAA":"07"}}},{"type":"Feature","geometry":{"type":"Point","coordinates":[-2.784361,39.283694]},"properties":{"id":"es-5176","source":"ES","brand":"MOEVE","address":"CARRETERA LAS MESAS KM 1,1 KM. 1,1","municipality":"Socuéllamos","province":"CIUDAD REAL","postalCode":"13630","schedule":"L-D: 06:00-23:00","fuels":{"gasoline95":1.759,"diesel":1.894,"dieselPremium":1.974,"dieselB":1.004},"extra":{"saleType":"P","margin":"D","reportingType":"dm","ideess":"5176","idMunicipio":"2022","idProvincia":"13","idCCAA":"07"}}},{"type":"Feature","geometry":{"type":"Point","coordinates":[-2.419194,39.783528]},"properties":{"id":"es-5179","source":"ES","brand":"MOEVE","address":"AUTOVIA N-III KM. 141,3","municipality":"Cervera del Llano","province":"CUENCA","postalCode":"16444","schedule":"L-D: 06:30-22:30","fuels":{"gasoline95":1.759,"gasoline95E10":1.859,"diesel":1.894,"dieselPremium":1.989},"extra":{"saleType":"P","margin":"I","reportingType":"dm","ideess":"5179","idMunicipio":"2279","idProvincia":"16","idCCAA":"07"}}},{"type":"Feature","geometry":{"type":"Point","coordinates":[-2.713722,39.198]},"properties":{"id":"es-5184","source":"ES","brand":"MOEVE","address":"CARRETERA N-310 KM. 120,5","municipality":"Villarrobledo","province":"ALBACETE","postalCode":"02600","schedule":"L-V: 07:00-21:00; D: 14:00-21:00","fuels":{"gasoline95":1.719,"gasoline98":1.849,"diesel":1.884,"dieselPremium":1.954,"adblue":0.999},"extra":{"saleType":"P","margin":"D","reportingType":"dm","ideess":"5184","idMunicipio":"133","idProvincia":"02","idCCAA":"07"}}},{"type":"Feature","geometry":{"type":"Point","coordinates":[-2.510972,39.840611]},"properties":{"id":"es-5203","source":"ES","brand":"REPSOL","address":"CR N-3 131 (N-3 km 131,2)","municipality":"Villares del Saz","province":"CUENCA","postalCode":"16442","schedule":"L-V: 07:00-21:00; S: 07:00-14:00; D: 08:00-21:00","fuels":{"gasoline95":1.765,"diesel":1.915,"dieselPremium":2.025,"dieselB":1.585},"extra":{"saleType":"P","margin":"I","reportingType":"OM","ideess":"5203","idMunicipio":"2438","idProvincia":"16","idCCAA":"07"}}},{"type":"Feature","geometry":{"type":"Point","coordinates":[-2.485028,39.043806]},"properties":{"id":"es-5213","source":"ES","brand":"INPEALSA","address":"CALLE POZO (EL), 106","municipality":"Munera","province":"ALBACETE","postalCode":"02612","schedule":"L-D: 06:30-22:30","fuels":{"gasoline95":1.659,"diesel":1.799,"dieselPremium":1.849,"adblue":0.95},"extra":{"saleType":"P","margin":"D","reportingType":"dm","ideess":"5213","idMunicipio":"104","idProvincia":"02","idCCAA":"07"}}},{"type":"Feature","geometry":{"type":"Point","coordinates":[-2.79575,39.289806]},"properties":{"id":"es-5215","source":"ES","brand":"REPSOL","address":"CALLE PASEO DE LOS MARTIRES, 58","municipality":"Socuéllamos","province":"CIUDAD REAL","postalCode":"13630","schedule":"L-D: 06:00-14:00 y 17:00-22:00","fuels":{"gasoline95":1.709,"gasoline98":1.879,"diesel":1.869,"dieselB":1.629,"dieselRenewable":1.989},"extra":{"saleType":"P","margin":"D","reportingType":"OM","ideess":"5215","idMunicipio":"2022","idProvincia":"13","idCCAA":"07"}}},{"type":"Feature","geometry":{"type":"Point","coordinates":[-2.870472,39.503139]},"properties":{"id":"es-5225","source":"ES","brand":"REPSOL","address":"CALLE CAMINO REAL ALTO, 1","municipality":"Mota del Cuervo","province":"CUENCA","postalCode":"16630","schedule":"L-J: 06:00-22:00; V-S: 06:00-23:00; D: 06:00-22:00","fuels":{"gasoline95":1.735,"gasoline98":1.905,"diesel":1.915,"dieselRenewable":2.035},"extra":{"saleType":"P","margin":"I","reportingType":"OM","ideess":"5225","idMunicipio":"2332","idProvincia":"16","idCCAA":"07"}}},{"type":"Feature","geometry":{"type":"Point","coordinates":[-2.950889,39.406639]},"properties":{"id":"es-5246","source":"ES","brand":"REPSOL","address":"AVENIDA DE LA CONSTITUCION, 46","municipality":"Pedro Muñoz","province":"CIUDAD REAL","postalCode":"13620","schedule":"L-D: 07:00-22:00","fuels":{"gasoline95":1.745,"gasoline95Premium":1.815,"gasoline98":1.915,"diesel":1.899,"dieselRenewable":2.019},"extra":{"saleType":"P","margin":"N","reportingType":"OM","ideess":"5246","idMunicipio":"2003","idProvincia":"13","idCCAA":"07"}}},{"type":"Feature","geometry":{"type":"Point","coordinates":[-2.767056,39.395917]},"properties":{"id":"es-5257","source":"ES","brand":"REPSOL","address":"CARRETERA LAS MESAS-PEDERNOSO, 9 KM. ","municipality":"Mesas (Las)","province":"CUENCA","postalCode":"16650","schedule":"L-S: 06:00-21:30; D: 07:30-15:00","fuels":{"gasoline95":1.735,"diesel":1.915,"dieselPremium":1.995,"dieselB":1.569},"extra":{"saleType":"P","margin":"I","reportingType":"OM","ideess":"5257","idMunicipio":"2324","idProvincia":"16","idCCAA":"07"}}},{"type":"Feature","geometry":{"type":"Point","coordinates":[-2.330333,39.276056]},"properties":{"id":"es-5277","source":"ES","brand":"REPSOL","address":"CARRERA N-301, 195,2","municipality":"Minaya","province":"ALBACETE","postalCode":"02620","schedule":"L-D: 06:00-22:00","fuels":{"gasoline95":1.769,"gasoline98":1.929,"diesel":1.919,"dieselB":1.669,"dieselRenewable":2.029,"adblue":1.199},"extra":{"saleType":"P","margin":"D","reportingType":"dm","ideess":"5277","idMunicipio":"99","idProvincia":"02","idCCAA":"07"}}},{"type":"Feature","geometry":{"type":"Point","coordinates":[-2.361611,39.845389]},"properties":{"id":"es-5279","source":"ES","brand":"GASOLEOS LA PARRILLA","address":"CARRETERA N-420 KM. 394,90","municipality":"San Lorenzo de la Parrilla","province":"CUENCA","postalCode":"16770","schedule":"L: 07:00-22:00","fuels":{"gasoline95":1.859,"diesel":1.899,"dieselPremium":1.899},"extra":{"saleType":"P","margin":"I","reportingType":"dm","ideess":"5279","idMunicipio":"2380","idProvincia":"16","idCCAA":"07"}}},{"type":"Feature","geometry":{"type":"Point","coordinates":[-2.602028,39.278222]},"properties":{"id":"es-5305","source":"ES","brand":"REPSOL","address":"CALLE DOS DE MAYO, 167","municipality":"Villarrobledo","province":"ALBACETE","postalCode":"02600","schedule":"L-D: 06:00-00:00","fuels":{"gasoline95":1.729,"gasoline95Premium":1.779,"diesel":1.899,"dieselPremium":1.999,"dieselB":1.6},"extra":{"saleType":"P","margin":"I","reportingType":"dm","ideess":"5305","idMunicipio":"133","idProvincia":"02","idCCAA":"07"}}},{"type":"Feature","geometry":{"type":"Point","coordinates":[-2.266111,39.325472]},"properties":{"id":"es-5309","source":"ES","brand":"GALP","address":"CARRETERA CTRA POZO AMARGO KM. 3","municipality":"Casas de Haro","province":"CUENCA","postalCode":"16611","schedule":"L-V: 08:00-19:00","fuels":{"gasoline95":1.709,"diesel":1.909,"dieselB":1.409},"extra":{"saleType":"P","margin":"N","reportingType":"dm","ideess":"5309","idMunicipio":"2271","idProvincia":"16","idCCAA":"07"}}},{"type":"Feature","geometry":{"type":"Point","coordinates":[-2.280778,39.609056]},"properties":{"id":"es-5310","source":"ES","brand":"CEPSA","address":"CARRETERA N-III KM. 167,5","municipality":"Honrubia","province":"CUENCA","postalCode":"16730","schedule":"L-D: 07:00-23:00","fuels":{"gasoline95":1.799,"gasoline95Premium":1.939,"diesel":1.929,"dieselPremium":1.999},"extra":{"saleType":"P","margin":"I","reportingType":"dm","ideess":"5310","idMunicipio":"2305","idProvincia":"16","idCCAA":"07"}}},{"type":"Feature","geometry":{"type":"Point","coordinates":[-2.881778,39.16475]},"properties":{"id":"es-5315","source":"ES","brand":"GALP","address":"CARRETERA N-310 KM. 105","municipality":"Socuéllamos","province":"CIUDAD REAL","postalCode":"13630","schedule":"L-D: 07:00-23:00","fuels":{"gasoline95":1.819,"gasoline98":1.959,"diesel":1.979,"dieselPremium":2.069},"extra":{"saleType":"P","margin":"I","reportingType":"dm","ideess":"5315","idMunicipio":"2022","idProvincia":"13","idCCAA":"07"}}},{"type":"Feature","geometry":{"type":"Point","coordinates":[-2.186083,39.225]},"properties":{"id":"es-5316","source":"ES","brand":"GALP","address":"AUTOVIA A-31 KM. 34,50","municipality":"Roda (La)","province":"ALBACETE","postalCode":"02630","schedule":"L-D: 07:00-23:00","fuels":{"gasoline95":1.779,"gasoline98":1.929,"diesel":1.919,"dieselPremium":2.009},"extra":{"saleType":"P","margin":"I","reportingType":"dm","ideess":"5316","idMunicipio":"121","idProvincia":"02","idCCAA":"07"}}},{"type":"Feature","geometry":{"type":"Point","coordinates":[-2.05125,39.143972]},"properties":{"id":"es-5317","source":"ES","brand":"GALP","address":"CARRETERA A-31 KM. 50","municipality":"Roda (La)","province":"ALBACETE","postalCode":"02630","schedule":"L-D: 07:00-23:00","fuels":{"gasoline95":1.779,"gasoline98":1.929,"diesel":1.919,"dieselPremium":2.009},"extra":{"saleType":"P","margin":"D","reportingType":"dm","ideess":"5317","idMunicipio":"121","idProvincia":"02","idCCAA":"07"}}},{"type":"Feature","geometry":{"type":"Point","coordinates":[-2.352278,39.651444]},"properties":{"id":"es-5322","source":"ES","brand":"GALP","address":"N-III km 159,900","municipality":"Castillo de Garcimuñoz","province":"CUENCA","postalCode":"16623","schedule":"L-D: 06:00-22:00","fuels":{"gasoline95":1.744,"gasoline98":1.884,"diesel":1.914,"dieselPremium":1.964,"dieselRenewable":2.004,"adblue":0.799},"extra":{"saleType":"P","margin":"N","reportingType":"OM","ideess":"5322","idMunicipio":"2277","idProvincia":"16","idCCAA":"07"}}},{"type":"Feature","geometry":{"type":"Point","coordinates":[-2.989833,39.504194]},"properties":{"id":"es-5386","source":"ES","brand":"PETRONOR","address":"CARRETERA PEDRO MUÑOZ KM. 10","municipality":"Toboso (El)","province":"TOLEDO","postalCode":"45820","schedule":"L-V: 07:00-21:00","fuels":{"gasoline95":1.755,"diesel":1.895,"dieselB":1.539,"dieselRenewable":2.015},"extra":{"saleType":"P","margin":"D","reportingType":"OM","ideess":"5386","idMunicipio":"6928","idProvincia":"45","idCCAA":"07"}}},{"type":"Feature","geometry":{"type":"Point","coordinates":[-2.037639,39.387889]},"properties":{"id":"es-8062","source":"ES","brand":"LAPEÑA MORATALLA, S.L.","address":"CARRETERA RODA (LA) KM. 72","municipality":"Casasimarro","province":"CUENCA","postalCode":"16239","schedule":"L-D: 24H","fuels":{"gasoline95":1.639,"gasoline98":1.749,"diesel":1.799,"dieselB":1.389,"adblue":0.8},"extra":{"saleType":"P","margin":"N","reportingType":"dm","ideess":"8062","idMunicipio":"2273","idProvincia":"16","idCCAA":"07"}}},{"type":"Feature","geometry":{"type":"Point","coordinates":[-2.926278,39.961139]},"properties":{"id":"es-8789","source":"ES","brand":"VALCARCE","address":"AUTOVIA DE LEVANTE, PK 90","municipality":"Villarrubio","province":"CUENCA","postalCode":"16420","schedule":"L-D: 24H","fuels":{"gasoline95":1.699,"diesel":1.799,"dieselB":1.349,"adblue":0.799},"extra":{"saleType":"P","margin":"I","reportingType":"dm","ideess":"8789","idMunicipio":"2439","idProvincia":"16","idCCAA":"07"}}},{"type":"Feature","geometry":{"type":"Point","coordinates":[-2.8865,39.491111]},"properties":{"id":"es-8899","source":"ES","brand":"NT.S.DE MANJAVACAS S.COOP DE CLM","address":"CAMINO DEL CAMPO  S/N","municipality":"Mota del Cuervo","province":"CUENCA","postalCode":"16630","schedule":"L-D: 24H","fuels":{"diesel":1.71,"dieselB":1.28},"extra":{"saleType":"P","margin":"I","reportingType":"dm","ideess":"8899","idMunicipio":"2332","idProvincia":"16","idCCAA":"07"}}},{"type":"Feature","geometry":{"type":"Point","coordinates":[-2.689583,39.788611]},"properties":{"id":"es-8916","source":"ES","brand":"MATALARA","address":"CAMINO LAS MONJAS, S/N","municipality":"Villarejo de Fuentes","province":"CUENCA","postalCode":"16432","schedule":"L-D: 24H","fuels":{"diesel":1.67,"dieselB":1.26},"extra":{"saleType":"P","margin":"N","reportingType":"dm","ideess":"8916","idMunicipio":"2435","idProvincia":"16","idCCAA":"07"}}},{"type":"Feature","geometry":{"type":"Point","coordinates":[-2.749056,39.482583]},"properties":{"id":"es-8945","source":"ES","brand":"SANTA ANA SOC. COOP.","address":"CALLE PIZARRO, S/N","municipality":"Pedernoso (El)","province":"CUENCA","postalCode":"16638","schedule":"L-D: 24H","fuels":{"diesel":1.666,"dieselB":1.355},"extra":{"saleType":"P","margin":"D","reportingType":"dm","ideess":"8945","idMunicipio":"2349","idProvincia":"16","idCCAA":"07"}}},{"type":"Feature","geometry":{"type":"Point","coordinates":[-2.14775,39.201139]},"properties":{"id":"es-8958","source":"ES","brand":"LA REMEDIADORA","address":"ALFREDO ATIENZA, 149-151","municipality":"Roda (La)","province":"ALBACETE","postalCode":"02630","schedule":"L-D: 24H","fuels":{"gasoline95":1.449,"diesel":1.639,"dieselB":1.305,"adblue":0.65},"extra":{"saleType":"P","margin":"D","reportingType":"dm","ideess":"8958","idMunicipio":"121","idProvincia":"02","idCCAA":"07"}}},{"type":"Feature","geometry":{"type":"Point","coordinates":[-2.673444,39.442444]},"properties":{"id":"es-9170","source":"ES","brand":"PEDROHERAS E.S.","address":"CALLE LA MANCHA, 1","municipality":"Pedroñeras (Las)","province":"CUENCA","postalCode":"16660","schedule":"L-D: 24H","fuels":{"diesel":1.689,"dieselB":1.319},"extra":{"saleType":"P","margin":"N","reportingType":"dm","ideess":"9170","idMunicipio":"2350","idProvincia":"16","idCCAA":"07"}}},{"type":"Feature","geometry":{"type":"Point","coordinates":[-2.668556,39.881722]},"properties":{"id":"es-9200","source":"ES","brand":"ARBA SA","address":"MADRID-VALENCIA   N-III km 116","municipality":"Montalbo","province":"CUENCA","postalCode":"16440","schedule":"L-D: 07:00-23:00","fuels":{"gasoline95":1.669,"diesel":1.779,"dieselB":1.389},"extra":{"saleType":"P","margin":"D","reportingType":"dm","ideess":"9200","idMunicipio":"2329","idProvincia":"16","idCCAA":"07"}}},{"type":"Feature","geometry":{"type":"Point","coordinates":[-2.998639,39.846806]},"properties":{"id":"es-9533","source":"ES","brand":"E.S.HPG","address":"PASEO ANGELA ROSA DE SILVA, 16","municipality":"Horcajo de Santiago","province":"CUENCA","postalCode":"16410","schedule":"L-D: 06:00-22:00","fuels":{"gasoline95":1.689,"gasoline98":1.799,"diesel":1.779,"dieselB":1.449},"extra":{"saleType":"P","margin":"N","reportingType":"dm","ideess":"9533","idMunicipio":"2308","idProvincia":"16","idCCAA":"07"}}},{"type":"Feature","geometry":{"type":"Point","coordinates":[-2.742583,39.487167]},"properties":{"id":"es-9660","source":"ES","brand":"MOEVE","address":"CARRETERA N-301 KM. 150,300","municipality":"Pedernoso (El)","province":"CUENCA","postalCode":"16638","schedule":"L-D: 24H","fuels":{"gasoline95":1.765,"diesel":1.925,"dieselPremium":1.995,"dieselB":1.55,"adblue":0.95},"extra":{"saleType":"P","margin":"I","reportingType":"dm","ideess":"9660","idMunicipio":"2349","idProvincia":"16","idCCAA":"07"}}},{"type":"Feature","geometry":{"type":"Point","coordinates":[-2.70975,39.554167]},"properties":{"id":"es-9797","source":"ES","brand":"SAN ISIDRO LABRADOR SOC. COOP. DE CLM","address":"CALLE RAMON Y CAJAL, 42","municipality":"Belmonte","province":"CUENCA","postalCode":"16640","schedule":"L-D: 24H","fuels":{"gasoline95":1.54,"diesel":1.63,"dieselB":1.25,"adblue":0.58},"extra":{"saleType":"P","margin":"D","reportingType":"dm","ideess":"9797","idMunicipio":"2242","idProvincia":"16","idCCAA":"07"}}}]}