{"type":"FeatureCollection","features":[{"type":"Feature","geometry":{"type":"Point","coordinates":[-1.440583,40.412889]},"properties":{"id":"es-10002","source":"ES","brand":"CEPSA","address":"CARRETERA A-1512 KM. 28,6","municipality":"Albarracín","province":"TERUEL","postalCode":"44100","schedule":"L-V: 07:00-21:00; S-D: 08:00-21:00","fuels":{"gasoline95":1.779,"diesel":1.929,"dieselPremium":1.999,"dieselB":1.549,"adblue":0.929},"extra":{"saleType":"P","margin":"D","reportingType":"dm","ideess":"10002","idMunicipio":"6534","idProvincia":"44","idCCAA":"02"}}},{"type":"Feature","geometry":{"type":"Point","coordinates":[-1.286278,40.446806]},"properties":{"id":"es-10906","source":"ES","brand":"BP","address":"VARIANTE DE GEA","municipality":"Cella","province":"TERUEL","postalCode":"44370","schedule":"L-D: 08:00-20:00","fuels":{"gasoline95":1.739,"diesel":1.879,"dieselPremium":1.969,"adblue":1.199},"extra":{"saleType":"P","margin":"D","reportingType":"dm","ideess":"10906","idMunicipio":"6594","idProvincia":"44","idCCAA":"02"}}},{"type":"Feature","geometry":{"type":"Point","coordinates":[-1.305361,40.837611]},"properties":{"id":"es-11799","source":"ES","brand":"MOEVE","address":"AUTOVIA A-23 KM. 176","municipality":"Caminreal","province":"TERUEL","postalCode":"44350","schedule":"L-D: 24H","fuels":{"gasoline95":1.774,"gasoline95Premium":1.884,"diesel":1.944,"dieselPremium":2.044},"extra":{"saleType":"P","margin":"D","reportingType":"OM","ideess":"11799","idMunicipio":"6579","idProvincia":"44","idCCAA":"02"}}},{"type":"Feature","geometry":{"type":"Point","coordinates":[-1.911611,40.855278]},"properties":{"id":"es-11822","source":"ES","brand":"REPSOL","address":"POLIGONO LOS TOBARES, 16","municipality":"Molina de Aragón","province":"GUADALAJARA","postalCode":"19300","schedule":"L: 06:30-22:30","fuels":{"gasoline95":1.829,"gasoline95Premium":1.869,"diesel":1.939,"dieselPremium":1.989,"adblue":0.8},"extra":{"saleType":"P","margin":"N","reportingType":"dm","ideess":"11822","idMunicipio":"2996","idProvincia":"19","idCCAA":"07"}}},{"type":"Feature","geometry":{"type":"Point","coordinates":[-1.025306,40.529083]},"properties":{"id":"es-1249","source":"ES","brand":"E.S DE ALFAMBRA","address":"NACIONAL 420 CORDOBA-TARRAGONA km 605","municipality":"Alfambra","province":"TERUEL","postalCode":"44160","schedule":"L-V: 07:00-21:00; S: 08:00-21:00; D: 10:00-21:00","fuels":{"gasoline95":1.769,"gasoline98":1.949,"diesel":1.939,"dieselPremium":2.009},"extra":{"saleType":"P","margin":"D","reportingType":"dm","ideess":"1249","idMunicipio":"6540","idProvincia":"44","idCCAA":"02"}}},{"type":"Feature","geometry":{"type":"Point","coordinates":[-1.107917,40.360472]},"properties":{"id":"es-1257","source":"ES","brand":"CIVERA","address":"C.N 420 A km 583,2","municipality":"Teruel","province":"TERUEL","postalCode":"44003","schedule":"L: 07:00-22:00","fuels":{"gasoline95":1.709,"gasoline98":1.879,"diesel":1.869,"dieselPremium":1.969,"dieselB":1.569},"extra":{"saleType":"P","margin":"I","reportingType":"dm","ideess":"1257","idMunicipio":"6716","idProvincia":"44","idCCAA":"02"}}},{"type":"Feature","geometry":{"type":"Point","coordinates":[-1.296778,40.461528]},"properties":{"id":"es-12678","source":"ES","brand":"GASOLEOS TERUEL","address":"POLIGONO CAMPICHUELO, S/N","municipality":"Cella","province":"TERUEL","postalCode":"44370","schedule":"L-D: 24H","fuels":{"diesel":1.699,"dieselB":1.298},"extra":{"saleType":"P","margin":"N","reportingType":"dm","ideess":"12678","idMunicipio":"6594","idProvincia":"44","idCCAA":"02"}}},{"type":"Feature","geometry":{"type":"Point","coordinates":[-1.301194,40.904778]},"properties":{"id":"es-12734","source":"ES","brand":"GASOLINERA JILOCA","address":"CARRETERA N-234 KM. 190","municipality":"Calamocha","province":"TERUEL","postalCode":"44200","schedule":"L-D: 24H","fuels":{"gasoline95":1.649,"diesel":1.798,"adblue":0.579},"extra":{"saleType":"P","margin":"D","reportingType":"dm","ideess":"12734","idMunicipio":"6573","idProvincia":"44","idCCAA":"02"}}},{"type":"Feature","geometry":{"type":"Point","coordinates":[-1.101083,40.338028]},"properties":{"id":"es-13047","source":"ES","brand":"GASEXPRESS","address":"CARRETERA SAN JULIÁN KM. 83","municipality":"Teruel","province":"TERUEL","postalCode":"44003","schedule":"L-D: 24H","fuels":{"gasoline95":1.599,"diesel":1.749},"extra":{"saleType":"P","margin":"D","reportingType":"dm","ideess":"13047","idMunicipio":"6716","idProvincia":"44","idCCAA":"02"}}},{"type":"Feature","geometry":{"type":"Point","coordinates":[-1.317556,40.702417]},"properties":{"id":"es-13375","source":"ES","brand":"VALCARCE","address":"AUTOVIA A-23 KM. 160","municipality":"Villafranca del Campo","province":"TERUEL","postalCode":"44394","schedule":"L-D: 24H","fuels":{"gasoline95":1.749,"gasoline98":1.909,"diesel":1.919,"dieselPremium":1.999,"dieselB":1.669,"adblue":0.799},"extra":{"saleType":"P","margin":"D","reportingType":"dm","ideess":"13375","idMunicipio":"6748","idProvincia":"44","idCCAA":"02"}}},{"type":"Feature","geometry":{"type":"Point","coordinates":[-1.196778,40.833083]},"properties":{"id":"es-13564","source":"ES","brand":"GASOLEOS TERUEL","address":"CALLE POLIGONO AGROINDUSTRIAL, LOTES B1-B9, 1","municipality":"Bañón","province":"TERUEL","postalCode":"44357","schedule":"L-D: 24H","fuels":{"diesel":1.699,"dieselB":1.298},"extra":{"saleType":"P","margin":"N","reportingType":"dm","ideess":"13564","idMunicipio":"6557","idProvincia":"44","idCCAA":"02"}}},{"type":"Feature","geometry":{"type":"Point","coordinates":[-1.251333,40.482583]},"properties":{"id":"es-1368","source":"ES","brand":"MOEVE","address":"N-234 km 141","municipality":"Cella","province":"TERUEL","postalCode":"44370","schedule":"L-V: 07:00-22:00; S-D: 08:00-22:00","fuels":{"gasoline95":1.749,"gasoline95Premium":1.859,"diesel":1.889,"dieselPremium":1.989},"extra":{"saleType":"P","margin":"D","reportingType":"dm","ideess":"1368","idMunicipio":"6594","idProvincia":"44","idCCAA":"02"}}},{"type":"Feature","geometry":{"type":"Point","coordinates":[-1.087472,40.332611]},"properties":{"id":"es-1391","source":"ES","brand":"REPSOL","address":"CL AVDA. DE SAGUNTO-FUENFRESCA, S.N","municipality":"Teruel","province":"TERUEL","postalCode":"44002","schedule":"L-D: 06:00-22:00","fuels":{"gasoline95":1.769,"gasoline98":1.909,"diesel":1.939,"dieselPremium":1.999,"lpg":1.189},"extra":{"saleType":"P","margin":"D","reportingType":"OM","ideess":"1391","idMunicipio":"6716","idProvincia":"44","idCCAA":"02"}}},{"type":"Feature","geometry":{"type":"Point","coordinates":[-1.651944,40.547639]},"properties":{"id":"es-1395","source":"ES","brand":"E.S.ORIHUELA DEL TREMEDAL","address":"CARRETERA CR A ALBARRACIN KM. 13","municipality":"Orihuela del Tremedal","province":"TERUEL","postalCode":"44366","schedule":"L-D: 07:00-23:00","fuels":{"gasoline95":1.749,"diesel":1.849},"extra":{"saleType":"P","margin":"D","reportingType":"dm","ideess":"1395","idMunicipio":"6678","idProvincia":"44","idCCAA":"02"}}},{"type":"Feature","geometry":{"type":"Point","coordinates":[-1.104944,40.336611]},"properties":{"id":"es-1419","source":"ES","brand":"REPSOL","address":"AVENIDA SAGUNTO, 5","municipality":"Teruel","province":"TERUEL","postalCode":"44002","schedule":"L-D: 07:00-22:00","fuels":{"gasoline95":1.769,"gasoline98":1.909,"diesel":1.939,"dieselPremium":1.999,"dieselB":1.62},"extra":{"saleType":"P","margin":"D","reportingType":"OM","ideess":"1419","idMunicipio":"6716","idProvincia":"44","idCCAA":"02"}}},{"type":"Feature","geometry":{"type":"Point","coordinates":[-1.298306,40.913361]},"properties":{"id":"es-1424","source":"ES","brand":"REPSOL","address":"CL AVENIDA ESTACION NUEVA, 2","municipality":"Calamocha","province":"TERUEL","postalCode":"44200","schedule":"X-J: 07:00-08:00 y 19:00-23:00; V: 07:00-08:00 y 13:00-23:00","fuels":{"gasoline95":1.779,"gasoline98":1.899,"diesel":1.949,"dieselPremium":2.059},"extra":{"saleType":"P","margin":"D","reportingType":"OM","ideess":"1424","idMunicipio":"6573","idProvincia":"44","idCCAA":"02"}}},{"type":"Feature","geometry":{"type":"Point","coordinates":[-1.000472,40.627667]},"properties":{"id":"es-1436","source":"ES","brand":"GASOLEOS TERUEL","address":"N-420 km 617.0","municipality":"Perales del Alfambra","province":"TERUEL","postalCode":"44163","schedule":"L-D: 24H","fuels":{"gasoline95":1.589,"diesel":1.709,"adblue":0.69},"extra":{"saleType":"P","margin":"N","reportingType":"dm","ideess":"1436","idMunicipio":"6686","idProvincia":"44","idCCAA":"02"}}},{"type":"Feature","geometry":{"type":"Point","coordinates":[-1.333361,40.750583]},"properties":{"id":"es-1437","source":"ES","brand":"REPSOL","address":"AUTOVIA MUDEJAR KM. 165","municipality":"Monreal del Campo","province":"TERUEL","postalCode":"44300","schedule":"L-D: 24H","fuels":{"gasoline95":1.789,"gasoline98":1.979,"diesel":1.949,"dieselRenewable":2.029,"adblue":0.99},"extra":{"saleType":"P","margin":"D","reportingType":"dm","ideess":"1437","idMunicipio":"6660","idProvincia":"44","idCCAA":"02"}}},{"type":"Feature","geometry":{"type":"Point","coordinates":[-1.116611,40.347889]},"properties":{"id":"es-1438","source":"ES","brand":"MOEVE","address":"AVENIDA ZARAGOZA, 22","municipality":"Teruel","province":"TERUEL","postalCode":"44001","schedule":"L-D: 07:00-22:00","fuels":{"gasoline95":1.769,"gasoline98":1.899,"diesel":1.929,"dieselPremium":2.029,"adblue":0.929},"extra":{"saleType":"P","margin":"D","reportingType":"dm","ideess":"1438","idMunicipio":"6716","idProvincia":"44","idCCAA":"02"}}},{"type":"Feature","geometry":{"type":"Point","coordinates":[-1.101278,40.337083]},"properties":{"id":"es-1441","source":"ES","brand":"MOEVE","address":"CALLE CUESTA DEL CARRAJETE, 2","municipality":"Teruel","province":"TERUEL","postalCode":"44001","schedule":"L-D: 06:30-22:30","fuels":{"gasoline95":1.769,"gasoline95Premium":1.869,"diesel":1.929,"dieselPremium":2.029,"adblue":0.929},"extra":{"saleType":"P","margin":"D","reportingType":"dm","ideess":"1441","idMunicipio":"6716","idProvincia":"44","idCCAA":"02"}}},{"type":"Feature","geometry":{"type":"Point","coordinates":[-1.346972,40.78275]},"properties":{"id":"es-1443","source":"ES","brand":"REPSOL","address":"CARRERA NAC.234, KM.177,5, ","municipality":"Monreal del Campo","province":"TERUEL","postalCode":"44300","schedule":"L-D: 08:00-21:00","fuels":{"gasoline95":1.759,"gasoline98":1.929,"diesel":1.929,"dieselPremium":2.039},"extra":{"saleType":"P","margin":"I","reportingType":"OM","ideess":"1443","idMunicipio":"6660","idProvincia":"44","idCCAA":"02"}}},{"type":"Feature","geometry":{"type":"Point","coordinates":[-1.245694,40.45875]},"properties":{"id":"es-14694","source":"ES","brand":"SUBIGAS","address":"POLIGONO LAS HAZAS, 5","municipality":"Cella","province":"TERUEL","postalCode":"44370","schedule":"L-D: 24H","fuels":{"gasoline95":1.607,"diesel":1.708,"adblue":0.7},"extra":{"saleType":"P","margin":"N","reportingType":"dm","ideess":"14694","idMunicipio":"6594","idProvincia":"44","idCCAA":"02"}}},{"type":"Feature","geometry":{"type":"Point","coordinates":[-1.2855,40.564778]},"properties":{"id":"es-1510","source":"ES","brand":"REPSOL","address":"CARRETERA SAGUNTO A BURGOS KM. 150","municipality":"Santa Eulalia","province":"TERUEL","postalCode":"44360","schedule":"L-D: 24H","fuels":{"gasoline95":1.749,"gasoline98":1.869,"diesel":1.935,"dieselRenewable":2.055},"extra":{"saleType":"P","margin":"I","reportingType":"OM","ideess":"1510","idMunicipio":"6710","idProvincia":"44","idCCAA":"02"}}},{"type":"Feature","geometry":{"type":"Point","coordinates":[-1.135639,40.356944]},"properties":{"id":"es-1511","source":"ES","brand":"REPSOL","address":"CR N-234, 123,5","municipality":"Teruel","province":"TERUEL","postalCode":"44001","schedule":"L-D: 06:00-22:00","fuels":{"gasoline95":1.759,"gasoline98":1.919,"diesel":1.925,"dieselPremium":2.035,"dieselB":1.604},"extra":{"saleType":"P","margin":"D","reportingType":"OM","ideess":"1511","idMunicipio":"6716","idProvincia":"44","idCCAA":"02"}}},{"type":"Feature","geometry":{"type":"Point","coordinates":[-1.136722,40.357556]},"properties":{"id":"es-1512","source":"ES","brand":"REPSOL","address":"CR N-234, 123,5","municipality":"Teruel","province":"TERUEL","postalCode":"44001","schedule":"L-V: 07:00-22:00; S: 08:00-15:00","fuels":{"gasoline95":1.759,"diesel":1.925,"dieselPremium":2.035},"extra":{"saleType":"P","margin":"I","reportingType":"OM","ideess":"1512","idMunicipio":"6716","idProvincia":"44","idCCAA":"02"}}},{"type":"Feature","geometry":{"type":"Point","coordinates":[-1.683333,40.882]},"properties":{"id":"es-15899","source":"ES","brand":"SDAD COOP CAMPILLO DE DUEÑAS","address":"DISEMINADO PG 15 PARCELA 29, S/N","municipality":"Campillo de Dueñas","province":"GUADALAJARA","postalCode":"19360","schedule":"L-D: 24H","fuels":{"diesel":1.739,"dieselB":1.089,"adblue":0.61},"extra":{"saleType":"P","margin":"I","reportingType":"dm","ideess":"15899","idMunicipio":"2888","idProvincia":"19","idCCAA":"07"}}},{"type":"Feature","geometry":{"type":"Point","coordinates":[-1.285361,40.063028]},"properties":{"id":"es-16305","source":"ES","brand":"STELS","address":"AVENIDA VALENCIA, 35","municipality":"Ademuz","province":"VALENCIA / VALÈNCIA","postalCode":"46140","schedule":"L-D: 24H","fuels":{"gasoline95":1.739,"diesel":1.799},"extra":{"saleType":"P","margin":"D","reportingType":"dm","ideess":"16305","idMunicipio":"6966","idProvincia":"46","idCCAA":"10"}}},{"type":"Feature","geometry":{"type":"Point","coordinates":[-1.91125,40.854528]},"properties":{"id":"es-16313","source":"ES","brand":"GASOLEOS TERUEL","address":"POLIGONO LOS TOBARES, 11","municipality":"Molina de Aragón","province":"GUADALAJARA","postalCode":"19300","schedule":"L-D: 24H","fuels":{"gasoline95":1.559,"diesel":1.719,"dieselB":1.298,"adblue":0.59},"extra":{"saleType":"P","margin":"D","reportingType":"dm","ideess":"16313","idMunicipio":"2996","idProvincia":"19","idCCAA":"07"}}},{"type":"Feature","geometry":{"type":"Point","coordinates":[-1.249028,40.127028]},"properties":{"id":"es-3826","source":"ES","brand":"REPSOL","address":"CR N-330, 272","municipality":"Castielfabib","province":"VALENCIA / VALÈNCIA","postalCode":"46141","schedule":"L-D: 08:00-20:00","fuels":{"gasoline95":1.785,"diesel":1.885,"dieselPremium":1.945},"extra":{"saleType":"P","margin":"D","reportingType":"OM","ideess":"3826","idMunicipio":"7058","idProvincia":"46","idCCAA":"10"}}},{"type":"Feature","geometry":{"type":"Point","coordinates":[-1.643167,40.043333]},"properties":{"id":"es-5099","source":"ES","brand":"CAÑETE","address":"CARRETERA N-420 KM. 500,9","municipality":"Cañete","province":"CUENCA","postalCode":"16300","schedule":"L-S: 08:00-14:00 y 15:30-20:00; D: 09:00-14:00","fuels":{"gasoline95":1.839,"diesel":1.939},"extra":{"saleType":"P","margin":"D","reportingType":"dm","ideess":"5099","idMunicipio":"2261","idProvincia":"16","idCCAA":"07"}}},{"type":"Feature","geometry":{"type":"Point","coordinates":[-1.505778,40.101861]},"properties":{"id":"es-5132","source":"ES","brand":"ESTACIÓN DE SERVICIO SALVACAÑETE","address":"CR N-420 516,4","municipality":"Salvacañete","province":"CUENCA","postalCode":"16318","schedule":"L: 09:00-20:00; M-D: 09:00-21:00","fuels":{"gasoline95":1.779,"diesel":1.919},"extra":{"saleType":"P","margin":"I","reportingType":"dm","ideess":"5132","idMunicipio":"2378","idProvincia":"16","idCCAA":"07"}}},{"type":"Feature","geometry":{"type":"Point","coordinates":[-1.850472,40.348611]},"properties":{"id":"es-5148","source":"ES","brand":"CAMPSA","address":"CALLE CASTILLA LA MANCHA, 2","municipality":"Tragacete","province":"CUENCA","postalCode":"16150","schedule":"L-D: 09:00-14:30 y 15:30-21:00","fuels":{"gasoline95":1.749,"diesel":1.955,"dieselPremium":2.065},"extra":{"saleType":"P","margin":"I","reportingType":"OM","ideess":"5148","idMunicipio":"2399","idProvincia":"16","idCCAA":"07"}}},{"type":"Feature","geometry":{"type":"Point","coordinates":[-1.883056,40.844444]},"properties":{"id":"es-5250","source":"ES","brand":"MOEVE","address":"CARRETERA N-211 KM. 60","municipality":"Molina de Aragón","province":"GUADALAJARA","postalCode":"19300","schedule":"L-D: 24H","fuels":{"gasoline95":1.804,"gasoline95Premium":1.904,"diesel":1.964,"dieselPremium":2.044},"extra":{"saleType":"P","margin":"D","reportingType":"dm","ideess":"5250","idMunicipio":"2996","idProvincia":"19","idCCAA":"07"}}},{"type":"Feature","geometry":{"type":"Point","coordinates":[-1.88275,40.844694]},"properties":{"id":"es-5251","source":"ES","brand":"CEPSA","address":"CARRETERA N-211 KM. 60","municipality":"Molina de Aragón","province":"GUADALAJARA","postalCode":"19300","schedule":"L-D: 07:00-23:00","fuels":{"gasoline95":1.804,"diesel":1.964},"extra":{"saleType":"P","margin":"I","reportingType":"dm","ideess":"5251","idMunicipio":"2996","idProvincia":"19","idCCAA":"07"}}},{"type":"Feature","geometry":{"type":"Point","coordinates":[-1.146528,40.363111]},"properties":{"id":"es-9714","source":"ES","brand":"GASOLEOS TERUEL","address":"POLIGONO POLIGONO INDUSTRIAL LA PAZ, 18","municipality":"Teruel","province":"TERUEL","postalCode":"44195","schedule":"L-D: 24H","fuels":{"gasoline95":1.549,"diesel":1.739,"dieselB":1.298,"adblue":0.69},"extra":{"saleType":"P","margin":"D","reportingType":"dm","ideess":"9714","idMunicipio":"6716","idProvincia":"44","idCCAA":"02"}}},{"type":"Feature","geometry":{"type":"Point","coordinates":[-1.154917,40.362556]},"properties":{"id":"es-9799","source":"ES","brand":"AGRIMARTIN","address":"POLIGONO B, 27","municipality":"Teruel","province":"TERUEL","postalCode":"44193","schedule":"L-D: 06:00-00:00","fuels":{"diesel":1.689},"extra":{"saleType":"P","margin":"D","reportingType":"dm","ideess":"9799","idMunicipio":"6716","idProvincia":"44","idCCAA":"02"}}},{"type":"Feature","geometry":{"type":"Point","coordinates":[-1.339556,40.772944]},"properties":{"id":"es-9852","source":"ES","brand":"FYCASA LOGISTICA S.L.","address":"POLIGONO EL TOLLO PARCELA, 2/31","municipality":"Monreal del Campo","province":"TERUEL","postalCode":"44300","schedule":"L-D: 24H","fuels":{"gasoline95":1.579,"diesel":1.709,"adblue":0.569},"extra":{"saleType":"P","margin":"D","reportingType":"dm","ideess":"9852","idMunicipio":"6660","idProvincia":"44","idCCAA":"02"}}},{"type":"Feature","geometry":{"type":"Point","coordinates":[-1.269278,40.517833]},"properties":{"id":"es-9886","source":"ES","brand":"GASOLEOS TERUEL","address":"CALLE LARGA, 2","municipality":"Villarquemado","province":"TERUEL","postalCode":"44380","schedule":"L-D: 24H","fuels":{"diesel":1.699,"dieselB":1.298},"extra":{"saleType":"P","margin":"N","reportingType":"dm","ideess":"9886","idMunicipio":"6754","idProvincia":"44","idCCAA":"02"}}},{"type":"Feature","geometry":{"type":"Point","coordinates":[-1.357,40.778]},"properties":{"id":"es-9887","source":"ES","brand":"GASOLEOS TERUEL","address":"ERAS DEL MAJUELO S/N","municipality":"Monreal del Campo","province":"TERUEL","postalCode":"44300","schedule":"L-D: 24H","fuels":{"gasoline95":1.569,"diesel":1.699,"dieselB":1.298,"adblue":0.69},"extra":{"saleType":"P","margin":"N","reportingType":"dm","ideess":"9887","idMunicipio":"6660","idProvincia":"44","idCCAA":"02"}}}]}