{"type":"FeatureCollection","features":[{"type":"Feature","geometry":{"type":"Point","coordinates":[1.41275,38.94275]},"properties":{"id":"es-11781","source":"ES","brand":"BP","address":"CALLE DES LLAURADORS, 19","municipality":"Sant Antoni de Portmany","province":"BALEARS (ILLES)","postalCode":"07816","schedule":"L-D: 07:00-23:00","fuels":{"gasoline95":1.809,"gasoline98":1.949,"diesel":1.989,"dieselPremium":2.079,"adblue":1.059},"extra":{"saleType":"P","margin":"D","reportingType":"dm","ideess":"11781","idMunicipio":"843","idProvincia":"07","idCCAA":"04"}}},{"type":"Feature","geometry":{"type":"Point","coordinates":[1.434167,38.991556]},"properties":{"id":"es-12388","source":"ES","brand":"BP","address":"CARRETERA IBIZA - SAN MIGUEL KM. 4,9","municipality":"Santa Eulalia del Río","province":"BALEARS (ILLES)","postalCode":"07814","schedule":"L: 07:00-22:45","fuels":{"gasoline95":1.815,"gasoline98":1.959,"diesel":1.999,"dieselB":1.519},"extra":{"saleType":"P","margin":"D","reportingType":"dm","ideess":"12388","idMunicipio":"850","idProvincia":"07","idCCAA":"04"}}},{"type":"Feature","geometry":{"type":"Point","coordinates":[1.529167,38.982667]},"properties":{"id":"es-12564","source":"ES","brand":"COOPERATIVA SANTA EULALIA","address":"CARRETERA PM-810 KM. 4,150","municipality":"Santa Eulalia del Río","province":"BALEARS (ILLES)","postalCode":"07840","schedule":"L-V: 08:00-18:00; S: 08:00-13:00","fuels":{"diesel":1.899,"dieselB":1.459},"extra":{"saleType":"P","margin":"N","reportingType":"dm","ideess":"12564","idMunicipio":"850","idProvincia":"07","idCCAA":"04"}}},{"type":"Feature","geometry":{"type":"Point","coordinates":[1.410306,38.908806]},"properties":{"id":"es-15229","source":"ES","brand":"CARBURANTES IBIZA, S.L.","address":"CALLE DES JONDAL, 73","municipality":"Eivissa","province":"BALEARS (ILLES)","postalCode":"07800","schedule":"L-D: 07:00-23:00","fuels":{"gasoline95":1.729,"diesel":1.899},"extra":{"saleType":"P","margin":"N","reportingType":"dm","ideess":"15229","idMunicipio":"814","idProvincia":"07","idCCAA":"04"}}},{"type":"Feature","geometry":{"type":"Point","coordinates":[1.436083,38.919917]},"properties":{"id":"es-15609","source":"ES","brand":"AUTONETOIL","address":"CARRER ALCALDE BARTOMEU ROSELLO SALA, 9","municipality":"Eivissa","province":"BALEARS (ILLES)","postalCode":"07800","schedule":"L-D: 24H","fuels":{"gasoline95":1.719,"diesel":1.889,"dieselPremium":1.919,"adblue":1.209},"extra":{"saleType":"P","margin":"D","reportingType":"dm","ideess":"15609","idMunicipio":"814","idProvincia":"07","idCCAA":"04"}}},{"type":"Feature","geometry":{"type":"Point","coordinates":[1.322444,38.975861]},"properties":{"id":"es-15776","source":"ES","brand":"EROSKI","address":"AVENIDA SES PAISSES, 4","municipality":"Sant Antoni de Portmany","province":"BALEARS (ILLES)","postalCode":"07820","schedule":"L: 09:00-21:30","fuels":{"gasoline95":1.699,"diesel":1.869},"extra":{"saleType":"P","margin":"D","reportingType":"dm","ideess":"15776","idMunicipio":"843","idProvincia":"07","idCCAA":"04"}}},{"type":"Feature","geometry":{"type":"Point","coordinates":[1.412972,38.942194]},"properties":{"id":"es-16266","source":"ES","brand":"AUTONETOIL","address":"AVENIDA LLAURADORS, 19","municipality":"Sant Antoni de Portmany","province":"BALEARS (ILLES)","postalCode":"07816","schedule":"L-D: 24H","fuels":{"gasoline95":1.719,"diesel":1.889,"dieselPremium":1.919},"extra":{"saleType":"P","margin":"D","reportingType":"dm","ideess":"16266","idMunicipio":"843","idProvincia":"07","idCCAA":"04"}}},{"type":"Feature","geometry":{"type":"Point","coordinates":[1.417972,38.905583]},"properties":{"id":"es-2570","source":"ES","brand":"REPSOL","address":"CARRETERA PM-808 KM. 1,25","municipality":"Eivissa","province":"BALEARS (ILLES)","postalCode":"07800","schedule":"L-D: 24H","fuels":{"gasoline95":1.815,"gasoline98":1.935,"diesel":1.995,"dieselPremium":2.055,"lpg":1.169},"extra":{"saleType":"P","margin":"I","reportingType":"OM","ideess":"2570","idMunicipio":"814","idProvincia":"07","idCCAA":"04"}}},{"type":"Feature","geometry":{"type":"Point","coordinates":[1.445417,38.708444]},"properties":{"id":"es-2571","source":"ES","brand":"REPSOL","address":"CARRETERA LA SABINA- EL PILAR KM. 4,6","municipality":"Formentera","province":"BALEARS (ILLES)","postalCode":"07860","schedule":"L-S: 07:00-22:30; D: 09:00-22:30","fuels":{"gasoline95":1.889,"diesel":1.999},"extra":{"saleType":"P","margin":"I","reportingType":"dm","ideess":"2571","idMunicipio":"820","idProvincia":"07","idCCAA":"04"}}},{"type":"Feature","geometry":{"type":"Point","coordinates":[1.397306,38.961306]},"properties":{"id":"es-2577","source":"ES","brand":"REPSOL","address":"CARRETERA C-731 KM. 7,15","municipality":"Sant Antoni de Portmany","province":"BALEARS (ILLES)","postalCode":"07816","schedule":"L: 24H","fuels":{"gasoline95":1.779,"gasoline98":1.899,"diesel":1.949,"dieselPremium":2.009,"dieselB":1.519,"lpg":1.129},"extra":{"saleType":"P","margin":"D","reportingType":"dm","ideess":"2577","idMunicipio":"843","idProvincia":"07","idCCAA":"04"}}},{"type":"Feature","geometry":{"type":"Point","coordinates":[1.297806,38.9835]},"properties":{"id":"es-2581","source":"ES","brand":"MOEVE","address":"CALLE CERVANTES ESQUINA VELAZQUEZ, 44","municipality":"Sant Antoni de Portmany","province":"BALEARS (ILLES)","postalCode":"07820","schedule":"L-D: 06:00-22:00","fuels":{"gasoline95":1.804,"gasoline95Premium":1.904,"diesel":2.004},"extra":{"saleType":"P","margin":"D","reportingType":"OM","ideess":"2581","idMunicipio":"843","idProvincia":"07","idCCAA":"04"}}},{"type":"Feature","geometry":{"type":"Point","coordinates":[1.437167,38.918833]},"properties":{"id":"es-2588","source":"ES","brand":"CEPSA","address":"CARRER ALCALDE BARTOLOME ROSELLO SALA, 2","municipality":"Eivissa","province":"BALEARS (ILLES)","postalCode":"07800","schedule":"L-D: 24H","fuels":{"gasoline95":1.809,"gasoline98":1.929,"diesel":1.989,"dieselPremium":2.059,"adblue":1.059},"extra":{"saleType":"P","margin":"D","reportingType":"dm","ideess":"2588","idMunicipio":"814","idProvincia":"07","idCCAA":"04"}}},{"type":"Feature","geometry":{"type":"Point","coordinates":[1.421972,38.722972]},"properties":{"id":"es-2608","source":"ES","brand":"CEPSA","address":"CARRETERA PM-820 KM. 1,2","municipality":"Formentera","province":"BALEARS (ILLES)","postalCode":"07860","schedule":"L-V: 07:30-20:00; S: 09:00-17:00","fuels":{"gasoline95":1.904,"gasoline95Premium":2.024,"diesel":2.024,"dieselPremium":2.194,"dieselB":1.899},"extra":{"saleType":"P","margin":"I","reportingType":"dm","ideess":"2608","idMunicipio":"820","idProvincia":"07","idCCAA":"04"}}},{"type":"Feature","geometry":{"type":"Point","coordinates":[1.412806,38.905194]},"properties":{"id":"es-2620","source":"ES","brand":"GALP","address":"AVENIDA SANT JUSEP DE SA TALAYA, 42","municipality":"Eivissa","province":"BALEARS (ILLES)","postalCode":"07800","schedule":"L-D: 07:00-23:00","fuels":{"gasoline95":1.735,"diesel":1.915},"extra":{"saleType":"P","margin":"D","reportingType":"dm","ideess":"2620","idMunicipio":"814","idProvincia":"07","idCCAA":"04"}}},{"type":"Feature","geometry":{"type":"Point","coordinates":[1.309222,38.972528]},"properties":{"id":"es-2623","source":"ES","brand":"CEPSA","address":"AVENIDA DOCTOR FLEMING, S/N","municipality":"Sant Antoni de Portmany","province":"BALEARS (ILLES)","postalCode":"07820","schedule":"L-D: 07:00-23:00","fuels":{"gasoline95":1.809,"gasoline95Premium":1.939,"diesel":1.999,"dieselPremium":2.089},"extra":{"saleType":"P","margin":"D","reportingType":"dm","ideess":"2623","idMunicipio":"843","idProvincia":"07","idCCAA":"04"}}},{"type":"Feature","geometry":{"type":"Point","coordinates":[1.440778,38.922694]},"properties":{"id":"es-2626","source":"ES","brand":"REPSOL","address":"CARRETERA IBIZA - SAN JUAN KM. 1,7","municipality":"Eivissa","province":"BALEARS (ILLES)","postalCode":"07800","schedule":"L-D: 07:00-23:00","fuels":{"gasoline95":1.809,"gasoline98":1.929,"diesel":1.989,"dieselPremium":2.049},"extra":{"saleType":"P","margin":"D","reportingType":"OM","ideess":"2626","idMunicipio":"814","idProvincia":"07","idCCAA":"04"}}},{"type":"Feature","geometry":{"type":"Point","coordinates":[1.440139,38.922167]},"properties":{"id":"es-2627","source":"ES","brand":"REPSOL","address":"CARRETERA IBIZA - SAN JUAN KM. 1,7","municipality":"Eivissa","province":"BALEARS (ILLES)","postalCode":"07800","schedule":"L-D: 07:00-23:00","fuels":{"gasoline95":1.809,"diesel":1.989},"extra":{"saleType":"P","margin":"I","reportingType":"OM","ideess":"2627","idMunicipio":"814","idProvincia":"07","idCCAA":"04"}}},{"type":"Feature","geometry":{"type":"Point","coordinates":[1.392139,38.886028]},"properties":{"id":"es-2630","source":"ES","brand":"BP SANT JORDI","address":"CARRETERA AEROPUERTO KM. 4,5","municipality":"Sant Josep de sa Talaia","province":"BALEARS (ILLES)","postalCode":"07830","schedule":"L-D: 24H","fuels":{"gasoline95":1.835,"gasoline98":1.975,"diesel":2.015,"dieselPremium":2.105},"extra":{"saleType":"P","margin":"D","reportingType":"OM","ideess":"2630","idMunicipio":"846","idProvincia":"07","idCCAA":"04"}}},{"type":"Feature","geometry":{"type":"Point","coordinates":[1.531861,38.983528]},"properties":{"id":"es-2643","source":"ES","brand":"BP SANTA EULALIA - IBIZA","address":"AVENIDA SAN JAUME, 30","municipality":"Santa Eulalia del Río","province":"BALEARS (ILLES)","postalCode":"07840","schedule":"L-D: 07:00-23:00","fuels":{"gasoline95":1.849,"gasoline98":1.989,"diesel":2.039,"dieselPremium":2.129},"extra":{"saleType":"P","margin":"N","reportingType":"OM","ideess":"2643","idMunicipio":"850","idProvincia":"07","idCCAA":"04"}}},{"type":"Feature","geometry":{"type":"Point","coordinates":[1.429222,38.914444]},"properties":{"id":"es-2694","source":"ES","brand":"SHELL","address":"AVENIDA IGNACIO WALLIS, 58","municipality":"Eivissa","province":"BALEARS (ILLES)","postalCode":"07800","schedule":"L-D: 07:00-22:45","fuels":{"gasoline95":1.805,"gasoline98":1.925,"diesel":1.989},"extra":{"saleType":"P","margin":"N","reportingType":"dm","ideess":"2694","idMunicipio":"814","idProvincia":"07","idCCAA":"04"}}},{"type":"Feature","geometry":{"type":"Point","coordinates":[1.305611,38.92175]},"properties":{"id":"es-2696","source":"ES","brand":"MOEVE","address":"CARRETERA PM-803 KM. 14,3","municipality":"Sant Josep de sa Talaia","province":"BALEARS (ILLES)","postalCode":"07830","schedule":"L-D: 07:00-23:00","fuels":{"gasoline95":1.804,"gasoline95Premium":1.924,"diesel":2.004,"dieselPremium":2.114},"extra":{"saleType":"P","margin":"D","reportingType":"OM","ideess":"2696","idMunicipio":"846","idProvincia":"07","idCCAA":"04"}}},{"type":"Feature","geometry":{"type":"Point","coordinates":[1.495111,38.984889]},"properties":{"id":"es-2697","source":"ES","brand":"MOEVE","address":"CARRETERA PM-810 KM. 3,3","municipality":"Santa Eulalia del Río","province":"BALEARS (ILLES)","postalCode":"07840","schedule":"L-D: 06:00-22:00","fuels":{"gasoline95":1.804,"diesel":2.004,"dieselPremium":2.114},"extra":{"saleType":"P","margin":"D","reportingType":"OM","ideess":"2697","idMunicipio":"850","idProvincia":"07","idCCAA":"04"}}},{"type":"Feature","geometry":{"type":"Point","coordinates":[1.331,38.975056]},"properties":{"id":"es-2725","source":"ES","brand":"MOEVE","address":"CARRETERA C-731 KM. 13","municipality":"Sant Antoni de Portmany","province":"BALEARS (ILLES)","postalCode":"07820","schedule":"L-D: 24H","fuels":{"gasoline95":1.804,"gasoline95Premium":1.904,"diesel":2.004,"dieselPremium":2.084},"extra":{"saleType":"P","margin":"I","reportingType":"OM","ideess":"2725","idMunicipio":"843","idProvincia":"07","idCCAA":"04"}}},{"type":"Feature","geometry":{"type":"Point","coordinates":[1.538861,38.987917]},"properties":{"id":"es-2730","source":"ES","brand":"REPSOL","address":"CARRETERA PM-810 KM. 0,3","municipality":"Santa Eulalia del Río","province":"BALEARS (ILLES)","postalCode":"07840","schedule":"L-D: 07:00-23:00","fuels":{"gasoline95":1.845,"gasoline98":1.985,"diesel":2.039,"lpg":1.159},"extra":{"saleType":"P","margin":"D","reportingType":"dm","ideess":"2730","idMunicipio":"850","idProvincia":"07","idCCAA":"04"}}}]}