{"type":"FeatureCollection","features":[{"type":"Feature","geometry":{"type":"Point","coordinates":[0.485444,42.100917]},"properties":{"id":"es-10290","source":"ES","brand":"REPSOL","address":"CARRETERA NACIONAL 230 KM. 64,000","municipality":"Benabarre","province":"HUESCA","postalCode":"22580","schedule":"L-D: 07:00-22:00","fuels":{"gasoline95":1.806,"gasoline98":1.966,"diesel":1.9,"dieselPremium":1.99},"extra":{"saleType":"P","margin":"D","reportingType":"OM","ideess":"10290","idMunicipio":"3339","idProvincia":"22","idCCAA":"02"}}},{"type":"Feature","geometry":{"type":"Point","coordinates":[0.226556,42.144056]},"properties":{"id":"es-10588","source":"ES","brand":"EL GRADO ESTACION DE SERVICIO","address":"CARRETERA A,138 KM. 9,5","municipality":"Grado (El)","province":"HUESCA","postalCode":"22390","schedule":"L-D: 24H","fuels":{"gasoline95":1.729,"diesel":1.859,"dieselPremium":1.899},"extra":{"saleType":"P","margin":"D","reportingType":"dm","ideess":"10588","idMunicipio":"3387","idProvincia":"22","idCCAA":"02"}}},{"type":"Feature","geometry":{"type":"Point","coordinates":[0.482389,42.513]},"properties":{"id":"es-11026","source":"ES","brand":"REPSOL","address":"N-260 EJE PIRENAICO km 385.5","municipality":"Castejón de Sos","province":"HUESCA","postalCode":"22466","schedule":"L-D: 08:00-21:00","fuels":{"gasoline95":1.806,"gasoline98":1.966,"diesel":1.92,"dieselB":1.612,"dieselRenewable":2.04},"extra":{"saleType":"P","margin":"D","reportingType":"OM","ideess":"11026","idMunicipio":"3364","idProvincia":"22","idCCAA":"02"}}},{"type":"Feature","geometry":{"type":"Point","coordinates":[0.08175,42.436]},"properties":{"id":"es-11680","source":"ES","brand":"AVIA","address":"CARRETERA N-260 KM. 441,6","municipality":"Boltaña","province":"HUESCA","postalCode":"22340","schedule":"L-D: 07:00-22:00","fuels":{"gasoline95":1.739,"gasoline98":1.859,"diesel":1.969,"dieselPremium":2.029},"extra":{"saleType":"P","margin":"D","reportingType":"dm","ideess":"11680","idMunicipio":"3350","idProvincia":"22","idCCAA":"02"}}},{"type":"Feature","geometry":{"type":"Point","coordinates":[0.930444,42.141611]},"properties":{"id":"es-11710","source":"ES","brand":"BONAREA","address":"CARRETERA ARTESA DE SEGRE A TREMP KM. 51","municipality":"Tremp","province":"LLEIDA","postalCode":"25654","schedule":"L-D: 24H","fuels":{"gasoline95":1.44,"diesel":1.603,"adblue":0.528},"extra":{"saleType":"P","margin":"I","reportingType":"dm","ideess":"11710","idMunicipio":"4014","idProvincia":"25","idCCAA":"09"}}},{"type":"Feature","geometry":{"type":"Point","coordinates":[0.499889,42.106194]},"properties":{"id":"es-12241","source":"ES","brand":"PREMIRA","address":"POLIGONO INDUSTRIAL RIBAGORDA UA8-H1, S/N","municipality":"Benabarre","province":"HUESCA","postalCode":"22580","schedule":"L-D: 24H","fuels":{"gasoline95":1.629,"gasoline98":1.689,"diesel":1.659,"dieselPremium":1.689},"extra":{"saleType":"P","margin":"N","reportingType":"dm","ideess":"12241","idMunicipio":"3339","idProvincia":"22","idCCAA":"02"}}},{"type":"Feature","geometry":{"type":"Point","coordinates":[0.897222,42.174056]},"properties":{"id":"es-12372","source":"ES","brand":"ESCLATOIL","address":"AVENIDA PIRINEUS, S/N","municipality":"Tremp","province":"LLEIDA","postalCode":"25620","schedule":"L-D: 24H","fuels":{"gasoline95":1.499,"diesel":1.669},"extra":{"saleType":"P","margin":"N","reportingType":"dm","ideess":"12372","idMunicipio":"4014","idProvincia":"25","idCCAA":"09"}}},{"type":"Feature","geometry":{"type":"Point","coordinates":[0.238556,42.05575]},"properties":{"id":"es-12390","source":"ES","brand":"COOP. SAN LORENZO","address":"CARRETERA BARBASTRO S/N KM. 12","municipality":"Estadilla","province":"HUESCA","postalCode":"22423","schedule":"L-D: 24H","fuels":{"gasoline95":1.517,"diesel":1.635,"dieselB":1.324,"adblue":0.639},"extra":{"saleType":"P","margin":"D","reportingType":"dm","ideess":"12390","idMunicipio":"3377","idProvincia":"22","idCCAA":"02"}}},{"type":"Feature","geometry":{"type":"Point","coordinates":[0.135833,42.043861]},"properties":{"id":"es-12398","source":"ES","brand":"E.S.BELLAVISTA","address":"CALLE DE ADAHUESCA, 1","municipality":"Barbastro","province":"HUESCA","postalCode":"22300","schedule":"L-D: 24H","fuels":{"gasoline95":1.66,"diesel":1.8,"dieselPremium":1.85,"adblue":0.99},"extra":{"saleType":"P","margin":"D","reportingType":"dm","ideess":"12398","idMunicipio":"3334","idProvincia":"22","idCCAA":"02"}}},{"type":"Feature","geometry":{"type":"Point","coordinates":[0.765972,42.002528]},"properties":{"id":"es-12418","source":"ES","brand":"SERVI AGER","address":"CARRETERA TREMP (DE) KM. 35,5","municipality":"Àger","province":"LLEIDA","postalCode":"25691","schedule":"L-D: 07:00-19:00","fuels":{"gasoline95":1.635,"diesel":1.725},"extra":{"saleType":"P","margin":"D","reportingType":"dm","ideess":"12418","idMunicipio":"3805","idProvincia":"25","idCCAA":"09"}}},{"type":"Feature","geometry":{"type":"Point","coordinates":[0.395167,42.195417]},"properties":{"id":"es-12495","source":"ES","brand":"MAZANA OIL","address":"CALLE EMPALME A, 5","municipality":"Capella","province":"HUESCA","postalCode":"22480","schedule":"L-D: 24H","fuels":{"diesel":1.699,"dieselB":1.429,"adblue":0.699},"extra":{"saleType":"P","margin":"D","reportingType":"dm","ideess":"12495","idMunicipio":"3361","idProvincia":"22","idCCAA":"02"}}},{"type":"Feature","geometry":{"type":"Point","coordinates":[0.731861,42.254083]},"properties":{"id":"es-1255","source":"ES","brand":"ESTACION SERVICIO BONET SL","address":"CTRA NAL 230 km 101","municipality":"Arén","province":"HUESCA","postalCode":"22583","schedule":"L-D: 00:00-07:00 y 07:01-21:00","fuels":{"gasoline95":1.75,"gasoline98":1.85,"diesel":1.182,"dieselPremium":1.9,"dieselB":1.43,"adblue":1.0},"extra":{"saleType":"P","margin":"I","reportingType":"dm","ideess":"1255","idMunicipio":"3322","idProvincia":"22","idCCAA":"02"}}},{"type":"Feature","geometry":{"type":"Point","coordinates":[0.132528,42.446444]},"properties":{"id":"es-1263","source":"ES","brand":"ESTACION DE SERVICIO RV","address":"A-138 km 50,53","municipality":"Labuerda","province":"HUESCA","postalCode":"22360","schedule":"L-D: 06:30-22:30","fuels":{"gasoline95":1.739,"gasoline98":1.879,"diesel":1.979,"dieselPremium":2.049,"dieselB":1.656},"extra":{"saleType":"P","margin":"N","reportingType":"dm","ideess":"1263","idMunicipio":"3401","idProvincia":"22","idCCAA":"02"}}},{"type":"Feature","geometry":{"type":"Point","coordinates":[0.118444,42.032194]},"properties":{"id":"es-1270","source":"ES","brand":"ALCAMPO","address":"CARRETERA N-240 KM. 160","municipality":"Barbastro","province":"HUESCA","postalCode":"22300","schedule":"L-D: 24H","fuels":{"gasoline95":1.639,"gasoline98":1.7,"diesel":1.79,"dieselPremium":1.82},"extra":{"saleType":"P","margin":"N","reportingType":"dm","ideess":"1270","idMunicipio":"3334","idProvincia":"22","idCCAA":"02"}}},{"type":"Feature","geometry":{"type":"Point","coordinates":[0.337861,42.188222]},"properties":{"id":"es-1287","source":"ES","brand":"LABOIL, S.L.","address":"CL JOAQUIN COSTA  19","municipality":"Graus","province":"HUESCA","postalCode":"22430","schedule":"L-D: 24H","fuels":{"gasoline95":1.749,"gasoline98":1.879,"diesel":1.899,"dieselPremium":1.969,"dieselB":1.499,"adblue":0.989},"extra":{"saleType":"P","margin":"N","reportingType":"dm","ideess":"1287","idMunicipio":"3389","idProvincia":"22","idCCAA":"02"}}},{"type":"Feature","geometry":{"type":"Point","coordinates":[0.212917,42.584167]},"properties":{"id":"es-1292","source":"ES","brand":"REPSOL","address":"CARRETERA A138 KM. 72,200","municipality":"Tella-Sin","province":"HUESCA","postalCode":"22365","schedule":"L-D: 09:00-20:00","fuels":{"gasoline95":1.796,"diesel":1.956,"dieselB":1.602,"dieselRenewable":2.076},"extra":{"saleType":"P","margin":"D","reportingType":"OM","ideess":"1292","idMunicipio":"3471","idProvincia":"22","idCCAA":"02"}}},{"type":"Feature","geometry":{"type":"Point","coordinates":[0.56475,42.315778]},"properties":{"id":"es-1293","source":"ES","brand":"REPSOL","address":"CARRETERA A-1605 KM. 16","municipality":"Isábena","province":"HUESCA","postalCode":"22483","schedule":"L-D: 07:00-21:00","fuels":{"gasoline95":1.689,"diesel":1.799,"dieselPremium":1.869,"dieselB":1.499},"extra":{"saleType":"P","margin":"D","reportingType":"dm","ideess":"1293","idMunicipio":"3398","idProvincia":"22","idCCAA":"02"}}},{"type":"Feature","geometry":{"type":"Point","coordinates":[0.2095,42.66125]},"properties":{"id":"es-1305","source":"ES","brand":"REPSOL","address":"CARRETERA A-138 KM. 84","municipality":"Bielsa","province":"HUESCA","postalCode":"22350","schedule":"L-D: 24H","fuels":{"gasoline95":1.819,"diesel":1.979,"dieselRenewable":2.089},"extra":{"saleType":"P","margin":"D","reportingType":"dm","ideess":"1305","idMunicipio":"3342","idProvincia":"22","idCCAA":"02"}}},{"type":"Feature","geometry":{"type":"Point","coordinates":[0.141028,42.4155]},"properties":{"id":"es-1310","source":"ES","brand":"CEPSA","address":"AVENIDA PIRENAICA, 14","municipality":"Aínsa-Sobrarbe","province":"HUESCA","postalCode":"22330","schedule":"L-D: 07:00-22:00","fuels":{"gasoline95":1.789,"gasoline98":1.909,"diesel":2.009,"dieselPremium":2.069,"dieselB":1.679,"adblue":0.998},"extra":{"saleType":"P","margin":"D","reportingType":"dm","ideess":"1310","idMunicipio":"3298","idProvincia":"22","idCCAA":"02"}}},{"type":"Feature","geometry":{"type":"Point","coordinates":[0.140056,42.005694]},"properties":{"id":"es-1312","source":"ES","brand":"CAMPSA","address":"POLIGONO PARCELA, 51","municipality":"Barbastro","province":"HUESCA","postalCode":"22300","schedule":"L-V: 06:00-20:00; S: 08:00-13:00","fuels":{"gasoline95":1.756,"gasoline98":1.936,"diesel":1.92,"dieselPremium":2.04,"dieselB":1.616},"extra":{"saleType":"P","margin":"D","reportingType":"OM","ideess":"1312","idMunicipio":"3334","idProvincia":"22","idCCAA":"02"}}},{"type":"Feature","geometry":{"type":"Point","coordinates":[0.128194,42.034694]},"properties":{"id":"es-1332","source":"ES","brand":"REPSOL","address":"CALLE CORONA DE ARAGON, 52","municipality":"Barbastro","province":"HUESCA","postalCode":"22300","schedule":"L-D: 07:00-22:00","fuels":{"gasoline95":1.76,"gasoline98":1.94,"diesel":1.92,"dieselPremium":1.99,"dieselB":1.596},"extra":{"saleType":"P","margin":"D","reportingType":"OM","ideess":"1332","idMunicipio":"3334","idProvincia":"22","idCCAA":"02"}}},{"type":"Feature","geometry":{"type":"Point","coordinates":[0.239861,42.055083]},"properties":{"id":"es-1333","source":"ES","brand":"REPSOL","address":"CARRETERA A-133 KM KM. 26,6","municipality":"Estadilla","province":"HUESCA","postalCode":"22423","schedule":"L-V: 07:00-21:00; S: 07:00-14:00","fuels":{"gasoline95":1.756,"diesel":1.91,"dieselPremium":2.03,"dieselB":1.562},"extra":{"saleType":"P","margin":"I","reportingType":"OM","ideess":"1333","idMunicipio":"3377","idProvincia":"22","idCCAA":"02"}}},{"type":"Feature","geometry":{"type":"Point","coordinates":[0.053222,42.026028]},"properties":{"id":"es-13361","source":"ES","brand":"REPSOL","address":"AUTOVIA A-22 KM. 62,000","municipality":"Barbastro","province":"HUESCA","postalCode":"22300","schedule":"L-D: 06:00-23:00","fuels":{"gasoline95":1.76,"gasoline98":1.89,"diesel":1.916,"dieselPremium":1.986,"lpg":1.129},"extra":{"saleType":"P","margin":"I","reportingType":"OM","ideess":"13361","idMunicipio":"3334","idProvincia":"22","idCCAA":"02"}}},{"type":"Feature","geometry":{"type":"Point","coordinates":[0.131028,42.038389]},"properties":{"id":"es-1339","source":"ES","brand":"REPSOL","address":"AVENIDA PIRINEOS, 27","municipality":"Barbastro","province":"HUESCA","postalCode":"22300","schedule":"L-D: 07:00-21:00","fuels":{"gasoline95":1.76,"gasoline98":1.94,"diesel":1.92,"dieselRenewable":2.04},"extra":{"saleType":"P","margin":"I","reportingType":"OM","ideess":"1339","idMunicipio":"3334","idProvincia":"22","idCCAA":"02"}}},{"type":"Feature","geometry":{"type":"Point","coordinates":[0.396917,42.402417]},"properties":{"id":"es-1345","source":"ES","brand":"REPSOL","address":"CR N-260, 405,2","municipality":"Campo","province":"HUESCA","postalCode":"22450","schedule":"L-D: 08:00-21:00","fuels":{"gasoline95":1.806,"diesel":1.916,"dieselPremium":2.036,"dieselB":1.592},"extra":{"saleType":"P","margin":"D","reportingType":"OM","ideess":"1345","idMunicipio":"3355","idProvincia":"22","idCCAA":"02"}}},{"type":"Feature","geometry":{"type":"Point","coordinates":[0.105583,42.033972]},"properties":{"id":"es-1346","source":"ES","brand":"REPSOL","address":"CARRETERA N-240 KM. 161,1","municipality":"Barbastro","province":"HUESCA","postalCode":"22300","schedule":"L-D: 06:00-22:00","fuels":{"gasoline95":1.76,"gasoline98":1.89,"diesel":1.916,"dieselB":1.562,"dieselRenewable":2.036},"extra":{"saleType":"P","margin":"I","reportingType":"OM","ideess":"1346","idMunicipio":"3334","idProvincia":"22","idCCAA":"02"}}},{"type":"Feature","geometry":{"type":"Point","coordinates":[0.225944,42.140611]},"properties":{"id":"es-1350","source":"ES","brand":"REPSOL","address":"CARRETERA A-138 KM. 9,10","municipality":"Grado (El)","province":"HUESCA","postalCode":"22390","schedule":"L-D: 07:00-22:00","fuels":{"gasoline95":1.792,"gasoline98":1.897,"diesel":1.898,"dieselPremium":1.898},"extra":{"saleType":"P","margin":"D","reportingType":"dm","ideess":"1350","idMunicipio":"3387","idProvincia":"22","idCCAA":"02"}}},{"type":"Feature","geometry":{"type":"Point","coordinates":[0.464639,42.552167]},"properties":{"id":"es-13693","source":"ES","brand":"E.S.SIBIERRE","address":"CARRETERA A-139 KM. 51,4","municipality":"Villanova","province":"HUESCA","postalCode":"22467","schedule":"L: 07:00-22:00","fuels":{"diesel":1.899},"extra":{"saleType":"P","margin":"I","reportingType":"dm","ideess":"13693","idMunicipio":"3490","idProvincia":"22","idCCAA":"02"}}},{"type":"Feature","geometry":{"type":"Point","coordinates":[0.015167,42.165056]},"properties":{"id":"es-15522","source":"ES","brand":"ESTACION DE SERVICIO","address":"ACCESO BARBASTRO-ALQUEZAR, 0","municipality":"Alquézar","province":"HUESCA","postalCode":"22145","schedule":"L-D: 09:00-14:00 y 16:00-19:00","fuels":{"gasoline95":1.8,"diesel":1.94},"extra":{"saleType":"P","margin":"I","reportingType":"dm","ideess":"15522","idMunicipio":"3316","idProvincia":"22","idCCAA":"02"}}},{"type":"Feature","geometry":{"type":"Point","coordinates":[0.893667,42.14725]},"properties":{"id":"es-1562","source":"ES","brand":"BONAREA","address":"CRTA. C-13,  (C.C. BON AREA) km 84,25","municipality":"Tremp","province":"LLEIDA","postalCode":"25633","schedule":"L-D: 24H","fuels":{"gasoline95":1.44,"diesel":1.602,"adblue":0.528},"extra":{"saleType":"P","margin":"D","reportingType":"dm","ideess":"1562","idMunicipio":"4014","idProvincia":"25","idCCAA":"09"}}},{"type":"Feature","geometry":{"type":"Point","coordinates":[0.862583,42.700222]},"properties":{"id":"es-1567","source":"ES","brand":"MOEVE","address":"CARRETERA C-28 KM. 29,5","municipality":"Naut Aran","province":"LLEIDA","postalCode":"25599","schedule":"L-D: 24H","fuels":{"gasoline95":1.706,"gasoline98":1.837,"diesel":1.858,"dieselPremium":1.977},"extra":{"saleType":"P","margin":"D","reportingType":"dm","ideess":"1567","idMunicipio":"3935","idProvincia":"25","idCCAA":"09"}}},{"type":"Feature","geometry":{"type":"Point","coordinates":[0.804139,42.698]},"properties":{"id":"es-16077","source":"ES","brand":"E. S. BETREN","address":"CALLE DETH ROSER, 1","municipality":"Vielha e Mijaran","province":"LLEIDA","postalCode":"25539","schedule":"L-D: 07:00-23:00","fuels":{"gasoline95":1.669,"diesel":1.844,"dieselB":1.45},"extra":{"saleType":"P","margin":"D","reportingType":"dm","ideess":"16077","idMunicipio":"4023","idProvincia":"25","idCCAA":"09"}}},{"type":"Feature","geometry":{"type":"Point","coordinates":[0.793222,42.701917]},"properties":{"id":"es-2221","source":"ES","brand":"REPSOL","address":"CR N-230, 163,7","municipality":"Vielha e Mijaran","province":"LLEIDA","postalCode":"25530","schedule":"L-D: 07:00-23:00","fuels":{"gasoline95":1.766,"gasoline98":1.896,"diesel":1.916,"dieselRenewable":2.036},"extra":{"saleType":"P","margin":"I","reportingType":"OM","ideess":"2221","idMunicipio":"4023","idProvincia":"25","idCCAA":"09"}}},{"type":"Feature","geometry":{"type":"Point","coordinates":[0.797083,42.711111]},"properties":{"id":"es-2274","source":"ES","brand":"REPSOL","address":"CR N-230, 164,1","municipality":"Vielha e Mijaran","province":"LLEIDA","postalCode":"25530","schedule":"L-X: 07:00-23:00; J-S: 00:00-23:59; D: 07:00-23:00","fuels":{"gasoline95":1.766,"gasoline98":1.896,"diesel":1.916},"extra":{"saleType":"P","margin":"D","reportingType":"OM","ideess":"2274","idMunicipio":"4023","idProvincia":"25","idCCAA":"09"}}},{"type":"Feature","geometry":{"type":"Point","coordinates":[0.895,42.171361]},"properties":{"id":"es-2281","source":"ES","brand":"REPSOL","address":"CARRETERA C-13 KM. 86,30","municipality":"Tremp","province":"LLEIDA","postalCode":"25620","schedule":"L-D: 06:00-22:00","fuels":{"gasoline95":1.74,"gasoline98":1.89,"diesel":1.88,"dieselPremium":1.95,"dieselB":1.6},"extra":{"saleType":"P","margin":"I","reportingType":"dm","ideess":"2281","idMunicipio":"4014","idProvincia":"25","idCCAA":"09"}}},{"type":"Feature","geometry":{"type":"Point","coordinates":[0.80275,42.5045]},"properties":{"id":"es-2293","source":"ES","brand":"PETRONOR","address":"CALLE SAN FELIU, S/N","municipality":"Vall de Boí (La)","province":"LLEIDA","postalCode":"25527","schedule":"L-D: 08:00-20:00","fuels":{"gasoline95":1.879,"diesel":1.999},"extra":{"saleType":"P","margin":"D","reportingType":"dm","ideess":"2293","idMunicipio":"4015","idProvincia":"25","idCCAA":"09"}}},{"type":"Feature","geometry":{"type":"Point","coordinates":[0.700722,42.7495]},"properties":{"id":"es-2481","source":"ES","brand":"REPSOL","address":"CARRETERA NACIONAL 230 KM. 174,90","municipality":"Vilamòs","province":"LLEIDA","postalCode":"25551","schedule":"L-D: 08:00-14:00","fuels":{"gasoline95":1.76,"gasoline98":1.89,"diesel":1.92},"extra":{"saleType":"P","margin":"I","reportingType":"OM","ideess":"2481","idMunicipio":"4026","idProvincia":"25","idCCAA":"09"}}},{"type":"Feature","geometry":{"type":"Point","coordinates":[0.70925,42.4525]},"properties":{"id":"es-2502","source":"ES","brand":"CAMPSA","address":"CR N-230, 129","municipality":"Vilaller","province":"LLEIDA","postalCode":"25552","schedule":"L-D: 08:00-14:00 y 16:00-20:00","fuels":{"gasoline95":1.79,"gasoline98":1.92,"diesel":1.91,"dieselRenewable":2.03},"extra":{"saleType":"P","margin":"D","reportingType":"OM","ideess":"2502","idMunicipio":"4025","idProvincia":"25","idCCAA":"09"}}},{"type":"Feature","geometry":{"type":"Point","coordinates":[0.72975,42.832111]},"properties":{"id":"es-2528","source":"ES","brand":"REPSOL","address":"CR N-230 186","municipality":"Bausen","province":"LLEIDA","postalCode":"25549","schedule":"L-D: 07:00-21:00","fuels":{"gasoline95":1.76,"diesel":1.92},"extra":{"saleType":"P","margin":"I","reportingType":"OM","ideess":"2528","idMunicipio":"3841","idProvincia":"25","idCCAA":"09"}}},{"type":"Feature","geometry":{"type":"Point","coordinates":[0.714372,42.820447]},"properties":{"id":"es-2832","source":"ES","brand":"ESTACION BOYA","address":"CR N-230, 183,3","municipality":"Les","province":"LLEIDA","postalCode":"25540","schedule":"L-D: 24H","fuels":{"gasoline95":1.715,"gasoline98":1.815,"diesel":1.895},"extra":{"saleType":"P","margin":"D","reportingType":"dm","ideess":"2832","idMunicipio":"3910","idProvincia":"25","idCCAA":"09"}}},{"type":"Feature","geometry":{"type":"Point","coordinates":[0.742583,42.404278]},"properties":{"id":"es-2854","source":"ES","brand":"CEPSA","address":"CARRETERA N-230 KM. 124,7","municipality":"Pont de Suert (El)","province":"LLEIDA","postalCode":"25520","schedule":"L-D: 06:00-22:00","fuels":{"gasoline95":1.859,"gasoline95Premium":1.987,"diesel":1.981,"dieselPremium":2.113,"dieselB":1.734},"extra":{"saleType":"P","margin":"D","reportingType":"dm","ideess":"2854","idMunicipio":"3957","idProvincia":"25","idCCAA":"09"}}},{"type":"Feature","geometry":{"type":"Point","coordinates":[0.965278,42.238306]},"properties":{"id":"es-2941","source":"ES","brand":"MOEVE","address":"CARRETERA C-13 KM. 94,5","municipality":"Pobla de Segur (La)","province":"LLEIDA","postalCode":"25500","schedule":"L-D: 06:00-22:00","fuels":{"gasoline95":1.746,"gasoline95Premium":1.859,"diesel":1.879,"dieselPremium":1.967,"dieselB":1.707},"extra":{"saleType":"P","margin":"I","reportingType":"dm","ideess":"2941","idMunicipio":"3955","idProvincia":"25","idCCAA":"09"}}},{"type":"Feature","geometry":{"type":"Point","coordinates":[0.354722,42.226028]},"properties":{"id":"es-8086","source":"ES","brand":"HIPER-OIL","address":"CARRETERA A-139 KM. 5,6","municipality":"Graus","province":"HUESCA","postalCode":"22436","schedule":"L-D: 24H","fuels":{"gasoline95":1.749,"diesel":1.899,"adblue":0.889},"extra":{"saleType":"P","margin":"D","reportingType":"dm","ideess":"8086","idMunicipio":"3389","idProvincia":"22","idCCAA":"02"}}},{"type":"Feature","geometry":{"type":"Point","coordinates":[0.247528,42.006917]},"properties":{"id":"es-9685","source":"ES","brand":"COOP.FONZ","address":"CARRETERA MONZON-FONZ km 13.600","municipality":"Fonz","province":"HUESCA","postalCode":"22422","schedule":"L-D: 24H","fuels":{"gasoline95":1.495,"diesel":1.62,"dieselB":1.322,"adblue":0.639},"extra":{"saleType":"P","margin":"N","reportingType":"dm","ideess":"9685","idMunicipio":"3382","idProvincia":"22","idCCAA":"02"}}}]}