{"type":"FeatureCollection","features":[{"type":"Feature","geometry":{"type":"Point","coordinates":[-4.079778,38.029472]},"properties":{"id":"es-10425","source":"ES","brand":"EL BALCON DE ANDALUCIA","address":"AUTOVIA E-5/A-4 KM. 326","municipality":"Andújar","province":"JAÉN","postalCode":"23740","schedule":"L-D: 24H","fuels":{"gasoline95":1.789,"gasoline98":1.899,"diesel":1.989,"dieselPremium":2.059,"dieselB":1.699,"lpg":0.959,"adblue":0.999},"extra":{"saleType":"P","margin":"I","reportingType":"dm","ideess":"10425","idMunicipio":"3500","idProvincia":"23","idCCAA":"01"}}},{"type":"Feature","geometry":{"type":"Point","coordinates":[-4.896028,38.431361]},"properties":{"id":"es-11030","source":"ES","brand":"MOEVE","address":"CARRETERA AÑORA-DOS TORRES KM 2 KM. 2","municipality":"Añora","province":"CÓRDOBA","postalCode":"14450","schedule":"L-S: 06:00-22:00; D: 08:00-14:00","fuels":{"gasoline95":1.719,"diesel":1.939,"dieselPremium":1.999,"dieselB":1.459,"adblue":0.89},"extra":{"saleType":"P","margin":"D","reportingType":"dm","ideess":"11030","idMunicipio":"2048","idProvincia":"14","idCCAA":"01"}}},{"type":"Feature","geometry":{"type":"Point","coordinates":[-4.351333,38.873806]},"properties":{"id":"es-11139","source":"ES","brand":"GALP","address":"CTRA.CM-4.110 km 26,000","municipality":"Abenójar","province":"CIUDAD REAL","postalCode":"13180","schedule":"L-D: 06:30-22:30","fuels":{"gasoline95":1.739,"gasoline98":1.909,"diesel":1.945,"dieselPremium":2.055,"dieselB":1.3},"extra":{"saleType":"P","margin":"N","reportingType":"dm","ideess":"11139","idMunicipio":"1941","idProvincia":"13","idCCAA":"07"}}},{"type":"Feature","geometry":{"type":"Point","coordinates":[-4.101667,38.701556]},"properties":{"id":"es-12058","source":"ES","brand":"CARREFOUR","address":"CARRETERA NACIONAL 420 KM. 160","municipality":"Puertollano","province":"CIUDAD REAL","postalCode":"13500","schedule":"L-D: 24H","fuels":{"gasoline95":1.699,"diesel":1.879},"extra":{"saleType":"P","margin":"D","reportingType":"dm","ideess":"12058","idMunicipio":"2013","idProvincia":"13","idCCAA":"07"}}},{"type":"Feature","geometry":{"type":"Point","coordinates":[-4.389056,38.004861]},"properties":{"id":"es-12444","source":"ES","brand":"EL POLIGONO","address":"POLIGONO CAMINO DE MORENTE, 91","municipality":"Montoro","province":"CÓRDOBA","postalCode":"14600","schedule":"L-D: 06:30-22:00","fuels":{"gasoline95":1.678,"diesel":1.818,"dieselPremium":1.858,"dieselB":1.472,"adblue":0.89},"extra":{"saleType":"P","margin":"I","reportingType":"dm","ideess":"12444","idMunicipio":"2085","idProvincia":"14","idCCAA":"01"}}},{"type":"Feature","geometry":{"type":"Point","coordinates":[-4.053583,38.021611]},"properties":{"id":"es-12576","source":"ES","brand":"E.S. VEGAS DE TRIANA","address":"CARRETERA A-311 KM. 35,000","municipality":"Andújar","province":"JAÉN","postalCode":"23740","schedule":"L: 24H","fuels":{"gasoline95":1.695,"diesel":1.885,"dieselPremium":1.985,"dieselB":1.655,"adblue":1.0},"extra":{"saleType":"P","margin":"D","reportingType":"dm","ideess":"12576","idMunicipio":"3500","idProvincia":"23","idCCAA":"01"}}},{"type":"Feature","geometry":{"type":"Point","coordinates":[-4.086778,38.723028]},"properties":{"id":"es-13077","source":"ES","brand":"GASOLEOSJUCO","address":"POLIGONO MANZANARES, 6","municipality":"Argamasilla de Calatrava","province":"CIUDAD REAL","postalCode":"13440","schedule":"L-D: 06:00-23:00","fuels":{"gasoline95":1.749,"diesel":1.949},"extra":{"saleType":"P","margin":"D","reportingType":"dm","ideess":"13077","idMunicipio":"1961","idProvincia":"13","idCCAA":"07"}}},{"type":"Feature","geometry":{"type":"Point","coordinates":[-4.2965,38.660056]},"properties":{"id":"es-13206","source":"ES","brand":"UNIDAD DE SERVICIO","address":"CARRETERA CABEZARRUBIAS KM. 1","municipality":"Brazatortas","province":"CIUDAD REAL","postalCode":"13450","schedule":"L-D: 06:00-23:00","fuels":{"gasoline95":1.639,"diesel":1.849,"dieselB":1.269},"extra":{"saleType":"P","margin":"N","reportingType":"dm","ideess":"13206","idMunicipio":"1965","idProvincia":"13","idCCAA":"07"}}},{"type":"Feature","geometry":{"type":"Point","coordinates":[-4.118889,38.704528]},"properties":{"id":"es-13311","source":"ES","brand":"CARBURANTES BLUE","address":"CARRETERA ALMODOVAR KM. 1,500","municipality":"Puertollano","province":"CIUDAD REAL","postalCode":"13500","schedule":"L-D: 24H","fuels":{"gasoline95":1.719,"diesel":1.819},"extra":{"saleType":"P","margin":"I","reportingType":"dm","ideess":"13311","idMunicipio":"2013","idProvincia":"13","idCCAA":"07"}}},{"type":"Feature","geometry":{"type":"Point","coordinates":[-4.083917,38.681083]},"properties":{"id":"es-13589","source":"ES","brand":"FAMILY ENERGY","address":"AVENIDA ANDALUCIA, S/N","municipality":"Puertollano","province":"CIUDAD REAL","postalCode":"13500","schedule":"L-D: 24H","fuels":{"gasoline95":1.629,"gasoline98":1.729,"diesel":1.749,"dieselPremium":1.799},"extra":{"saleType":"P","margin":"D","reportingType":"dm","ideess":"13589","idMunicipio":"2013","idProvincia":"13","idCCAA":"07"}}},{"type":"Feature","geometry":{"type":"Point","coordinates":[-4.038361,38.036306]},"properties":{"id":"es-13745","source":"ES","brand":"AUTONETOIL","address":"AVENIDA BRUSELAS, 7","municipality":"Andújar","province":"JAÉN","postalCode":"23740","schedule":"L-D: 24H","fuels":{"gasoline95":1.679,"diesel":1.829},"extra":{"saleType":"P","margin":"N","reportingType":"dm","ideess":"13745","idMunicipio":"3500","idProvincia":"23","idCCAA":"01"}}},{"type":"Feature","geometry":{"type":"Point","coordinates":[-4.84125,38.3615]},"properties":{"id":"es-13817","source":"ES","brand":"PETROVAP","address":"CALLE PRIMERA (PG.I.DEH.BOYAL), 50","municipality":"Pozoblanco","province":"CÓRDOBA","postalCode":"14400","schedule":"L-D: 24H","fuels":{"gasoline95":1.649,"diesel":1.839},"extra":{"saleType":"P","margin":"D","reportingType":"dm","ideess":"13817","idMunicipio":"2096","idProvincia":"14","idCCAA":"01"}}},{"type":"Feature","geometry":{"type":"Point","coordinates":[-4.08575,38.717972]},"properties":{"id":"es-14463","source":"ES","brand":"TRADILO INVERSIONES SL","address":"CARRETERA ARGAMASILLA DE CALATRAVA S/N KM. 165,20","municipality":"Argamasilla de Calatrava","province":"CIUDAD REAL","postalCode":"13440","schedule":"L-V: 07:00-21:00; S: 08:00-14:00","fuels":{"diesel":1.71,"adblue":1.2},"extra":{"saleType":"P","margin":"D","reportingType":"dm","ideess":"14463","idMunicipio":"1961","idProvincia":"13","idCCAA":"07"}}},{"type":"Feature","geometry":{"type":"Point","coordinates":[-4.853167,38.373861]},"properties":{"id":"es-14493","source":"ES","brand":"PRODENERGY","address":"CALLE MUÑOZ DE SEPULVEDA, 99","municipality":"Pozoblanco","province":"CÓRDOBA","postalCode":"14400","schedule":"L-D: 24H","fuels":{"gasoline95":1.669,"diesel":1.849,"adblue":1.209},"extra":{"saleType":"P","margin":"D","reportingType":"dm","ideess":"14493","idMunicipio":"2096","idProvincia":"14","idCCAA":"01"}}},{"type":"Feature","geometry":{"type":"Point","coordinates":[-4.1415,38.786861]},"properties":{"id":"es-14653","source":"ES","brand":"MONTES NORTE ENERGETICOS S.L.","address":"CARRETERA SAN QUINTIN KM. 68","municipality":"Villamayor de Calatrava","province":"CIUDAD REAL","postalCode":"13595","schedule":"L-D: 24H","fuels":{"gasoline95":1.589,"diesel":1.759,"dieselB":1.399},"extra":{"saleType":"P","margin":"D","reportingType":"dm","ideess":"14653","idMunicipio":"2035","idProvincia":"13","idCCAA":"07"}}},{"type":"Feature","geometry":{"type":"Point","coordinates":[-4.099639,38.703722]},"properties":{"id":"es-14699","source":"ES","brand":"PETROPRIX","address":"CALLE CAÑADA REAL, S/N","municipality":"Puertollano","province":"CIUDAD REAL","postalCode":"13500","schedule":"L-D: 24H","fuels":{"gasoline95":1.629,"diesel":1.749},"extra":{"saleType":"P","margin":"N","reportingType":"dm","ideess":"14699","idMunicipio":"2013","idProvincia":"13","idCCAA":"07"}}},{"type":"Feature","geometry":{"type":"Point","coordinates":[-4.166361,38.029222]},"properties":{"id":"es-15194","source":"ES","brand":"Q8","address":"AVENIDA DE ÁFRICA, 104","municipality":"Marmolejo","province":"JAÉN","postalCode":"23770","schedule":"L-D: 24H","fuels":{"gasoline95":1.679,"diesel":1.819,"dieselPremium":1.829,"adblue":0.9},"extra":{"saleType":"P","margin":"D","reportingType":"dm","ideess":"15194","idMunicipio":"3553","idProvincia":"23","idCCAA":"01"}}},{"type":"Feature","geometry":{"type":"Point","coordinates":[-4.972833,38.723639]},"properties":{"id":"es-15576","source":"ES","brand":"LOS DONCELES ENERGY","address":"CAMINO LAGUNA, 14","municipality":"Guadalmez","province":"CIUDAD REAL","postalCode":"13490","schedule":"L-D: 24H","fuels":{"gasoline95":1.759,"diesel":1.939,"dieselB":1.589},"extra":{"saleType":"P","margin":"D","reportingType":"dm","ideess":"15576","idMunicipio":"1987","idProvincia":"13","idCCAA":"07"}}},{"type":"Feature","geometry":{"type":"Point","coordinates":[-4.381472,38.005889]},"properties":{"id":"es-15721","source":"ES","brand":"SHELL","address":"POLIGONO IND CAMINO MORENTE, 1","municipality":"Montoro","province":"CÓRDOBA","postalCode":"14600","schedule":"L-D: 24H","fuels":{"gasoline95":1.699,"diesel":1.849,"dieselB":1.499,"adblue":1.25},"extra":{"saleType":"P","margin":"D","reportingType":"OM","ideess":"15721","idMunicipio":"2085","idProvincia":"14","idCCAA":"01"}}},{"type":"Feature","geometry":{"type":"Point","coordinates":[-4.1,38.704333]},"properties":{"id":"es-15722","source":"ES","brand":"PETROL RED","address":"CARRETERA ARGAMASILLA KM. 50","municipality":"Puertollano","province":"CIUDAD REAL","postalCode":"13500","schedule":"L-D: 07:00-23:00","fuels":{"gasoline95":1.665,"gasoline98":1.765,"diesel":1.799,"dieselPremium":1.899},"extra":{"saleType":"P","margin":"D","reportingType":"dm","ideess":"15722","idMunicipio":"2013","idProvincia":"13","idCCAA":"07"}}},{"type":"Feature","geometry":{"type":"Point","coordinates":[-4.056278,38.029972]},"properties":{"id":"es-15804","source":"ES","brand":"E.S. LOS MARCOS AREAPARKING 24H","address":"CARRETERA CR MADRID-CADIZ KM. 324","municipality":"Andújar","province":"JAÉN","postalCode":"23740","schedule":"L-D: 24H","fuels":{"gasoline95":1.679,"diesel":1.839},"extra":{"saleType":"P","margin":"D","reportingType":"dm","ideess":"15804","idMunicipio":"3500","idProvincia":"23","idCCAA":"01"}}},{"type":"Feature","geometry":{"type":"Point","coordinates":[-4.620528,38.327806]},"properties":{"id":"es-16024","source":"ES","brand":"BALLENOIL","address":"CALLE CURTIDORES - SECTOR UI. 3 INDUSTRIAL, 66","municipality":"Villanueva de Córdoba","province":"CÓRDOBA","postalCode":"14440","schedule":"L-D: 24H","fuels":{"gasoline95":1.609,"diesel":1.749,"dieselPremium":1.759},"extra":{"saleType":"P","margin":"N","reportingType":"OM","ideess":"16024","idMunicipio":"2111","idProvincia":"14","idCCAA":"01"}}},{"type":"Feature","geometry":{"type":"Point","coordinates":[-4.377722,38.011861]},"properties":{"id":"es-16039","source":"ES","brand":"ESTACIÓN DE SERVICIO ARANDA","address":"CALLE CARPIO, 23","municipality":"Montoro","province":"CÓRDOBA","postalCode":"14600","schedule":"L-D: 24H","fuels":{"gasoline95":1.719,"diesel":1.879,"dieselB":1.48,"adblue":0.95},"extra":{"saleType":"P","margin":"D","reportingType":"dm","ideess":"16039","idMunicipio":"2085","idProvincia":"14","idCCAA":"01"}}},{"type":"Feature","geometry":{"type":"Point","coordinates":[-4.055667,38.033167]},"properties":{"id":"es-16091","source":"ES","brand":"PETROPRIX","address":"AVENIDA ANDALUCÍA, 8","municipality":"Andújar","province":"JAÉN","postalCode":"23740","schedule":"L-D: 24H","fuels":{"gasoline95":1.659,"diesel":1.779},"extra":{"saleType":"P","margin":"N","reportingType":"dm","ideess":"16091","idMunicipio":"3500","idProvincia":"23","idCCAA":"01"}}},{"type":"Feature","geometry":{"type":"Point","coordinates":[-4.104806,38.698583]},"properties":{"id":"es-16381","source":"ES","brand":"PLENERGY","address":"CARRETERA ARGAMASILLA KM. 22","municipality":"Puertollano","province":"CIUDAD REAL","postalCode":"13500","schedule":"L-D: 24H","fuels":{"gasoline95":1.629,"diesel":1.749},"extra":{"saleType":"P","margin":"D","reportingType":"dm","ideess":"16381","idMunicipio":"2013","idProvincia":"13","idCCAA":"07"}}},{"type":"Feature","geometry":{"type":"Point","coordinates":[-4.82125,38.786833]},"properties":{"id":"es-4404","source":"ES","brand":"HGOIL","address":"POLIGONO POZO DE LAS NIEVES, 12","municipality":"Almadén","province":"CIUDAD REAL","postalCode":"13400","schedule":"L-D: 07:00-22:00","fuels":{"gasoline95":1.729,"diesel":1.909,"dieselPremium":1.969,"dieselB":1.519},"extra":{"saleType":"P","margin":"I","reportingType":"dm","ideess":"4404","idMunicipio":"1951","idProvincia":"13","idCCAA":"07"}}},{"type":"Feature","geometry":{"type":"Point","coordinates":[-4.856972,38.794139]},"properties":{"id":"es-4774","source":"ES","brand":"HGOIL","address":"CARRETERA ALMADEN-CHILLON KM. ","municipality":"Chillón","province":"CIUDAD REAL","postalCode":"13412","schedule":"L-V: 07:00-21:00; S-D: 08:00-14:30 y 15:30-21:00","fuels":{"gasoline95":1.729,"diesel":1.909,"dieselPremium":1.969,"dieselB":1.519},"extra":{"saleType":"P","margin":"I","reportingType":"dm","ideess":"4774","idMunicipio":"1975","idProvincia":"13","idCCAA":"07"}}},{"type":"Feature","geometry":{"type":"Point","coordinates":[-4.608472,38.946306]},"properties":{"id":"es-4822","source":"ES","brand":"REPSOL","address":"CALLE ARENAL, S/N","municipality":"Saceruela","province":"CIUDAD REAL","postalCode":"13414","schedule":"L-D: 07:00-20:00","fuels":{"gasoline95":1.729,"gasoline98":1.899,"diesel":1.909,"dieselB":1.685,"dieselRenewable":2.029},"extra":{"saleType":"P","margin":"D","reportingType":"OM","ideess":"4822","idMunicipio":"2017","idProvincia":"13","idCCAA":"07"}}},{"type":"Feature","geometry":{"type":"Point","coordinates":[-4.262556,38.671333]},"properties":{"id":"es-4837","source":"ES","brand":"GALP LA JUNQUERA","address":"CARRETERA NACIONAL 420 KM. 143,700","municipality":"Brazatortas","province":"CIUDAD REAL","postalCode":"13450","schedule":"L-D: 24H","fuels":{"gasoline95":1.759,"gasoline98":1.939,"diesel":1.939},"extra":{"saleType":"P","margin":"I","reportingType":"dm","ideess":"4837","idMunicipio":"1965","idProvincia":"13","idCCAA":"07"}}},{"type":"Feature","geometry":{"type":"Point","coordinates":[-4.071306,38.718028]},"properties":{"id":"es-4858","source":"ES","brand":"REPSOL","address":"CARRETERA CR-506 KM. 3,300","municipality":"Argamasilla de Calatrava","province":"CIUDAD REAL","postalCode":"13440","schedule":"L-D: 06:00-22:00","fuels":{"gasoline95":1.759,"gasoline98":1.929,"diesel":1.959,"dieselRenewable":2.079},"extra":{"saleType":"P","margin":"I","reportingType":"OM","ideess":"4858","idMunicipio":"1961","idProvincia":"13","idCCAA":"07"}}},{"type":"Feature","geometry":{"type":"Point","coordinates":[-4.298667,38.66225]},"properties":{"id":"es-5108","source":"ES","brand":"REPSOL","address":"CR N-420 141,9","municipality":"Brazatortas","province":"CIUDAD REAL","postalCode":"13450","schedule":"L: 07:00-15:00 y 17:00-21:00","fuels":{"gasoline95":1.729,"diesel":1.939,"dieselRenewable":2.059},"extra":{"saleType":"P","margin":"D","reportingType":"OM","ideess":"5108","idMunicipio":"1965","idProvincia":"13","idCCAA":"07"}}},{"type":"Feature","geometry":{"type":"Point","coordinates":[-4.831306,38.777639]},"properties":{"id":"es-5117","source":"ES","brand":"EL CRISTO","address":"AVENIDA RAMON Y CAJAL, 61","municipality":"Almadén","province":"CIUDAD REAL","postalCode":"13400","schedule":"L: 07:00-22:00","fuels":{"gasoline95":1.729,"diesel":1.909,"dieselPremium":1.969,"dieselB":1.559,"adblue":1.109},"extra":{"saleType":"P","margin":"I","reportingType":"dm","ideess":"5117","idMunicipio":"1951","idProvincia":"13","idCCAA":"07"}}},{"type":"Feature","geometry":{"type":"Point","coordinates":[-4.864444,38.980472]},"properties":{"id":"es-5165","source":"ES","brand":"PETRONOR","address":"CR N-502, 32,8","municipality":"Agudo","province":"CIUDAD REAL","postalCode":"13410","schedule":"L-S: 08:00-15:00","fuels":{"gasoline95":1.728,"diesel":1.907,"dieselPremium":1.999,"dieselB":1.679},"extra":{"saleType":"P","margin":"I","reportingType":"dm","ideess":"5165","idMunicipio":"1942","idProvincia":"13","idCCAA":"07"}}},{"type":"Feature","geometry":{"type":"Point","coordinates":[-4.315556,38.431194]},"properties":{"id":"es-5180","source":"ES","brand":"CEPSA","address":"CARRETERA N-420 KM. 103,3","municipality":"Fuencaliente","province":"CIUDAD REAL","postalCode":"13130","schedule":"L-D: 07:00-14:55 y 15:00-23:00","fuels":{"gasoline95":1.804,"diesel":1.954,"dieselPremium":2.054},"extra":{"saleType":"P","margin":"D","reportingType":"dm","ideess":"5180","idMunicipio":"1983","idProvincia":"13","idCCAA":"07"}}},{"type":"Feature","geometry":{"type":"Point","coordinates":[-4.109361,38.678778]},"properties":{"id":"es-5188","source":"ES","brand":"REPSOL","address":"CALLE ASDRUBAL, 68","municipality":"Puertollano","province":"CIUDAD REAL","postalCode":"13500","schedule":"L-D: 06:00-22:00","fuels":{"gasoline95":1.779,"gasoline98":1.949,"diesel":1.975,"dieselRenewable":2.095},"extra":{"saleType":"P","margin":"D","reportingType":"OM","ideess":"5188","idMunicipio":"2013","idProvincia":"13","idCCAA":"07"}}},{"type":"Feature","geometry":{"type":"Point","coordinates":[-4.099833,38.705222]},"properties":{"id":"es-5206","source":"ES","brand":"REPSOL","address":"CARRETERA N420 KM. 160,500","municipality":"Puertollano","province":"CIUDAD REAL","postalCode":"13500","schedule":"L-D: 24H","fuels":{"gasoline95":1.769,"gasoline98":1.929,"diesel":1.969,"dieselRenewable":2.089},"extra":{"saleType":"P","margin":"I","reportingType":"OM","ideess":"5206","idMunicipio":"2013","idProvincia":"13","idCCAA":"07"}}},{"type":"Feature","geometry":{"type":"Point","coordinates":[-4.168778,38.712]},"properties":{"id":"es-5226","source":"ES","brand":"REPSOL","address":"CARRETERA CM 4110 KM. 6","municipality":"Almodóvar del Campo","province":"CIUDAD REAL","postalCode":"13580","schedule":"L-D: 07:00-23:00","fuels":{"gasoline95":1.749,"gasoline98":1.919,"diesel":1.959,"dieselRenewable":2.079},"extra":{"saleType":"P","margin":"D","reportingType":"OM","ideess":"5226","idMunicipio":"1955","idProvincia":"13","idCCAA":"07"}}},{"type":"Feature","geometry":{"type":"Point","coordinates":[-4.042861,38.873278]},"properties":{"id":"es-5275","source":"ES","brand":"REPSOL","address":"CARRETERA N-420 KM. 180","municipality":"Corral de Calatrava","province":"CIUDAD REAL","postalCode":"13190","schedule":"L-V: 07:00-22:00; S: 08:00-13:00","fuels":{"gasoline95":1.735,"gasoline98":1.905,"diesel":1.929,"dieselRenewable":2.049},"extra":{"saleType":"P","margin":"D","reportingType":"OM","ideess":"5275","idMunicipio":"1977","idProvincia":"13","idCCAA":"07"}}},{"type":"Feature","geometry":{"type":"Point","coordinates":[-4.070667,38.679861]},"properties":{"id":"es-5287","source":"ES","brand":"REPSOL","address":"CARRETERA CR-503 KM. 3,2","municipality":"Puertollano","province":"CIUDAD REAL","postalCode":"13500","schedule":"L-V: 06:00-22:00; S-D: 07:00-15:00","fuels":{"gasoline95":1.749,"gasoline95Premium":1.819,"gasoline98":1.919,"diesel":1.945,"dieselRenewable":2.065},"extra":{"saleType":"P","margin":"D","reportingType":"OM","ideess":"5287","idMunicipio":"2013","idProvincia":"13","idCCAA":"07"}}},{"type":"Feature","geometry":{"type":"Point","coordinates":[-4.106,38.697778]},"properties":{"id":"es-5306","source":"ES","brand":"REPSOL","address":"CR N-420, 160","municipality":"Puertollano","province":"CIUDAD REAL","postalCode":"13500","schedule":"L-D: 06:00-22:00","fuels":{"gasoline95":1.769,"gasoline98":1.939,"diesel":1.975,"dieselRenewable":2.095,"lpg":1.189},"extra":{"saleType":"P","margin":"D","reportingType":"OM","ideess":"5306","idMunicipio":"2013","idProvincia":"13","idCCAA":"07"}}},{"type":"Feature","geometry":{"type":"Point","coordinates":[-4.039583,38.039361]},"properties":{"id":"es-5553","source":"ES","brand":"Q8","address":"AVENIDA AVDA. BLAS INFANTE S/N, ","municipality":"Andújar","province":"JAÉN","postalCode":"23740","schedule":"L-D: 24H","fuels":{"gasoline95":1.719,"gasoline98":1.799,"diesel":1.919,"dieselPremium":1.989},"extra":{"saleType":"P","margin":"N","reportingType":"dm","ideess":"5553","idMunicipio":"3500","idProvincia":"23","idCCAA":"01"}}},{"type":"Feature","geometry":{"type":"Point","coordinates":[-4.864611,38.091556]},"properties":{"id":"es-5560","source":"ES","brand":"ENI","address":"CARRETERA CRA. N-432 BADAJOZ - GRANADA KM. 239,5","municipality":"Córdoba","province":"CÓRDOBA","postalCode":"14320","schedule":"L-D: 24H","fuels":{"gasoline95":1.759,"diesel":1.919,"dieselPremium":2.019,"adblue":0.899},"extra":{"saleType":"P","margin":"I","reportingType":"dm","ideess":"5560","idMunicipio":"2063","idProvincia":"14","idCCAA":"01"}}},{"type":"Feature","geometry":{"type":"Point","coordinates":[-4.64175,38.327167]},"properties":{"id":"es-5714","source":"ES","brand":"REPSOL","address":"CARRETERA CO-420 KM. 152","municipality":"Villanueva de Córdoba","province":"CÓRDOBA","postalCode":"14440","schedule":"L-D: 06:00-22:00","fuels":{"gasoline95":1.725,"diesel":1.955,"dieselRenewable":2.075},"extra":{"saleType":"P","margin":"D","reportingType":"OM","ideess":"5714","idMunicipio":"2111","idProvincia":"14","idCCAA":"01"}}},{"type":"Feature","geometry":{"type":"Point","coordinates":[-4.056778,38.035583]},"properties":{"id":"es-5738","source":"ES","brand":"REPSOL","address":"PASEO COLON, S/N","municipality":"Andújar","province":"JAÉN","postalCode":"23740","schedule":"L-D: 06:00-22:00","fuels":{"gasoline95":1.759,"gasoline98":1.909,"diesel":1.979,"dieselB":1.715,"dieselRenewable":2.099},"extra":{"saleType":"P","margin":"I","reportingType":"OM","ideess":"5738","idMunicipio":"3500","idProvincia":"23","idCCAA":"01"}}},{"type":"Feature","geometry":{"type":"Point","coordinates":[-4.671833,38.480778]},"properties":{"id":"es-5759","source":"ES","brand":"CAMPSA","address":"CR CO-313, 1 (CO-313 km 1,1)","municipality":"Torrecampo","province":"CÓRDOBA","postalCode":"14410","schedule":"L-D: 07:00-23:00","fuels":{"gasoline95":1.735,"diesel":2.019},"extra":{"saleType":"P","margin":"D","reportingType":"dm","ideess":"5759","idMunicipio":"2104","idProvincia":"14","idCCAA":"01"}}},{"type":"Feature","geometry":{"type":"Point","coordinates":[-4.165944,38.027083]},"properties":{"id":"es-5775","source":"ES","brand":"CODO_CM","address":"CR N-4, 335,5","municipality":"Marmolejo","province":"JAÉN","postalCode":"23770","schedule":"L-D: 07:00-22:00","fuels":{"gasoline95":1.739,"gasoline98":1.909,"diesel":1.959,"dieselRenewable":2.079},"extra":{"saleType":"P","margin":"D","reportingType":"OM","ideess":"5775","idMunicipio":"3553","idProvincia":"23","idCCAA":"01"}}},{"type":"Feature","geometry":{"type":"Point","coordinates":[-4.979694,38.392139]},"properties":{"id":"es-5780","source":"ES","brand":"YARYMA 1","address":"CARRETERA A422 KM. 1","municipality":"Villanueva del Duque","province":"CÓRDOBA","postalCode":"14250","schedule":"L-V: 06:00-22:00; S-D: 07:00-22:00","fuels":{"gasoline95":1.725,"gasoline95Premium":1.785,"diesel":2.015,"dieselPremium":2.125},"extra":{"saleType":"P","margin":"D","reportingType":"dm","ideess":"5780","idMunicipio":"2112","idProvincia":"14","idCCAA":"01"}}},{"type":"Feature","geometry":{"type":"Point","coordinates":[-4.038389,38.038917]},"properties":{"id":"es-6429","source":"ES","brand":"CARREFOUR","address":"AVENIDA BLAS INFANTE, 14","municipality":"Andújar","province":"JAÉN","postalCode":"23740","schedule":"L-D: 24H","fuels":{"gasoline95":1.729,"gasoline98":1.829,"diesel":1.939,"dieselPremium":1.979},"extra":{"saleType":"P","margin":"N","reportingType":"dm","ideess":"6429","idMunicipio":"3500","idProvincia":"23","idCCAA":"01"}}},{"type":"Feature","geometry":{"type":"Point","coordinates":[-4.040694,38.047833]},"properties":{"id":"es-6531","source":"ES","brand":"E.S. EUROPA","address":"AVENIDA BLAS INFANTE, S/N, P.E. EUROPA, S/N","municipality":"Andújar","province":"JAÉN","postalCode":"23740","schedule":"L-D: 24H","fuels":{"gasoline95":1.699,"gasoline98":1.799,"diesel":1.899,"adblue":1.199},"extra":{"saleType":"P","margin":"D","reportingType":"dm","ideess":"6531","idMunicipio":"3500","idProvincia":"23","idCCAA":"01"}}},{"type":"Feature","geometry":{"type":"Point","coordinates":[-4.974972,38.380111]},"properties":{"id":"es-6620","source":"ES","brand":"PUERTA LOS PEDROCHES","address":"CR N-502 (MD), P.K. 364 (NACIONAL 502 km 365)","municipality":"Alcaracejos","province":"CÓRDOBA","postalCode":"14480","schedule":"L-D: 24H","fuels":{"gasoline95":1.725,"diesel":2.015,"dieselB":1.609,"dieselRenewable":2.125,"adblue":0.899},"extra":{"saleType":"P","margin":"D","reportingType":"dm","ideess":"6620","idMunicipio":"2045","idProvincia":"14","idCCAA":"01"}}},{"type":"Feature","geometry":{"type":"Point","coordinates":[-4.844833,38.370472]},"properties":{"id":"es-6656","source":"ES","brand":"SHELL","address":"CARRETERA CO-6411 KM. 0,300","municipality":"Pozoblanco","province":"CÓRDOBA","postalCode":"14400","schedule":"L: 07:00-23:00","fuels":{"gasoline95":1.719,"gasoline98":1.859,"diesel":1.984,"dieselPremium":2.064,"adblue":1.25},"extra":{"saleType":"P","margin":"D","reportingType":"OM","ideess":"6656","idMunicipio":"2096","idProvincia":"14","idCCAA":"01"}}},{"type":"Feature","geometry":{"type":"Point","coordinates":[-4.953917,38.480028]},"properties":{"id":"es-6693","source":"ES","brand":"REPSOL","address":"AVENIDA VIA DEL CALATRAVEÑO, 9","municipality":"Viso (El)","province":"CÓRDOBA","postalCode":"14470","schedule":"L-V: 06:00-22:00; S: 07:00-21:00","fuels":{"gasoline95":1.759,"gasoline95Premium":1.809,"diesel":1.989,"dieselB":1.609,"dieselRenewable":2.099},"extra":{"saleType":"P","margin":"D","reportingType":"dm","ideess":"6693","idMunicipio":"2116","idProvincia":"14","idCCAA":"01"}}},{"type":"Feature","geometry":{"type":"Point","coordinates":[-4.056306,38.033917]},"properties":{"id":"es-6761","source":"ES","brand":"CEPSA","address":"POLIGONO LA CECA, 23","municipality":"Andújar","province":"JAÉN","postalCode":"23740","schedule":"L-D: 05:00-23:00","fuels":{"gasoline95":1.779,"gasoline95Premium":1.879,"gasoline98":1.919,"diesel":1.989,"dieselPremium":2.059,"dieselB":1.719,"adblue":0.995},"extra":{"saleType":"P","margin":"D","reportingType":"dm","ideess":"6761","idMunicipio":"3500","idProvincia":"23","idCCAA":"01"}}},{"type":"Feature","geometry":{"type":"Point","coordinates":[-4.323722,38.267444]},"properties":{"id":"es-6800","source":"ES","brand":"REPSOL","address":"CARRETERA CR 420, KM. 181,7","municipality":"Cardeña","province":"CÓRDOBA","postalCode":"14445","schedule":"L-V: 07:30-22:00; S-D: 07:30-14:30","fuels":{"gasoline95":1.725,"diesel":1.955},"extra":{"saleType":"P","margin":"I","reportingType":"OM","ideess":"6800","idMunicipio":"2058","idProvincia":"14","idCCAA":"01"}}},{"type":"Feature","geometry":{"type":"Point","coordinates":[-4.169833,38.040778]},"properties":{"id":"es-6803","source":"ES","brand":"CODO_CM","address":"CALLE CAMINO DE LA ESTACION, SN","municipality":"Marmolejo","province":"JAÉN","postalCode":"23770","schedule":"L-V: 08:00-13:00 y 17:00-20:00","fuels":{"gasoline95":1.745,"gasoline98":1.915,"diesel":1.959,"dieselRenewable":2.079},"extra":{"saleType":"P","margin":"D","reportingType":"OM","ideess":"6803","idMunicipio":"3553","idProvincia":"23","idCCAA":"01"}}},{"type":"Feature","geometry":{"type":"Point","coordinates":[-4.860222,38.379972]},"properties":{"id":"es-6871","source":"ES","brand":"REPSOL","address":"CARRETERA C-420 KM. 131","municipality":"Pozoblanco","province":"CÓRDOBA","postalCode":"14400","schedule":"L-D: 06:00-22:00","fuels":{"gasoline95":1.725,"gasoline95Premium":1.785,"gasoline98":1.895,"diesel":2.005,"dieselRenewable":2.125},"extra":{"saleType":"P","margin":"I","reportingType":"OM","ideess":"6871","idMunicipio":"2096","idProvincia":"14","idCCAA":"01"}}},{"type":"Feature","geometry":{"type":"Point","coordinates":[-4.619333,38.322028]},"properties":{"id":"es-6881","source":"ES","brand":"REPSOL","address":"AVENIDA CARDEÑA, S/N","municipality":"Villanueva de Córdoba","province":"CÓRDOBA","postalCode":"14440","schedule":"L-D: 06:00-22:00","fuels":{"gasoline95":1.725,"gasoline95Premium":1.795,"diesel":1.955,"dieselB":1.625,"dieselRenewable":2.075},"extra":{"saleType":"P","margin":"D","reportingType":"OM","ideess":"6881","idMunicipio":"2111","idProvincia":"14","idCCAA":"01"}}},{"type":"Feature","geometry":{"type":"Point","coordinates":[-4.899528,38.12475]},"properties":{"id":"es-6933","source":"ES","brand":"REPSOL","address":"CARRETERA N-432 KM. 236,2","municipality":"Villaharta","province":"CÓRDOBA","postalCode":"14210","schedule":"L-S: 06:00-22:00","fuels":{"gasoline95":1.725,"gasoline95Premium":1.785,"diesel":1.955,"dieselPremium":2.065,"dieselB":1.629},"extra":{"saleType":"P","margin":"I","reportingType":"OM","ideess":"6933","idMunicipio":"2110","idProvincia":"14","idCCAA":"01"}}},{"type":"Feature","geometry":{"type":"Point","coordinates":[-4.773917,38.008889]},"properties":{"id":"es-6947","source":"ES","brand":"REPSOL","address":"CARRETERA N-432 KM. 252","municipality":"Obejo","province":"CÓRDOBA","postalCode":"14310","schedule":"L-J: 07:30-14:00 y 15:00-19:30; V: 07:30-15:00 y 16:00-19:30; S: 09:00-14:00","fuels":{"gasoline95":1.725,"diesel":1.955,"dieselPremium":2.065},"extra":{"saleType":"P","margin":"D","reportingType":"OM","ideess":"6947","idMunicipio":"2089","idProvincia":"14","idCCAA":"01"}}},{"type":"Feature","geometry":{"type":"Point","coordinates":[-4.193028,38.005583]},"properties":{"id":"es-7021","source":"ES","brand":"TAMOIL","address":"CARRETERA N-IV KM. 339","municipality":"Marmolejo","province":"JAÉN","postalCode":"23770","schedule":"L-D: 24H","fuels":{"gasoline95":1.649,"diesel":1.809,"dieselPremium":1.849,"biodiesel":1.749,"adblue":0.899},"extra":{"saleType":"P","margin":"N","reportingType":"OM","ideess":"7021","idMunicipio":"3553","idProvincia":"23","idCCAA":"01"}}},{"type":"Feature","geometry":{"type":"Point","coordinates":[-4.057583,38.044028]},"properties":{"id":"es-7025","source":"ES","brand":"E.S. ILITURGI","address":"CAMINO DEL CEMENTERIO km 5","municipality":"Andújar","province":"JAÉN","postalCode":"23740","schedule":"L-D: 06:00-22:00","fuels":{"gasoline95":1.679,"diesel":1.919,"dieselPremium":1.979,"dieselB":1.659},"extra":{"saleType":"P","margin":"N","reportingType":"dm","ideess":"7025","idMunicipio":"3500","idProvincia":"23","idCCAA":"01"}}},{"type":"Feature","geometry":{"type":"Point","coordinates":[-4.091278,38.989722]},"properties":{"id":"es-8264","source":"ES","brand":"LIBRE","address":"CARRETERA N-430 KM. 290","municipality":"Alcolea de Calatrava","province":"CIUDAD REAL","postalCode":"13107","schedule":"L-D: 07:00-22:30","fuels":{"gasoline95":1.669,"diesel":1.799,"dieselB":1.419},"extra":{"saleType":"P","margin":"D","reportingType":"dm","ideess":"8264","idMunicipio":"1947","idProvincia":"13","idCCAA":"07"}}},{"type":"Feature","geometry":{"type":"Point","coordinates":[-4.5185,38.025111]},"properties":{"id":"es-9697","source":"ES","brand":"REPSOL","address":"CARRETERA CO-412 KM. 12,700","municipality":"Adamuz","province":"CÓRDOBA","postalCode":"14430","schedule":"L-D: 06:00-22:00","fuels":{"gasoline95":1.839,"diesel":1.999,"dieselB":1.647},"extra":{"saleType":"P","margin":"D","reportingType":"dm","ideess":"9697","idMunicipio":"2043","idProvincia":"14","idCCAA":"01"}}}]}