{"type":"FeatureCollection","features":[{"type":"Feature","geometry":{"type":"Point","coordinates":[-7.52772,40.23535]},"properties":{"id":"pt-65255","source":"PT","name":"J. CASTANHEIRA, LDA","brand":"REPSOL","address":"EN 230 - Av. Viriato nº42","municipality":"Covilhã","district":"Castelo Branco","postalCode":"6200-725","fuels":{"gasoline95":2.275,"diesel":2.315,"dieselPremium":2.355},"lastUpdated":"2026-09-25 07:20","extra":{"stationType":"Outro"},"services":["Assistência auto","Calibragem de pneus","Venda de gás doméstico em garrafas"],"hours":{"weekdays":"07:00-21:30","saturday":"08:00-20:00","sunday":"08:00-20:00","holiday":"08:00-20:00"},"paymentMethods":["Dinheiro"],"otherServices":null,"observations":null}},{"type":"Feature","geometry":{"type":"Point","coordinates":[-7.46729,40.09677]},"properties":{"id":"pt-65299","source":"PT","name":"Alves Correia & Filho Lda.","brand":"GALP","address":"EN 18","municipality":"Fundão","district":"Castelo Branco","postalCode":"6230-000","fuels":{"gasoline95":2.164,"diesel":2.279,"dieselPremium":2.329,"dieselAgri":1.864},"lastUpdated":"2026-09-23 11:00","extra":{"stationType":"Outro"},"services":[],"hours":{"weekdays":"07:00-21:00","saturday":"07:00-21:00","sunday":"07:00-21:00","holiday":"07:00-21:00"},"paymentMethods":["Dinheiro"],"otherServices":null,"observations":null}},{"type":"Feature","geometry":{"type":"Point","coordinates":[-8.131163,39.90387]},"properties":{"id":"pt-65628","source":"PT","name":"ANTONIO ANTUNES  MARTINS","brand":"GALP","address":"EN 2 Km 327,58","municipality":"Sertã","district":"Castelo Branco","postalCode":"6100-000","fuels":{"gasoline95":2.154,"diesel":2.269,"dieselPremium":2.329},"lastUpdated":"2026-09-23 11:00","extra":{"stationType":"Outro"},"services":["Cafetaria","Venda de carburante de qualidade superior","Venda de gás doméstico em garrafas","WC"],"hours":{"weekdays":"07:00-22:00","saturday":"07:00-22:00","sunday":"07:00-22:00","holiday":"07:00-22:00"},"paymentMethods":["Dinheiro"],"otherServices":null,"observations":"Full Service"}},{"type":"Feature","geometry":{"type":"Point","coordinates":[-8.179675,39.819511]},"properties":{"id":"pt-65629","source":"PT","name":"JOAO SIMOES MATA SILVA LDA","brand":"GALP","address":"EN 238 Km 33,45","municipality":"Sertã","district":"Castelo Branco","postalCode":"6100-000","fuels":{"gasoline95":2.114,"gasoline95Plus":2.164,"diesel":2.229,"dieselPremium":2.279,"dieselAgri":1.864},"lastUpdated":"2026-09-23 11:00","extra":{"stationType":"Outro"},"services":["Assistência auto","Calibragem de pneus","Lavagem","Loja de Conveniência","Venda de carburante de qualidade superior","Venda de gás doméstico em garrafas","Venda de gasóleo agrícola","WC"],"hours":{"weekdays":"07:00-00:00","saturday":"07:00-00:00","sunday":"07:00-00:00","holiday":"07:00-00:00"},"paymentMethods":["Dinheiro"],"otherServices":null,"observations":"Full Service"}},{"type":"Feature","geometry":{"type":"Point","coordinates":[-8.101364,39.803629]},"properties":{"id":"pt-65630","source":"PT","name":"Francisco Laia Nunes, Lda","brand":"GALP","address":"EN 238 (Lugar de Santo Amaro)","municipality":"Sertã","district":"Castelo Branco","postalCode":"6100-000","fuels":{"gasoline95":2.199,"gasoline95Plus":2.249,"diesel":2.329,"dieselPremium":2.379,"dieselAgri":1.934},"lastUpdated":"2026-09-23 12:45","extra":{"stationType":"Outro"},"services":["Assistência auto","Cafetaria","Calibragem de pneus","Lavagem","Loja de Conveniência","Multibanco","Venda de carburante de qualidade superior","Venda de gás doméstico em garrafas","Venda de gasóleo agrícola","WC"],"hours":{"weekdays":"07:00-23:00","saturday":"07:00-23:00","sunday":"07:00-23:00","holiday":"07:00-23:00"},"paymentMethods":["Dinheiro"],"otherServices":null,"observations":"Full Service"}},{"type":"Feature","geometry":{"type":"Point","coordinates":[-8.14244,39.678694]},"properties":{"id":"pt-65719","source":"PT","name":"VREI, Lda.","brand":"GALP","address":"EN 2 Km 365,9","municipality":"Vila de Rei","district":"Castelo Branco","postalCode":"6110-202","fuels":{"gasoline95":2.164,"gasoline95Plus":2.214,"diesel":2.279,"dieselPremium":2.329,"dieselAgri":1.864},"lastUpdated":"2026-09-23 11:00","extra":{"stationType":"Outro"},"services":["Assistência auto","Lavagem","Loja de Conveniência","Venda de carburante de qualidade superior","Venda de gás doméstico em garrafas","Venda de gasóleo agrícola"],"hours":{"weekdays":"07:00-22:00","saturday":"07:00-22:00","sunday":"07:00-22:00","holiday":"07:00-22:00"},"paymentMethods":["Dinheiro"],"otherServices":null,"observations":"Full Service"}},{"type":"Feature","geometry":{"type":"Point","coordinates":[-7.782874,39.574207]},"properties":{"id":"pt-65765","source":"PT","name":"GALP A.S. A23 Vila Velha de Rodão (N/S)","brand":"GALP","address":"A23 - Km 80 - Fratel","municipality":"Vila Velha de Ródão","district":"Castelo Branco","postalCode":"6030-013","fuels":{"gasoline95":2.239,"gasoline95Plus":2.299,"gasoline98Plus":2.469,"diesel":2.349,"dieselPremium":2.409,"lpg":0.999},"lastUpdated":"2026-09-25 04:05","extra":{"stationType":"Auto-estrada"},"services":["Loja de Conveniência","Venda de gás doméstico em garrafas","WC com fraldário","WC para deficientes"],"hours":{"weekdays":"Aberto 24 horas","saturday":"Aberto 24 horas","sunday":"Aberto 24 horas","holiday":"Aberto 24 horas"},"paymentMethods":["Dinheiro","MbWay","Multibanco","Outros"],"otherServices":null,"observations":null}},{"type":"Feature","geometry":{"type":"Point","coordinates":[-7.78226,39.572548]},"properties":{"id":"pt-65766","source":"PT","name":"GALP A.S. A23 Vila Velha de Rodão (S/N)","brand":"GALP","address":"A23 - Km 80 - Fratel","municipality":"Vila Velha de Ródão","district":"Castelo Branco","postalCode":"6030-012","fuels":{"gasoline95":2.239,"gasoline95Plus":2.299,"gasoline98Plus":2.469,"diesel":2.349,"dieselPremium":2.409,"lpg":0.999},"lastUpdated":"2026-09-25 04:05","extra":{"stationType":"Auto-estrada"},"services":["Loja de Conveniência","Venda de gás doméstico em garrafas","WC com fraldário","WC para deficientes"],"hours":{"weekdays":"Aberto 24 horas","saturday":"Aberto 24 horas","sunday":"Aberto 24 horas","holiday":"Aberto 24 horas"},"paymentMethods":["Dinheiro","MbWay","Multibanco","Outros"],"otherServices":null,"observations":null}},{"type":"Feature","geometry":{"type":"Point","coordinates":[-7.616475,39.75248]},"properties":{"id":"pt-65767","source":"PT","name":"RUIVO & CARMONA, LDA.","brand":"GALP","address":"N3, km 196.700","municipality":"Vila Velha de Ródão","district":"Castelo Branco","postalCode":"6030-116","fuels":{"gasoline95":2.154,"gasoline95Plus":2.204,"diesel":2.269,"dieselPremium":2.319},"lastUpdated":"2026-09-23 11:00","extra":{"stationType":"Outro"},"services":["Cafetaria","Descanso de pesados","Loja de Conveniência","Venda de carburante de qualidade superior","Venda de gás doméstico em garrafas","WC","WC para deficientes"],"hours":{"weekdays":"06:00-22:30","saturday":"06:00-22:30","sunday":"06:00-22:30","holiday":"06:00-22:30"},"paymentMethods":["Dinheiro"],"otherServices":null,"observations":null}},{"type":"Feature","geometry":{"type":"Point","coordinates":[-7.495811,39.830833]},"properties":{"id":"pt-65885","source":"PT","name":"BP Mina (Castelo Branco)","brand":"BP","address":"Rua da Mina","municipality":"Castelo Branco","district":"Castelo Branco","postalCode":"6000-170","fuels":{"gasoline95":2.144,"gasoline98Plus":2.449,"diesel":2.274,"dieselPremium":2.499},"lastUpdated":"2026-09-21 17:30","extra":{"stationType":"Outro"},"services":["Cafetaria","Loja de Conveniência","Multibanco","WC"],"hours":null,"paymentMethods":["Dinheiro"],"otherServices":null,"observations":null}},{"type":"Feature","geometry":{"type":"Point","coordinates":[-7.49803,40.14067]},"properties":{"id":"pt-65920","source":"PT","name":"BP FUNDÃO","brand":"BP","address":"Av. da Liberdade","municipality":"Fundão","district":"Castelo Branco","postalCode":"6234-909","fuels":{"gasoline95":2.209,"gasoline98Plus":2.449,"diesel":2.339,"dieselPremium":2.499,"dieselAgri":1.949},"lastUpdated":"2026-09-22 00:00","extra":{"stationType":"Outro"},"services":[],"hours":{"weekdays":"07:00-23:00","saturday":"07:00-23:00","sunday":"07:00-23:00","holiday":"07:00-23:00"},"paymentMethods":["Dinheiro"],"otherServices":null,"observations":null}},{"type":"Feature","geometry":{"type":"Point","coordinates":[-7.660509,39.656713]},"properties":{"id":"pt-66077","source":"PT","name":"VILA VELHA DE RÓDÃO","brand":"BP","address":"EN 18","municipality":"Vila Velha de Ródão","district":"Castelo Branco","postalCode":"6030-223","fuels":{"gasoline95":2.169,"gasoline98":2.449,"diesel":2.299,"dieselPremium":2.499,"dieselAgri":1.949},"lastUpdated":"2026-09-22 07:20","extra":{"stationType":"Outro"},"services":[],"hours":{"weekdays":"06:30-22:30","saturday":"06:30-22:30","sunday":"06:30-22:30","holiday":"06:30-22:30"},"paymentMethods":["Dinheiro"],"otherServices":null,"observations":null}},{"type":"Feature","geometry":{"type":"Point","coordinates":[-7.5022,40.279561]},"properties":{"id":"pt-66417","source":"PT","name":"J. António Pinho - Combustíveis Lda.","brand":"Genérico","address":"Rua Marquês de Avila e Bolama nº 210","municipality":"Covilhã","district":"Castelo Branco","postalCode":"6200-053","fuels":{"gasoline95":2.039,"gasoline95Plus":2.059,"diesel":2.139,"dieselPremium":2.159},"lastUpdated":"2026-09-23 11:00","extra":{"stationType":"Outro"},"services":[],"hours":{"weekdays":"08:00-20:00","saturday":"08:00-20:00","sunday":"08:00-20:00","holiday":"08:00-20:00"},"paymentMethods":["Dinheiro"],"otherServices":null,"observations":null}},{"type":"Feature","geometry":{"type":"Point","coordinates":[-7.49996,40.26687]},"properties":{"id":"pt-66501","source":"PT","name":"E.S. COVILHA","brand":"REPSOL","address":"Quinta da Olivosa, Acesso à Variante","municipality":"Covilhã","district":"Castelo Branco","postalCode":"6200-000","fuels":{"gasoline95":2.174,"gasoline95Plus":2.229,"gasoline98Plus":2.359,"diesel":2.304,"dieselPremium":2.359},"lastUpdated":"2026-09-21 00:00","extra":{"stationType":"Outro"},"services":["Lavagem","Loja de Conveniência","Venda de carburante de qualidade superior","Venda de gás doméstico em garrafas","WC"],"hours":{"weekdays":"07:00-22:00","saturday":"07:00-22:00","sunday":"07:00-22:00","holiday":"07:00-22:00"},"paymentMethods":["Dinheiro"],"otherServices":null,"observations":null}},{"type":"Feature","geometry":{"type":"Point","coordinates":[-8.109689,39.773658]},"properties":{"id":"pt-66502","source":"PT","name":"E.S. SERTÃ","brand":"REPSOL","address":"Estrada Vila de Rei ","municipality":"Sertã","district":"Castelo Branco","postalCode":"6100-732","fuels":{"gasoline95":2.219,"gasoline95Plus":2.289,"gasoline98Plus":2.419,"diesel":2.349,"dieselPremium":2.419,"dieselAgri":1.989,"lpg":1.009},"lastUpdated":"2026-09-23 12:45","extra":{"stationType":"Outro"},"services":["Cafetaria","Descanso de pesados","Venda de carburante de qualidade superior","Venda de gás doméstico em garrafas","Venda de gasóleo agrícola","WC"],"hours":{"weekdays":"07:00-22:00","saturday":"07:00-22:00","sunday":"07:00-22:00","holiday":"07:00-22:00"},"paymentMethods":["Dinheiro"],"otherServices":null,"observations":null}},{"type":"Feature","geometry":{"type":"Point","coordinates":[-7.512566,39.806209]},"properties":{"id":"pt-66506","source":"PT","name":"E.S. CASTELO BRANCO","brand":"REPSOL","address":"Rua do Terminal nº 6","municipality":"Castelo Branco","district":"Castelo Branco","postalCode":"6000-198","fuels":{"gasoline95":2.144,"gasoline95Plus":2.209,"gasoline98Plus":2.339,"diesel":2.274,"dieselPremium":2.339},"lastUpdated":"2026-09-21 00:00","extra":{"stationType":"Outro"},"services":["Assistência auto","Calibragem de pneus","Venda de carburante de qualidade superior","Venda de gás doméstico em garrafas"],"hours":{"weekdays":"06:00-00:00","saturday":"06:00-00:00","sunday":"06:00-00:00","holiday":"06:00-00:00"},"paymentMethods":["Dinheiro"],"otherServices":null,"observations":null}},{"type":"Feature","geometry":{"type":"Point","coordinates":[-7.847984,39.773824]},"properties":{"id":"pt-66507","source":"PT","name":"E.S. SOBREIRA FORMOSA","brand":"REPSOL","address":"Sobreira Formosa","municipality":"Proença-a-Nova","district":"Castelo Branco","postalCode":"6150-000","fuels":{"gasoline95":2.219,"gasoline98Plus":2.419,"diesel":2.349,"dieselPremium":2.419,"dieselAgri":1.989},"lastUpdated":"2026-09-23 12:50","extra":{"stationType":"Outro"},"services":["Loja de Conveniência","Venda de carburante de qualidade superior","Venda de gás doméstico em garrafas","Venda de gasóleo agrícola","WC"],"hours":{"weekdays":"07:00-22:00","saturday":"07:00-22:00","sunday":"07:00-22:00","holiday":"07:00-22:00"},"paymentMethods":["Dinheiro"],"otherServices":null,"observations":null}},{"type":"Feature","geometry":{"type":"Point","coordinates":[-7.472142,39.913347]},"properties":{"id":"pt-66508","source":"PT","name":"ALVES BANDEIRA Alcains","brand":"ALVES BANDEIRA","address":"Zona Industrial de Alcains, Lote 3E.N. 18","municipality":"Castelo Branco","district":"Castelo Branco","postalCode":"6005-118","fuels":{"gasoline95":2.184,"gasoline98":2.354,"diesel":2.304,"dieselPremium":2.324,"dieselAgri":1.904},"lastUpdated":"2026-09-21 11:10","extra":{"stationType":"Outro"},"services":["Cafetaria","Loja de Conveniência","Venda de gás doméstico em garrafas","Venda de gasóleo agrícola","WC"],"hours":{"weekdays":"07:00-22:00","saturday":"07:00-22:00","sunday":"07:00-22:00","holiday":"07:00-22:00"},"paymentMethods":["Dinheiro","MbWay","Multibanco","Outros"],"otherServices":null,"observations":null}},{"type":"Feature","geometry":{"type":"Point","coordinates":[-7.344731,40.370665]},"properties":{"id":"pt-66568","source":"PT","name":"ALVES BANDEIRA Belmonte","brand":"ALVES BANDEIRA","address":"Sítio do Ginjal  Acesso da EN 18","municipality":"Belmonte","district":"Castelo Branco","postalCode":"6250-079","fuels":{"gasoline95":2.184,"diesel":2.304,"dieselPremium":2.324,"dieselAgri":1.904},"lastUpdated":"2026-09-21 11:30","extra":{"stationType":"Outro"},"services":["Cafetaria","Descanso de pesados","Venda de gás doméstico em garrafas","Venda de gasóleo agrícola","WC"],"hours":{"weekdays":"07:00-21:00","saturday":"07:00-21:00","sunday":"07:00-21:00","holiday":"07:00-21:00"},"paymentMethods":["Dinheiro","MbWay","Multibanco","Outros"],"otherServices":null,"observations":null}},{"type":"Feature","geometry":{"type":"Point","coordinates":[-7.498763,40.162156]},"properties":{"id":"pt-66869","source":"PT","name":"PD FUNDÃO","brand":"PINGO DOCE","address":"Quinta da Arieira","municipality":"Fundão","district":"Castelo Branco","postalCode":"6230-205","fuels":{"gasoline95":2.101,"gasoline98Plus":2.449,"diesel":2.165,"dieselPremium":2.499},"lastUpdated":"2026-09-22 00:00","extra":{"stationType":"Outro"},"services":[],"hours":{"weekdays":"Aberto 24 horas","saturday":"Aberto 24 horas","sunday":"Aberto 24 horas","holiday":"Aberto 24 horas"},"paymentMethods":["Dinheiro"],"otherServices":null,"observations":null}},{"type":"Feature","geometry":{"type":"Point","coordinates":[-7.34772,39.97335]},"properties":{"id":"pt-66907","source":"PT","name":"TFUEL - BP OLEDO (Ponte S. Gens)","brand":"BP","address":"EN 233 - KM 87,845 - PONTE DE SÃO GENS","municipality":"Idanha-a-Nova","district":"Castelo Branco","postalCode":"6060-621","fuels":{"gasoline95":2.239,"gasoline98Plus":2.429,"diesel":2.379,"dieselPremium":2.489,"dieselAgri":1.929},"lastUpdated":"2026-09-21 00:00","extra":{"stationType":"Outro"},"services":["Multibanco","WC"],"hours":null,"paymentMethods":["Dinheiro"],"otherServices":null,"observations":null}},{"type":"Feature","geometry":{"type":"Point","coordinates":[-7.908097,39.917868]},"properties":{"id":"pt-67052","source":"PT","name":"GALP Oleiros","brand":"GALP","address":"EN 238","municipality":"Oleiros","district":"Castelo Branco","postalCode":"6160-301","fuels":{"gasoline95":2.21,"diesel":2.333,"dieselPremium":2.353,"dieselAgri":1.935},"lastUpdated":"2026-09-21 10:10","extra":{"stationType":"Outro"},"services":["Cafetaria","Multibanco","Venda de gás doméstico em garrafas","Venda de gasóleo agrícola","WC"],"hours":{"weekdays":"07:00-23:00","saturday":"07:00-23:00","sunday":"07:00-23:00","holiday":"07:00-23:00"},"paymentMethods":["Dinheiro"],"otherServices":null,"observations":null}},{"type":"Feature","geometry":{"type":"Point","coordinates":[-7.186296,40.162777]},"properties":{"id":"pt-67054","source":"PT","name":"Araujo & Ramos,  Lda","brand":"Genérico","address":"Estrada Nacional - Sitio do Areeiro","municipality":"Penamacor","district":"Castelo Branco","postalCode":"6090-000","fuels":{"gasoline95":2.15,"gasoline98":2.23,"gasolineMix":2.65,"diesel":2.24,"dieselPremium":2.27,"dieselAgri":1.83},"lastUpdated":"2026-09-24 20:10","extra":{"stationType":"Outro"},"services":["Venda de gás doméstico em garrafas","Venda de gasóleo agrícola"],"hours":{"weekdays":"07:00-23:00","saturday":"07:00-23:00","sunday":"07:00-23:00","holiday":"07:00-23:00"},"paymentMethods":["Dinheiro"],"otherServices":null,"observations":null}},{"type":"Feature","geometry":{"type":"Point","coordinates":[-7.34262,40.36175]},"properties":{"id":"pt-67091","source":"PT","name":"INTERMARCHÉ BELMONTE","brand":"INTERMARCHÉ","address":"Varanda de Pilatos","municipality":"Belmonte","district":"Castelo Branco","postalCode":"6250-020","fuels":{"gasoline95":1.989,"gasoline98":2.239,"diesel":2.099,"dieselPremium":2.119},"lastUpdated":"2026-09-22 17:50","extra":{"stationType":"Outro"},"services":["Cafetaria","Calibragem de pneus","Lavagem","Loja de Conveniência","Multibanco","Venda de carburante de qualidade superior","Venda de gás doméstico em garrafas","WC","WC para deficientes"],"hours":{"weekdays":"Aberto 24 horas","saturday":"Aberto 24 horas","sunday":"Aberto 24 horas","holiday":"Aberto 24 horas"},"paymentMethods":["Dinheiro","MbWay","Multibanco","Outros"],"otherServices":"Lavandaria\r\n","observations":null}},{"type":"Feature","geometry":{"type":"Point","coordinates":[-8.193969,39.809929]},"properties":{"id":"pt-67101","source":"PT","name":"Auto Modelar de Cernache, Lda","brand":"Genérico","address":"Rua Nossa Senhora da Conceição, n.º75","municipality":"Sertã","district":"Castelo Branco","postalCode":"6100-266","fuels":{"gasoline95":2.156,"diesel":2.293,"dieselPremium":2.323,"dieselAgri":1.923},"lastUpdated":"2026-09-21 00:05","extra":{"stationType":"Outro"},"services":["Lavagem","Multibanco","Venda de gás doméstico em garrafas","Venda de gasóleo agrícola","WC"],"hours":{"weekdays":"07:00-22:00","saturday":"07:00-22:00","sunday":"08:00-22:00","holiday":"07:00-22:00"},"paymentMethods":["Dinheiro","Multibanco"],"otherServices":null,"observations":null}},{"type":"Feature","geometry":{"type":"Point","coordinates":[-7.521308,39.81447]},"properties":{"id":"pt-67259","source":"PT","name":"AUCHAN Castelo Branco","brand":"AUCHAN","address":"Zona Industrial Castelo Branco","municipality":"Castelo Branco","district":"Castelo Branco","postalCode":"6000-459","fuels":{"gasoline95":2.029,"diesel":2.099,"lpg":0.919},"lastUpdated":"2026-09-23 00:00","extra":{"stationType":"Outro"},"services":["Calibragem de pneus"],"hours":{"weekdays":"Aberto 24 horas","saturday":"Aberto 24 horas","sunday":"Aberto 24 horas","holiday":"Aberto 24 horas"},"paymentMethods":["Dinheiro"],"otherServices":null,"observations":null}},{"type":"Feature","geometry":{"type":"Point","coordinates":[-7.52527,39.80939]},"properties":{"id":"pt-67334","source":"PT","name":"INTERMARCHÉ CASTELO BRANCO","brand":"INTERMARCHÉ","address":"Zona Industrial - Lote  P 6 C","municipality":"Castelo Branco","district":"Castelo Branco","postalCode":"6000-991","fuels":{"gasoline95":2.029,"gasoline95Plus":2.049,"diesel":2.149,"dieselPremium":2.169},"lastUpdated":"2026-09-22 07:30","extra":{"stationType":"Outro"},"services":["Assistência auto","Calibragem de pneus","Multibanco","WC para deficientes"],"hours":{"weekdays":"07:00-20:00","saturday":"07:00-20:00","sunday":"07:00-20:00","holiday":"07:00-20:00"},"paymentMethods":["Dinheiro","MbWay","Multibanco","Outros"],"otherServices":null,"observations":null}},{"type":"Feature","geometry":{"type":"Point","coordinates":[-7.24106,39.93026]},"properties":{"id":"pt-67745","source":"PT","name":"INTERMARCHÉ IDANHA-A-NOVA","brand":"INTERMARCHÉ","address":"Zona Nova Expansão","municipality":"Idanha-a-Nova","district":"Castelo Branco","postalCode":"6060-101","fuels":{"gasoline95":2.039,"gasoline95Plus":2.059,"diesel":2.159,"dieselPremium":2.179},"lastUpdated":"2026-09-22 07:30","extra":{"stationType":"Outro"},"services":["Multibanco","Venda de gás doméstico em garrafas"],"hours":{"weekdays":"08:00-20:00","saturday":"08:00-20:00","sunday":"08:00-19:00","holiday":"08:00-19:00"},"paymentMethods":["Dinheiro"],"otherServices":null,"observations":null}},{"type":"Feature","geometry":{"type":"Point","coordinates":[-7.506749,40.253975]},"properties":{"id":"pt-67822","source":"PT","name":"ALVES BANDEIRA Covilhã","brand":"ALVES BANDEIRA","address":"Quinta das Amendoeiras - Eixo TCT","municipality":"Covilhã","district":"Castelo Branco","postalCode":"6200-190","fuels":{"gasoline95":2.184,"gasoline98":2.354,"diesel":2.304,"dieselPremium":2.324,"dieselAgri":1.904},"lastUpdated":"2026-09-21 11:40","extra":{"stationType":"Outro"},"services":["Calibragem de pneus"],"hours":null,"paymentMethods":["Dinheiro","MbWay","Multibanco","Outros"],"otherServices":null,"observations":null}},{"type":"Feature","geometry":{"type":"Point","coordinates":[-8.10892,39.81495]},"properties":{"id":"pt-68287","source":"PT","name":"ASA Combustiveis & Lubrificantes","brand":"GALP","address":"Paque Industrial, Lote 15Ap. 10","municipality":"Sertã","district":"Castelo Branco","postalCode":"6104-909","fuels":{"gasoline95":2.164,"gasoline95Plus":2.214,"diesel":2.294,"dieselPremium":2.344,"dieselAgri":1.894},"lastUpdated":"2026-09-23 08:50","extra":{"stationType":"Outro"},"services":["Multibanco","Venda de gás doméstico em garrafas","Venda de gasóleo agrícola","WC"],"hours":{"weekdays":"07:00-22:00","saturday":"07:00-22:00","sunday":"07:00-22:00","holiday":"07:00-22:00"},"paymentMethods":["Dinheiro"],"otherServices":null,"observations":null}},{"type":"Feature","geometry":{"type":"Point","coordinates":[-7.4651,39.91574]},"properties":{"id":"pt-68483","source":"PT","name":"INTERMARCHÉ ALCAINS","brand":"INTERMARCHÉ","address":"Estrada de São Domingos","municipality":"Castelo Branco","district":"Castelo Branco","postalCode":"6005-010","fuels":{"gasoline95":2.039,"gasoline98":2.089,"diesel":2.159,"dieselPremium":2.179},"lastUpdated":"2026-09-22 07:30","extra":{"stationType":"Outro"},"services":["Cafetaria","Calibragem de pneus","Lavagem","Loja de Conveniência","Multibanco","Venda de gás doméstico em garrafas","WC","WC com fraldário","WC para deficientes","AUTOvoucher"],"hours":{"weekdays":"07:30-20:00","saturday":"07:30-20:00","sunday":"07:30-20:00","holiday":"07:30-20:00"},"paymentMethods":["Dinheiro","MbWay","Multibanco","Outros"],"otherServices":null,"observations":null}},{"type":"Feature","geometry":{"type":"Point","coordinates":[-7.223459,40.10869]},"properties":{"id":"pt-68628","source":"PT","name":"FRANCISCO BARRETO& IRMÃO,LDA - GALP Águas ","brand":"GALP","address":"EN233,162","municipality":"Penamacor","district":"Castelo Branco","postalCode":"6090-017","fuels":{"gasoline95":2.159,"gasoline95Plus":2.219,"gasolineMix":2.8,"diesel":2.289,"dieselPremium":2.349,"dieselAgri":1.884},"lastUpdated":"2026-09-21 00:00","extra":{"stationType":"Outro"},"services":["Cafetaria","Lavagem","Loja de Conveniência","Multibanco","Venda de gasóleo para aquecimento","WC"],"hours":{"weekdays":"07:00-21:00","saturday":"07:00-21:00","sunday":"07:00-21:00","holiday":"07:00-21:00"},"paymentMethods":["Dinheiro"],"otherServices":null,"observations":null}},{"type":"Feature","geometry":{"type":"Point","coordinates":[-7.50138,39.81659]},"properties":{"id":"pt-68779","source":"PT","name":"GALP Montalvão","brand":"GALP","address":"Av. Infante de Sagres","municipality":"Castelo Branco","district":"Castelo Branco","postalCode":"6000-082","fuels":{"gasoline95":2.144,"gasoline95Plus":2.194,"gasoline98Plus":2.374,"diesel":2.269,"dieselPremium":2.319},"lastUpdated":"2026-09-22 08:45","extra":{"stationType":"Outro"},"services":["Cafetaria","Lavagem","Multibanco","Venda de gás doméstico em garrafas","WC"],"hours":{"weekdays":"Aberto 24 horas","saturday":"Aberto 24 horas","sunday":"Aberto 24 horas","holiday":"Aberto 24 horas"},"paymentMethods":["Dinheiro"],"otherServices":null,"observations":null}},{"type":"Feature","geometry":{"type":"Point","coordinates":[-7.79607,40.0257]},"properties":{"id":"pt-68823","source":"PT","name":"Marcelima-Energy, Lda - Orvalho","brand":"FREITAS","address":"Lugar da Costa","municipality":"Oleiros","district":"Castelo Branco","postalCode":"6185-303","fuels":{"gasoline95":2.21,"diesel":2.333,"dieselPremium":2.353,"dieselAgri":1.935},"lastUpdated":"2026-09-21 09:10","extra":{"stationType":"Outro"},"services":[],"hours":{"weekdays":"07:00-22:00","saturday":"07:00-22:00","sunday":"07:00-22:00","holiday":"07:00-22:00"},"paymentMethods":["Dinheiro"],"otherServices":null,"observations":null}},{"type":"Feature","geometry":{"type":"Point","coordinates":[-7.66532,40.14157]},"properties":{"id":"pt-68998","source":"PT","name":"FREITAS Silvares","brand":"FREITAS","address":"Vale das Relvas","municipality":"Fundão","district":"Castelo Branco","postalCode":"6230-670","fuels":{"gasoline95":2.21,"gasoline98Plus":2.41,"diesel":2.313,"dieselPremium":2.333,"dieselHeating":2.36,"dieselAgri":1.935},"lastUpdated":"2026-09-21 10:25","extra":{"stationType":"Outro"},"services":["Cafetaria"],"hours":{"weekdays":"07:00-21:00","saturday":"07:00-21:00","sunday":"08:00-13:00","holiday":"00:00-00:00"},"paymentMethods":["Dinheiro","Multibanco"],"otherServices":null,"observations":null}},{"type":"Feature","geometry":{"type":"Point","coordinates":[-8.09258,39.79967]},"properties":{"id":"pt-69011","source":"PT","name":"LUBRIASA, SA. - PA BP","brand":"BP","address":"RUA DE PROÊNÇA-A-NOVA","municipality":"Sertã","district":"Castelo Branco","postalCode":"6100-751","fuels":{"gasoline95":2.169,"gasoline98Plus":2.219,"diesel":2.299,"dieselPremium":2.359,"dieselAgri":1.899},"lastUpdated":"2026-09-21 09:00","extra":{"stationType":"Outro"},"services":["Calibragem de pneus"],"hours":null,"paymentMethods":["Dinheiro"],"otherServices":null,"observations":null}},{"type":"Feature","geometry":{"type":"Point","coordinates":[-7.487027,39.88772]},"properties":{"id":"pt-69059","source":"PT","name":"A23 CASTELO BRANCO (ABR/CBR)","brand":"MOEVE","address":"A23, KM 127, SUBLANÇO CASTELO BRANCO, APT. 86","municipality":"Castelo Branco","district":"Castelo Branco","postalCode":"6005-999","fuels":{"gasoline95":2.239,"gasoline98Plus":2.451,"diesel":2.349,"dieselPremium":2.399,"lpg":0.996},"lastUpdated":"2026-09-21 00:00","extra":{"stationType":"Auto-estrada"},"services":["Loja de Conveniência","Multibanco","Restaurante","WC"],"hours":null,"paymentMethods":["Dinheiro"],"otherServices":null,"observations":null}},{"type":"Feature","geometry":{"type":"Point","coordinates":[-7.48802,39.88884]},"properties":{"id":"pt-69060","source":"PT","name":"A23 CASTELO BRANCO (CBR/ABR)","brand":"MOEVE","address":"A23, KM 127, SUBLANÇO CASTELO BRANCO, APT. 86","municipality":"Castelo Branco","district":"Castelo Branco","postalCode":"6005-999","fuels":{"gasoline95":2.239,"gasoline98Plus":2.451,"diesel":2.349,"dieselPremium":2.399,"lpg":0.996},"lastUpdated":"2026-09-21 00:00","extra":{"stationType":"Auto-estrada"},"services":["Loja de Conveniência","Multibanco","Restaurante","WC"],"hours":null,"paymentMethods":["Dinheiro"],"otherServices":null,"observations":null}},{"type":"Feature","geometry":{"type":"Point","coordinates":[-7.486373,40.190697]},"properties":{"id":"pt-69061","source":"PT","name":"A23 Fundão (C.B. / Fundão)","brand":"MOEVE","address":"A23, LANÇO KM 18,5 TEIXOSO ALQUERIA","municipality":"Fundão","district":"Castelo Branco","postalCode":"6230-198","fuels":{"gasoline95":2.239,"gasoline98Plus":2.451,"diesel":2.349,"dieselPremium":2.399,"lpg":0.996},"lastUpdated":"2026-09-21 00:00","extra":{"stationType":"Auto-estrada"},"services":["Loja de Conveniência","Multibanco","Restaurante","WC"],"hours":null,"paymentMethods":["Dinheiro"],"otherServices":null,"observations":null}},{"type":"Feature","geometry":{"type":"Point","coordinates":[-7.488123,40.190334]},"properties":{"id":"pt-69062","source":"PT","name":"A23 FUNDÃO (FND/CBR)","brand":"MOEVE","address":"A23, LANÇO KM 18,5 TEIXOSO ALQUERIA, APT. 370","municipality":"Fundão","district":"Castelo Branco","postalCode":"6230-022","fuels":{"gasoline95":2.239,"gasoline98Plus":2.451,"diesel":2.349,"dieselPremium":2.399,"lpg":0.996},"lastUpdated":"2026-09-21 00:00","extra":{"stationType":"Auto-estrada"},"services":["Loja de Conveniência","Multibanco","Restaurante","WC"],"hours":null,"paymentMethods":["Dinheiro"],"otherServices":null,"observations":null}},{"type":"Feature","geometry":{"type":"Point","coordinates":[-7.476565,40.038784]},"properties":{"id":"pt-69213","source":"PT","name":"PA GENERICO SOALHEIRA","brand":"Genérico","address":"ESTRADA DAS ENGUIAS","municipality":"Fundão","district":"Castelo Branco","postalCode":"6005-300","fuels":{"gasoline95":2.209,"gasoline98":2.372,"gasolineMix":3.02,"diesel":2.349,"dieselPremium":2.384,"dieselAgri":1.989},"lastUpdated":"2026-09-22 07:00","extra":{"stationType":"Outro"},"services":["Cafetaria","Lavagem","Multibanco","Venda de gás doméstico em garrafas","Venda de gasóleo agrícola","WC"],"hours":{"weekdays":"07:00-22:00","saturday":"07:00-22:00","sunday":"07:00-22:00","holiday":"07:00-22:00"},"paymentMethods":["Dinheiro"],"otherServices":null,"observations":null}},{"type":"Feature","geometry":{"type":"Point","coordinates":[-7.62083,40.25104]},"properties":{"id":"pt-69326","source":"PT","name":"Nelson Mouro, Unip. AB - Unhais da Serra","brand":"ALVES BANDEIRA","address":"Avenida 1º de Maio, 12 (EN230)","municipality":"Covilhã","district":"Castelo Branco","postalCode":"6215-517","fuels":{"gasoline95":2.194,"diesel":2.314,"dieselPremium":2.334},"lastUpdated":"2026-09-21 15:40","extra":{"stationType":"Outro"},"services":["Assistência auto","Cafetaria","Multibanco","Venda de carburante de qualidade superior","Venda de gás doméstico em garrafas","Venda de gasóleo para aquecimento"],"hours":{"weekdays":"07:30-20:00","saturday":"08:00-20:00","sunday":"08:00-20:00","holiday":"08:00-20:00"},"paymentMethods":["Dinheiro","MbWay","Multibanco","Outros"],"otherServices":"AdBlue, Verificação de Pressão de Pneus, ","observations":null}},{"type":"Feature","geometry":{"type":"Point","coordinates":[-7.90713,39.91938]},"properties":{"id":"pt-69733","source":"PT","name":"FAMILIA ELECTRO MOVEIS LDA","brand":"PRIO","address":"Rua José Esteves Garcia","municipality":"Oleiros","district":"Castelo Branco","postalCode":"6160-414","fuels":{"gasoline95":2.208,"gasoline95Plus":2.367,"dieselPremium":2.321,"dieselAgri":1.925,"bioDiesel":2.342},"lastUpdated":"2026-09-21 16:30","extra":{"stationType":"Outro"},"services":[],"hours":{"weekdays":"07:00-23:00","saturday":"07:00-23:00","sunday":"07:00-23:00","holiday":"07:00-23:00"},"paymentMethods":["Dinheiro"],"otherServices":null,"observations":"outros serviços sem area comercial"}},{"type":"Feature","geometry":{"type":"Point","coordinates":[-7.505951,40.275993]},"properties":{"id":"pt-69855","source":"PT","name":"PA BP Covilhã","brand":"BP","address":"Sítio da Palmatória","municipality":"Covilhã","district":"Castelo Branco","postalCode":"6200-161","fuels":{"gasoline95":2.209,"gasoline98Plus":2.449,"diesel":2.339,"dieselPremium":2.499},"lastUpdated":"2026-09-22 00:00","extra":{"stationType":"Outro"},"services":["Multibanco","Venda de carburante de qualidade superior","Venda de gás doméstico em garrafas","WC"],"hours":{"weekdays":"07:00-23:00","saturday":"07:00-23:00","sunday":"07:00-23:00","holiday":"07:00-23:00"},"paymentMethods":["Dinheiro","MbWay","Multibanco"],"otherServices":null,"observations":null}},{"type":"Feature","geometry":{"type":"Point","coordinates":[-7.84444,39.63756]},"properties":{"id":"pt-69982","source":"PT","name":"Gasocombustíveis","brand":"Genérico","address":"São Pedro do Esteval","municipality":"Proença-a-Nova","district":"Castelo Branco","postalCode":"6100-623","fuels":{"gasoline95":2.375,"diesel":2.39,"dieselPremium":2.41,"dieselAgri":2.08},"lastUpdated":"2026-09-21 19:30","extra":{"stationType":"Outro"},"services":["Venda de gasóleo agrícola"],"hours":{"weekdays":"08:00-22:00","saturday":"08:00-22:00","sunday":"08:00-22:00","holiday":"08:00-22:00"},"paymentMethods":["Dinheiro"],"otherServices":null,"observations":null}},{"type":"Feature","geometry":{"type":"Point","coordinates":[-7.48117,40.29479]},"properties":{"id":"pt-70136","source":"PT","name":"PRIO Covilhã - Oeste ","brand":"PRIO","address":"EN 18 Km 39,155 (Rua Gen. Humberto Delgado)","municipality":"Covilhã","district":"Castelo Branco","postalCode":"6200-014","fuels":{"gasoline95":2.164,"gasoline95Plus":2.074,"dieselPremium":2.224,"bioDiesel":2.194},"lastUpdated":"2026-09-25 00:30","extra":{"stationType":"Outro"},"services":["Cafetaria","Calibragem de pneus","Loja de Conveniência","Venda de carburante de qualidade superior","Venda de gás doméstico em garrafas","WC"],"hours":{"weekdays":"07:00-23:00","saturday":"07:00-23:00","sunday":"07:00-23:00","holiday":"07:00-23:00"},"paymentMethods":["Dinheiro","MbWay","Multibanco","Outros"],"otherServices":null,"observations":null}},{"type":"Feature","geometry":{"type":"Point","coordinates":[-7.63673,39.84562]},"properties":{"id":"pt-70456","source":"PT","name":"Crisalbi.Lda","brand":"GALP","address":"Estrada Nacional 233 ","municipality":"Castelo Branco","district":"Castelo Branco","postalCode":"6000-707","fuels":{"gasoline95":2.159,"gasoline95Plus":2.209,"diesel":2.299,"dieselPremium":2.349,"dieselAgri":1.934},"lastUpdated":"2026-09-21 13:00","extra":{"stationType":"Outro"},"services":["Cafetaria","Multibanco","Venda de gás doméstico em garrafas","Venda de gasóleo agrícola","WC"],"hours":{"weekdays":"07:00-20:00","saturday":"07:00-20:00","sunday":"08:00-19:00","holiday":"08:00-19:00"},"paymentMethods":["Dinheiro"],"otherServices":null,"observations":null}},{"type":"Feature","geometry":{"type":"Point","coordinates":[-7.9174,39.74906]},"properties":{"id":"pt-70739","source":"PT","name":"J. LOURENÇO - PROENÇA ","brand":"Genérico","address":"São Bartolomeu","municipality":"Proença-a-Nova","district":"Castelo Branco","postalCode":"6150-555","fuels":{"gasoline95":2.06,"gasoline95Plus":2.08,"gasoline98":2.24,"diesel":2.183,"dieselPremium":2.203,"dieselHeating":2.362,"dieselAgri":1.785},"lastUpdated":"2026-09-21 09:30","extra":{"stationType":"Outro"},"services":["Multibanco","Venda de gás doméstico em garrafas","Venda de gasóleo agrícola","Venda de gasóleo para aquecimento","WC"],"hours":{"weekdays":"07:00-22:00","saturday":"07:00-22:00","sunday":"07:00-22:00","holiday":"07:00-22:00"},"paymentMethods":["Dinheiro","MbWay","Multibanco","Outros"],"otherServices":null,"observations":null}},{"type":"Feature","geometry":{"type":"Point","coordinates":[-7.51844,39.80789]},"properties":{"id":"pt-70748","source":"PT","name":"J. LOURENÇO - CASTELO BRANCO","brand":"Genérico","address":"Zona Industrial lote K","municipality":"Castelo Branco","district":"Castelo Branco","postalCode":"6001-459","fuels":{"gasoline95":2.06,"gasoline95Plus":2.08,"diesel":2.183,"dieselPremium":2.203,"dieselHeating":2.282,"dieselAgri":1.785},"lastUpdated":"2026-09-21 09:35","extra":{"stationType":"Outro"},"services":["Multibanco","Venda de gás doméstico em garrafas","Venda de gasóleo agrícola","Venda de gasóleo para aquecimento","WC"],"hours":{"weekdays":"07:00-23:00","saturday":"07:00-23:00","sunday":"07:00-23:00","holiday":"07:00-23:00"},"paymentMethods":["Dinheiro","MbWay","Multibanco","Outros"],"otherServices":null,"observations":null}},{"type":"Feature","geometry":{"type":"Point","coordinates":[-7.55889,39.87753]},"properties":{"id":"pt-70880","source":"PT","name":"João Serras - Posto do Palvarinho","brand":"Genérico","address":"EN 112 - Cruzamento do Palvarinho","municipality":"Castelo Branco","district":"Castelo Branco","postalCode":"6000-631","fuels":{"gasoline95":2.183,"gasoline98":2.433,"diesel":2.28,"dieselPremium":2.3,"dieselAgri":1.934},"lastUpdated":"2026-09-21 10:05","extra":{"stationType":"Outro"},"services":["Venda de gás doméstico em garrafas","WC"],"hours":{"weekdays":"07:00-22:00","saturday":"07:00-22:00","sunday":"07:00-22:00","holiday":"07:00-22:00"},"paymentMethods":["Dinheiro","Multibanco"],"otherServices":null,"observations":null}},{"type":"Feature","geometry":{"type":"Point","coordinates":[-7.24381,40.22551]},"properties":{"id":"pt-73077","source":"PT","name":"António Joaquim Martins Cardoso","brand":"REPSOL","address":"Rua da Fonte Velha","municipality":"Penamacor","district":"Castelo Branco","postalCode":"6096-344","fuels":{"gasoline95":2.174,"diesel":2.274,"dieselAgri":1.834},"lastUpdated":"2026-09-22 10:10","extra":{"stationType":"Outro"},"services":[],"hours":{"weekdays":"08:00-17:00","saturday":"08:00-17:00","sunday":"Fechado","holiday":"Fechado"},"paymentMethods":["Dinheiro"],"otherServices":null,"observations":null}},{"type":"Feature","geometry":{"type":"Point","coordinates":[-7.238221,39.933403]},"properties":{"id":"pt-77814","source":"PT","name":"AGL Energias Renováveis, Lda - REDE ENERGIA Idanha a Nova","brand":"REDE ENERGIA","address":"Estrada Nacional nº 353, Km 11","municipality":"Idanha-a-Nova","district":"Castelo Branco","postalCode":"6060-715","fuels":{"gasoline95":2.039,"gasoline95Plus":2.059,"diesel":2.159,"dieselPremium":2.179,"dieselAgri":1.93},"lastUpdated":"2026-09-22 08:40","extra":{"stationType":"Outro"},"services":["Calibragem de pneus"],"hours":null,"paymentMethods":["Dinheiro"],"otherServices":null,"observations":null}},{"type":"Feature","geometry":{"type":"Point","coordinates":[-8.10804,39.812378]},"properties":{"id":"pt-78617","source":"PT","name":"Intermarché da Sertã","brand":"INTERMARCHÉ","address":"EN 2","municipality":"Sertã","district":"Castelo Branco","postalCode":"6100-698","fuels":{"gasoline95":2.019,"gasoline98":2.199,"diesel":2.139,"dieselPremium":2.159},"lastUpdated":"2026-09-22 09:25","extra":{"stationType":"Outro"},"services":["Cafetaria","Multibanco","Venda de gás doméstico em garrafas","WC","WC com fraldário","WC para deficientes"],"hours":{"weekdays":"09:00-20:00","saturday":"09:00-20:00","sunday":"09:00-20:00","holiday":"09:00-20:00"},"paymentMethods":["Dinheiro"],"otherServices":null,"observations":null}},{"type":"Feature","geometry":{"type":"Point","coordinates":[-7.79573,39.7955]},"properties":{"id":"pt-79928","source":"PT","name":"Monte Barbo","brand":"PRIO","address":"E.N. 233","municipality":"Proença-a-Nova","district":"Castelo Branco","postalCode":"6150-116","fuels":{"gasoline95":2.182,"gasoline95Plus":2.282,"diesel":2.297,"dieselPremium":2.347,"dieselAgri":1.944},"lastUpdated":"2026-09-21 00:00","extra":{"stationType":"Outro"},"services":["Cafetaria","Restaurante","WC","WC para deficientes"],"hours":{"weekdays":"07:00-23:00","saturday":"07:00-23:00","sunday":"07:00-23:00","holiday":"07:00-23:00"},"paymentMethods":["Dinheiro"],"otherServices":null,"observations":null}},{"type":"Feature","geometry":{"type":"Point","coordinates":[-7.51502,39.80937]},"properties":{"id":"pt-80208","source":"PT","name":"PD CASTELO BRANCO CC FORUM","brand":"PINGO DOCE","address":"Avª Professor Egas Moniz, Centro Comercial Forum","municipality":"Castelo Branco","district":"Castelo Branco","postalCode":"6000-056","fuels":{"gasoline95":2.101,"gasoline98Plus":2.449,"diesel":2.165,"dieselPremium":2.499},"lastUpdated":"2026-09-22 00:00","extra":{"stationType":"Outro"},"services":[],"hours":{"weekdays":"Aberto 24 horas","saturday":"Aberto 24 horas","sunday":"Aberto 24 horas","holiday":"Aberto 24 horas"},"paymentMethods":["Dinheiro"],"otherServices":null,"observations":null}},{"type":"Feature","geometry":{"type":"Point","coordinates":[-7.459347,39.857197]},"properties":{"id":"pt-81499","source":"PT","name":"E.S. LANÇO GRANDE","brand":"REPSOL","address":"EN 233 ao Km 104,750","municipality":"Castelo Branco","district":"Castelo Branco","postalCode":"6000-067","fuels":{"gasoline95":2.164,"gasoline98Plus":2.339,"diesel":2.294,"dieselPremium":2.339,"dieselAgri":1.929,"lpg":0.964},"lastUpdated":"2026-09-21 00:00","extra":{"stationType":"Outro"},"services":["Cafetaria","Lavagem","Venda de carburante de qualidade superior","Venda de gás doméstico em garrafas","Venda de gasóleo agrícola"],"hours":{"weekdays":"07:00-20:00","saturday":"07:00-20:00","sunday":"07:00-20:00","holiday":"07:00-20:00"},"paymentMethods":["Dinheiro"],"otherServices":null,"observations":null}},{"type":"Feature","geometry":{"type":"Point","coordinates":[-7.284975,40.24711]},"properties":{"id":"pt-81832","source":"PT","name":"REPSOL Escarigo","brand":"REPSOL","address":"Bairro de S. José n22 ","municipality":"Fundão","district":"Castelo Branco","postalCode":"6230-165","fuels":{"gasoline95":2.149,"gasolineMix":2.75,"diesel":2.289,"dieselPremium":2.319,"dieselHeating":2.219,"dieselAgri":1.859},"lastUpdated":"2026-09-20 00:00","extra":{"stationType":"Outro"},"services":["WC"],"hours":null,"paymentMethods":["Dinheiro"],"otherServices":null,"observations":null}},{"type":"Feature","geometry":{"type":"Point","coordinates":[-7.365259,40.299593]},"properties":{"id":"pt-86466","source":"PT","name":"E.S. CARIA","brand":"REPSOL","address":"Rua da Igreja","municipality":"Belmonte","district":"Castelo Branco","postalCode":"6520-111","fuels":{"gasoline95":2.174,"gasoline98Plus":2.359,"diesel":2.304,"dieselPremium":2.359,"dieselAgri":1.939},"lastUpdated":"2026-09-21 18:05","extra":{"stationType":"Outro"},"services":["Cafetaria","Lavagem","Loja de Conveniência","Venda de carburante de qualidade superior","Venda de gás doméstico em garrafas","Venda de gasóleo agrícola","WC","WC para deficientes"],"hours":{"weekdays":"07:00-22:00","saturday":"07:00-22:00","sunday":"07:00-22:00","holiday":"07:00-22:00"},"paymentMethods":["Dinheiro"],"otherServices":null,"observations":null}},{"type":"Feature","geometry":{"type":"Point","coordinates":[-7.0094,40.03261]},"properties":{"id":"pt-88899","source":"PT","name":"BP Penha Garcia","brand":"BP","address":"EN 239 - km 36,4 ","municipality":"Idanha-a-Nova","district":"Castelo Branco","postalCode":"6060-302","fuels":{"gasoline95":2.199,"gasoline98Plus":2.449,"diesel":2.329,"dieselPremium":2.499,"dieselAgri":1.899},"lastUpdated":"2026-09-22 00:00","extra":{"stationType":"Outro"},"services":[],"hours":{"weekdays":"08:00-20:00","saturday":"08:00-20:00","sunday":"08:00-20:00","holiday":"08:00-20:00"},"paymentMethods":["Dinheiro"],"otherServices":null,"observations":null}},{"type":"Feature","geometry":{"type":"Point","coordinates":[-7.91761,39.75096]},"properties":{"id":"pt-90701","source":"PT","name":"INTERMARCHÉ-Superproença-Supermercados,lda","brand":"INTERMARCHÉ","address":"Lugar São Bartolomeu","municipality":"Proença-a-Nova","district":"Castelo Branco","postalCode":"6150-503","fuels":{"gasoline95":2.029,"gasoline95Plus":2.049,"diesel":2.149,"dieselPremium":2.169},"lastUpdated":"2026-09-22 08:25","extra":{"stationType":"Outro"},"services":[],"hours":{"weekdays":"Aberto 24 horas","saturday":"Aberto 24 horas","sunday":"Aberto 24 horas","holiday":"Aberto 24 horas"},"paymentMethods":["Dinheiro"],"otherServices":null,"observations":null}},{"type":"Feature","geometry":{"type":"Point","coordinates":[-7.497614,40.152292]},"properties":{"id":"pt-91078","source":"PT","name":"Intermarché Fundão","brand":"INTERMARCHÉ","address":"Vale de Canas","municipality":"Fundão","district":"Castelo Branco","postalCode":"6230-481","fuels":{"gasoline95":1.994,"gasoline95Plus":2.014,"diesel":2.104,"dieselPremium":2.124},"lastUpdated":"2026-09-22 07:15","extra":{"stationType":"Outro"},"services":[],"hours":{"weekdays":"07:00-20:30","saturday":"07:00-20:30","sunday":"07:00-20:30","holiday":"07:00-20:30"},"paymentMethods":["Dinheiro","Multibanco"],"otherServices":null,"observations":null}},{"type":"Feature","geometry":{"type":"Point","coordinates":[-7.511121,39.808372]},"properties":{"id":"pt-91326","source":"PT","name":"BP Montalvão (Castelo Branco)","brand":"BP","address":"Estrada Nacional 18, km 108.255 - Cruz do Montalvão","municipality":"Castelo Branco","district":"Castelo Branco","postalCode":"6000-050","fuels":{"gasoline95":2.144,"gasoline98Plus":2.449,"diesel":2.274,"dieselPremium":2.499},"lastUpdated":"2026-09-21 17:30","extra":{"stationType":"Outro"},"services":["Calibragem de pneus"],"hours":null,"paymentMethods":["Dinheiro"],"otherServices":null,"observations":null}},{"type":"Feature","geometry":{"type":"Point","coordinates":[-7.828128,39.96004]},"properties":{"id":"pt-92666","source":"PT","name":"GALP Ameixoeira - Oleiros","brand":"GALP","address":"Estrada Nacional - Ameixoeira","municipality":"Oleiros","district":"Castelo Branco","postalCode":"6160-101","fuels":{"gasoline95":2.21,"gasoline95Plus":2.25,"diesel":2.323,"dieselPremium":2.343,"dieselAgri":1.935},"lastUpdated":"2026-09-21 10:30","extra":{"stationType":"Outro"},"services":["Calibragem de pneus"],"hours":{"weekdays":"07:00-23:00","saturday":"07:00-23:00","sunday":"07:00-23:00","holiday":"07:00-23:00"},"paymentMethods":["Dinheiro"],"otherServices":null,"observations":null}},{"type":"Feature","geometry":{"type":"Point","coordinates":[-7.370389,40.302082]},"properties":{"id":"pt-92962","source":"PT","name":"GALP Caria","brand":"GALP","address":"E.N. 18-3","municipality":"Belmonte","district":"Castelo Branco","postalCode":"6250-111","fuels":{"gasoline95":2.169,"gasoline95Plus":2.219,"gasoline98Plus":2.399,"diesel":2.299,"dieselPremium":2.329,"dieselAgri":1.934},"lastUpdated":"2026-09-23 09:15","extra":{"stationType":"Outro"},"services":["Calibragem de pneus"],"hours":{"weekdays":"07:00-22:00","saturday":"07:00-22:00","sunday":"07:00-22:00","holiday":"07:00-22:00"},"paymentMethods":["Dinheiro","Multibanco"],"otherServices":null,"observations":null}},{"type":"Feature","geometry":{"type":"Point","coordinates":[-7.480762,39.831863]},"properties":{"id":"pt-93158","source":"PT","name":"GALP Castelo Branco Av. de Espanha","brand":"GALP","address":"Estrada Nacional 233, Km 108.2 - Cruz de Montalvão","municipality":"Castelo Branco","district":"Castelo Branco","postalCode":"6000-082","fuels":{"gasoline95":2.144,"gasoline95Plus":2.194,"diesel":2.269,"dieselPremium":2.319},"lastUpdated":"2026-09-22 08:50","extra":{"stationType":"Outro"},"services":["Calibragem de pneus"],"hours":null,"paymentMethods":["Dinheiro"],"otherServices":null,"observations":null}},{"type":"Feature","geometry":{"type":"Point","coordinates":[-7.505144,40.268307]},"properties":{"id":"pt-93515","source":"PT","name":"PETROPRIX Covilhã","brand":"PETROPRIX ","address":"Alameda Pêro da Covilhã - Quinta das Laranjeiras","municipality":"Covilhã","district":"Castelo Branco","postalCode":"6200-507","fuels":{"gasoline95":2.019,"diesel":2.119},"lastUpdated":"2026-09-21 23:00","extra":{"stationType":"Outro"},"services":["Multibanco"],"hours":{"weekdays":"Aberto 24 horas","saturday":"Aberto 24 horas","sunday":"Aberto 24 horas","holiday":"Aberto 24 horas"},"paymentMethods":["Dinheiro"],"otherServices":null,"observations":null}},{"type":"Feature","geometry":{"type":"Point","coordinates":[-7.623127,40.217026]},"properties":{"id":"pt-93706","source":"PT","name":"FILIAL - Paul","brand":"Genérico","address":"E.N. 343 - 1 - Granjeira","municipality":"Covilhã","district":"Castelo Branco","postalCode":"6215-323","fuels":{"gasoline95":2.21,"diesel":2.313,"dieselPremium":2.333,"dieselAgri":1.935},"lastUpdated":"2026-09-21 10:25","extra":{"stationType":"Outro"},"services":["Calibragem de pneus"],"hours":{"weekdays":"07:00-21:00","saturday":"07:00-21:00","sunday":"00:00-00:00","holiday":"00:00-00:00"},"paymentMethods":["Dinheiro","Multibanco"],"otherServices":null,"observations":null}},{"type":"Feature","geometry":{"type":"Point","coordinates":[-7.680331,39.913292]},"properties":{"id":"pt-93860","source":"PT","name":"António Almeida & Lourenço, Lda","brand":"Genérico","address":"Bairro Novo, 2","municipality":"Castelo Branco","district":"Castelo Branco","postalCode":"6000-703","fuels":{"gasoline95":2.209,"diesel":2.329,"dieselAgri":1.929},"lastUpdated":"2026-09-21 13:35","extra":{"stationType":"Outro"},"services":["Calibragem de pneus"],"hours":{"weekdays":"07:00-22:00","saturday":"07:00-22:00","sunday":"08:00-12:00","holiday":null},"paymentMethods":["Dinheiro"],"otherServices":null,"observations":null}},{"type":"Feature","geometry":{"type":"Point","coordinates":[-7.496789,40.15476]},"properties":{"id":"pt-94117","source":"PT","name":"REPSOL Rotunda Fundão","brand":"REPSOL","address":"Rua Cidade da Covilha","municipality":"Fundão","district":"Castelo Branco","postalCode":"6230-346","fuels":{"gasoline95":2.219,"gasoline95Plus":2.289,"gasoline98Plus":2.419,"diesel":2.349,"dieselPremium":2.419,"lpg":1.009},"lastUpdated":"2026-09-23 12:55","extra":{"stationType":"Outro"},"services":["Calibragem de pneus"],"hours":null,"paymentMethods":["Dinheiro"],"otherServices":null,"observations":null}},{"type":"Feature","geometry":{"type":"Point","coordinates":[-7.497109,40.1424]},"properties":{"id":"pt-94119","source":"PT","name":"REPSOL Fundão A - R Cidade Covilhã","brand":"REPSOL","address":"Rua da Cidade da Covilhã, s/n","municipality":"Fundão","district":"Castelo Branco","postalCode":"6230-346","fuels":{"gasoline95":2.219,"gasoline95Plus":2.289,"gasoline98Plus":2.419,"diesel":2.349,"dieselPremium":2.419,"dieselAgri":1.989,"lpg":1.009},"lastUpdated":"2026-09-23 12:55","extra":{"stationType":"Outro"},"services":["Calibragem de pneus"],"hours":null,"paymentMethods":["Dinheiro"],"otherServices":null,"observations":null}},{"type":"Feature","geometry":{"type":"Point","coordinates":[-7.495633,40.26658]},"properties":{"id":"pt-94141","source":"PT","name":"CEPSA Covilhã","brand":"CEPSA","address":"Alameda Pêro da Covilhã","municipality":"Covilhã","district":"Castelo Branco","postalCode":"6200-507","fuels":{"gasoline95":2.123,"gasoline95Plus":2.173,"diesel":2.249,"dieselPremium":2.299},"lastUpdated":"2026-09-21 15:50","extra":{"stationType":"Outro"},"services":["Cafetaria","Loja de Conveniência","Multibanco","Venda de gás doméstico em garrafas","WC","WC para deficientes"],"hours":null,"paymentMethods":["Dinheiro","Multibanco"],"otherServices":null,"observations":null}},{"type":"Feature","geometry":{"type":"Point","coordinates":[-7.348793,40.348125]},"properties":{"id":"pt-94412","source":"PT","name":"PRIO - BELMONTE","brand":"PRIO","address":"Sitio da Tapada do Muro - Variante a Belmonte","municipality":"Belmonte","district":"Castelo Branco","postalCode":"6250-076","fuels":{"gasoline95":2.144,"dieselPremium":2.224,"dieselAgri":1.794,"bioDiesel":2.194},"lastUpdated":"2026-09-21 17:10","extra":{"stationType":"Outro"},"services":["Calibragem de pneus"],"hours":{"weekdays":"07:00-22:00","saturday":"07:00-22:00","sunday":"07:00-22:00","holiday":"07:00-22:00"},"paymentMethods":["Dinheiro"],"otherServices":null,"observations":null}},{"type":"Feature","geometry":{"type":"Point","coordinates":[-7.491277,40.264874]},"properties":{"id":"pt-94496","source":"PT","name":"GALP Hospital Covilhã","brand":"GALP","address":"Quinta do Alvito","municipality":"Covilhã","district":"Castelo Branco","postalCode":"6200-251","fuels":{"gasoline95":2.164,"gasoline95Plus":2.214,"diesel":2.289,"dieselPremium":2.339},"lastUpdated":"2026-09-22 06:50","extra":{"stationType":"Outro"},"services":["Calibragem de pneus"],"hours":null,"paymentMethods":["Dinheiro","Multibanco"],"otherServices":null,"observations":null}},{"type":"Feature","geometry":{"type":"Point","coordinates":[-7.34567,40.37086]},"properties":{"id":"pt-94582","source":"PT","name":"Alegrar o Ambiente, Lda.","brand":"GALP","address":"E. N. 18, Km 24,100 - Ginjal","municipality":"Belmonte","district":"Castelo Branco","postalCode":"6250-076","fuels":{"gasoline95":2.169,"gasoline95Plus":2.219,"diesel":2.299,"dieselPremium":2.349,"dieselAgri":1.874},"lastUpdated":"2026-09-23 11:50","extra":{"stationType":"Outro"},"services":["Calibragem de pneus"],"hours":null,"paymentMethods":["Dinheiro"],"otherServices":null,"observations":null}},{"type":"Feature","geometry":{"type":"Point","coordinates":[-7.494,40.27064]},"properties":{"id":"pt-94724","source":"PT","name":"INTERMARCHÉ  Covilhã","brand":"INTERMARCHÉ","address":"Av.Infante D.Henrique","municipality":"Covilhã","district":"Castelo Branco","postalCode":"6200-506","fuels":{"gasoline95":2.029,"gasoline95Plus":2.049,"diesel":2.129,"dieselPremium":2.149},"lastUpdated":"2026-09-21 10:00","extra":{"stationType":"Outro"},"services":["Calibragem de pneus"],"hours":{"weekdays":"Aberto 24 horas","saturday":"Aberto 24 horas","sunday":"Aberto 24 horas","holiday":"Aberto 24 horas"},"paymentMethods":["Dinheiro"],"otherServices":null,"observations":null}},{"type":"Feature","geometry":{"type":"Point","coordinates":[-7.695849,40.17998]},"properties":{"id":"pt-94819","source":"PT","name":"PA  Casegas","brand":"Genérico","address":"Rua do Caramoço - Sitio da Gruta","municipality":"Covilhã","district":"Castelo Branco","postalCode":"6225-127","fuels":{"gasoline95":2.198,"gasoline98":2.376,"gasolineMix":2.9,"diesel":2.302,"dieselHeating":2.2,"dieselAgri":1.92},"lastUpdated":"2026-09-21 15:05","extra":{"stationType":"Outro"},"services":["Cafetaria","Calibragem de pneus","Multibanco","Venda de gás doméstico em garrafas","Venda de gasóleo agrícola","Venda de gasóleo para aquecimento","WC","WC para deficientes"],"hours":{"weekdays":"07:00-20:00","saturday":"07:00-20:00","sunday":"08:00-12:00","holiday":"08:00-12:00"},"paymentMethods":["Dinheiro","Multibanco"],"otherServices":null,"observations":null}},{"type":"Feature","geometry":{"type":"Point","coordinates":[-7.493131,40.173374]},"properties":{"id":"pt-94889","source":"PT","name":"ALVES BANDEIRA Fundão","brand":"ALVES BANDEIRA","address":"Zona Industrial do Fundão, Lote 72","municipality":"Fundão","district":"Castelo Branco","postalCode":"6230-483","fuels":{"gasoline95":2.198,"gasoline95Plus":2.244,"diesel":2.328,"dieselPremium":2.369},"lastUpdated":"2026-09-21 11:40","extra":{"stationType":"Outro"},"services":["WC"],"hours":{"weekdays":"07:00-21:00","saturday":"08:00-21:00","sunday":"09:00-17:00","holiday":"09:00-17:00"},"paymentMethods":["Dinheiro","MbWay","Multibanco"],"otherServices":null,"observations":null}},{"type":"Feature","geometry":{"type":"Point","coordinates":[-8.187091,39.816498]},"properties":{"id":"pt-95222","source":"PT","name":"REPSOL Cernache do Bonjardim","brand":"REPSOL","address":"Rua dos Pinheiros nº 77 C","municipality":"Sertã","district":"Castelo Branco","postalCode":"6100-266","fuels":{"gasoline95":2.219,"gasoline98Plus":2.419,"diesel":2.349,"dieselPremium":2.419,"dieselAgri":1.989},"lastUpdated":"2026-09-23 12:50","extra":{"stationType":"Outro"},"services":["Multibanco"],"hours":null,"paymentMethods":["Dinheiro"],"otherServices":null,"observations":null}},{"type":"Feature","geometry":{"type":"Point","coordinates":[-7.496803,39.831917]},"properties":{"id":"pt-95300","source":"PT","name":"Galp Castelo Branco Rua Da Mina ","brand":"GALP","address":"Rua da Mina (EN. 18, Km 104,700)","municipality":"Castelo Branco","district":"Castelo Branco","postalCode":"6000-170","fuels":{"gasoline95":2.144,"gasoline95Plus":2.194,"gasoline98Plus":2.374,"diesel":2.269,"dieselPremium":2.319,"dieselAgri":1.934},"lastUpdated":"2026-09-22 08:50","extra":{"stationType":"Outro"},"services":["Calibragem de pneus","Loja de Conveniência","Venda de gás doméstico em garrafas","Venda de gasóleo agrícola","WC","WC para deficientes"],"hours":{"weekdays":"06:00-22:00","saturday":"08:00-20:00","sunday":"08:00-20:00","holiday":"08:00-20:00"},"paymentMethods":["Dinheiro","MbWay","Multibanco"],"otherServices":null,"observations":null}}]}