{"type":"FeatureCollection","features":[{"type":"Feature","geometry":{"type":"Point","coordinates":[-7.184537,38.874694]},"properties":{"id":"pt-65047","source":"PT","name":"Intermarché de ELVAS","brand":"INTERMARCHÉ","address":"Rua Paco Bandeira n.º 4","municipality":"Elvas","district":"Portalegre","postalCode":"7350-310","fuels":{"gasoline95":1.979,"gasoline95Plus":2.009,"diesel":1.979,"dieselPremium":2.009},"lastUpdated":"2026-08-04 07:30","extra":{"stationType":"Outro"},"services":["Cafetaria","Multibanco","Restaurante","WC","WC para deficientes"],"hours":{"weekdays":"07:30-21:00","saturday":"07:30-21:00","sunday":"07:30-21:00","holiday":"07:30-21:00"},"paymentMethods":["Dinheiro","Multibanco"],"otherServices":null,"observations":null}},{"type":"Feature","geometry":{"type":"Point","coordinates":[-7.28367,39.12205]},"properties":{"id":"pt-65146","source":"PT","name":"FLORES & FRAGOSO","brand":"GALP","address":"Largo França Borges","municipality":"Arronches","district":"Portalegre","postalCode":"7340-008","fuels":{"gasoline95":2.059,"gasoline95Plus":2.109,"diesel":2.154,"dieselPremium":2.204,"dieselAgri":1.727},"lastUpdated":"2026-08-03 13:20","extra":{"stationType":"Outro"},"services":["Venda de carburante de qualidade superior","Venda de gás doméstico em garrafas","Venda de gasóleo agrícola"],"hours":{"weekdays":"07:00-21:00","saturday":"07:00-21:00","sunday":"07:00-21:00","holiday":"07:00-21:00"},"paymentMethods":["Dinheiro"],"otherServices":null,"observations":"Full Service"}},{"type":"Feature","geometry":{"type":"Point","coordinates":[-7.47418,39.42264]},"properties":{"id":"pt-65223","source":"PT","name":"FAUSTINO A. CARREIRAS E COMPANHIA, LDA.","brand":"GALP","address":"EN 246-1","municipality":"Castelo de Vide","district":"Portalegre","postalCode":"7320-419","fuels":{"gasoline95":2.049,"gasoline95Plus":2.109,"gasoline98Plus":2.259,"diesel":2.154,"dieselPremium":2.214,"dieselAgri":1.724},"lastUpdated":"2026-08-03 15:55","extra":{"stationType":"Outro"},"services":["Loja de Conveniência","Venda de carburante de qualidade superior","Venda de gás doméstico em garrafas","Venda de gasóleo agrícola","WC","WC para deficientes"],"hours":{"weekdays":"07:00-22:00","saturday":"07:00-22:00","sunday":"07:00-22:00","holiday":"07:00-22:00"},"paymentMethods":["Dinheiro"],"otherServices":null,"observations":null}},{"type":"Feature","geometry":{"type":"Point","coordinates":[-7.64584,39.288761]},"properties":{"id":"pt-65256","source":"PT","name":"MASTER RETOK, LDA ","brand":"GALP","address":"Rua General Humberto Delgado","municipality":"Crato","district":"Portalegre","postalCode":"7430-162","fuels":{"gasoline95":2.029,"gasoline95Plus":2.079,"diesel":2.124,"dieselPremium":2.174,"dieselAgri":1.724},"lastUpdated":"2026-08-03 00:05","extra":{"stationType":"Outro"},"services":["Venda de carburante de qualidade superior","Venda de gás doméstico em garrafas","Venda de gasóleo agrícola"],"hours":{"weekdays":"07:00-21:00","saturday":"07:00-21:00","sunday":"07:00-21:00","holiday":"07:00-21:00"},"paymentMethods":["Dinheiro"],"otherServices":null,"observations":"Full Service"}},{"type":"Feature","geometry":{"type":"Point","coordinates":[-7.149994,38.892773]},"properties":{"id":"pt-65259","source":"PT","name":"GALP Elvas - 11955","brand":"GALP","address":"Avenida Europa","municipality":"Elvas","district":"Portalegre","postalCode":"7350-230","fuels":{"gasoline95":2.009,"gasoline95Plus":2.059,"diesel":2.104,"dieselPremium":2.154,"dieselAgri":1.724},"lastUpdated":"2026-08-03 09:15","extra":{"stationType":"Outro"},"services":["Cafetaria","Loja de Conveniência","Multibanco","WC"],"hours":null,"paymentMethods":["Dinheiro"],"otherServices":null,"observations":null}},{"type":"Feature","geometry":{"type":"Point","coordinates":[-7.93698,39.46532]},"properties":{"id":"pt-65301","source":"PT","name":"INCROPOL - COMÉRCIO DE COMBUSTÍVEIS UNIPESSOAL, LDA.","brand":"GALP","address":"Rua Dr. Eusébio Leão","municipality":"Gavião","district":"Portalegre","postalCode":"6040-130","fuels":{"gasoline95":2.049,"gasoline95Plus":2.099,"diesel":2.144,"dieselPremium":2.194,"dieselAgri":1.724},"lastUpdated":"2026-08-03 09:00","extra":{"stationType":"Outro"},"services":["Lavagem","Multibanco","Venda de carburante de qualidade superior","Venda de gás doméstico em garrafas","Venda de gasóleo agrícola"],"hours":{"weekdays":"Aberto 24 horas","saturday":"Aberto 24 horas","sunday":"Aberto 24 horas","holiday":"Aberto 24 horas"},"paymentMethods":["Dinheiro","Multibanco"],"otherServices":null,"observations":null}},{"type":"Feature","geometry":{"type":"Point","coordinates":[-7.64403,39.51117]},"properties":{"id":"pt-65469","source":"PT","name":"J. P. CALDEIRA ","brand":"GALP","address":"Rua da Fábrica- Curral da Adua ","municipality":"Nisa","district":"Portalegre","postalCode":"6050-351","fuels":{"gasoline95":2.071,"gasoline95Plus":2.121,"diesel":2.138,"dieselPremium":2.188,"dieselAgri":1.704},"lastUpdated":"2026-07-28 11:20","extra":{"stationType":"Outro"},"services":["Cafetaria","Lavagem","Loja de Conveniência","Venda de gás doméstico em garrafas","Venda de gasóleo agrícola","WC","WC para deficientes"],"hours":{"weekdays":"07:00-23:30","saturday":"07:00-23:30","sunday":"07:00-23:30","holiday":"07:00-23:30"},"paymentMethods":["Dinheiro"],"otherServices":null,"observations":null}},{"type":"Feature","geometry":{"type":"Point","coordinates":[-8.01085,39.25891]},"properties":{"id":"pt-65556","source":"PT","name":"Petroalves - Distribuidor de Combustíveis e Lubrificantes, Lda.","brand":"GALP","address":"Av. da Liberdade","municipality":"Ponte de Sor","district":"Portalegre","postalCode":"7400-218","fuels":{"gasoline95":2.049,"gasoline95Plus":2.099,"diesel":2.144,"dieselPremium":2.194,"dieselAgri":1.724},"lastUpdated":"2026-08-03 10:05","extra":{"stationType":"Outro"},"services":["Multibanco","Venda de carburante de qualidade superior","Venda de gás doméstico em garrafas","Venda de gasóleo agrícola"],"hours":{"weekdays":"Aberto 24 horas","saturday":"Aberto 24 horas","sunday":"Aberto 24 horas","holiday":"Aberto 24 horas"},"paymentMethods":["Dinheiro"],"otherServices":null,"observations":"Full Service"}},{"type":"Feature","geometry":{"type":"Point","coordinates":[-7.43141,39.27895]},"properties":{"id":"pt-65558","source":"PT","name":"GÁSLEGRE - COMBUSTÍVEIS PORTALEGRE, LDA.","brand":"GALP","address":"Av. da Estremadura Espanhola 106","municipality":"Portalegre","district":"Portalegre","postalCode":"7300-526","fuels":{"gasoline95":2.049,"gasoline95Plus":2.099,"gasoline98Plus":2.259,"diesel":2.144,"dieselPremium":2.194,"dieselAgri":1.724},"lastUpdated":"2026-08-03 16:25","extra":{"stationType":"Outro"},"services":["Cafetaria","Lavagem","Loja de Conveniência","Multibanco","Venda de carburante de qualidade superior","Venda de gás doméstico em garrafas","Venda de gasóleo agrícola","WC","WC para deficientes"],"hours":{"weekdays":"Aberto 24 horas","saturday":"Aberto 24 horas","sunday":"Aberto 24 horas","holiday":"Aberto 24 horas"},"paymentMethods":["Dinheiro"],"otherServices":null,"observations":null}},{"type":"Feature","geometry":{"type":"Point","coordinates":[-7.4325,39.295848]},"properties":{"id":"pt-65559","source":"PT","name":"Lubripor - Lub. Comb. Portalegre","brand":"GALP","address":"Estrada da Penha (Rua Dom Nuno Álvares Pereira)","municipality":"Portalegre","district":"Portalegre","postalCode":"7300-200","fuels":{"gasoline95":2.049,"gasoline95Plus":2.099,"diesel":2.144,"dieselPremium":2.194,"dieselAgri":1.724},"lastUpdated":"2026-08-03 00:05","extra":{"stationType":"Outro"},"services":["Cafetaria","Loja de Conveniência","Venda de carburante de qualidade superior","Venda de gás doméstico em garrafas","Venda de gasóleo agrícola","WC","WC para deficientes"],"hours":{"weekdays":"07:00-23:00","saturday":"07:00-23:00","sunday":"07:00-23:00","holiday":"07:00-23:00"},"paymentMethods":["Dinheiro"],"otherServices":null,"observations":"Full Service"}},{"type":"Feature","geometry":{"type":"Point","coordinates":[-7.674621,38.95202]},"properties":{"id":"pt-65669","source":"PT","name":"DULCE RODRIGUES, LDA ","brand":"GALP","address":"Av. Nova nº 13","municipality":"Sousel","district":"Portalegre","postalCode":"7470-254","fuels":{"gasoline95":2.059,"gasoline95Plus":2.109,"diesel":2.154,"dieselPremium":2.204},"lastUpdated":"2026-08-03 00:05","extra":{"stationType":"Outro"},"services":["Venda de carburante de qualidade superior","Venda de gás doméstico em garrafas","Venda de gasóleo agrícola","WC"],"hours":{"weekdays":"07:00-21:00","saturday":"07:00-21:00","sunday":"07:00-21:00","holiday":"07:00-21:00"},"paymentMethods":["Dinheiro"],"otherServices":null,"observations":"Full Service\r\n"}},{"type":"Feature","geometry":{"type":"Point","coordinates":[-7.170924,38.877715]},"properties":{"id":"pt-65895","source":"PT","name":"ELVAS","brand":"BP","address":"Av. de Badajoz","municipality":"Elvas","district":"Portalegre","postalCode":"7350-096","fuels":{"gasoline95":2.019,"gasoline98Plus":2.294,"diesel":2.119,"dieselPremium":2.319,"dieselAgri":1.744},"lastUpdated":"2026-08-04 17:20","extra":{"stationType":"Outro"},"services":["Lavagem","Multibanco","Venda de carburante de qualidade superior","Venda de gás doméstico em garrafas","Venda de gasóleo agrícola","WC"],"hours":{"weekdays":"07:00-23:00","saturday":"07:00-23:00","sunday":"07:00-23:00","holiday":"07:00-23:00"},"paymentMethods":["Dinheiro"],"otherServices":null,"observations":null}},{"type":"Feature","geometry":{"type":"Point","coordinates":[-7.431745,39.279054]},"properties":{"id":"pt-66214","source":"PT","name":"Moeve Portalegre","brand":"MOEVE","address":"Av. da Estremadura Espanhola 37","municipality":"Portalegre","district":"Portalegre","postalCode":"7300-051","fuels":{"gasoline95":2.033,"gasoline95Plus":2.083,"diesel":2.129,"dieselPremium":2.179},"lastUpdated":"2026-08-03 00:00","extra":{"stationType":"Outro"},"services":["Cafetaria","Lavagem","Loja de Conveniência","Venda de carburante de qualidade superior","Venda de gás doméstico em garrafas","WC","WC para deficientes"],"hours":{"weekdays":"07:00-23:00","saturday":"07:00-23:00","sunday":"07:00-23:00","holiday":"07:00-23:00"},"paymentMethods":["Dinheiro","MbWay","Multibanco","Outros"],"otherServices":null,"observations":null}},{"type":"Feature","geometry":{"type":"Point","coordinates":[-7.892903,39.052586]},"properties":{"id":"pt-66282","source":"PT","name":"CEPSA DE AVIS","brand":"CEPSA","address":"Rua Hortas do Chão, Lote 16","municipality":"Avis","district":"Portalegre","postalCode":"7480-183","fuels":{"gasoline95":2.023,"gasoline98Plus":2.235,"diesel":2.119,"dieselPremium":2.169},"lastUpdated":"2026-08-03 00:00","extra":{"stationType":"Outro"},"services":["Cafetaria","Multibanco","Venda de gás doméstico em garrafas","WC","WC para deficientes"],"hours":{"weekdays":"07:00-20:00","saturday":"07:00-20:00","sunday":"07:00-20:00","holiday":"00:00-00:00"},"paymentMethods":["Dinheiro","MbWay","Multibanco"],"otherServices":null,"observations":null}},{"type":"Feature","geometry":{"type":"Point","coordinates":[-8.017071,39.24549]},"properties":{"id":"pt-66354","source":"PT","name":"Moeve Ponte de Sor","brand":"MOEVE","address":"Estrada de Abrantes, Nº23 A","municipality":"Ponte de Sor","district":"Portalegre","postalCode":"7400-999","fuels":{"gasoline95":2.003,"gasoline98Plus":2.215,"diesel":2.099,"dieselPremium":2.149,"dieselAgri":1.714},"lastUpdated":"2026-08-03 00:00","extra":{"stationType":"Outro"},"services":["Cafetaria","Multibanco","Venda de gasóleo agrícola","WC"],"hours":{"weekdays":"07:00-20:00","saturday":"07:00-20:00","sunday":"07:00-20:00","holiday":"00:00-20:00"},"paymentMethods":["Dinheiro","MbWay","Multibanco"],"otherServices":null,"observations":null}},{"type":"Feature","geometry":{"type":"Point","coordinates":[-7.43713,39.26658]},"properties":{"id":"pt-66676","source":"PT","name":"E.S. PORTALEGRE","brand":"REPSOL","address":"Rua Mestre João Serra Lt. D","municipality":"Portalegre","district":"Portalegre","postalCode":"7300-069","fuels":{"gasoline95":2.059,"diesel":2.159,"dieselPremium":2.229,"lpg":0.964},"lastUpdated":"2026-08-04 10:55","extra":{"stationType":"Outro"},"services":["Venda de carburante de qualidade superior","Venda de gás doméstico em garrafas"],"hours":{"weekdays":"09:00-19:00","saturday":"Fechado","sunday":"Fechado","holiday":"Fechado"},"paymentMethods":["Dinheiro"],"otherServices":null,"observations":null}},{"type":"Feature","geometry":{"type":"Point","coordinates":[-7.050736111,38.883230556]},"properties":{"id":"pt-66677","source":"PT","name":"A.S. CAIA A","brand":"REPSOL","address":"IP 7/A 6 Km 4,5","municipality":"Elvas","district":"Portalegre","postalCode":"7350-443","fuels":{"gasoline95":2.019,"gasoline95Plus":2.089,"diesel":2.109,"dieselPremium":2.179},"lastUpdated":"2026-08-03 09:50","extra":{"stationType":"Auto-estrada"},"services":["Descanso de pesados","Loja de Conveniência","Restaurante","Venda de carburante de qualidade superior","Venda de gás doméstico em garrafas","WC"],"hours":{"weekdays":"Aberto 24 horas","saturday":"Aberto 24 horas","sunday":"Aberto 24 horas","holiday":"Aberto 24 horas"},"paymentMethods":["Dinheiro"],"otherServices":null,"observations":null}},{"type":"Feature","geometry":{"type":"Point","coordinates":[-7.048736111,38.883633333]},"properties":{"id":"pt-66678","source":"PT","name":"A.S. CAIA B","brand":"REPSOL","address":"IP 7/A 6 Km 4,5","municipality":"Elvas","district":"Portalegre","postalCode":"7350-443","fuels":{"gasoline95":2.019,"gasoline95Plus":2.089,"diesel":2.109,"dieselPremium":2.179,"lpg":0.964},"lastUpdated":"2026-08-03 09:50","extra":{"stationType":"Auto-estrada"},"services":["Descanso de pesados","Loja de Conveniência","Venda de carburante de qualidade superior","Venda de gás doméstico em garrafas","WC"],"hours":{"weekdays":"07:00-23:00","saturday":"07:00-23:00","sunday":"07:00-23:00","holiday":"07:00-23:00"},"paymentMethods":["Dinheiro"],"otherServices":null,"observations":null}},{"type":"Feature","geometry":{"type":"Point","coordinates":[-8.17153,39.05117]},"properties":{"id":"pt-66679","source":"PT","name":"E.S. MONTARGIL","brand":"REPSOL","address":"EN 2 - Km 462","municipality":"Ponte de Sor","district":"Portalegre","postalCode":"7425-144","fuels":{"gasoline95":2.099,"gasoline98Plus":2.299,"diesel":2.189,"dieselPremium":2.259,"dieselAgri":1.784},"lastUpdated":"2026-08-05 00:00","extra":{"stationType":"Outro"},"services":["Cafetaria","Venda de carburante de qualidade superior","Venda de gás doméstico em garrafas","Venda de gasóleo agrícola","WC"],"hours":{"weekdays":"07:00-22:00","saturday":"07:00-22:00","sunday":"07:00-22:00","holiday":"07:00-22:00"},"paymentMethods":["Dinheiro"],"otherServices":null,"observations":null}},{"type":"Feature","geometry":{"type":"Point","coordinates":[-8.01336,39.26838]},"properties":{"id":"pt-66870","source":"PT","name":"PD PONTE DE SÔR","brand":"PINGO DOCE","address":"Zona Industrial - Barreiras","municipality":"Ponte de Sor","district":"Portalegre","postalCode":"7400-114","fuels":{"gasoline95":1.943,"gasoline98Plus":2.299,"diesel":2.001,"dieselPremium":2.319},"lastUpdated":"2026-08-04 00:00","extra":{"stationType":"Outro"},"services":[],"hours":{"weekdays":"08:00-22:00","saturday":"08:00-22:00","sunday":"08:00-22:00","holiday":"08:00-22:00"},"paymentMethods":["Dinheiro"],"otherServices":null,"observations":null}},{"type":"Feature","geometry":{"type":"Point","coordinates":[-7.99695,39.15676]},"properties":{"id":"pt-67545","source":"PT","name":"RE - GALVEIAS","brand":"REDE ENERGIA","address":"EST. NACIONAL Nº 244, KM 96","municipality":"Ponte de Sor","district":"Portalegre","postalCode":"7400-022","fuels":{"gasoline95":2.04,"diesel":2.128,"dieselPremium":2.158,"dieselAgri":1.705},"lastUpdated":"2026-08-03 09:15","extra":{"stationType":"Outro"},"services":["Loja de Conveniência"],"hours":{"weekdays":"07:00-20:00","saturday":"07:00-20:00","sunday":"Fechado","holiday":"Fechado"},"paymentMethods":["Dinheiro"],"otherServices":null,"observations":null}},{"type":"Feature","geometry":{"type":"Point","coordinates":[-7.64171,39.04899]},"properties":{"id":"pt-69259","source":"PT","name":"CEPSA FRONTEIRA","brand":"CEPSA","address":"Zona Industrial de Fronteira, Lote 43","municipality":"Fronteira","district":"Portalegre","postalCode":"7460-999","fuels":{"gasoline95":2.019,"diesel":2.109,"dieselPremium":2.179,"dieselAgri":1.724},"lastUpdated":"2026-08-03 12:55","extra":{"stationType":"Outro"},"services":["Cafetaria","Lavagem","Multibanco","Venda de gás doméstico em garrafas","WC"],"hours":{"weekdays":"07:00-20:00","saturday":"07:00-20:00","sunday":"07:00-20:00","holiday":"07:00-20:00"},"paymentMethods":["Dinheiro"],"otherServices":null,"observations":null}},{"type":"Feature","geometry":{"type":"Point","coordinates":[-7.662051,39.19553]},"properties":{"id":"pt-69364","source":"PT","name":"ALVES BANDEIRA Alter do Chão","brand":"ALVES BANDEIRA","address":"Estrada Nacional 369","municipality":"Alter do Chão","district":"Portalegre","postalCode":"7440-162","fuels":{"gasoline95":2.019,"gasoline98":2.169,"diesel":2.104,"dieselPremium":2.124,"dieselAgri":1.679},"lastUpdated":"2026-08-03 10:55","extra":{"stationType":"Outro"},"services":["Cafetaria","Loja de Conveniência","Venda de gás doméstico em garrafas","Venda de gasóleo agrícola","WC","WC para deficientes"],"hours":{"weekdays":"06:00-21:00","saturday":"06:00-21:00","sunday":"06:00-21:00","holiday":"06:00-21:00"},"paymentMethods":["Dinheiro","MbWay","Multibanco","Outros"],"otherServices":null,"observations":null}},{"type":"Feature","geometry":{"type":"Point","coordinates":[-7.34652,39.41266]},"properties":{"id":"pt-69825","source":"PT","name":"REPSOL Outeiros","brand":"REPSOL","address":"Outeiros","municipality":"Marvão","district":"Portalegre","postalCode":"7330-215","fuels":{"gasoline95":2.039,"diesel":2.169,"dieselPremium":2.169,"dieselAgri":1.719},"lastUpdated":"2026-08-04 10:10","extra":{"stationType":"Outro"},"services":["Lavagem","Loja de Conveniência","Venda de gás doméstico em garrafas","WC"],"hours":{"weekdays":"07:30-20:30","saturday":"07:30-20:30","sunday":"14:00-20:30","holiday":"14:00-20:30"},"paymentMethods":["Dinheiro","MbWay","Multibanco"],"otherServices":null,"observations":null}},{"type":"Feature","geometry":{"type":"Point","coordinates":[-8.02221,39.24392]},"properties":{"id":"pt-72916","source":"PT","name":"INTERMARCHÉ DE PONTE DE SOR","brand":"INTERMARCHÉ","address":"EN 119","municipality":"Ponte de Sor","district":"Portalegre","postalCode":"7400-123","fuels":{"gasoline95":1.919,"gasoline95Plus":1.969,"diesel":1.995,"dieselPremium":2.045},"lastUpdated":"2026-08-04 20:00","extra":{"stationType":"Outro"},"services":[],"hours":{"weekdays":"Aberto 24 horas","saturday":"Aberto 24 horas","sunday":"Aberto 24 horas","holiday":"Aberto 24 horas"},"paymentMethods":["Dinheiro"],"otherServices":null,"observations":null}},{"type":"Feature","geometry":{"type":"Point","coordinates":[-8.01156,39.26215]},"properties":{"id":"pt-73872","source":"PT","name":"BP Ponte de Sôr","brand":"BP","address":"Av. da Liberdade 100","municipality":"Ponte de Sor","district":"Portalegre","postalCode":"7400-219","fuels":{"gasoline95":2.069,"gasoline98Plus":2.299,"diesel":2.169,"dieselPremium":2.319},"lastUpdated":"2026-08-03 00:00","extra":{"stationType":"Outro"},"services":["Cafetaria","Lavagem","Loja de Conveniência","Multibanco","Venda de carburante de qualidade superior","Venda de gás doméstico em garrafas","WC","WC para deficientes"],"hours":{"weekdays":"Aberto 24 horas","saturday":"Aberto 24 horas","sunday":"Aberto 24 horas","holiday":"Aberto 24 horas"},"paymentMethods":["Dinheiro"],"otherServices":null,"observations":null}},{"type":"Feature","geometry":{"type":"Point","coordinates":[-7.651,39.062562]},"properties":{"id":"pt-76235","source":"PT","name":"E.S. FRONTEIRA","brand":"REPSOL","address":"EN 245, Lote 9","municipality":"Fronteira","district":"Portalegre","postalCode":"7460-105","fuels":{"gasoline95":2.019,"diesel":2.109,"dieselPremium":2.179,"dieselAgri":1.724},"lastUpdated":"2026-08-03 00:00","extra":{"stationType":"Outro"},"services":["Cafetaria","Lavagem","Multibanco","Venda de carburante de qualidade superior","Venda de gás doméstico em garrafas","Venda de gasóleo agrícola","WC"],"hours":{"weekdays":"06:00-22:00","saturday":"06:00-22:00","sunday":"06:00-22:00","holiday":"06:00-22:00"},"paymentMethods":["Dinheiro"],"otherServices":null,"observations":null}},{"type":"Feature","geometry":{"type":"Point","coordinates":[-7.80222,38.94685]},"properties":{"id":"pt-78640","source":"PT","name":"TFUEL - CASA BRANCA","brand":"TFUEL","address":"EN 372","municipality":"Sousel","district":"Portalegre","postalCode":"7470-111","fuels":{"gasoline95":2.119,"gasoline98":2.319,"diesel":2.159,"dieselPremium":2.219,"dieselAgri":1.739},"lastUpdated":"2026-08-03 15:45","extra":{"stationType":"Outro"},"services":["Assistência auto","Cafetaria","Restaurante","Venda de carburante de qualidade superior","Venda de gás doméstico em garrafas","Venda de gasóleo agrícola","WC"],"hours":{"weekdays":"07:00-21:00","saturday":"07:00-21:00","sunday":"07:00-21:00","holiday":"07:00-21:00"},"paymentMethods":["Dinheiro"],"otherServices":null,"observations":null}},{"type":"Feature","geometry":{"type":"Point","coordinates":[-7.419953,39.268689]},"properties":{"id":"pt-79145","source":"PT","name":"PRIO  Portalegre","brand":"PRIO","address":"Avenida Francisco Fino","municipality":"Portalegre","district":"Portalegre","postalCode":"7300-053","fuels":{"gasoline95":2.009,"gasoline95Plus":1.974,"dieselPremium":2.069,"bioDiesel":2.039},"lastUpdated":"2026-08-05 01:05","extra":{"stationType":"Outro"},"services":["Cafetaria","Descanso de pesados","Lavagem","Loja de Conveniência","Venda de gás doméstico em garrafas","WC","WC para deficientes"],"hours":{"weekdays":"06:00-22:00","saturday":"06:00-22:00","sunday":"06:00-22:00","holiday":"06:00-22:00"},"paymentMethods":["Dinheiro","MbWay","Multibanco","Outros"],"otherServices":null,"observations":null}},{"type":"Feature","geometry":{"type":"Point","coordinates":[-7.69424,39.41487]},"properties":{"id":"pt-85175","source":"PT","name":"PA Gáfete Júlio Calado","brand":"Genérico","address":"En 118 (Estrada de Tolosa)","municipality":"Crato","district":"Portalegre","postalCode":"7430-253","fuels":{"gasoline95":2.069,"diesel":2.169,"dieselPremium":2.199,"dieselAgri":1.749},"lastUpdated":"2026-08-04 10:10","extra":{"stationType":"Outro"},"services":["Cafetaria","Loja de Conveniência","Multibanco","WC"],"hours":{"weekdays":"07:00-22:00","saturday":"07:00-22:00","sunday":"07:00-22:00","holiday":"07:00-22:00"},"paymentMethods":["Dinheiro"],"otherServices":null,"observations":null}},{"type":"Feature","geometry":{"type":"Point","coordinates":[-7.429301,39.276848]},"properties":{"id":"pt-85895","source":"PT","name":"INTERMARCHE - MOSQUETEIROS","brand":"INTERMARCHÉ","address":"BALDIO OU ALMAGRES","municipality":"Portalegre","district":"Portalegre","postalCode":"7300-526","fuels":{"gasoline95":1.949,"gasoline98":2.1,"diesel":2.049,"dieselPremium":2.079},"lastUpdated":"2026-08-03 18:20","extra":{"stationType":"Outro"},"services":["Calibragem de pneus"],"hours":{"weekdays":"Aberto 24 horas","saturday":"Aberto 24 horas","sunday":"Aberto 24 horas","holiday":"Aberto 24 horas"},"paymentMethods":["Dinheiro"],"otherServices":null,"observations":null}},{"type":"Feature","geometry":{"type":"Point","coordinates":[-7.05026,38.88437]},"properties":{"id":"pt-86764","source":"PT","name":"Posto GNV Dourogás - Elvas, Caia","brand":"DOUROGAS NATURAL","address":"Lugar de Caia 7350 – Caia Elvas","municipality":"Elvas","district":"Portalegre","postalCode":"7350-426","fuels":{"cngm3":3.081,"lng":3.279},"lastUpdated":"2026-07-31 12:00","extra":{"stationType":"Outro"},"services":["Calibragem de pneus"],"hours":null,"paymentMethods":["Dinheiro"],"otherServices":null,"observations":null}},{"type":"Feature","geometry":{"type":"Point","coordinates":[-7.425958,39.267764]},"properties":{"id":"pt-88058","source":"PT","name":"E.S.PORTALEGRE ZI","brand":"REPSOL","address":"Av. Francisco Fino, 50","municipality":"Portalegre","district":"Portalegre","postalCode":"7300-053","fuels":{"gasoline95":2.064,"gasoline95Plus":2.134,"gasoline98Plus":2.254,"diesel":2.154,"dieselPremium":2.229},"lastUpdated":"2026-08-04 09:15","extra":{"stationType":"Outro"},"services":["Cafetaria","Lavagem","Loja de Conveniência","Venda de carburante de qualidade superior","Venda de gás doméstico em garrafas","WC","WC para deficientes"],"hours":{"weekdays":"07:00-22:00","saturday":"07:00-22:00","sunday":"07:00-22:00","holiday":"07:00-22:00"},"paymentMethods":["Dinheiro"],"otherServices":null,"observations":null}},{"type":"Feature","geometry":{"type":"Point","coordinates":[-7.4314,39.28033]},"properties":{"id":"pt-89546","source":"PT","name":"Bp Portalegre","brand":"BP","address":"Av. Estramadura Espanhola","municipality":"Portalegre","district":"Portalegre","postalCode":"7300-000","fuels":{"gasoline95":2.069,"gasoline98Plus":2.299,"diesel":2.169,"dieselPremium":2.319,"dieselAgri":1.744},"lastUpdated":"2026-08-03 00:00","extra":{"stationType":"Outro"},"services":[],"hours":{"weekdays":"06:00-22:00","saturday":"06:00-22:00","sunday":"06:00-22:00","holiday":"06:00-22:00"},"paymentMethods":["Dinheiro"],"otherServices":null,"observations":null}},{"type":"Feature","geometry":{"type":"Point","coordinates":[-7.895954,39.055928]},"properties":{"id":"pt-90338","source":"PT","name":"BP - Avis","brand":"BP","address":"EN 244, Km 111, N.º 300","municipality":"Avis","district":"Portalegre","postalCode":"7480-999","fuels":{"gasoline95":2.059,"diesel":2.159,"dieselPremium":2.319,"dieselAgri":1.704},"lastUpdated":"2026-08-03 11:05","extra":{"stationType":"Outro"},"services":[],"hours":{"weekdays":"06:30-22:00","saturday":"06:30-22:00","sunday":"06:30-22:00","holiday":"06:30-22:00"},"paymentMethods":["Dinheiro"],"otherServices":null,"observations":null}},{"type":"Feature","geometry":{"type":"Point","coordinates":[-7.645338,39.508156]},"properties":{"id":"pt-90521","source":"PT","name":"PA Nisa","brand":"Genérico","address":"Rua 25 de Abril nº156","municipality":"Nisa","district":"Portalegre","postalCode":"6050-343","fuels":{"gasoline95":1.999,"gasoline98":2.057,"diesel":2.093,"dieselAgri":1.723},"lastUpdated":"2026-08-04 11:00","extra":{"stationType":"Outro"},"services":["Cafetaria","Lavagem","Venda de gás doméstico em garrafas","WC"],"hours":{"weekdays":"06:00-23:00","saturday":"06:00-23:00","sunday":"06:00-23:00","holiday":"06:00-23:00"},"paymentMethods":["Dinheiro"],"otherServices":null,"observations":null}},{"type":"Feature","geometry":{"type":"Point","coordinates":[-7.68148,38.95403]},"properties":{"id":"pt-90844","source":"PT","name":"POSTO COOPERATIVA - VENCEREI","brand":"REPSOL","address":"ZONA INDUSTRIAL DE SOUSEL - LUGAR DO VENCEREI","municipality":"Sousel","district":"Portalegre","postalCode":"7470-200","fuels":{"gasoline95":2.07,"diesel":2.158,"dieselPremium":2.178,"dieselAgri":1.75},"lastUpdated":"2026-08-04 08:55","extra":{"stationType":"Outro"},"services":[],"hours":{"weekdays":"Fechado","saturday":"Fechado","sunday":"Fechado","holiday":"Fechado"},"paymentMethods":["Dinheiro"],"otherServices":null,"observations":null}},{"type":"Feature","geometry":{"type":"Point","coordinates":[-7.76533,38.96548]},"properties":{"id":"pt-92636","source":"PT","name":"TFUEL - CANO","brand":"TFUEL","address":"Lg  do Rossio n 78","municipality":"Sousel","district":"Portalegre","postalCode":"7470-022","fuels":{"gasoline95":2.099,"gasoline98":2.299,"diesel":2.149,"dieselPremium":2.209,"dieselAgri":1.719},"lastUpdated":"2026-08-03 15:45","extra":{"stationType":"Outro"},"services":["Multibanco","WC"],"hours":{"weekdays":"Aberto 24 horas","saturday":"Aberto 24 horas","sunday":"Aberto 24 horas","holiday":"Aberto 24 horas"},"paymentMethods":["Dinheiro"],"otherServices":null,"observations":null}},{"type":"Feature","geometry":{"type":"Point","coordinates":[-7.439688,39.05073]},"properties":{"id":"pt-93042","source":"PT","name":"P56 - PRIO Monforte","brand":"PRIO","address":"Largo da Cruz da Guarda, nº 2","municipality":"Monforte","district":"Portalegre","postalCode":"7450-100","fuels":{"gasoline95":2.009,"gasoline95Plus":1.979,"dieselPremium":2.074,"dieselAgri":1.634,"bioDiesel":2.044},"lastUpdated":"2026-08-05 01:10","extra":{"stationType":"Outro"},"services":["Calibragem de pneus"],"hours":{"weekdays":"06:00-22:00","saturday":"06:00-22:00","sunday":"06:00-22:00","holiday":"06:00-22:00"},"paymentMethods":["Dinheiro","MbWay","Multibanco","Outros"],"otherServices":null,"observations":null}},{"type":"Feature","geometry":{"type":"Point","coordinates":[-7.197505,38.870926]},"properties":{"id":"pt-93043","source":"PT","name":"P55 - PRIO Elvas","brand":"PRIO","address":"E.N. 4, KM 180,7 - PEDRAS NEGRAS","municipality":"Elvas","district":"Portalegre","postalCode":"7350-123","fuels":{"gasoline95":2.009,"gasoline95Plus":1.979,"dieselPremium":2.044,"dieselAgri":1.634,"bioDiesel":2.014},"lastUpdated":"2026-08-05 01:10","extra":{"stationType":"Outro"},"services":["Calibragem de pneus"],"hours":{"weekdays":"06:00-22:00","saturday":"06:00-22:00","sunday":"06:00-22:00","holiday":"06:00-22:00"},"paymentMethods":["Dinheiro","MbWay","Multibanco","Outros"],"otherServices":null,"observations":null}},{"type":"Feature","geometry":{"type":"Point","coordinates":[-7.655572,39.189053]},"properties":{"id":"pt-93054","source":"PT","name":"Interalter Supermercados, LDa","brand":"INTERMARCHÉ","address":"ZI da Tapada do Lago, Lt L9-A, Ed Inter","municipality":"Alter do Chão","district":"Portalegre","postalCode":"7440-026","fuels":{"gasoline95":1.889,"gasoline98":2.069,"diesel":1.999,"dieselPremium":2.049},"lastUpdated":"2026-08-04 09:00","extra":{"stationType":"Outro"},"services":["Calibragem de pneus","Multibanco","Venda de gás doméstico em garrafas","WC","WC para deficientes"],"hours":{"weekdays":"Aberto 24 horas","saturday":"Aberto 24 horas","sunday":"Aberto 24 horas","holiday":"Aberto 24 horas"},"paymentMethods":["Dinheiro","Multibanco"],"otherServices":null,"observations":null}},{"type":"Feature","geometry":{"type":"Point","coordinates":[-7.752769,38.95816]},"properties":{"id":"pt-93064","source":"PT","name":"GALP Cano (VMF)","brand":"GALP","address":"Avenida Nova, 60","municipality":"Sousel","district":"Portalegre","postalCode":"7470-011","fuels":{"gasoline95":2.01,"diesel":2.088,"dieselPremium":2.118,"dieselAgri":1.67},"lastUpdated":"2026-08-03 09:30","extra":{"stationType":"Outro"},"services":["Calibragem de pneus"],"hours":null,"paymentMethods":["Dinheiro"],"otherServices":null,"observations":null}},{"type":"Feature","geometry":{"type":"Point","coordinates":[-7.421067,38.921055]},"properties":{"id":"pt-93068","source":"PT","name":"GALP Santo Aleixo","brand":"GALP","address":"E.N. 372, Km 49","municipality":"Monforte","district":"Portalegre","postalCode":"7450-200","fuels":{"gasoline95":1.99,"diesel":2.088,"dieselPremium":2.118,"dieselAgri":1.65},"lastUpdated":"2026-08-03 09:35","extra":{"stationType":"Outro"},"services":["Calibragem de pneus"],"hours":null,"paymentMethods":["Dinheiro"],"otherServices":null,"observations":null}},{"type":"Feature","geometry":{"type":"Point","coordinates":[-7.43255,39.27842]},"properties":{"id":"pt-93387","source":"PT","name":"E. LECLERC PORTALEGRE","brand":"LECLERC","address":"Rua do Joinal","municipality":"Portalegre","district":"Portalegre","postalCode":"7300-000","fuels":{"gasoline95":1.949,"diesel":2.049,"dieselPremium":2.049,"lpg":0.959},"lastUpdated":"2026-08-03 09:50","extra":{"stationType":"Outro"},"services":["Venda de gás doméstico em garrafas"],"hours":{"weekdays":"07:00-21:00","saturday":"07:00-21:00","sunday":"07:00-21:00","holiday":"07:00-21:00"},"paymentMethods":["Dinheiro"],"otherServices":null,"observations":null}},{"type":"Feature","geometry":{"type":"Point","coordinates":[-7.645296,39.299081]},"properties":{"id":"pt-93487","source":"PT","name":"BP CRATO","brand":"BP","address":"EN 245 Zona Industrial do Crato, Lote N.º 6","municipality":"Crato","district":"Portalegre","postalCode":"7430-213","fuels":{"gasoline95":2.049,"gasoline98Plus":2.299,"diesel":2.144,"dieselPremium":2.319,"dieselAgri":1.724},"lastUpdated":"2026-08-03 11:45","extra":{"stationType":"Outro"},"services":["Cafetaria","Lavagem","Multibanco","Venda de carburante de qualidade superior","Venda de gás doméstico em garrafas","Venda de gasóleo agrícola","WC","WC para deficientes"],"hours":{"weekdays":"07:00-19:30","saturday":"07:00-19:30","sunday":"07:00-19:30","holiday":"07:00-19:30"},"paymentMethods":["Dinheiro"],"otherServices":null,"observations":"Sistema de"}},{"type":"Feature","geometry":{"type":"Point","coordinates":[-7.888328,39.050747]},"properties":{"id":"pt-93516","source":"PT","name":"PETRIN Avis","brand":"Genérico","address":"Bairro 1º Maio Nº 2","municipality":"Avis","district":"Portalegre","postalCode":"7480-110","fuels":{"gasoline95":1.994,"gasoline98":2.114,"diesel":2.094,"dieselPremium":2.144},"lastUpdated":"2026-08-03 11:05","extra":{"stationType":"Outro"},"services":["WC"],"hours":{"weekdays":"00:00-23:30","saturday":"00:00-00:00","sunday":"00:00-00:00","holiday":"00:00-00:00"},"paymentMethods":["Dinheiro","MbWay","Multibanco"],"otherServices":null,"observations":null}},{"type":"Feature","geometry":{"type":"Point","coordinates":[-7.594734,39.136063]},"properties":{"id":"pt-93654","source":"PT","name":"GALP Cabeço de Vide (VMF)","brand":"VMF Energia","address":"EN 369 Tapada do Telheiros - Cabeço de Vide","municipality":"Fronteira","district":"Portalegre","postalCode":"7460-001","fuels":{"gasoline95":1.99,"diesel":2.088,"dieselPremium":2.118,"dieselAgri":1.655},"lastUpdated":"2026-08-03 09:25","extra":{"stationType":"Outro"},"services":["Multibanco","Venda de gasóleo agrícola"],"hours":{"weekdays":"06:00-20:00","saturday":"06:00-20:00","sunday":"06:00-20:00","holiday":"06:00-20:00"},"paymentMethods":["Dinheiro","Multibanco","Outros"],"otherServices":null,"observations":null}},{"type":"Feature","geometry":{"type":"Point","coordinates":[-7.811782,39.042233]},"properties":{"id":"pt-93727","source":"PT","name":"Cooperativa Agricola de Ervedal e Figueira e Barros CRL","brand":"REPSOL","address":"Ferragial dos Enxertos","municipality":"Avis","district":"Portalegre","postalCode":"7480-284","fuels":{"dieselPremium":2.204,"dieselAgri":1.784},"lastUpdated":"2026-08-04 08:00","extra":{"stationType":"Outro"},"services":["Calibragem de pneus"],"hours":{"weekdays":"08:00-18:00","saturday":"Fechado","sunday":"Fechado","holiday":"Fechado"},"paymentMethods":["Dinheiro"],"otherServices":null,"observations":null}},{"type":"Feature","geometry":{"type":"Point","coordinates":[-8.174036,39.082455]},"properties":{"id":"pt-93751","source":"PT","name":"PA CAPSOR Montargil","brand":"Genérico","address":"RUA HEROIS DO ULTRAMAR","municipality":"Ponte de Sor","district":"Portalegre","postalCode":"7425-125","fuels":{"gasoline95":2.099,"diesel":2.189,"dieselPremium":2.259,"dieselAgri":1.784},"lastUpdated":"2026-08-03 00:00","extra":{"stationType":"Outro"},"services":["Calibragem de pneus"],"hours":{"weekdays":"07:00-22:00","saturday":"07:00-22:00","sunday":"07:00-22:00","holiday":"07:00-22:00"},"paymentMethods":["Dinheiro"],"otherServices":null,"observations":null}},{"type":"Feature","geometry":{"type":"Point","coordinates":[-8.008852,39.25771]},"properties":{"id":"pt-93752","source":"PT","name":"REPSOL Ponte de Sôr","brand":"REPSOL","address":"Rua Alexandre Robalo Cardoso","municipality":"Ponte de Sor","district":"Portalegre","postalCode":"7400-212","fuels":{"gasoline95":2.064,"diesel":2.159,"dieselPremium":2.229,"dieselAgri":1.724},"lastUpdated":"2026-08-03 00:00","extra":{"stationType":"Outro"},"services":["Calibragem de pneus"],"hours":null,"paymentMethods":["Dinheiro"],"otherServices":null,"observations":null}},{"type":"Feature","geometry":{"type":"Point","coordinates":[-8.236568,39.181602]},"properties":{"id":"pt-93811","source":"PT","name":"PA  Foros de Arrão","brand":"Genérico","address":"AV. DA LIBERDADE Nº 66","municipality":"Ponte de Sor","district":"Portalegre","postalCode":"7425-201","fuels":{"gasoline95":2.079,"diesel":2.164},"lastUpdated":"2026-08-03 09:45","extra":{"stationType":"Outro"},"services":["Calibragem de pneus"],"hours":{"weekdays":"08:00-20:00","saturday":"08:00-19:00","sunday":"Fechado","holiday":"Fechado"},"paymentMethods":["Dinheiro"],"otherServices":null,"observations":null}},{"type":"Feature","geometry":{"type":"Point","coordinates":[-7.3051,39.2269]},"properties":{"id":"pt-93823","source":"PT","name":"A. Ricardo & Esposa, Lda","brand":"GALP","address":"Estrada de Arroches, 8","municipality":"Portalegre","district":"Portalegre","postalCode":"7300-335","fuels":{"gasoline95":2.06,"diesel":2.148,"dieselAgri":1.725},"lastUpdated":"2026-08-03 09:25","extra":{"stationType":"Outro"},"services":["Calibragem de pneus"],"hours":{"weekdays":"06:00-20:00","saturday":"06:00-20:00","sunday":"06:00-20:00","holiday":null},"paymentMethods":["Dinheiro"],"otherServices":null,"observations":null}},{"type":"Feature","geometry":{"type":"Point","coordinates":[-7.437906,39.270695]},"properties":{"id":"pt-93830","source":"PT","name":"PA COOPOR Portalegre","brand":"Genérico","address":"Sítio do Joenal","municipality":"Portalegre","district":"Portalegre","postalCode":"7300-526","fuels":{"diesel":2.164,"dieselAgri":1.739},"lastUpdated":"2026-08-04 09:55","extra":{"stationType":"Outro"},"services":["Calibragem de pneus"],"hours":{"weekdays":"08:00-17:30","saturday":"Fechado","sunday":"Fechado","holiday":"Fechado"},"paymentMethods":["Dinheiro"],"otherServices":null,"observations":null}},{"type":"Feature","geometry":{"type":"Point","coordinates":[-7.651104,39.062]},"properties":{"id":"pt-94256","source":"PT","name":"REPSOL- FRONTEIRA","brand":"REPSOL","address":"Lot. Municipal Sr. dos Martires, Lote 9","municipality":"Fronteira","district":"Portalegre","postalCode":"7460-105","fuels":{"gasoline95":2.019,"diesel":2.109,"dieselPremium":2.179,"dieselAgri":1.724},"lastUpdated":"2026-08-03 17:20","extra":{"stationType":"Outro"},"services":["Calibragem de pneus"],"hours":null,"paymentMethods":["Dinheiro"],"otherServices":null,"observations":null}},{"type":"Feature","geometry":{"type":"Point","coordinates":[-7.071436,39.01591]},"properties":{"id":"pt-94304","source":"PT","name":"GALP Campo Maior (VMF)","brand":"GALP","address":"Av. Humberto Delgado, S/n ","municipality":"Campo Maior","district":"Portalegre","postalCode":"7370-106","fuels":{"gasoline95":2.049,"gasoline95Plus":2.099,"diesel":2.144,"dieselPremium":2.194,"dieselAgri":1.724},"lastUpdated":"2026-08-03 09:25","extra":{"stationType":"Outro"},"services":["Cafetaria","Loja de Conveniência","Multibanco","WC"],"hours":null,"paymentMethods":["Dinheiro"],"otherServices":null,"observations":null}},{"type":"Feature","geometry":{"type":"Point","coordinates":[-7.254711,39.012794]},"properties":{"id":"pt-94464","source":"PT","name":"P57 - PRIO Santa Eulália","brand":"PRIO","address":"Lugar das Terras da Aldeia, EN 246 Santa Eulália","municipality":"Elvas","district":"Portalegre","postalCode":"7350-451","fuels":{"gasoline95":1.979,"dieselPremium":2.074,"dieselAgri":1.634,"bioDiesel":2.044},"lastUpdated":"2026-08-05 01:10","extra":{"stationType":"Outro"},"services":["Calibragem de pneus"],"hours":{"weekdays":"07:00-22:00","saturday":"07:00-22:00","sunday":"07:00-22:00","holiday":"07:00-22:00"},"paymentMethods":["Dinheiro","MbWay","Multibanco","Outros"],"otherServices":null,"observations":null}}]}