{"type":"FeatureCollection","features":[{"type":"Feature","geometry":{"type":"Point","coordinates":[-6.902959,40.72078]},"properties":{"id":"pt-65074","source":"PT","name":"Gomes & Filho, Lda","brand":"GALP","address":"EN 332","municipality":"Almeida","district":"Guarda","postalCode":"6350-210","fuels":{"gasoline95":2.009,"gasoline95Plus":2.059,"diesel":2.103,"dieselPremium":2.153,"dieselAgri":1.714},"lastUpdated":"2026-08-18 11:00","extra":{"stationType":"Outro"},"services":[],"hours":{"weekdays":"07:00-23:00","saturday":"07:00-23:00","sunday":"07:00-23:00","holiday":"07:00-23:00"},"paymentMethods":["Dinheiro"],"otherServices":null,"observations":null}},{"type":"Feature","geometry":{"type":"Point","coordinates":[-7.069751,40.770725]},"properties":{"id":"pt-65099","source":"PT","name":"Distripinhel - Supermercados, Lda","brand":"INTERMARCHÉ","address":"Rua Carlos Seixas","municipality":"Pinhel","district":"Guarda","postalCode":"6400-323","fuels":{"gasoline95":1.999,"gasoline98":2.149,"diesel":2.069,"dieselPremium":2.099},"lastUpdated":"2026-08-17 08:10","extra":{"stationType":"Outro"},"services":["Multibanco"],"hours":{"weekdays":"08:00-19:30","saturday":"08:00-19:30","sunday":"08:00-19:30","holiday":"08:00-19:30"},"paymentMethods":["Dinheiro","Multibanco"],"otherServices":null,"observations":null}},{"type":"Feature","geometry":{"type":"Point","coordinates":[-7.387381,40.643467]},"properties":{"id":"pt-65144","source":"PT","name":"INTERMARCHÉ - Distribeira - Supermercados, Lda","brand":"INTERMARCHÉ","address":"RUA DOM JOÃO DE OLIVEIRA MATOS N.º 45 E 47","municipality":"Celorico da Beira","district":"Guarda","postalCode":"6360-344","fuels":{"gasoline95":1.899,"diesel":1.989,"dieselPremium":2.039},"lastUpdated":"2026-08-17 09:00","extra":{"stationType":"Outro"},"services":["Cafetaria","Lavagem","Loja de Conveniência","Multibanco","Venda de gás doméstico em garrafas","Venda de gasóleo para aquecimento","WC","WC para deficientes"],"hours":{"weekdays":"08:00-20:00","saturday":"08:00-20:00","sunday":"08:00-19:30","holiday":"08:00-19:30"},"paymentMethods":["Dinheiro","Multibanco"],"otherServices":"Take Away\r\n","observations":null}},{"type":"Feature","geometry":{"type":"Point","coordinates":[-7.39472,40.6342]},"properties":{"id":"pt-65229","source":"PT","name":"CEPSA","brand":"CEPSA","address":"Rua Sacadura Cabral ","municipality":"Celorico da Beira","district":"Guarda","postalCode":"6360-331","fuels":{"gasoline95":1.988,"diesel":2.079,"dieselPremium":2.129},"lastUpdated":"2026-08-16 10:05","extra":{"stationType":"Outro"},"services":["Assistência auto","Cafetaria","Multibanco","Restaurante","Venda de gás doméstico em garrafas","WC"],"hours":{"weekdays":"07:00-22:00","saturday":"07:00-22:00","sunday":"07:00-22:00","holiday":"07:00-22:00"},"paymentMethods":["Dinheiro"],"otherServices":null,"observations":null}},{"type":"Feature","geometry":{"type":"Point","coordinates":[-7.356882,40.629696]},"properties":{"id":"pt-65230","source":"PT","name":"GALP A25 A.S. Celorico da Beira (11766)","brand":"GALP","address":"A25 ao km 145,900 ","municipality":"Celorico da Beira","district":"Guarda","postalCode":"6360-000","fuels":{"gasoline95":2.039,"gasoline95Plus":2.099,"diesel":2.134,"dieselPremium":2.194},"lastUpdated":"2026-08-19 04:25","extra":{"stationType":"Auto-estrada"},"services":["Cafetaria","Loja de Conveniência","Multibanco","Venda de gás doméstico em garrafas","WC","WC com fraldário","WC para deficientes"],"hours":{"weekdays":"Aberto 24 horas","saturday":"Aberto 24 horas","sunday":"Aberto 24 horas","holiday":"Aberto 24 horas"},"paymentMethods":["Dinheiro","MbWay","Multibanco","Outros"],"otherServices":null,"observations":null}},{"type":"Feature","geometry":{"type":"Point","coordinates":[-7.357648,40.630157]},"properties":{"id":"pt-65231","source":"PT","name":"GALP A25 A.S. Celorico da Beira (11765)","brand":"GALP","address":"I. P. 5  Km 141","municipality":"Celorico da Beira","district":"Guarda","postalCode":"6360-140","fuels":{"gasoline95":2.039,"gasoline95Plus":2.099,"diesel":2.134,"dieselPremium":2.194},"lastUpdated":"2026-08-19 04:25","extra":{"stationType":"Auto-estrada"},"services":["Cafetaria","Descanso de pesados","Loja de Conveniência","Multibanco","WC","WC com fraldário","WC para deficientes"],"hours":{"weekdays":"Aberto 24 horas","saturday":"Aberto 24 horas","sunday":"Aberto 24 horas","holiday":"Aberto 24 horas"},"paymentMethods":["Dinheiro","MbWay","Multibanco","Outros"],"otherServices":null,"observations":null}},{"type":"Feature","geometry":{"type":"Point","coordinates":[-6.959868,40.861576]},"properties":{"id":"pt-65293","source":"PT","name":"Amadeu Marques Fortunato","brand":"BP","address":"EN 332 -  KM 31,8","municipality":"Figueira de Castelo Rodrigo","district":"Guarda","postalCode":"6440-031","fuels":{"gasoline95":1.974,"gasoline95Plus":2.009,"diesel":2.079,"dieselPremium":2.089,"dieselAgri":1.644},"lastUpdated":"2026-08-19 00:00","extra":{"stationType":"Outro"},"services":["Cafetaria","Descanso de pesados","Lavagem","Venda de gasóleo agrícola","WC para deficientes"],"hours":{"weekdays":"07:00-00:00","saturday":"07:00-00:00","sunday":"07:00-00:00","holiday":"07:00-00:00"},"paymentMethods":["Dinheiro","Multibanco"],"otherServices":"ADblue preço venda Litro em 04/12 : 1.20€","observations":null}},{"type":"Feature","geometry":{"type":"Point","coordinates":[-7.602992,40.497442]},"properties":{"id":"pt-65311","source":"PT","name":"Gouveia Auto, Lda.","brand":"GALP","address":"EN 232 - Km 23,500","municipality":"Gouveia","district":"Guarda","postalCode":"6290-000","fuels":{"gasoline95":2.039,"gasoline95Plus":2.089,"diesel":2.133,"dieselPremium":2.183,"dieselAgri":1.714},"lastUpdated":"2026-08-18 11:00","extra":{"stationType":"Outro"},"services":[],"hours":{"weekdays":"07:00-23:00","saturday":"07:00-23:00","sunday":"07:00-23:00","holiday":"07:00-23:00"},"paymentMethods":["Dinheiro"],"otherServices":null,"observations":null}},{"type":"Feature","geometry":{"type":"Point","coordinates":[-7.23716,40.55691]},"properties":{"id":"pt-65315","source":"PT","name":"Lim Mecano Injectora Lda. ( 1)","brand":"GALP","address":"E.N.16 - Km 182,553","municipality":"Guarda","district":"Guarda","postalCode":"6300-000","fuels":{"gasoline95":2.009,"gasoline95Plus":2.059,"diesel":2.103,"dieselPremium":2.153},"lastUpdated":"2026-08-18 11:00","extra":{"stationType":"Outro"},"services":[],"hours":{"weekdays":"07:00-23:00","saturday":"07:00-23:00","sunday":"07:00-23:00","holiday":"07:00-23:00"},"paymentMethods":["Dinheiro"],"otherServices":null,"observations":null}},{"type":"Feature","geometry":{"type":"Point","coordinates":[-7.27603,40.52802]},"properties":{"id":"pt-65316","source":"PT","name":"Lim Mecano Injectora Lda. (2)","brand":"GALP","address":"Av. Rainha D´Amélia","municipality":"Guarda","district":"Guarda","postalCode":"6300-000","fuels":{"gasoline95":2.009,"gasoline95Plus":2.059,"gasoline98Plus":2.219,"diesel":2.103,"dieselPremium":2.153},"lastUpdated":"2026-08-18 11:00","extra":{"stationType":"Outro"},"services":[],"hours":{"weekdays":"07:00-00:00","saturday":"07:00-00:00","sunday":"07:00-00:00","holiday":"07:00-00:00"},"paymentMethods":["Dinheiro"],"otherServices":null,"observations":null}},{"type":"Feature","geometry":{"type":"Point","coordinates":[-7.258435,40.543137]},"properties":{"id":"pt-65318","source":"PT","name":"CONGAL - Combustíveis da Guarda Lda","brand":"GALP","address":"Av. Cidade de Bejar","municipality":"Guarda","district":"Guarda","postalCode":"6300-541","fuels":{"gasoline95":2.009,"gasoline95Plus":2.059,"gasoline98Plus":2.219,"diesel":2.103,"dieselPremium":2.153},"lastUpdated":"2026-08-18 11:00","extra":{"stationType":"Outro"},"services":["Cafetaria","Lavagem","Loja de Conveniência","Multibanco","Venda de carburante de qualidade superior","Venda de gás doméstico em garrafas","WC"],"hours":{"weekdays":"Aberto 24 horas","saturday":"Aberto 24 horas","sunday":"Aberto 24 horas","holiday":"Aberto 24 horas"},"paymentMethods":["Dinheiro"],"otherServices":null,"observations":null}},{"type":"Feature","geometry":{"type":"Point","coordinates":[-7.216512,40.54398]},"properties":{"id":"pt-65319","source":"PT","name":"GALP A.S. A23 Guarda (N/S)","brand":"GALP","address":"A23 - Km 213,3","municipality":"Guarda","district":"Guarda","postalCode":"6300-035","fuels":{"gasoline95":2.094,"gasoline95Plus":2.154,"gasoline98Plus":2.304,"diesel":2.179,"dieselPremium":2.239,"lpg":0.999},"lastUpdated":"2026-08-19 04:05","extra":{"stationType":"Auto-estrada"},"services":["Cafetaria","Loja de Conveniência","Multibanco","Restaurante","Via verde","WC","WC com fraldário","WC para deficientes"],"hours":{"weekdays":"Aberto 24 horas","saturday":"Aberto 24 horas","sunday":"Aberto 24 horas","holiday":"Aberto 24 horas"},"paymentMethods":["Dinheiro","MbWay","Multibanco","Outros"],"otherServices":null,"observations":null}},{"type":"Feature","geometry":{"type":"Point","coordinates":[-7.215042,40.543446]},"properties":{"id":"pt-65320","source":"PT","name":"GALP A.S. A23 Guarda (S/N)","brand":"GALP","address":"A23 - Km 213,3 (S/N)","municipality":"Guarda","district":"Guarda","postalCode":"6300-000","fuels":{"gasoline95":2.094,"gasoline95Plus":2.154,"gasoline98Plus":2.304,"diesel":2.179,"dieselPremium":2.239,"lpg":0.999},"lastUpdated":"2026-08-19 04:10","extra":{"stationType":"Auto-estrada"},"services":["Cafetaria","Descanso de pesados","Loja de Conveniência","Multibanco","Restaurante","Venda de carburante de qualidade superior","Via verde","WC","WC com fraldário","WC para deficientes"],"hours":{"weekdays":"Aberto 24 horas","saturday":"Aberto 24 horas","sunday":"Aberto 24 horas","holiday":"Aberto 24 horas"},"paymentMethods":["Dinheiro","MbWay","Multibanco","Outros"],"otherServices":null,"observations":null}},{"type":"Feature","geometry":{"type":"Point","coordinates":[-7.53731,40.40255]},"properties":{"id":"pt-65410","source":"PT","name":"PASV LDA Centro","brand":"ALVES BANDEIRA","address":"Lugar de Valazedo","municipality":"Manteigas","district":"Guarda","postalCode":"6260-000","fuels":{"gasoline95":2.069,"gasoline95Plus":2.084,"diesel":2.154,"dieselPremium":2.174},"lastUpdated":"2026-08-17 13:00","extra":{"stationType":"Outro"},"services":["Multibanco","Venda de gás doméstico em garrafas","Venda de gasóleo agrícola"],"hours":{"weekdays":"07:00-22:00","saturday":"07:00-22:00","sunday":"Fechado","holiday":"07:00-23:00"},"paymentMethods":["Dinheiro","MbWay","Multibanco","Outros"],"otherServices":null,"observations":null}},{"type":"Feature","geometry":{"type":"Point","coordinates":[-7.261278,40.965172]},"properties":{"id":"pt-65433","source":"PT","name":"Auto Medense, Unipessoal, Lda","brand":"GALP","address":"Av. Gago Coutinho nº 1910","municipality":"Meda","district":"Guarda","postalCode":"6430-000","fuels":{"gasoline95":2.039,"gasoline95Plus":2.089,"diesel":2.133,"dieselPremium":2.183,"dieselAgri":1.714},"lastUpdated":"2026-08-18 11:00","extra":{"stationType":"Outro"},"services":["Calibragem de pneus","Multibanco","Venda de carburante de qualidade superior","Venda de gás doméstico em garrafas","Venda de gasóleo agrícola","WC"],"hours":{"weekdays":"07:00-22:00","saturday":"07:00-22:00","sunday":"07:00-22:00","holiday":"07:00-22:00"},"paymentMethods":["Dinheiro"],"otherServices":null,"observations":null}},{"type":"Feature","geometry":{"type":"Point","coordinates":[-7.06715,40.77348]},"properties":{"id":"pt-65545","source":"PT","name":"Baraças, Irmãos Unidos & Aguiar, Lda(2)","brand":"GALP","address":"Av. Frederico Ulrich nº 14","municipality":"Pinhel","district":"Guarda","postalCode":"6400-000","fuels":{"gasoline95":2.039,"gasoline95Plus":2.089,"gasoline98Plus":2.249,"diesel":2.133,"dieselPremium":2.183},"lastUpdated":"2026-08-18 11:00","extra":{"stationType":"Outro"},"services":[],"hours":{"weekdays":"08:00-21:00","saturday":"08:00-21:00","sunday":"08:00-21:00","holiday":"08:00-21:00"},"paymentMethods":["Dinheiro"],"otherServices":null,"observations":null}},{"type":"Feature","geometry":{"type":"Point","coordinates":[-7.09525,40.35306]},"properties":{"id":"pt-65589","source":"PT","name":"António Man & David Alexandre","brand":"GALP","address":"Rua António José de Almeida","municipality":"Sabugal","district":"Guarda","postalCode":"6320-000","fuels":{"gasoline95":2.009,"gasoline95Plus":2.059,"diesel":2.103,"dieselPremium":2.153,"dieselAgri":1.664},"lastUpdated":"2026-08-18 11:00","extra":{"stationType":"Outro"},"services":[],"hours":{"weekdays":"07:00-00:00","saturday":"07:00-00:00","sunday":"07:00-00:00","holiday":"07:00-00:00"},"paymentMethods":["Dinheiro"],"otherServices":null,"observations":null}},{"type":"Feature","geometry":{"type":"Point","coordinates":[-7.718612,40.431287]},"properties":{"id":"pt-65620","source":"PT","name":"CHAVES E IRMAO LDA","brand":"GALP","address":"EN 17(Ponte S.Tiago) Km 94,4","municipality":"Seia","district":"Guarda","postalCode":"6270-000","fuels":{"gasoline95":2.059,"gasoline95Plus":2.119,"diesel":2.155,"dieselPremium":2.215,"dieselAgri":1.714},"lastUpdated":"2026-08-18 11:00","extra":{"stationType":"Outro"},"services":[],"hours":{"weekdays":"07:00-23:00","saturday":"07:00-23:00","sunday":"07:00-23:00","holiday":"07:00-23:00"},"paymentMethods":["Dinheiro"],"otherServices":null,"observations":null}},{"type":"Feature","geometry":{"type":"Point","coordinates":[-7.351524,40.775922]},"properties":{"id":"pt-65693","source":"PT","name":"BARM, Comercio e Combustiveis, Lda","brand":"GALP","address":"Largo da Feira","municipality":"Trancoso","district":"Guarda","postalCode":"6420-000","fuels":{"gasoline95":2.059,"gasoline98Plus":2.269,"diesel":2.155,"dieselPremium":2.205,"dieselAgri":1.714},"lastUpdated":"2026-08-18 11:00","extra":{"stationType":"Outro"},"services":[],"hours":{"weekdays":"07:00-23:00","saturday":"07:00-23:00","sunday":"07:00-23:00","holiday":"07:00-23:00"},"paymentMethods":["Dinheiro"],"otherServices":null,"observations":null}},{"type":"Feature","geometry":{"type":"Point","coordinates":[-7.14399,41.08073]},"properties":{"id":"pt-65743","source":"PT","name":"Comb. Foz Côa - Posto Abast. Lda.","brand":"GALP","address":"EN 102 Km 77,134","municipality":"Vila Nova de Foz Côa","district":"Guarda","postalCode":"5150-000","fuels":{"gasoline95":2.039,"gasoline95Plus":2.089,"gasoline98Plus":2.249,"diesel":2.133,"dieselPremium":2.183,"dieselAgri":1.714},"lastUpdated":"2026-08-18 11:00","extra":{"stationType":"Outro"},"services":[],"hours":{"weekdays":"07:00-22:00","saturday":"07:00-22:00","sunday":"07:00-22:00","holiday":"07:00-22:00"},"paymentMethods":["Dinheiro"],"otherServices":null,"observations":null}},{"type":"Feature","geometry":{"type":"Point","coordinates":[-7.55363,40.80827]},"properties":{"id":"pt-65791","source":"PT","name":"Café - Restaurante Primavera, Lda","brand":"GALP","address":"EN 229","municipality":"Aguiar da Beira","district":"Guarda","postalCode":"3570-025","fuels":{"gasoline95":2.039,"gasoline95Plus":2.094,"diesel":2.143,"dieselPremium":2.198,"dieselAgri":1.714},"lastUpdated":"2026-08-18 12:15","extra":{"stationType":"Outro"},"services":["Cafetaria","Lavagem","Loja de Conveniência","Multibanco","Venda de gás doméstico em garrafas","Venda de gasóleo agrícola","Venda de gasóleo para aquecimento"],"hours":{"weekdays":"07:00-22:00","saturday":"07:00-22:00","sunday":"07:00-22:00","holiday":"07:00-22:00"},"paymentMethods":["Dinheiro"],"otherServices":null,"observations":"Venda de bilhetes de autocarro para o estrangeiro(FRANÇA,ESPANHA, LUXEMBURGO)"}},{"type":"Feature","geometry":{"type":"Point","coordinates":[-6.952075,40.605444]},"properties":{"id":"pt-65932","source":"PT","name":"BP Vilar Formoso (Norte)","brand":"BP","address":"A 25","municipality":"Almeida","district":"Guarda","postalCode":"6355-051","fuels":{"gasoline95":2.084,"gasoline98Plus":2.284,"diesel":2.184,"dieselPremium":2.299},"lastUpdated":"2026-08-18 10:30","extra":{"stationType":"Auto-estrada"},"services":[],"hours":{"weekdays":"Aberto 24 horas","saturday":"Aberto 24 horas","sunday":"Aberto 24 horas","holiday":"Aberto 24 horas"},"paymentMethods":["Dinheiro"],"otherServices":null,"observations":null}},{"type":"Feature","geometry":{"type":"Point","coordinates":[-6.952999,40.603516]},"properties":{"id":"pt-65933","source":"PT","name":"Bp Vilar Formoso (Sul )","brand":"BP","address":"A 25","municipality":"Almeida","district":"Guarda","postalCode":"6355-051","fuels":{"gasoline95":2.084,"gasoline98Plus":2.284,"diesel":2.184,"dieselPremium":2.299},"lastUpdated":"2026-08-18 10:30","extra":{"stationType":"Auto-estrada"},"services":["Cafetaria","Loja de Conveniência","Multibanco","WC com fraldário","WC para deficientes"],"hours":{"weekdays":"Aberto 24 horas","saturday":"Aberto 24 horas","sunday":"Aberto 24 horas","holiday":"Aberto 24 horas"},"paymentMethods":["Dinheiro"],"otherServices":null,"observations":null}},{"type":"Feature","geometry":{"type":"Point","coordinates":[-6.96355,40.88928]},"properties":{"id":"pt-66160","source":"PT","name":"Tuacar - Posto Figueira Castelo Rodrigo","brand":"TUACAR","address":"Av. 25 de Abril, 135","municipality":"Figueira de Castelo Rodrigo","district":"Guarda","postalCode":"6440-111","fuels":{"gasoline95":1.979,"gasoline95Plus":1.999,"diesel":2.084,"dieselPremium":2.109,"dieselAgri":1.654},"lastUpdated":"2026-08-18 08:00","extra":{"stationType":"Outro"},"services":["Calibragem de pneus"],"hours":null,"paymentMethods":["Dinheiro"],"otherServices":null,"observations":null}},{"type":"Feature","geometry":{"type":"Point","coordinates":[-7.264571,40.725426]},"properties":{"id":"pt-66397","source":"PT","name":"Tavares & Filhos, Lda","brand":"CEPSA","address":"EN 226","municipality":"Trancoso","district":"Guarda","postalCode":"6420-721","fuels":{"gasoline95":1.998,"gasoline98Plus":1.983,"diesel":2.099,"dieselPremium":2.149,"dieselAgri":1.644},"lastUpdated":"2026-08-17 00:00","extra":{"stationType":"Outro"},"services":["Multibanco","WC"],"hours":{"weekdays":"07:00-22:00","saturday":"07:00-22:00","sunday":"07:00-22:00","holiday":"07:00-22:00"},"paymentMethods":["Dinheiro","Multibanco"],"otherServices":null,"observations":null}},{"type":"Feature","geometry":{"type":"Point","coordinates":[-7.38352,40.65137]},"properties":{"id":"pt-66561","source":"PT","name":"E.S. CELORICO DA BEIRA 2","brand":"REPSOL","address":"EN 102  s/n Lugar dos Cabeços","municipality":"Celorico da Beira","district":"Guarda","postalCode":"6360-375","fuels":{"gasoline95":2.019,"gasoline98Plus":2.219,"diesel":2.114,"dieselPremium":2.184,"dieselAgri":1.714},"lastUpdated":"2026-08-18 00:00","extra":{"stationType":"Outro"},"services":["Cafetaria","Descanso de pesados","Venda de carburante de qualidade superior","Venda de gás doméstico em garrafas","Venda de gasóleo agrícola","WC"],"hours":{"weekdays":"05:00-00:00","saturday":"05:00-00:00","sunday":"05:00-00:00","holiday":"05:00-00:00"},"paymentMethods":["Dinheiro"],"otherServices":null,"observations":null}},{"type":"Feature","geometry":{"type":"Point","coordinates":[-7.27605,40.53936]},"properties":{"id":"pt-66562","source":"PT","name":"E.S. GUARDA-DORNA","brand":"REPSOL","address":"Av. Sá Carneiro","municipality":"Guarda","district":"Guarda","postalCode":"6301-000","fuels":{"gasoline95":2.009,"gasoline95Plus":2.069,"gasoline98Plus":2.199,"diesel":2.104,"dieselPremium":2.164},"lastUpdated":"2026-08-18 10:15","extra":{"stationType":"Outro"},"services":["Venda de carburante de qualidade superior","Venda de gás doméstico em garrafas","WC"],"hours":{"weekdays":"08:30-18:30","saturday":"07:00-23:00","sunday":"07:00-23:00","holiday":"07:00-23:00"},"paymentMethods":["Dinheiro"],"otherServices":null,"observations":null}},{"type":"Feature","geometry":{"type":"Point","coordinates":[-7.352,40.7766]},"properties":{"id":"pt-66565","source":"PT","name":"E.S. TRANCOSO","brand":"REPSOL","address":"Rua Dr. Castro Lopes, nº 1","municipality":"Trancoso","district":"Guarda","postalCode":"6420-039","fuels":{"gasoline95":2.059,"gasoline98Plus":2.259,"diesel":2.154,"dieselPremium":2.224,"dieselAgri":1.774},"lastUpdated":"2026-08-18 14:20","extra":{"stationType":"Outro"},"services":["Venda de carburante de qualidade superior","Venda de gás doméstico em garrafas","Venda de gasóleo agrícola","WC"],"hours":{"weekdays":"06:00-00:00","saturday":"06:00-00:00","sunday":"07:00-00:00","holiday":"07:00-00:00"},"paymentMethods":["Dinheiro"],"otherServices":null,"observations":null}},{"type":"Feature","geometry":{"type":"Point","coordinates":[-7.243283,40.551327]},"properties":{"id":"pt-66566","source":"PT","name":"E.S. GUARDA-GARE","brand":"REPSOL","address":"Av. da Estação","municipality":"Guarda","district":"Guarda","postalCode":"6300-000","fuels":{"gasoline95":2.009,"gasoline98Plus":2.199,"diesel":2.104,"dieselPremium":2.164,"dieselAgri":1.724},"lastUpdated":"2026-08-18 00:00","extra":{"stationType":"Outro"},"services":["Venda de carburante de qualidade superior","Venda de gás doméstico em garrafas","Venda de gasóleo agrícola"],"hours":{"weekdays":"07:30-20:30","saturday":"07:30-20:30","sunday":"07:30-20:30","holiday":"07:30-20:30"},"paymentMethods":["Dinheiro"],"otherServices":null,"observations":null}},{"type":"Feature","geometry":{"type":"Point","coordinates":[-7.50846,40.85363]},"properties":{"id":"pt-66567","source":"PT","name":"POSTO AGUIAR DA BEIRA","brand":"Genérico","address":"Quinta de Stº Estevão","municipality":"Aguiar da Beira","district":"Guarda","postalCode":"3570-191","fuels":{"gasoline95":2.073,"gasoline98":2.311,"diesel":2.121,"dieselPremium":2.161,"dieselAgri":1.703,"lpg":0.999},"lastUpdated":"2026-08-17 15:15","extra":{"stationType":"Outro"},"services":["Cafetaria","Lavagem","Venda de carburante de qualidade superior","Venda de gás doméstico em garrafas","Venda de gasóleo agrícola","WC"],"hours":{"weekdays":"07:00-23:00","saturday":"07:00-23:00","sunday":"07:00-23:00","holiday":"07:00-23:00"},"paymentMethods":["Dinheiro"],"otherServices":null,"observations":null}},{"type":"Feature","geometry":{"type":"Point","coordinates":[-7.2607,40.54162]},"properties":{"id":"pt-66569","source":"PT","name":"E.S. GUARDA - MILEU","brand":"REPSOL","address":"Av. Cidade de Bejar","municipality":"Guarda","district":"Guarda","postalCode":"6300-373","fuels":{"gasoline95":2.009,"gasoline95Plus":2.069,"gasoline98Plus":2.199,"diesel":2.104,"dieselPremium":2.164,"dieselAgri":1.724,"lpg":0.974},"lastUpdated":"2026-08-18 10:15","extra":{"stationType":"Outro"},"services":["Lavagem","Venda de carburante de qualidade superior","Venda de gás doméstico em garrafas","Venda de gasóleo agrícola","WC"],"hours":{"weekdays":"07:00-22:00","saturday":"07:00-22:00","sunday":"07:00-22:00","holiday":"07:00-22:00"},"paymentMethods":["Dinheiro"],"otherServices":null,"observations":null}},{"type":"Feature","geometry":{"type":"Point","coordinates":[-7.714758,40.426766]},"properties":{"id":"pt-66868","source":"PT","name":"ALVES BANDEIRA Seia","brand":"ALVES BANDEIRA","address":"Avenida Terras de Sena,Quintela - Zona Industrial Bairro Santa Cruz","municipality":"Seia","district":"Guarda","postalCode":"6270-485","fuels":{"gasoline95":2.009,"gasoline98":2.159,"diesel":2.094,"dieselPremium":2.114},"lastUpdated":"2026-08-17 13:45","extra":{"stationType":"Outro"},"services":["Cafetaria","Loja de Conveniência","Venda de gás doméstico em garrafas","WC","WC para deficientes"],"hours":{"weekdays":"07:00-22:00","saturday":"07:00-22:00","sunday":"07:00-22:00","holiday":"07:00-22:00"},"paymentMethods":["Dinheiro","MbWay","Multibanco","Outros"],"otherServices":null,"observations":null}},{"type":"Feature","geometry":{"type":"Point","coordinates":[-7.592288,40.787804]},"properties":{"id":"pt-66904","source":"PT","name":"BP Aguiar da Beira","brand":"BP","address":"EN 229, km 55,100 - Quinta Lameiras","municipality":"Aguiar da Beira","district":"Guarda","postalCode":"3570-180","fuels":{"gasoline95":2.084,"gasoline98Plus":2.284,"gasolineMix":2.8,"diesel":2.189,"dieselPremium":2.299,"dieselAgri":1.734},"lastUpdated":"2026-08-17 00:00","extra":{"stationType":"Outro"},"services":["Cafetaria","Loja de Conveniência","Venda de gás doméstico em garrafas","Venda de gasóleo agrícola","Venda de gasóleo para aquecimento","WC"],"hours":{"weekdays":"06:00-22:00","saturday":"06:00-22:00","sunday":"06:00-22:00","holiday":"06:00-22:00"},"paymentMethods":["Dinheiro","MbWay","Multibanco"],"otherServices":null,"observations":null}},{"type":"Feature","geometry":{"type":"Point","coordinates":[-7.687251,40.487766]},"properties":{"id":"pt-66973","source":"PT","name":"PA - Vila Nova de Tazem","brand":"BP","address":"EN 502 –  Mata dos Cantoneiros","municipality":"Gouveia","district":"Guarda","postalCode":"6290-091","fuels":{"gasoline95":2.064,"gasolineMix":2.8,"diesel":2.169,"dieselPremium":2.299,"dieselAgri":1.734},"lastUpdated":"2026-08-17 08:05","extra":{"stationType":"Outro"},"services":["Loja de Conveniência","Venda de gás doméstico em garrafas","Venda de gasóleo agrícola","WC"],"hours":{"weekdays":"07:00-20:00","saturday":"07:00-20:00","sunday":"Fechado","holiday":"Fechado"},"paymentMethods":["Dinheiro","MbWay","Multibanco"],"otherServices":null,"observations":null}},{"type":"Feature","geometry":{"type":"Point","coordinates":[-7.25038,40.55904]},"properties":{"id":"pt-66998","source":"PT","name":"PD GUARDA","brand":"PINGO DOCE","address":"Bairro S. Domingos Quinta do Camalhão","municipality":"Guarda","district":"Guarda","postalCode":"6300-804","fuels":{"gasoline95":1.932,"gasoline98Plus":2.284,"diesel":1.99,"dieselPremium":2.299},"lastUpdated":"2026-08-18 00:00","extra":{"stationType":"Outro"},"services":[],"hours":{"weekdays":"07:00-21:00","saturday":"07:00-21:00","sunday":"07:00-21:00","holiday":"07:00-21:00"},"paymentMethods":["Dinheiro"],"otherServices":null,"observations":null}},{"type":"Feature","geometry":{"type":"Point","coordinates":[-7.261055,40.957695]},"properties":{"id":"pt-67237","source":"PT","name":"SUPERMEDA SUPERMERCADOS LDA","brand":"INTERMARCHÉ","address":"Lugar do Noval 3 Caminhos MEDA","municipality":"Meda","district":"Guarda","postalCode":"6430-183","fuels":{"gasoline95":1.899,"gasoline98":2.099,"diesel":1.989,"dieselPremium":2.039},"lastUpdated":"2026-08-17 09:20","extra":{"stationType":"Outro"},"services":["Calibragem de pneus"],"hours":{"weekdays":"08:00-19:30","saturday":"08:00-19:30","sunday":"08:00-19:30","holiday":"08:00-19:30"},"paymentMethods":["Dinheiro"],"otherServices":null,"observations":null}},{"type":"Feature","geometry":{"type":"Point","coordinates":[-6.84339,40.61817]},"properties":{"id":"pt-67360","source":"PT","name":"INTERMARCHE VILAR FORMOSO","brand":"INTERMARCHÉ","address":"Sitio da Represa","municipality":"Almeida","district":"Guarda","postalCode":"6355-289","fuels":{"gasoline95":1.759,"diesel":1.829},"lastUpdated":"2026-08-18 08:55","extra":{"stationType":"Área comercial (Hipermercados)"},"services":["Cafetaria","Multibanco","Restaurante","Venda de gás doméstico em garrafas"],"hours":{"weekdays":"Aberto 24 horas","saturday":"Aberto 24 horas","sunday":"Aberto 24 horas","holiday":"Aberto 24 horas"},"paymentMethods":["Dinheiro","MbWay","Multibanco"],"otherServices":null,"observations":null}},{"type":"Feature","geometry":{"type":"Point","coordinates":[-7.352374,40.763718]},"properties":{"id":"pt-67465","source":"PT","name":"Intermarché Distritrancoso, Lda","brand":"INTERMARCHÉ","address":"Lugar S. Domingos","municipality":"Trancoso","district":"Guarda","postalCode":"6420-008","fuels":{"gasoline95":1.899,"gasoline98":2.099,"diesel":1.989,"dieselPremium":2.039},"lastUpdated":"2026-08-17 09:05","extra":{"stationType":"Outro"},"services":["Multibanco","Venda de gás doméstico em garrafas","Venda de gasóleo para aquecimento"],"hours":{"weekdays":"08:00-20:00","saturday":"08:00-20:00","sunday":"08:00-20:00","holiday":"08:00-20:00"},"paymentMethods":["Dinheiro"],"otherServices":null,"observations":null}},{"type":"Feature","geometry":{"type":"Point","coordinates":[-7.60273,40.49922]},"properties":{"id":"pt-67484","source":"PT","name":"INTERMARCHÉ  DE GOUVEIA","brand":"INTERMARCHÉ","address":"Lugar dos Barreiros, São Julião - Apartado 32","municipality":"Gouveia","district":"Guarda","postalCode":"6290-909","fuels":{"gasoline95":1.899,"gasoline98":2.109,"diesel":1.984},"lastUpdated":"2026-08-18 08:00","extra":{"stationType":"Outro"},"services":["Lavagem","Multibanco","Venda de gás doméstico em garrafas"],"hours":{"weekdays":"08:00-20:30","saturday":"08:00-20:30","sunday":"08:00-20:30","holiday":"08:00-20:30"},"paymentMethods":["Dinheiro"],"otherServices":null,"observations":"Máquinas de lavagem e secagem de roupas self-service"}},{"type":"Feature","geometry":{"type":"Point","coordinates":[-6.82845,40.60849]},"properties":{"id":"pt-67500","source":"PT","name":"PRIO Vilar Formoso - Norte","brand":"PRIO","address":"Av. da Fronteira, n.º14IP 5 Km 145,9 ","municipality":"Almeida","district":"Guarda","postalCode":"6355-270","fuels":{"gasoline95":1.999,"gasoline95Plus":1.924,"dieselPremium":2.034,"bioDiesel":2.004},"lastUpdated":"2026-08-19 00:30","extra":{"stationType":"Outro"},"services":["Cafetaria","Calibragem de pneus","Loja de Conveniência","Venda de carburante de qualidade superior","Venda de gás doméstico em garrafas","WC","WC para deficientes"],"hours":{"weekdays":"07:00-23:00","saturday":"07:00-23:00","sunday":"07:00-23:00","holiday":"07:00-23:00"},"paymentMethods":["Dinheiro","MbWay","Multibanco","Outros"],"otherServices":null,"observations":null}},{"type":"Feature","geometry":{"type":"Point","coordinates":[-7.25111,40.52795]},"properties":{"id":"pt-67616","source":"PT","name":"INTERMARCHÉ DA GUARDA","brand":"INTERMARCHÉ","address":"Estrada do BarracãoBairro Senhora dos Remédios","municipality":"Guarda","district":"Guarda","postalCode":"6300-309","fuels":{"gasoline95":1.889,"gasoline98":2.059,"diesel":1.949,"dieselPremium":1.979},"lastUpdated":"2026-08-18 08:00","extra":{"stationType":"Outro"},"services":["Multibanco"],"hours":{"weekdays":"08:30-21:00","saturday":"08:30-21:00","sunday":"08:30-20:30","holiday":"08:30-20:30"},"paymentMethods":["Dinheiro","Multibanco"],"otherServices":null,"observations":null}},{"type":"Feature","geometry":{"type":"Point","coordinates":[-7.14089,41.07127]},"properties":{"id":"pt-68332","source":"PT","name":"intermarche V.N.Foz Côa","brand":"INTERMARCHÉ","address":"Zona Industrial, LOTE 53","municipality":"Vila Nova de Foz Côa","district":"Guarda","postalCode":"5150-614","fuels":{"gasoline95":1.929,"gasoline98":1.989,"diesel":1.979,"dieselPremium":2.019},"lastUpdated":"2026-08-17 10:00","extra":{"stationType":"Outro"},"services":["Multibanco"],"hours":{"weekdays":"Aberto 24 horas","saturday":"Aberto 24 horas","sunday":"Aberto 24 horas","holiday":"Aberto 24 horas"},"paymentMethods":["Dinheiro"],"otherServices":null,"observations":"LAVAGEM AUTOMATICA"}},{"type":"Feature","geometry":{"type":"Point","coordinates":[-7.21952,41.06956]},"properties":{"id":"pt-68350","source":"PT","name":"Cooperativa dos Viticultores e Olivicultores de Freixo de Numão","brand":"PETROIBÉRICA","address":"EN 324","municipality":"Vila Nova de Foz Côa","district":"Guarda","postalCode":"5155-203","fuels":{"gasoline95":2.01,"diesel":2.097,"dieselAgri":1.655},"lastUpdated":"2026-08-17 13:45","extra":{"stationType":"Outro"},"services":[],"hours":{"weekdays":"08:00-17:30","saturday":"08:00-17:30","sunday":"Fechado","holiday":"Fechado"},"paymentMethods":["Dinheiro","Multibanco"],"otherServices":null,"observations":"Vendas de Vinho e Azeite"}},{"type":"Feature","geometry":{"type":"Point","coordinates":[-7.625196,40.508835]},"properties":{"id":"pt-68677","source":"PT","name":"ALVES BANDEIRA Gouveia","brand":"ALVES BANDEIRA","address":"EN232 - ZONA INDUSTRIAL - NESPEREIRA","municipality":"Gouveia","district":"Guarda","postalCode":"6290-311","fuels":{"gasoline95":2.024,"diesel":2.109,"dieselPremium":2.129,"dieselAgri":1.684},"lastUpdated":"2026-08-17 12:30","extra":{"stationType":"Outro"},"services":["Calibragem de pneus"],"hours":{"weekdays":"07:00-22:00","saturday":"07:00-22:00","sunday":"07:00-22:00","holiday":"07:00-22:00"},"paymentMethods":["Dinheiro","MbWay","Multibanco","Outros"],"otherServices":null,"observations":null}},{"type":"Feature","geometry":{"type":"Point","coordinates":[-7.039117,40.50452]},"properties":{"id":"pt-68949","source":"PT","name":"CLGF.LDA","brand":"FREITAS","address":"EN 324 , Nº1","municipality":"Sabugal","district":"Guarda","postalCode":"6320-131","fuels":{"gasoline95":2.05,"gasoline95Plus":2.07,"diesel":2.137,"dieselPremium":2.157,"dieselHeating":2.122,"dieselAgri":1.715,"lpg":0.96},"lastUpdated":"2026-08-17 13:30","extra":{"stationType":"Outro"},"services":["Assistência auto","Cafetaria","Calibragem de pneus","Lavagem","Loja de Conveniência","Multibanco","Restaurante","Venda de gás doméstico em garrafas","Venda de gasóleo agrícola","Venda de gasóleo para aquecimento","WC"],"hours":{"weekdays":"07:00-21:00","saturday":"07:00-21:00","sunday":"07:00-21:00","holiday":"07:00-21:00"},"paymentMethods":["Dinheiro","MbWay","Multibanco","Outros"],"otherServices":null,"observations":null}},{"type":"Feature","geometry":{"type":"Point","coordinates":[-7.35522,40.76687]},"properties":{"id":"pt-69491","source":"PT","name":"BP Trancoso","brand":"BP","address":"EN 226 - Zona Industrial","municipality":"Trancoso","district":"Guarda","postalCode":"6420-044","fuels":{"gasoline95":2.054,"gasoline98Plus":2.254,"diesel":2.159,"dieselPremium":2.269,"dieselHeating":2.069,"dieselAgri":2.054},"lastUpdated":"2026-08-17 14:55","extra":{"stationType":"Outro"},"services":["Lavagem","Loja de Conveniência","Multibanco","Venda de carburante de qualidade superior","Venda de gás doméstico em garrafas","Venda de gasóleo agrícola","Venda de gasóleo para aquecimento","WC"],"hours":{"weekdays":"07:00-23:00","saturday":"07:00-23:00","sunday":"07:00-23:00","holiday":"07:00-23:00"},"paymentMethods":["Dinheiro","Multibanco"],"otherServices":null,"observations":null}},{"type":"Feature","geometry":{"type":"Point","coordinates":[-7.2082,40.47278]},"properties":{"id":"pt-69494","source":"PT","name":"SAND STAGE LDA","brand":"ALVES BANDEIRA","address":"EN 233 Km 8,5","municipality":"Guarda","district":"Guarda","postalCode":"6300-200","fuels":{"gasoline95":2.019,"gasoline98":2.169,"diesel":2.104,"dieselPremium":2.124,"dieselAgri":1.729},"lastUpdated":"2026-08-17 23:00","extra":{"stationType":"Outro"},"services":["Cafetaria","Lavagem","Loja de Conveniência","Multibanco","Venda de gás doméstico em garrafas","Venda de gasóleo agrícola","WC","WC para deficientes"],"hours":{"weekdays":"07:00-22:00","saturday":"07:00-22:00","sunday":"07:00-22:00","holiday":"07:00-22:00"},"paymentMethods":["Dinheiro"],"otherServices":null,"observations":null}},{"type":"Feature","geometry":{"type":"Point","coordinates":[-7.543583,40.394356]},"properties":{"id":"pt-69762","source":"PT","name":"PASV -  Senhora dos Verdes","brand":"ALVES BANDEIRA","address":"Senhora dos Verdes","municipality":"Manteigas","district":"Guarda","postalCode":"6260-194","fuels":{"gasoline95":2.069,"diesel":2.154,"dieselPremium":2.174,"dieselHeating":2.126},"lastUpdated":"2026-08-17 13:00","extra":{"stationType":"Outro"},"services":["Cafetaria","Multibanco","Venda de carburante de qualidade superior","Venda de gás doméstico em garrafas","Venda de gasóleo para aquecimento","WC"],"hours":null,"paymentMethods":["Dinheiro","MbWay","Multibanco","Outros"],"otherServices":null,"observations":null}},{"type":"Feature","geometry":{"type":"Point","coordinates":[-7.2559,40.96238]},"properties":{"id":"pt-69767","source":"PT","name":"PA ABEL CANADINHAS Meda","brand":"PETROIBÉRICA","address":"Bairro das Lameirinhos","municipality":"Meda","district":"Guarda","postalCode":"6430-105","fuels":{"gasoline95":2.069,"gasoline98":2.219,"gasolineMix":2.7,"diesel":2.154,"dieselPremium":2.174,"dieselHeating":1.569,"dieselAgri":1.714},"lastUpdated":"2026-08-19 00:00","extra":{"stationType":"Outro"},"services":["Calibragem de pneus"],"hours":{"weekdays":"07:00-23:00","saturday":"07:00-23:00","sunday":"07:00-23:00","holiday":"07:00-23:00"},"paymentMethods":["Dinheiro"],"otherServices":null,"observations":null}},{"type":"Feature","geometry":{"type":"Point","coordinates":[-6.96883,40.90156]},"properties":{"id":"pt-69774","source":"PT","name":"SERGIO AUGUSTO FELIX ALMEIDA","brand":"GASPE","address":"Av. Combatentes do Ultramar, lote 5","municipality":"Figueira de Castelo Rodrigo","district":"Guarda","postalCode":"6440-115","fuels":{"gasoline95":2.05,"gasoline95Plus":2.07,"diesel":2.137,"dieselPremium":2.157,"dieselAgri":1.715},"lastUpdated":"2026-08-17 09:25","extra":{"stationType":"Outro"},"services":[],"hours":{"weekdays":"07:00-22:00","saturday":"07:00-22:00","sunday":"07:00-22:00","holiday":"07:00-22:00"},"paymentMethods":["Dinheiro"],"otherServices":null,"observations":null}},{"type":"Feature","geometry":{"type":"Point","coordinates":[-7.297074,40.603477]},"properties":{"id":"pt-69934","source":"PT","name":"PORTO DA CARNE - GUARDA (ES 0925)","brand":"REPSOL","address":"EN 16 KM 160","municipality":"Guarda","district":"Guarda","postalCode":"6300-170","fuels":{"gasoline95":2.009,"diesel":2.104,"dieselPremium":2.164,"dieselAgri":1.724},"lastUpdated":"2026-08-18 00:05","extra":{"stationType":"Outro"},"services":["Cafetaria","Loja de Conveniência","Multibanco","Restaurante","Venda de gasóleo para aquecimento"],"hours":{"weekdays":"07:00-21:00","saturday":"07:45-21:00","sunday":"07:45-21:00","holiday":"07:45-21:00"},"paymentMethods":["Dinheiro","MbWay","Multibanco"],"otherServices":null,"observations":null}},{"type":"Feature","geometry":{"type":"Point","coordinates":[-7.36129,40.71017]},"properties":{"id":"pt-70188","source":"PT","name":"MF Freches - Redil","brand":"Genérico","address":"Quinta da Regada - Freches","municipality":"Trancoso","district":"Guarda","postalCode":"6420-437","fuels":{"gasoline95":2.019,"gasoline98":2.119,"diesel":2.109,"dieselHeating":2.1,"dieselAgri":1.679},"lastUpdated":"2026-08-17 21:00","extra":{"stationType":"Outro"},"services":["Venda de gasóleo agrícola","Venda de gasóleo para aquecimento"],"hours":{"weekdays":"06:30-23:00","saturday":"06:30-23:00","sunday":"06:30-23:00","holiday":"06:30-23:00"},"paymentMethods":["Dinheiro"],"otherServices":null,"observations":null}},{"type":"Feature","geometry":{"type":"Point","coordinates":[-7.13997,40.77953]},"properties":{"id":"pt-71540","source":"PT","name":"António Alberto Tomé","brand":"ALVES BANDEIRA","address":"Lugar da Rasa - Cruzamento de Pala","municipality":"Pinhel","district":"Guarda","postalCode":"6400-261","fuels":{"gasoline95":2.029,"gasoline98":2.179,"diesel":2.114,"dieselPremium":2.134,"dieselAgri":1.669},"lastUpdated":"2026-08-17 21:55","extra":{"stationType":"Outro"},"services":[],"hours":{"weekdays":"07:00-00:00","saturday":"07:00-00:00","sunday":"07:00-00:00","holiday":"07:00-00:00"},"paymentMethods":["Dinheiro"],"otherServices":null,"observations":null}},{"type":"Feature","geometry":{"type":"Point","coordinates":[-7.67433,40.41278]},"properties":{"id":"pt-71715","source":"PT","name":"JESUS & JESUS, S.A.","brand":"Genérico","address":"EN 339 ","municipality":"Seia","district":"Guarda","postalCode":"6270-000","fuels":{"gasoline95":2.025,"gasoline98":2.205,"diesel":2.112},"lastUpdated":"2026-08-17 11:30","extra":{"stationType":"Outro"},"services":[],"hours":{"weekdays":"08:00-20:00","saturday":"08:00-20:00","sunday":"08:00-20:00","holiday":"08:00-20:00"},"paymentMethods":["Dinheiro"],"otherServices":null,"observations":null}},{"type":"Feature","geometry":{"type":"Point","coordinates":[-6.97422,40.36357]},"properties":{"id":"pt-71964","source":"PT","name":"Alves Bandeira - Soito","brand":"ALVES BANDEIRA","address":"Av. Nª Srª de Fátima n.º35","municipality":"Sabugal","district":"Guarda","postalCode":"6320-621","fuels":{"gasoline95":2.059,"gasoline98":2.199,"diesel":2.149,"dieselPremium":2.179,"dieselAgri":1.659},"lastUpdated":"2026-08-17 09:00","extra":{"stationType":"Outro"},"services":["Cafetaria","Venda de gasóleo agrícola","Venda de gasóleo para aquecimento","WC"],"hours":{"weekdays":"07:00-22:00","saturday":"07:00-22:00","sunday":"07:00-22:00","holiday":"07:00-22:00"},"paymentMethods":["Dinheiro"],"otherServices":null,"observations":"Venda de óleo para motor\r\nVenda de óleo para travões\r\nVenda de Petróleo\r\nVenda de liquidos de refrigeração\r\n"}},{"type":"Feature","geometry":{"type":"Point","coordinates":[-7.15511,41.06952]},"properties":{"id":"pt-72296","source":"PT","name":"Combustíveis Videira e Filhos Lda","brand":"ALVES BANDEIRA","address":"Estrada Nacional nº 102","municipality":"Vila Nova de Foz Côa","district":"Guarda","postalCode":"5150-644","fuels":{"gasoline95":2.039,"gasoline98":2.249,"gasolineMix":2.8,"diesel":2.133,"dieselPremium":2.183,"dieselAgri":1.714},"lastUpdated":"2026-08-17 10:00","extra":{"stationType":"Outro"},"services":["Cafetaria","Loja de Conveniência","Venda de carburante de qualidade superior","Venda de gás doméstico em garrafas","Venda de gasóleo agrícola","Venda de gasóleo para aquecimento","WC"],"hours":{"weekdays":"06:30-21:30","saturday":"06:30-21:30","sunday":"06:30-21:30","holiday":"06:30-21:30"},"paymentMethods":["Dinheiro","MbWay","Multibanco"],"otherServices":null,"observations":null}},{"type":"Feature","geometry":{"type":"Point","coordinates":[-7.28673,40.53696]},"properties":{"id":"pt-72974","source":"PT","name":"BP - GUARDA CATRAIA","brand":"BP","address":"Av. Dr. Francisco Sá CarneiroCatraia da Alegria","municipality":"Guarda","district":"Guarda","postalCode":"6300-529","fuels":{"gasoline95":2.004,"gasoline98Plus":2.254,"diesel":2.109,"dieselPremium":2.269,"dieselAgri":1.704},"lastUpdated":"2026-08-17 14:50","extra":{"stationType":"Outro"},"services":["Cafetaria","Lavagem","Loja de Conveniência","Venda de carburante de qualidade superior","Venda de gás doméstico em garrafas","Venda de gasóleo agrícola","WC"],"hours":{"weekdays":"07:00-21:00","saturday":"07:00-21:00","sunday":"07:00-21:00","holiday":"07:00-21:00"},"paymentMethods":["Dinheiro","MbWay","Multibanco"],"otherServices":null,"observations":null}},{"type":"Feature","geometry":{"type":"Point","coordinates":[-7.38275,40.64187]},"properties":{"id":"pt-75398","source":"PT","name":"BP Celorico da Beira","brand":"BP","address":"EN 16 Km 152.5","municipality":"Celorico da Beira","district":"Guarda","postalCode":"6360-357","fuels":{"gasoline95":2.024,"gasoline98Plus":2.254,"diesel":2.129,"dieselPremium":2.269,"dieselAgri":1.704},"lastUpdated":"2026-08-17 14:50","extra":{"stationType":"Outro"},"services":["Cafetaria","Loja de Conveniência","Multibanco","Venda de carburante de qualidade superior","Venda de gás doméstico em garrafas","Venda de gasóleo agrícola","WC","WC para deficientes"],"hours":{"weekdays":"07:00-21:00","saturday":"07:00-21:00","sunday":"07:00-21:00","holiday":"07:00-21:00"},"paymentMethods":["Dinheiro","Multibanco"],"otherServices":null,"observations":null}},{"type":"Feature","geometry":{"type":"Point","coordinates":[-7.246619,40.553337]},"properties":{"id":"pt-76980","source":"PT","name":"BP GUARDA SÃO MIGUEL","brand":"BP","address":"AV. SÃO MIGUEL, 15","municipality":"Guarda","district":"Guarda","postalCode":"6300-864","fuels":{"gasoline95":2.054,"gasoline98Plus":2.284,"diesel":2.159,"dieselPremium":2.299},"lastUpdated":"2026-08-17 10:15","extra":{"stationType":"Outro"},"services":["Cafetaria","Loja de Conveniência","Multibanco","WC"],"hours":{"weekdays":"07:00-22:00","saturday":"07:00-22:00","sunday":"07:00-22:00","holiday":"07:00-22:00"},"paymentMethods":["Dinheiro"],"otherServices":null,"observations":null}},{"type":"Feature","geometry":{"type":"Point","coordinates":[-7.447959,40.584876]},"properties":{"id":"pt-79646","source":"PT","name":"ALVES BANDEIRA Cortiçô da Serra (Celorico da Beira)","brand":"ALVES BANDEIRA","address":"EN 17 (Estrada da Beira), km 124,622","municipality":"Celorico da Beira","district":"Guarda","postalCode":"6360-050","fuels":{"gasoline95":2.029,"diesel":2.114,"dieselPremium":2.134,"dieselAgri":1.689},"lastUpdated":"2026-08-17 12:25","extra":{"stationType":"Outro"},"services":["Cafetaria","Descanso de pesados","Loja de Conveniência","Multibanco","Venda de gás doméstico em garrafas","Venda de gasóleo agrícola","WC"],"hours":{"weekdays":"07:00-21:00","saturday":"07:00-21:00","sunday":"07:00-21:00","holiday":"07:00-21:00"},"paymentMethods":["Dinheiro","MbWay","Multibanco","Outros"],"otherServices":null,"observations":null}},{"type":"Feature","geometry":{"type":"Point","coordinates":[-7.533256,40.612896]},"properties":{"id":"pt-80920","source":"PT","name":"MOEVE FORNOS DE ALGODRES","brand":"CEPSA","address":"EN16, km 136,200 - Zona Industrial, LOTE 5","municipality":"Fornos de Algodres","district":"Guarda","postalCode":"6370-128","fuels":{"gasoline95":1.998,"gasoline98":2.26,"diesel":2.099,"dieselPremium":2.149,"dieselAgri":1.694},"lastUpdated":"2026-08-17 10:25","extra":{"stationType":"Outro"},"services":["Cafetaria","Loja de Conveniência","Multibanco","WC"],"hours":null,"paymentMethods":["Dinheiro"],"otherServices":null,"observations":null}},{"type":"Feature","geometry":{"type":"Point","coordinates":[-7.7093,40.4071]},"properties":{"id":"pt-84875","source":"PT","name":"Seabra ","brand":"BP","address":"Estrada Nacional 231, Km 46,4","municipality":"Seia","district":"Guarda","postalCode":"6270-427","fuels":{"gasoline95":2.064,"gasoline98Plus":2.284,"diesel":2.164,"dieselPremium":2.299,"dieselAgri":1.729},"lastUpdated":"2026-08-18 01:00","extra":{"stationType":"Outro"},"services":["Assistência auto","Cafetaria","Calibragem de pneus","Loja de Conveniência","Venda de carburante de qualidade superior","Venda de gás doméstico em garrafas","Venda de gasóleo agrícola","Venda de gasóleo para aquecimento","WC","WC para deficientes"],"hours":{"weekdays":"06:00-00:00","saturday":"06:00-00:00","sunday":"07:00-00:00","holiday":"07:00-00:00"},"paymentMethods":["Dinheiro"],"otherServices":null,"observations":null}},{"type":"Feature","geometry":{"type":"Point","coordinates":[-7.35946,40.50596]},"properties":{"id":"pt-85061","source":"PT","name":"Posto de Abastecimento de Trinta","brand":"ALVES BANDEIRA","address":"Cova do Barro nº 36","municipality":"Guarda","district":"Guarda","postalCode":"6300-225","fuels":{"gasoline95":2.069,"diesel":2.154,"dieselPremium":2.174,"dieselAgri":1.729},"lastUpdated":"2026-08-17 15:15","extra":{"stationType":"Outro"},"services":["Cafetaria"],"hours":{"weekdays":"06:00-02:00","saturday":"06:00-02:00","sunday":"06:00-02:00","holiday":"06:00-02:00"},"paymentMethods":["Dinheiro"],"otherServices":null,"observations":null}},{"type":"Feature","geometry":{"type":"Point","coordinates":[-7.243074,40.534504]},"properties":{"id":"pt-87550","source":"PT","name":"BP - GUARDA VARIANTE","brand":"BP","address":"ROTUNDA VICEG - ACESSO PARQUE INDUSTRIAL","municipality":"Guarda","district":"Guarda","postalCode":"6300-625","fuels":{"gasoline95":2.054,"gasoline98Plus":2.284,"diesel":2.159,"dieselPremium":2.299},"lastUpdated":"2026-08-17 10:10","extra":{"stationType":"Outro"},"services":["Cafetaria","Loja de Conveniência","Multibanco","WC"],"hours":null,"paymentMethods":["Dinheiro"],"otherServices":null,"observations":null}},{"type":"Feature","geometry":{"type":"Point","coordinates":[-7.632591,40.51172]},"properties":{"id":"pt-87768","source":"PT","name":"E.S. GOUVEIA","brand":"REPSOL","address":"Zona Industrial de Gouveia\n\n","municipality":"Gouveia","district":"Guarda","postalCode":"6290-651","fuels":{"gasoline95":2.009,"diesel":2.104,"dieselPremium":2.164,"dieselAgri":1.714},"lastUpdated":"2026-08-18 00:00","extra":{"stationType":"Outro"},"services":["Venda de carburante de qualidade superior","Venda de gasóleo agrícola"],"hours":{"weekdays":"Aberto 24 horas","saturday":"Aberto 24 horas","sunday":"Aberto 24 horas","holiday":"Aberto 24 horas"},"paymentMethods":["Dinheiro"],"otherServices":null,"observations":null}},{"type":"Feature","geometry":{"type":"Point","coordinates":[-7.29436,41.06419]},"properties":{"id":"pt-88813","source":"PT","name":"Petro Vale da Teja","brand":"MOEVE","address":"EN 222, Km 190,600 E - Lugar de Sequeira","municipality":"Vila Nova de Foz Côa","district":"Guarda","postalCode":"5155-336","fuels":{"gasoline95":2.048,"gasoline95Plus":2.098,"diesel":2.149,"dieselPremium":2.199,"dieselAgri":1.694},"lastUpdated":"2026-08-17 00:00","extra":{"stationType":"Outro"},"services":["Cafetaria","WC"],"hours":{"weekdays":"07:00-20:00","saturday":"07:00-20:00","sunday":"07:00-20:00","holiday":"07:00-20:00"},"paymentMethods":["Dinheiro","MbWay","Multibanco"],"otherServices":null,"observations":null}},{"type":"Feature","geometry":{"type":"Point","coordinates":[-7.2355,41.04822]},"properties":{"id":"pt-89723","source":"PT","name":"Galp Touça","brand":"GALP","address":"EN 222, KM 197","municipality":"Vila Nova de Foz Côa","district":"Guarda","postalCode":"5155-802","fuels":{"gasoline95":2.099,"diesel":2.179,"dieselPremium":2.199,"dieselAgri":1.739},"lastUpdated":"2026-08-17 12:15","extra":{"stationType":"Outro"},"services":[],"hours":{"weekdays":"07:00-22:00","saturday":"07:00-22:00","sunday":"07:00-22:00","holiday":"07:00-22:00"},"paymentMethods":["Dinheiro"],"otherServices":null,"observations":null}},{"type":"Feature","geometry":{"type":"Point","coordinates":[-7.523635,40.551796]},"properties":{"id":"pt-90141","source":"PT","name":"BP VILA CORTÊS DA SERRA","brand":"BP","address":"EN 17 Km 116,9","municipality":"Gouveia","district":"Guarda","postalCode":"6290-611","fuels":{"gasoline95":2.044,"gasoline98Plus":2.284,"diesel":2.149,"dieselPremium":2.299,"dieselAgri":1.729},"lastUpdated":"2026-08-17 10:20","extra":{"stationType":"Outro"},"services":["Calibragem de pneus"],"hours":null,"paymentMethods":["Dinheiro"],"otherServices":null,"observations":null}},{"type":"Feature","geometry":{"type":"Point","coordinates":[-6.979404,40.684624]},"properties":{"id":"pt-90233","source":"PT","name":"PA Almeida-Azinhal ","brand":"ALVES BANDEIRA","address":"EN 324 - km 92,900","municipality":"Almeida","district":"Guarda","postalCode":"6350-031","fuels":{"gasoline95":2.069,"diesel":2.154,"dieselPremium":2.174,"dieselAgri":1.729},"lastUpdated":"2026-08-17 21:15","extra":{"stationType":"Outro"},"services":["Cafetaria","Calibragem de pneus","Venda de gás doméstico em garrafas","Venda de gasóleo agrícola","WC","WC para deficientes"],"hours":{"weekdays":"07:30-21:00","saturday":"07:30-21:00","sunday":"07:30-21:00","holiday":"07:30-21:00"},"paymentMethods":["Dinheiro","Multibanco"],"otherServices":null,"observations":null}},{"type":"Feature","geometry":{"type":"Point","coordinates":[-6.951399,40.60616]},"properties":{"id":"pt-91805","source":"PT","name":"Posto GNV Dourogás - Vila Formoso","brand":"DOUROGAS NATURAL","address":"Área de Serviço BP – A25 Vilar Formoso 6355-051 Castelo Mendo, Almeida","municipality":"Almeida","district":"Guarda","postalCode":"6355-051","fuels":{"cngm3":2.975,"lng":3.279},"lastUpdated":"2026-08-14 12:00","extra":{"stationType":"Outro"},"services":["Calibragem de pneus"],"hours":null,"paymentMethods":["Dinheiro"],"otherServices":null,"observations":null}},{"type":"Feature","geometry":{"type":"Point","coordinates":[-7.243571,40.53441]},"properties":{"id":"pt-92987","source":"PT","name":"E.S. GUARDA SUL ROTUNDA","brand":"REPSOL","address":"Av Veiga Simão, Parque Industrial da Guarda","municipality":"Guarda","district":"Guarda","postalCode":"6300-625","fuels":{"gasoline95":2.059,"gasoline95Plus":2.069,"gasoline98Plus":2.259,"diesel":2.154,"dieselPremium":2.164,"lpg":0.974},"lastUpdated":"2026-08-18 00:00","extra":{"stationType":"Outro"},"services":["Cafetaria","Loja de Conveniência","Venda de gás doméstico em garrafas","WC","WC para deficientes"],"hours":{"weekdays":"07:00-23:00","saturday":"07:00-23:00","sunday":"07:00-23:00","holiday":"07:00-23:00"},"paymentMethods":["Multibanco"],"otherServices":null,"observations":null}},{"type":"Feature","geometry":{"type":"Point","coordinates":[-7.52887,40.83087]},"properties":{"id":"pt-93031","source":"PT","name":"CEPSA - AGUIAR DA BEIRA","brand":"CEPSA","address":"Cruzamento de Sequeiros","municipality":"Aguiar da Beira","district":"Guarda","postalCode":"3570-078","fuels":{"gasoline95":2.034,"gasoline98Plus":2.243,"diesel":2.132,"dieselPremium":2.182,"dieselAgri":1.676},"lastUpdated":"2026-08-17 19:00","extra":{"stationType":"Outro"},"services":["Cafetaria","Descanso de pesados","Loja de Conveniência","Venda de gás doméstico em garrafas","Venda de gasóleo agrícola","WC","WC para deficientes"],"hours":{"weekdays":"07:00-22:00","saturday":"07:00-22:00","sunday":"07:00-22:00","holiday":"07:00-22:00"},"paymentMethods":["Dinheiro","Multibanco"],"otherServices":null,"observations":"Snack Bar "}},{"type":"Feature","geometry":{"type":"Point","coordinates":[-6.89256,40.70172]},"properties":{"id":"pt-93091","source":"PT","name":"Almeida - Energética II","brand":"PRIO","address":"Estrada Nacional 332, Lugar de Vale Felizes-Almeida","municipality":"Almeida","district":"Guarda","postalCode":"6350-232","fuels":{"gasoline95":1.944,"diesel":1.991,"dieselPremium":1.996,"dieselAgri":1.653},"lastUpdated":"2026-08-17 14:30","extra":{"stationType":"Outro"},"services":["Multibanco"],"hours":{"weekdays":"07:30-20:30","saturday":"07:30-07:30","sunday":"Fechado","holiday":"Fechado"},"paymentMethods":["Dinheiro","Multibanco"],"otherServices":null,"observations":null}},{"type":"Feature","geometry":{"type":"Point","coordinates":[-7.544567,40.811718]},"properties":{"id":"pt-93160","source":"PT","name":"PA AB PetroPina ZI","brand":"Genérico","address":"Zona Industrial de Aguiar da Beira, Rua B, Lote 8 B","municipality":"Aguiar da Beira","district":"Guarda","postalCode":"3570-049","fuels":{"gasoline95":2.019,"gasolineMix":2.4,"diesel":2.104,"dieselPremium":2.104,"dieselAgri":1.679},"lastUpdated":"2026-08-17 17:00","extra":{"stationType":"Outro"},"services":["Cafetaria","Calibragem de pneus","WC"],"hours":{"weekdays":"07:00-20:00","saturday":"07:00-20:00","sunday":"Fechado","holiday":"00:00-00:00"},"paymentMethods":["Dinheiro","Multibanco"],"otherServices":null,"observations":null}},{"type":"Feature","geometry":{"type":"Point","coordinates":[-7.24898,40.552596]},"properties":{"id":"pt-93247","source":"PT","name":"PRIO Guarda","brand":"PRIO","address":"Avenida da Quinta Nova nº 22","municipality":"Guarda","district":"Guarda","postalCode":"6300-864","fuels":{"gasoline95":1.999,"gasoline95Plus":1.904,"dieselPremium":2.034,"dieselAgri":1.594,"bioDiesel":2.004},"lastUpdated":"2026-08-19 00:30","extra":{"stationType":"Outro"},"services":["Cafetaria","Calibragem de pneus","Loja de Conveniência","Venda de carburante de qualidade superior","Venda de gás doméstico em garrafas","WC","WC com fraldário","WC para deficientes"],"hours":{"weekdays":"07:00-23:00","saturday":"07:00-23:00","sunday":"07:00-23:00","holiday":"07:00-23:00"},"paymentMethods":["Dinheiro","MbWay","Multibanco","Outros"],"otherServices":null,"observations":null}},{"type":"Feature","geometry":{"type":"Point","coordinates":[-6.965668,40.884457]},"properties":{"id":"pt-93332","source":"PT","name":"INTERMARCHÉ Figueira Castelo Rodrigo","brand":"INTERMARCHÉ","address":"R. da Misericórdia do Concelho - Vale do Barroso","municipality":"Figueira de Castelo Rodrigo","district":"Guarda","postalCode":"6440-031","fuels":{"gasoline95":1.899,"gasoline98":2.099,"diesel":1.999,"dieselPremium":2.049},"lastUpdated":"2026-08-17 09:55","extra":{"stationType":"Outro"},"services":["Calibragem de pneus","Multibanco","Venda de gás doméstico em garrafas"],"hours":{"weekdays":"Aberto 24 horas","saturday":"Aberto 24 horas","sunday":"Aberto 24 horas","holiday":"Aberto 24 horas"},"paymentMethods":["Dinheiro"],"otherServices":null,"observations":null}},{"type":"Feature","geometry":{"type":"Point","coordinates":[-7.496557,40.74218]},"properties":{"id":"pt-93443","source":"PT","name":"CEPSA  Pena Verde","brand":"CEPSA","address":"ESTRADA NACIONAL 330, KM 10,600, PENA VERDE","municipality":"Aguiar da Beira","district":"Guarda","postalCode":"3570-170","fuels":{"gasoline95":1.948,"gasoline98Plus":2.164,"diesel":2.049,"dieselPremium":2.099,"dieselAgri":1.638},"lastUpdated":"2026-08-17 19:00","extra":{"stationType":"Outro"},"services":["Loja de Conveniência","Multibanco","Venda de gás doméstico em garrafas","Venda de gasóleo agrícola","WC","WC para deficientes"],"hours":null,"paymentMethods":["Dinheiro","MbWay","Multibanco"],"otherServices":null,"observations":null}},{"type":"Feature","geometry":{"type":"Point","coordinates":[-7.151571,40.49738]},"properties":{"id":"pt-93484","source":"PT","name":"PA Vila Fernando","brand":"Genérico","address":"Rua do Comércio, nº 16 - Vila Fernando","municipality":"Guarda","district":"Guarda","postalCode":"6300-255","fuels":{"gasoline95":2.084,"diesel":2.184,"dieselPremium":2.299,"dieselAgri":1.754},"lastUpdated":"2026-08-18 00:00","extra":{"stationType":"Outro"},"services":["Calibragem de pneus"],"hours":{"weekdays":"07:00-19:00","saturday":"08:00-19:00","sunday":"Fechado","holiday":"00:00-00:00"},"paymentMethods":["Dinheiro"],"otherServices":null,"observations":null}},{"type":"Feature","geometry":{"type":"Point","coordinates":[-7.246071,40.555107]},"properties":{"id":"pt-93568","source":"PT","name":"PLENERGY Guarda Gare I","brand":"PLENERGY","address":"Av. de São Miguel, Guarda-Gare","municipality":"Guarda","district":"Guarda","postalCode":"6300-864","fuels":{"gasoline95":1.849,"gasoline95Plus":1.879,"diesel":1.949,"dieselPremium":1.969},"lastUpdated":"2026-08-18 11:00","extra":{"stationType":"Outro"},"services":["Multibanco","WC"],"hours":{"weekdays":"Aberto 24 horas","saturday":"Aberto 24 horas","sunday":"Aberto 24 horas","holiday":"Aberto 24 horas"},"paymentMethods":["Dinheiro","Multibanco"],"otherServices":null,"observations":null}},{"type":"Feature","geometry":{"type":"Point","coordinates":[-7.159523,40.679325]},"properties":{"id":"pt-93802","source":"PT","name":"GEAR  Freixedas","brand":"ILÍDIO MOTA","address":"EN  221 - Fonte Leonor - Freixedas ","municipality":"Pinhel","district":"Guarda","postalCode":"6400-212","fuels":{"gasoline95":1.999,"gasoline98":2.189,"diesel":2.049,"dieselPremium":2.089,"dieselAgri":1.659},"lastUpdated":"2026-08-19 00:00","extra":{"stationType":"Outro"},"services":["Cafetaria"],"hours":{"weekdays":"07:30-23:00","saturday":"07:30-23:00","sunday":"07:30-23:00","holiday":null},"paymentMethods":["Dinheiro"],"otherServices":null,"observations":null}},{"type":"Feature","geometry":{"type":"Point","coordinates":[-7.754942,40.278267]},"properties":{"id":"pt-93815","source":"PT","name":"AB  Ribeira de Vide","brand":"ALVES BANDEIRA","address":"Ribeira de Vide (Restaurante Delícias da Serra)","municipality":"Seia","district":"Guarda","postalCode":"6285-072","fuels":{"gasoline95":2.069,"gasoline98":2.219,"diesel":2.154},"lastUpdated":"2026-08-17 16:00","extra":{"stationType":"Outro"},"services":["Calibragem de pneus"],"hours":null,"paymentMethods":["Dinheiro"],"otherServices":null,"observations":null}},{"type":"Feature","geometry":{"type":"Point","coordinates":[-6.969783,40.353424]},"properties":{"id":"pt-93819","source":"PT","name":"REPSOL Souto","brand":"REPSOL","address":"Rua do Pinhal nº 45","municipality":"Sabugal","district":"Guarda","postalCode":"6320-680","fuels":{"gasoline95":2.009,"gasoline98":2.199,"gasolineMix":2.45,"diesel":2.084,"dieselPremium":2.144,"dieselAgri":1.654},"lastUpdated":"2026-08-18 12:20","extra":{"stationType":"Outro"},"services":["Calibragem de pneus"],"hours":null,"paymentMethods":["Dinheiro"],"otherServices":null,"observations":null}},{"type":"Feature","geometry":{"type":"Point","coordinates":[-7.080938,40.756977]},"properties":{"id":"pt-93833","source":"PT","name":"BARAÇAS COMBUSTIVEIS,LDA. PINHEL","brand":"Genérico","address":"EN 221","municipality":"Pinhel","district":"Guarda","postalCode":"6400-417","fuels":{"gasoline95":1.999,"gasoline98":2.149,"diesel":2.069,"dieselPremium":2.099,"dieselAgri":1.54},"lastUpdated":"2026-08-17 10:35","extra":{"stationType":"Outro"},"services":["Cafetaria","Multibanco"],"hours":null,"paymentMethods":["Dinheiro"],"otherServices":null,"observations":null}},{"type":"Feature","geometry":{"type":"Point","coordinates":[-7.197238,40.572758]},"properties":{"id":"pt-93854","source":"PT","name":"PA Arrifana- Guarda","brand":"Genérico","address":"EN 16, AV SÃO MARTINHO Nº 50","municipality":"Guarda","district":"Guarda","postalCode":"6300-035","fuels":{"gasoline95":1.961,"gasoline95Plus":1.999,"diesel":1.955,"dieselPremium":1.999,"dieselAgri":1.655},"lastUpdated":"2026-08-16 19:40","extra":{"stationType":"Outro"},"services":["Multibanco","WC"],"hours":null,"paymentMethods":["Dinheiro"],"otherServices":null,"observations":null}},{"type":"Feature","geometry":{"type":"Point","coordinates":[-7.544104,40.616276]},"properties":{"id":"pt-94287","source":"PT","name":"GALP - Delfim Augusto Nunes Lda - Fornos de Algodres","brand":"GALP","address":"Estrada Nacional 16 - nº 161","municipality":"Fornos de Algodres","district":"Guarda","postalCode":"6370-147","fuels":{"gasoline95":2.014,"gasoline95Plus":2.064,"diesel":2.108,"dieselPremium":2.158},"lastUpdated":"2026-08-17 18:55","extra":{"stationType":"Outro"},"services":["Multibanco"],"hours":{"weekdays":"07:30-21:30","saturday":"07:30-21:30","sunday":"07:30-21:30","holiday":"07:30-21:30"},"paymentMethods":["Dinheiro","Multibanco","Outros"],"otherServices":null,"observations":"serviço opt. pagamento por mb 24 horas opt, self servive"}},{"type":"Feature","geometry":{"type":"Point","coordinates":[-7.145428,40.425278]},"properties":{"id":"pt-94454","source":"PT","name":"PA Pega","brand":"Genérico","address":"EN 233, km 16,850","municipality":"Guarda","district":"Guarda","postalCode":"6300-155","fuels":{"gasoline95":2.019,"diesel":2.104,"dieselPremium":2.124,"dieselAgri":1.729},"lastUpdated":"2026-08-17 15:45","extra":{"stationType":"Outro"},"services":["Cafetaria","Restaurante","Venda de gasóleo agrícola","WC"],"hours":{"weekdays":"07:00-22:00","saturday":"07:00-22:00","sunday":"07:00-22:00","holiday":"07:00-22:00"},"paymentMethods":["Dinheiro","MbWay","Multibanco"],"otherServices":null,"observations":null}},{"type":"Feature","geometry":{"type":"Point","coordinates":[-7.712581,40.4209]},"properties":{"id":"pt-94502","source":"PT","name":"REPSOL Seia","brand":"REPSOL","address":"Avª Terras de Sena-Quintela-Seia","municipality":"Seia","district":"Guarda","postalCode":"6270-485","fuels":{"gasoline95":2.059,"gasoline95Plus":2.129,"gasoline98Plus":2.259,"diesel":2.154,"dieselPremium":2.224,"dieselAgri":1.714,"lpg":1.024},"lastUpdated":"2026-08-18 00:00","extra":{"stationType":"Outro"},"services":["Calibragem de pneus"],"hours":null,"paymentMethods":["Dinheiro"],"otherServices":null,"observations":null}},{"type":"Feature","geometry":{"type":"Point","coordinates":[-7.688754,40.462475]},"properties":{"id":"pt-94518","source":"PT","name":"GALP Pinhanços - Seia","brand":"GALP","address":"EN 17 Km 99,400 - Pinhanços","municipality":"Seia","district":"Guarda","postalCode":"6270-141","fuels":{"gasoline95":2.059,"gasoline95Plus":2.119,"diesel":2.155,"dieselPremium":2.215,"dieselAgri":1.714},"lastUpdated":"2026-08-17 00:00","extra":{"stationType":"Outro"},"services":["Calibragem de pneus"],"hours":null,"paymentMethods":["Dinheiro"],"otherServices":null,"observations":null}},{"type":"Feature","geometry":{"type":"Point","coordinates":[-7.390125,40.637604]},"properties":{"id":"pt-94524","source":"PT","name":"Galp- Serafim Batista Duarte Lda.","brand":"GALP","address":"Rua Sacadura Cabral 155","municipality":"Celorico da Beira","district":"Guarda","postalCode":"6360-350","fuels":{"gasoline95":2.009,"diesel":2.103,"dieselPremium":2.153},"lastUpdated":"2026-08-17 00:00","extra":{"stationType":"Outro"},"services":["Calibragem de pneus"],"hours":null,"paymentMethods":["Dinheiro","MbWay","Multibanco","Outros"],"otherServices":null,"observations":null}},{"type":"Feature","geometry":{"type":"Point","coordinates":[-7.753826,40.46377]},"properties":{"id":"pt-94529","source":"PT","name":"GALP Tourais (Seia)","brand":"GALP","address":"EN 231","municipality":"Seia","district":"Guarda","postalCode":"6270-581","fuels":{"gasoline95":2.059,"gasoline95Plus":2.119,"gasoline98Plus":2.269,"diesel":2.155,"dieselPremium":2.215,"dieselAgri":1.714,"lpg":0.969},"lastUpdated":"2026-08-17 09:15","extra":{"stationType":"Outro"},"services":["Calibragem de pneus"],"hours":null,"paymentMethods":["Dinheiro","Multibanco","Outros"],"otherServices":null,"observations":null}},{"type":"Feature","geometry":{"type":"Point","coordinates":[-6.87469,40.40975]},"properties":{"id":"pt-94533","source":"PT","name":"REPSOL Aldeia da Ponte E0956","brand":"REPSOL","address":"EN 233 3","municipality":"Sabugal","district":"Guarda","postalCode":"6320-031","fuels":{"gasoline95":2.009,"gasoline98Plus":2.199,"diesel":2.104,"dieselPremium":2.164,"dieselAgri":1.714},"lastUpdated":"2026-08-18 11:50","extra":{"stationType":"Outro"},"services":["Multibanco"],"hours":null,"paymentMethods":["Dinheiro","Multibanco"],"otherServices":null,"observations":null}},{"type":"Feature","geometry":{"type":"Point","coordinates":[-7.077114,40.353645]},"properties":{"id":"pt-94534","source":"PT","name":"REPSOL Sabugal E0955","brand":"REPSOL","address":"Rua do Emigrante 2C Vale Carreta","municipality":"Sabugal","district":"Guarda","postalCode":"6320-371","fuels":{"gasoline95":2.009,"gasoline95Plus":2.069,"gasoline98Plus":2.199,"diesel":2.104,"dieselPremium":2.164,"dieselAgri":1.654},"lastUpdated":"2026-08-18 12:20","extra":{"stationType":"Outro"},"services":["Loja de Conveniência"],"hours":null,"paymentMethods":["Dinheiro","Multibanco"],"otherServices":null,"observations":null}},{"type":"Feature","geometry":{"type":"Point","coordinates":[-6.83067,40.61075]},"properties":{"id":"pt-94535","source":"PT","name":"REPSOL Vilar Formoso E0905","brand":"REPSOL","address":"EN 16 (Av. Tílias)","municipality":"Almeida","district":"Guarda","postalCode":"6355-339","fuels":{"gasoline95":2.009,"diesel":2.104,"dieselPremium":2.164,"dieselAgri":1.714,"lpg":0.964},"lastUpdated":"2026-08-18 12:20","extra":{"stationType":"Outro"},"services":["Calibragem de pneus"],"hours":null,"paymentMethods":["Dinheiro"],"otherServices":null,"observations":null}},{"type":"Feature","geometry":{"type":"Point","coordinates":[-6.998042,40.599922]},"properties":{"id":"pt-94726","source":"PT","name":"TFUEL - PÍNZIO","brand":"TFUEL","address":"EN 16 ao Km 206 - Alto do Freixo","municipality":"Almeida","district":"Guarda","postalCode":"6355-071","fuels":{"gasoline95":1.879,"diesel":2.049,"dieselPremium":2.019,"dieselAgri":1.719},"lastUpdated":"2026-08-17 00:00","extra":{"stationType":"Outro"},"services":["Multibanco"],"hours":{"weekdays":"08:00-19:00","saturday":"08:00-17:00","sunday":"Fechado","holiday":"08:00-19:00"},"paymentMethods":["Dinheiro","Multibanco"],"otherServices":null,"observations":"POSTO COM ABASTECIMENTO 24h ATRAVÉS DE PAGAMENTO EM TERMINAL."}},{"type":"Feature","geometry":{"type":"Point","coordinates":[-7.522135,40.613384]},"properties":{"id":"pt-94920","source":"PT","name":"GALP Fornos de Algodres","brand":"GALP","address":"E.N. 16 Ponte de Juncais","municipality":"Fornos de Algodres","district":"Guarda","postalCode":"6370-333","fuels":{"gasoline95":2.014,"diesel":2.108,"dieselPremium":2.158,"dieselAgri":1.684},"lastUpdated":"2026-08-17 10:10","extra":{"stationType":"Outro"},"services":["Loja de Conveniência","Venda de gás doméstico em garrafas","WC"],"hours":{"weekdays":"07:00-20:30","saturday":"07:30-20:00","sunday":"Fechado","holiday":"10:00-20:00"},"paymentMethods":["Dinheiro","Multibanco"],"otherServices":null,"observations":null}},{"type":"Feature","geometry":{"type":"Point","coordinates":[-7.70907,40.40651]},"properties":{"id":"pt-95150","source":"PT","name":"INTERMARCHÉ Seia","brand":"INTERMARCHÉ","address":"Bairro Vila Alzira, Edifício Intermarché","municipality":"Seia","district":"Guarda","postalCode":"6270-262","fuels":{"gasoline95":1.97,"gasoline95Plus":1.97,"diesel":2.057,"dieselPremium":2.057},"lastUpdated":"2026-08-18 00:05","extra":{"stationType":"Outro"},"services":["Multibanco","Venda de gás doméstico em garrafas"],"hours":{"weekdays":"Aberto 24 horas","saturday":"Aberto 24 horas","sunday":"Aberto 24 horas","holiday":"Aberto 24 horas"},"paymentMethods":["Dinheiro","MbWay","Multibanco"],"otherServices":null,"observations":null}},{"type":"Feature","geometry":{"type":"Point","coordinates":[-7.223641,40.56875]},"properties":{"id":"pt-95271","source":"PT","name":"Cepsa Guarda _ Outeiro S Miguel","brand":"CEPSA","address":"SÍTIO DO JUNCAL, OUTEIRO DE SÃO MIGUEL","municipality":"Guarda","district":"Guarda","postalCode":"6300-035","fuels":{"gasoline95":1.978,"diesel":2.079,"dieselPremium":2.129,"dieselAgri":1.644},"lastUpdated":"2026-08-17 12:10","extra":{"stationType":"Outro"},"services":["Calibragem de pneus"],"hours":{"weekdays":"06:00-22:00","saturday":"06:00-21:00","sunday":"06:00-21:00","holiday":"06:00-21:00"},"paymentMethods":["Dinheiro"],"otherServices":null,"observations":null}}]}