{"type":"FeatureCollection","features":[{"type":"Feature","geometry":{"type":"Point","coordinates":[-7.990762,38.724361]},"properties":{"id":"pt-65033","source":"PT","name":"INTERMARCHÉ DE ARRAIOLOS","brand":"INTERMARCHÉ","address":"Rua dos Almocreves nº 2","municipality":"Arraiolos","district":"Évora","postalCode":"7040-058","fuels":{"gasoline95":1.829,"diesel":1.989,"dieselPremium":2.029},"lastUpdated":"2026-08-11 11:25","extra":{"stationType":"Outro"},"services":[],"hours":{"weekdays":"08:00-20:00","saturday":"08:00-20:00","sunday":"08:00-20:00","holiday":"08:00-20:00"},"paymentMethods":["Dinheiro"],"otherServices":null,"observations":null}},{"type":"Feature","geometry":{"type":"Point","coordinates":[-7.54553,38.42475]},"properties":{"id":"pt-65103","source":"PT","name":"Distrimonsaraz - Supermercados, Lda","brand":"INTERMARCHÉ","address":"Horta da Cegonheira - Semi Circular Sul ","municipality":"Reguengos de Monsaraz","district":"Évora","postalCode":"7200-999","fuels":{"gasoline95":1.87,"gasoline98":2.03,"diesel":1.97,"dieselPremium":2.007},"lastUpdated":"2026-08-10 09:15","extra":{"stationType":"Outro"},"services":[],"hours":{"weekdays":"07:30-21:00","saturday":"07:30-21:00","sunday":"08:00-20:00","holiday":"08:00-20:00"},"paymentMethods":["Dinheiro"],"otherServices":null,"observations":null}},{"type":"Feature","geometry":{"type":"Point","coordinates":[-7.917649,38.554305]},"properties":{"id":"pt-65269","source":"PT","name":"Pengasóleos - Assistência Técnica a Automóveis. lda","brand":"GALP","address":"Variante Zona Industrial Évora","municipality":"Évora","district":"Évora","postalCode":"7000-492","fuels":{"gasoline95":1.919,"gasoline95Plus":1.969,"diesel":2.022,"dieselPremium":2.072},"lastUpdated":"2026-08-16 18:10","extra":{"stationType":"Outro"},"services":["Cafetaria","Lavagem","Loja de Conveniência","Multibanco","Venda de carburante de qualidade superior","Venda de gás doméstico em garrafas","Via verde","WC","WC para deficientes"],"hours":{"weekdays":"07:00-23:59","saturday":"07:00-23:59","sunday":"07:00-23:59","holiday":"07:00-23:59"},"paymentMethods":["Dinheiro"],"otherServices":null,"observations":null}},{"type":"Feature","geometry":{"type":"Point","coordinates":[-7.982641,38.575123]},"properties":{"id":"pt-65271","source":"PT","name":"MARQUES & FILHO - ÉVORA","brand":"GALP","address":"EN 114 Km 182","municipality":"Évora","district":"Évora","postalCode":"7000-000","fuels":{"gasoline95":1.959,"gasoline95Plus":2.009,"diesel":2.062,"dieselPremium":2.112},"lastUpdated":"2026-08-12 10:30","extra":{"stationType":"Outro"},"services":["Cafetaria","Loja de Conveniência","Multibanco","Venda de carburante de qualidade superior","Venda de gás doméstico em garrafas","WC"],"hours":{"weekdays":"07:00-21:00","saturday":"07:00-21:00","sunday":"07:00-21:00","holiday":"07:00-21:00"},"paymentMethods":["Dinheiro"],"otherServices":null,"observations":null}},{"type":"Feature","geometry":{"type":"Point","coordinates":[-7.749013,38.458115]},"properties":{"id":"pt-65273","source":"PT","name":"MANUEL ANTÓNIO NUNES","brand":"GALP","address":"EN 18 (Rua Nossa Senhora da Ajuda) Km 301,5","municipality":"Évora","district":"Évora","postalCode":"7000-115","fuels":{"gasoline95":1.969,"gasoline95Plus":2.019,"diesel":2.072,"dieselPremium":2.122,"dieselAgri":1.624},"lastUpdated":"2026-08-12 10:30","extra":{"stationType":"Outro"},"services":["Venda de carburante de qualidade superior","Venda de gás doméstico em garrafas","Venda de gasóleo agrícola"],"hours":{"weekdays":"07:00-22:00","saturday":"07:00-22:00","sunday":"07:00-22:00","holiday":"07:00-22:00"},"paymentMethods":["Dinheiro"],"otherServices":null,"observations":"Full Service"}},{"type":"Feature","geometry":{"type":"Point","coordinates":[-7.915297,38.567623]},"properties":{"id":"pt-65275","source":"PT","name":"GALP A.S. Portas do Raimundo (Évora)","brand":"GALP","address":"Avenida Tulio Espanca, Portas do Raimundo","municipality":"Évora","district":"Évora","postalCode":"7005-840","fuels":{"gasoline95":2.039,"gasoline95Plus":2.089,"diesel":2.133,"dieselPremium":2.183},"lastUpdated":"2026-08-17 04:50","extra":{"stationType":"Outro"},"services":["Cafetaria","Loja de Conveniência","Multibanco","Via verde","WC","WC com fraldário"],"hours":{"weekdays":"Aberto 24 horas","saturday":"Aberto 24 horas","sunday":"Aberto 24 horas","holiday":"Aberto 24 horas"},"paymentMethods":["Dinheiro","MbWay","Multibanco","Outros"],"otherServices":null,"observations":null}},{"type":"Feature","geometry":{"type":"Point","coordinates":[-7.89755,38.56784]},"properties":{"id":"pt-65276","source":"PT","name":"SOUSA & MARQUÊZ - ÉVORA NAU","brand":"GALP","address":"Praça Infante D. Henrique nº 15","municipality":"Évora","district":"Évora","postalCode":"7000-827","fuels":{"gasoline95":1.959,"gasoline95Plus":2.009,"diesel":2.062,"dieselPremium":2.112},"lastUpdated":"2026-08-12 10:30","extra":{"stationType":"Outro"},"services":["Venda de carburante de qualidade superior","Venda de gás doméstico em garrafas","Venda de gasóleo agrícola"],"hours":{"weekdays":"06:00-22:00","saturday":"06:00-22:00","sunday":"06:00-22:00","holiday":"06:00-22:00"},"paymentMethods":["Dinheiro"],"otherServices":null,"observations":"Full Service"}},{"type":"Feature","geometry":{"type":"Point","coordinates":[-8.21676,38.64958]},"properties":{"id":"pt-65458","source":"PT","name":"SOUSA & MARQUÊZ - MONTEMOR","brand":"GALP","address":"EN 4 (Av. Gago Coutinho nº 25)","municipality":"Montemor-o-Novo","district":"Évora","postalCode":"7050-097","fuels":{"gasoline95":1.924,"gasoline95Plus":1.974,"diesel":2.022,"dieselPremium":2.072,"dieselAgri":1.624},"lastUpdated":"2026-08-15 18:25","extra":{"stationType":"Outro"},"services":["Cafetaria","Loja de Conveniência","Multibanco","Venda de carburante de qualidade superior","Venda de gás doméstico em garrafas","WC"],"hours":{"weekdays":"Aberto 24 horas","saturday":"Aberto 24 horas","sunday":"Aberto 24 horas","holiday":"Aberto 24 horas"},"paymentMethods":["Dinheiro"],"otherServices":null,"observations":"Full Service"}},{"type":"Feature","geometry":{"type":"Point","coordinates":[-8.1575,38.943365]},"properties":{"id":"pt-65460","source":"PT","name":"CRISALBI, LDA","brand":"GALP","address":"EN 2 Km 478,493","municipality":"Mora","district":"Évora","postalCode":"7490-000","fuels":{"gasoline95":1.929,"gasoline95Plus":1.979,"diesel":2.032,"dieselPremium":2.082,"dieselAgri":1.574},"lastUpdated":"2026-08-12 10:30","extra":{"stationType":"Outro"},"services":["Venda de carburante de qualidade superior","Venda de gás doméstico em garrafas","Venda de gasóleo agrícola"],"hours":{"weekdays":"07:00-21:00","saturday":"07:00-21:00","sunday":"07:00-21:00","holiday":"07:00-21:00"},"paymentMethods":["Dinheiro"],"otherServices":null,"observations":"Full Service"}},{"type":"Feature","geometry":{"type":"Point","coordinates":[-7.33445,38.38167]},"properties":{"id":"pt-65463","source":"PT","name":"MARQUES & FILHO - MOURÃO","brand":"GALP","address":"Zona Industrial do Cemitério","municipality":"Mourão","district":"Évora","postalCode":"7240-000","fuels":{"gasoline95":1.919,"gasoline95Plus":1.969,"diesel":2.022,"dieselPremium":2.072,"dieselAgri":1.584},"lastUpdated":"2026-08-12 10:30","extra":{"stationType":"Outro"},"services":["Cafetaria","Loja de Conveniência","Venda de carburante de qualidade superior","Venda de gás doméstico em garrafas","Venda de gasóleo agrícola","WC"],"hours":{"weekdays":"06:00-23:00","saturday":"06:00-23:00","sunday":"06:00-23:00","holiday":"06:00-23:00"},"paymentMethods":["Dinheiro"],"otherServices":null,"observations":null}},{"type":"Feature","geometry":{"type":"Point","coordinates":[-7.70905,38.30623]},"properties":{"id":"pt-65560","source":"PT","name":"A.C.M.Nunes, Lda","brand":"GALP","address":"Rua da Vidigueira 30","municipality":"Portel","district":"Évora","postalCode":"7220-390","fuels":{"gasoline95":1.959,"gasoline98Plus":2.169,"diesel":2.062,"dieselPremium":2.112,"dieselAgri":1.624},"lastUpdated":"2026-08-10 12:05","extra":{"stationType":"Outro"},"services":["Cafetaria","Lavagem","Loja de Conveniência","Venda de gás doméstico em garrafas","WC","WC para deficientes"],"hours":{"weekdays":"05:45-21:45","saturday":"05:45-21:45","sunday":"05:45-21:45","holiday":"05:45-21:45"},"paymentMethods":["Dinheiro","MbWay","Multibanco"],"otherServices":null,"observations":null}},{"type":"Feature","geometry":{"type":"Point","coordinates":[-7.54202,38.42587]},"properties":{"id":"pt-65582","source":"PT","name":"PETROREGUENGOS","brand":"GALP","address":"EN 256 Km 20","municipality":"Reguengos de Monsaraz","district":"Évora","postalCode":"7200-000","fuels":{"gasoline95":1.919,"gasoline95Plus":1.969,"diesel":2.022,"dieselPremium":2.072,"dieselAgri":1.584},"lastUpdated":"2026-08-12 10:30","extra":{"stationType":"Outro"},"services":["Lavagem","Venda de carburante de qualidade superior","Venda de gás doméstico em garrafas","Venda de gasóleo agrícola","WC"],"hours":{"weekdays":"07:00-22:00","saturday":"07:00-22:00","sunday":"07:00-22:00","holiday":"07:00-22:00"},"paymentMethods":["Dinheiro"],"otherServices":null,"observations":"Full Service"}},{"type":"Feature","geometry":{"type":"Point","coordinates":[-7.54299,38.42577]},"properties":{"id":"pt-65583","source":"PT","name":"MARQUES & FILHO - REGUENGOS","brand":"GALP","address":"EN 256 Km 20","municipality":"Reguengos de Monsaraz","district":"Évora","postalCode":"7200-132","fuels":{"gasoline95":1.919,"gasoline95Plus":1.969,"diesel":2.022,"dieselPremium":2.072,"dieselAgri":1.584},"lastUpdated":"2026-08-12 10:30","extra":{"stationType":"Outro"},"services":["Cafetaria","Loja de Conveniência","Multibanco","Venda de carburante de qualidade superior","Venda de gás doméstico em garrafas","WC"],"hours":{"weekdays":"06:00-23:00","saturday":"06:00-23:00","sunday":"06:00-23:00","holiday":"06:00-23:00"},"paymentMethods":["Dinheiro"],"otherServices":null,"observations":"Full Service"}},{"type":"Feature","geometry":{"type":"Point","coordinates":[-8.473376,38.682167]},"properties":{"id":"pt-65711","source":"PT","name":"CRISALBI","brand":"GALP","address":"EN 4 (Rua da Boavista) Km 56","municipality":"Vendas Novas","district":"Évora","postalCode":"7080-063","fuels":{"gasoline95":1.919,"gasoline95Plus":1.969,"diesel":2.017,"dieselPremium":2.067},"lastUpdated":"2026-08-12 10:30","extra":{"stationType":"Outro"},"services":["Multibanco","Venda de carburante de qualidade superior","Venda de gás doméstico em garrafas","Venda de gasóleo agrícola","WC"],"hours":{"weekdays":"07:00-22:00","saturday":"07:00-22:00","sunday":"07:00-22:00","holiday":"07:00-22:00"},"paymentMethods":["Dinheiro"],"otherServices":null,"observations":"Full Service"}},{"type":"Feature","geometry":{"type":"Point","coordinates":[-7.99525,38.3317]},"properties":{"id":"pt-65712","source":"PT","name":"GALP Viana do Alentejo","brand":"GALP","address":"Zona Industrial","municipality":"Viana do Alentejo","district":"Évora","postalCode":"7090-297","fuels":{"gasoline95":1.969,"gasoline95Plus":2.019,"diesel":2.072,"dieselPremium":2.122,"dieselAgri":1.624},"lastUpdated":"2026-08-14 08:25","extra":{"stationType":"Outro"},"services":["Calibragem de pneus"],"hours":{"weekdays":"07:00-23:00","saturday":"07:00-23:00","sunday":"07:00-23:00","holiday":"07:00-23:00"},"paymentMethods":["Dinheiro"],"otherServices":null,"observations":null}},{"type":"Feature","geometry":{"type":"Point","coordinates":[-7.422684,38.776559]},"properties":{"id":"pt-65772","source":"PT","name":"CALIPOENERGY, Lda.","brand":"GALP","address":"EN 254 (Campo da Restauração) Km 0,65","municipality":"Vila Viçosa","district":"Évora","postalCode":"7160-212","fuels":{"gasoline95":1.959,"gasoline95Plus":2.009,"gasoline98Plus":2.169,"diesel":2.062,"dieselPremium":2.112},"lastUpdated":"2026-08-12 10:30","extra":{"stationType":"Outro"},"services":["Multibanco","Venda de carburante de qualidade superior","Venda de gás doméstico em garrafas","WC"],"hours":{"weekdays":"07:00-20:00","saturday":"07:00-20:00","sunday":"07:00-20:00","holiday":"07:00-20:00"},"paymentMethods":["Dinheiro"],"otherServices":null,"observations":"Full Service"}},{"type":"Feature","geometry":{"type":"Point","coordinates":[-7.900327,38.573845]},"properties":{"id":"pt-65906","source":"PT","name":"PA BP Évora - Portas de Machede","brand":"BP","address":"Portas de Machede","municipality":"Évora","district":"Évora","postalCode":"7000-752","fuels":{"gasoline95":2.084,"diesel":2.189,"dieselPremium":2.299},"lastUpdated":"2026-08-17 00:05","extra":{"stationType":"Outro"},"services":["Lavagem","Loja de Conveniência","Multibanco","Venda de carburante de qualidade superior","Venda de gás doméstico em garrafas","WC"],"hours":{"weekdays":"Aberto 24 horas","saturday":"Aberto 24 horas","sunday":"Aberto 24 horas","holiday":"Aberto 24 horas"},"paymentMethods":["Dinheiro"],"otherServices":null,"observations":null}},{"type":"Feature","geometry":{"type":"Point","coordinates":[-8.207074,38.647157]},"properties":{"id":"pt-65979","source":"PT","name":" BP MONTEMOR-O-NOVO (NORTE)","brand":"BP","address":"Av. Gago Coutinho nº 74","municipality":"Montemor-o-Novo","district":"Évora","postalCode":"7050-101","fuels":{"diesel":2.159},"lastUpdated":"2026-08-17 00:00","extra":{"stationType":"Outro"},"services":[],"hours":{"weekdays":"Aberto 24 horas","saturday":"Aberto 24 horas","sunday":"Aberto 24 horas","holiday":"Aberto 24 horas"},"paymentMethods":["Dinheiro"],"otherServices":null,"observations":null}},{"type":"Feature","geometry":{"type":"Point","coordinates":[-8.207082,38.646862]},"properties":{"id":"pt-65980","source":"PT","name":"BP MONTEMOR-O-NOVO (SUL)","brand":"BP","address":"Av. Gago Coutinho nº 74","municipality":"Montemor-o-Novo","district":"Évora","postalCode":"7050-101","fuels":{"gasoline95":2.054,"gasoline98Plus":2.284,"diesel":2.159,"dieselPremium":2.299},"lastUpdated":"2026-08-17 00:00","extra":{"stationType":"Outro"},"services":["Cafetaria","Loja de Conveniência","Multibanco","Venda de gás doméstico em garrafas","WC","WC para deficientes"],"hours":{"weekdays":"Aberto 24 horas","saturday":"Aberto 24 horas","sunday":"Aberto 24 horas","holiday":"Aberto 24 horas"},"paymentMethods":["Dinheiro","Multibanco"],"otherServices":null,"observations":"Loja com C"}},{"type":"Feature","geometry":{"type":"Point","coordinates":[-8.21908,38.65013]},"properties":{"id":"pt-66524","source":"PT","name":"E.S. MONTEMOR","brand":"REPSOL","address":"Av. Gago Coutinho nº 17","municipality":"Montemor-o-Novo","district":"Évora","postalCode":"7050-000","fuels":{"gasoline95":2.029,"gasoline95Plus":2.099,"gasoline98Plus":2.209,"diesel":2.119,"dieselPremium":2.174},"lastUpdated":"2026-08-17 00:00","extra":{"stationType":"Outro"},"services":["Lavagem","Venda de carburante de qualidade superior","Venda de gás doméstico em garrafas","Venda de gasóleo agrícola","WC"],"hours":{"weekdays":"07:00-22:00","saturday":"07:00-22:00","sunday":"07:00-22:00","holiday":"07:00-22:00"},"paymentMethods":["Dinheiro"],"otherServices":null,"observations":null}},{"type":"Feature","geometry":{"type":"Point","coordinates":[-7.98243,38.72311]},"properties":{"id":"pt-66525","source":"PT","name":"E.S. ARRAIOLOS","brand":"REPSOL","address":"Rua Bombeiros Voluntarios - EN 370","municipality":"Arraiolos","district":"Évora","postalCode":"7040-060","fuels":{"gasoline95":1.984,"gasoline98Plus":2.174,"diesel":2.164,"dieselPremium":2.214,"dieselAgri":1.764},"lastUpdated":"2026-08-17 00:00","extra":{"stationType":"Outro"},"services":["Venda de carburante de qualidade superior","Venda de gás doméstico em garrafas","Venda de gasóleo agrícola","WC"],"hours":{"weekdays":"08:00-21:00","saturday":"08:00-21:00","sunday":"08:00-21:00","holiday":"08:00-21:00"},"paymentMethods":["Dinheiro"],"otherServices":null,"observations":null}},{"type":"Feature","geometry":{"type":"Point","coordinates":[-7.902219,38.566532]},"properties":{"id":"pt-66526","source":"PT","name":"ES  REPSOL Évora - Chafariz D'El Rei","brand":"REPSOL","address":"E.N. 18, Largo Chaf.D`El Rei ","municipality":"Évora","district":"Évora","postalCode":"7000-002","fuels":{"gasoline95":2.024,"gasoline95Plus":2.074,"gasoline98Plus":2.234,"diesel":2.129,"dieselPremium":2.179,"lpg":0.974},"lastUpdated":"2026-08-17 00:15","extra":{"stationType":"Outro"},"services":["Calibragem de pneus"],"hours":null,"paymentMethods":["Dinheiro"],"otherServices":null,"observations":null}},{"type":"Feature","geometry":{"type":"Point","coordinates":[-7.54986,38.65026]},"properties":{"id":"pt-66527","source":"PT","name":"E.S. REDONDO","brand":"REPSOL","address":"Rua Manuel da Fonseca, Lote C 10","municipality":"Redondo","district":"Évora","postalCode":"7170-072","fuels":{"gasoline95":2.019,"gasoline95Plus":2.089,"diesel":2.094,"dieselPremium":2.164,"dieselAgri":1.714},"lastUpdated":"2026-08-17 00:00","extra":{"stationType":"Outro"},"services":["Lavagem","Venda de carburante de qualidade superior","Venda de gás doméstico em garrafas","Venda de gasóleo agrícola","WC"],"hours":{"weekdays":"06:00-22:00","saturday":"07:00-22:00","sunday":"06:00-22:00","holiday":"06:00-22:00"},"paymentMethods":["Dinheiro"],"otherServices":null,"observations":null}},{"type":"Feature","geometry":{"type":"Point","coordinates":[-7.586075,38.843742]},"properties":{"id":"pt-66528","source":"PT","name":"E.S. ESTREMOZ II","brand":"REPSOL","address":"Rossio Marquês Pombal nº 46-48","municipality":"Estremoz","district":"Évora","postalCode":"7100-000","fuels":{"gasoline95":2.054,"gasoline98Plus":2.254,"diesel":2.144,"dieselPremium":2.214},"lastUpdated":"2026-08-17 00:00","extra":{"stationType":"Outro"},"services":["Venda de carburante de qualidade superior","Venda de gás doméstico em garrafas","WC"],"hours":{"weekdays":"08:00-20:00","saturday":"08:00-20:00","sunday":"09:00-19:00","holiday":"09:00-19:00"},"paymentMethods":["Dinheiro"],"otherServices":null,"observations":null}},{"type":"Feature","geometry":{"type":"Point","coordinates":[-8.45311,38.67626]},"properties":{"id":"pt-66529","source":"PT","name":"E.S. VENDAS NOVAS CENTRO","brand":"REPSOL","address":"Rua S. João de Deus","municipality":"Vendas Novas","district":"Évora","postalCode":"7080-000","fuels":{"gasoline95":1.984,"gasoline95Plus":2.049,"diesel":2.074,"dieselPremium":2.124,"dieselAgri":1.709},"lastUpdated":"2026-08-17 00:00","extra":{"stationType":"Outro"},"services":["Venda de carburante de qualidade superior","Venda de gás doméstico em garrafas","Venda de gasóleo agrícola","WC"],"hours":{"weekdays":"07:00-22:00","saturday":"07:00-22:00","sunday":"07:00-22:00","holiday":"07:00-22:00"},"paymentMethods":["Dinheiro"],"otherServices":null,"observations":null}},{"type":"Feature","geometry":{"type":"Point","coordinates":[-7.71828,38.76292]},"properties":{"id":"pt-66531","source":"PT","name":"E.S. EVORAMONTE","brand":"REPSOL","address":"Rua da Azaruja nº 1","municipality":"Estremoz","district":"Évora","postalCode":"7100-229","fuels":{"gasoline95":2.014,"gasoline95Plus":2.079,"diesel":2.114,"dieselPremium":2.184,"dieselAgri":1.764},"lastUpdated":"2026-08-17 00:00","extra":{"stationType":"Outro"},"services":["Cafetaria","Venda de carburante de qualidade superior","Venda de gás doméstico em garrafas","Venda de gasóleo agrícola","WC","WC para deficientes"],"hours":{"weekdays":"07:00-22:00","saturday":"07:00-22:00","sunday":"07:00-22:00","holiday":"07:00-22:00"},"paymentMethods":["Dinheiro"],"otherServices":null,"observations":null}},{"type":"Feature","geometry":{"type":"Point","coordinates":[-8.57766,38.62257]},"properties":{"id":"pt-66532","source":"PT","name":"AS V. NOVAS NORTE (A) - Gespost - Gestão e Administração de Postos de Abastecimento Unipessoal LDA","brand":"REPSOL","address":"A6 Km 5,5 Vendas Novas","municipality":"Vendas Novas","district":"Évora","postalCode":"7080-011","fuels":{"gasoline95":2.094,"gasoline95Plus":2.174,"gasoline98Plus":2.294,"diesel":2.189,"dieselPremium":2.274,"lpg":1.014},"lastUpdated":"2026-08-17 00:10","extra":{"stationType":"Auto-estrada"},"services":["Calibragem de pneus"],"hours":null,"paymentMethods":["Dinheiro"],"otherServices":null,"observations":null}},{"type":"Feature","geometry":{"type":"Point","coordinates":[-8.580919,38.620322]},"properties":{"id":"pt-66533","source":"PT","name":"E.S. VENDAS NOVAS SUL","brand":"REPSOL","address":"A 6 Km 5,5","municipality":"Vendas Novas","district":"Évora","postalCode":"2965-909","fuels":{"gasoline95":2.094,"gasoline95Plus":2.174,"gasoline98Plus":2.294,"diesel":2.189,"dieselPremium":2.274},"lastUpdated":"2026-08-17 00:10","extra":{"stationType":"Auto-estrada"},"services":["Descanso de pesados","Loja de Conveniência","Multibanco","Restaurante","WC"],"hours":{"weekdays":"Aberto 24 horas","saturday":"Aberto 24 horas","sunday":"Aberto 24 horas","holiday":"Aberto 24 horas"},"paymentMethods":["Dinheiro"],"otherServices":null,"observations":null}},{"type":"Feature","geometry":{"type":"Point","coordinates":[-7.89164,38.55743]},"properties":{"id":"pt-66896","source":"PT","name":"BP - Évora M.A.R.É","brand":"BP","address":"Mercado Abastecedor Região de Évora","municipality":"Évora","district":"Évora","postalCode":"7000-797","fuels":{"gasoline95":1.999,"gasoline98Plus":2.199,"diesel":2.114,"dieselPremium":2.234,"dieselAgri":1.639},"lastUpdated":"2026-08-14 09:15","extra":{"stationType":"Outro"},"services":["Lavagem","Loja de Conveniência","Venda de gasóleo agrícola","WC"],"hours":{"weekdays":"06:00-21:00","saturday":"06:00-21:00","sunday":"06:00-21:00","holiday":"06:00-21:00"},"paymentMethods":["Dinheiro"],"otherServices":null,"observations":null}},{"type":"Feature","geometry":{"type":"Point","coordinates":[-8.22890000733,38.7953999933]},"properties":{"id":"pt-66916","source":"PT","name":"Sociedade Abastecedora Combustíveis Valenças, Lda.","brand":"AVIA","address":"Estrada do Lavre Lote 3","municipality":"Montemor-o-Novo","district":"Évora","postalCode":"7050-611","fuels":{"gasoline95":1.982,"diesel":2.069,"dieselAgri":1.584},"lastUpdated":"2026-08-10 10:50","extra":{"stationType":"Outro"},"services":["Cafetaria","AUTOvoucher"],"hours":{"weekdays":"07:00-22:00","saturday":"07:00-22:00","sunday":"07:00-22:00","holiday":"07:00-22:00"},"paymentMethods":["Dinheiro","Multibanco"],"otherServices":null,"observations":null}},{"type":"Feature","geometry":{"type":"Point","coordinates":[-8.02362,38.89517]},"properties":{"id":"pt-66962","source":"PT","name":"BP - Pavia","brand":"BP","address":"Rua 5 de Outubro, n.º 2","municipality":"Mora","district":"Évora","postalCode":"7490-426","fuels":{"gasoline95":2.044,"gasoline98Plus":2.284,"diesel":2.149,"dieselPremium":2.299,"dieselAgri":1.694},"lastUpdated":"2026-08-17 00:00","extra":{"stationType":"Outro"},"services":["Venda de gasóleo agrícola"],"hours":{"weekdays":"07:00-21:00","saturday":"07:00-21:00","sunday":"07:00-21:00","holiday":"07:00-21:00"},"paymentMethods":["Dinheiro"],"otherServices":null,"observations":null}},{"type":"Feature","geometry":{"type":"Point","coordinates":[-8.077889,38.617725]},"properties":{"id":"pt-67048","source":"PT","name":"GALP A6 A.S. Montemor (Norte)","brand":"GALP","address":"A6 Marateca Caia, Km 55,4 - EN 114","municipality":"Montemor-o-Novo","district":"Évora","postalCode":"7050-349","fuels":{"gasoline95":2.099,"gasoline95Plus":2.159,"diesel":2.199,"dieselPremium":2.259},"lastUpdated":"2026-08-17 04:25","extra":{"stationType":"Auto-estrada"},"services":["Descanso de pesados","Loja de Conveniência","WC com fraldário","WC para deficientes"],"hours":{"weekdays":"Aberto 24 horas","saturday":"Aberto 24 horas","sunday":"Aberto 24 horas","holiday":"Aberto 24 horas"},"paymentMethods":["Dinheiro","MbWay","Multibanco","Outros"],"otherServices":null,"observations":null}},{"type":"Feature","geometry":{"type":"Point","coordinates":[-8.081877,38.617805]},"properties":{"id":"pt-67049","source":"PT","name":"GALP A6 A.S. Montemor (Sul)","brand":"GALP","address":"A6 - Km 55,4 (Marateca/Caia)","municipality":"Montemor-o-Novo","district":"Évora","postalCode":"7050-346","fuels":{"gasoline95":2.099,"gasoline95Plus":2.159,"diesel":2.199,"dieselPremium":2.259},"lastUpdated":"2026-08-17 04:25","extra":{"stationType":"Auto-estrada"},"services":["Descanso de pesados","Loja de Conveniência","WC com fraldário","WC para deficientes"],"hours":{"weekdays":"Aberto 24 horas","saturday":"Aberto 24 horas","sunday":"Aberto 24 horas","holiday":"Aberto 24 horas"},"paymentMethods":["Dinheiro","MbWay","Multibanco","Outros"],"otherServices":null,"observations":null}},{"type":"Feature","geometry":{"type":"Point","coordinates":[-7.9954,38.3311]},"properties":{"id":"pt-67137","source":"PT","name":"Intermarché de Viana do Alentejo","brand":"INTERMARCHÉ","address":"Zona Industrial","municipality":"Viana do Alentejo","district":"Évora","postalCode":"7090-222","fuels":{"gasoline95":1.87,"gasoline98":2.08,"diesel":1.966,"dieselPremium":2.006},"lastUpdated":"2026-08-10 12:05","extra":{"stationType":"Outro"},"services":[],"hours":{"weekdays":"08:00-20:00","saturday":"09:00-20:00","sunday":"09:00-20:00","holiday":"09:00-20:00"},"paymentMethods":["Dinheiro"],"otherServices":null,"observations":"lavagem e aspirador"}},{"type":"Feature","geometry":{"type":"Point","coordinates":[-8.511207,38.685037]},"properties":{"id":"pt-67274","source":"PT","name":"E.S. BOMBEL B","brand":"REPSOL","address":"EN 4 - Bombel - nº 30 ","municipality":"Vendas Novas","district":"Évora","postalCode":"7080-303","fuels":{"gasoline95":1.984,"gasoline98Plus":2.174,"diesel":2.074,"dieselPremium":2.134,"dieselAgri":1.709},"lastUpdated":"2026-08-17 00:00","extra":{"stationType":"Outro"},"services":["Venda de carburante de qualidade superior","Venda de gasóleo agrícola","WC"],"hours":{"weekdays":"06:30-21:00","saturday":"06:30-21:00","sunday":"06:30-19:00","holiday":"06:30-19:00"},"paymentMethods":["Dinheiro"],"otherServices":null,"observations":null}},{"type":"Feature","geometry":{"type":"Point","coordinates":[-8.20562,38.64632]},"properties":{"id":"pt-67363","source":"PT","name":"SODIREAL-SUPERMERCADOS, LDA","brand":"INTERMARCHÉ","address":"AV.GAGO COUTINHO","municipality":"Montemor-o-Novo","district":"Évora","postalCode":"7050-101","fuels":{"gasoline95":1.89,"diesel":2.066,"dieselPremium":2.106},"lastUpdated":"2026-08-10 17:35","extra":{"stationType":"Outro"},"services":[],"hours":{"weekdays":"08:00-21:00","saturday":"08:00-21:00","sunday":"08:00-13:00","holiday":"08:00-13:00"},"paymentMethods":["Dinheiro"],"otherServices":null,"observations":null}},{"type":"Feature","geometry":{"type":"Point","coordinates":[-7.469988,38.810497]},"properties":{"id":"pt-67495","source":"PT","name":"PRIO Borba (Sul)","brand":"PRIO","address":"Estrada Nacional nº 4","municipality":"Borba","district":"Évora","postalCode":"7150-234","fuels":{"gasoline95":1.999,"gasoline95Plus":1.954,"dieselPremium":2.054,"bioDiesel":2.024},"lastUpdated":"2026-08-17 00:25","extra":{"stationType":"Outro"},"services":["Cafetaria","Loja de Conveniência","Venda de gás doméstico em garrafas","WC","WC para deficientes"],"hours":{"weekdays":"07:00-23:00","saturday":"07:00-23:00","sunday":"07:00-23:00","holiday":"07:00-23:00"},"paymentMethods":["Dinheiro","MbWay","Multibanco","Outros"],"otherServices":null,"observations":null}},{"type":"Feature","geometry":{"type":"Point","coordinates":[-7.469032,38.810524]},"properties":{"id":"pt-67516","source":"PT","name":"PRIO Borba (Norte)","brand":"PRIO","address":"Estrada Nacional nº 4","municipality":"Borba","district":"Évora","postalCode":"7150-234","fuels":{"gasoline95":1.999,"dieselPremium":2.054,"bioDiesel":2.024},"lastUpdated":"2026-08-17 00:30","extra":{"stationType":"Outro"},"services":["Venda de carburante de qualidade superior"],"hours":{"weekdays":"07:00-23:00","saturday":"07:00-23:00","sunday":"07:00-23:00","holiday":"07:00-23:00"},"paymentMethods":["MbWay","Multibanco","Outros"],"otherServices":null,"observations":null}},{"type":"Feature","geometry":{"type":"Point","coordinates":[-7.581032,38.847022]},"properties":{"id":"pt-67649","source":"PT","name":"Superestremoz-Supermercados","brand":"INTERMARCHÉ","address":"Zona Industrial, Apartado 10","municipality":"Estremoz","district":"Évora","postalCode":"7100-147","fuels":{"gasoline95":1.82,"gasoline98":1.97,"diesel":1.908,"dieselPremium":1.948},"lastUpdated":"2026-08-11 20:00","extra":{"stationType":"Outro"},"services":[],"hours":{"weekdays":"08:00-20:00","saturday":"08:00-20:00","sunday":"08:00-20:00","holiday":"08:00-20:00"},"paymentMethods":["Dinheiro","Multibanco"],"otherServices":null,"observations":null}},{"type":"Feature","geometry":{"type":"Point","coordinates":[-7.8986,38.58391]},"properties":{"id":"pt-68318","source":"PT","name":"Intermarché de Évora - Frei Aleixo","brand":"INTERMARCHÉ","address":"EN 18\r\n","municipality":"Évora","district":"Évora","postalCode":"7005-863","fuels":{"gasoline95":1.869,"gasoline98":2.11,"diesel":1.959,"dieselPremium":1.979},"lastUpdated":"2026-08-10 08:25","extra":{"stationType":"Outro"},"services":[],"hours":{"weekdays":"Aberto 24 horas","saturday":"Aberto 24 horas","sunday":"Aberto 24 horas","holiday":"Aberto 24 horas"},"paymentMethods":["Dinheiro"],"otherServices":null,"observations":null}},{"type":"Feature","geometry":{"type":"Point","coordinates":[-7.660409,38.8008]},"properties":{"id":"pt-69069","source":"PT","name":"A6  ESTREMOZ (ELV/LIS)","brand":"CEPSA","address":"A6, SUBLANÇO ÉVORA, KM 23, APARTADO 247","municipality":"Estremoz","district":"Évora","postalCode":"7100-108","fuels":{"gasoline95":2.104,"gasoline98Plus":2.316,"diesel":2.209,"dieselPremium":2.259,"lpg":0.976},"lastUpdated":"2026-08-17 00:00","extra":{"stationType":"Auto-estrada"},"services":["Loja de Conveniência","Multibanco","Restaurante","WC"],"hours":null,"paymentMethods":["Dinheiro"],"otherServices":null,"observations":null}},{"type":"Feature","geometry":{"type":"Point","coordinates":[-7.660607,38.79915]},"properties":{"id":"pt-69070","source":"PT","name":"A6 ESTREMOZ  (LIS/ELV)","brand":"CEPSA","address":"A6, SUBLANÇO ÉVORA, KM 23, APARTADO 247","municipality":"Estremoz","district":"Évora","postalCode":"7100-108","fuels":{"gasoline95":2.104,"gasoline98Plus":2.316,"diesel":2.209,"dieselPremium":2.259,"lpg":0.976},"lastUpdated":"2026-08-17 00:00","extra":{"stationType":"Auto-estrada"},"services":["Loja de Conveniência","Multibanco","Restaurante","WC"],"hours":null,"paymentMethods":["Dinheiro"],"otherServices":null,"observations":null}},{"type":"Feature","geometry":{"type":"Point","coordinates":[-8.51115,38.68527]},"properties":{"id":"pt-69464","source":"PT","name":"E.S. BOMBEL A","brand":"REPSOL","address":"EN 4 - Bombel nº 30","municipality":"Vendas Novas","district":"Évora","postalCode":"7080-303","fuels":{"gasoline95":1.984,"gasoline95Plus":2.054,"diesel":2.074,"dieselPremium":2.134},"lastUpdated":"2026-08-17 00:00","extra":{"stationType":"Outro"},"services":["Venda de carburante de qualidade superior","Venda de gás doméstico em garrafas","WC"],"hours":{"weekdays":"06:00-22:00","saturday":"06:00-22:00","sunday":"06:00-22:00","holiday":"06:00-22:00"},"paymentMethods":["Dinheiro"],"otherServices":null,"observations":null}},{"type":"Feature","geometry":{"type":"Point","coordinates":[-8.18558,38.6554]},"properties":{"id":"pt-69866","source":"PT","name":"Posto Abastecimento Zona Industrial da Adua","brand":"REDE ENERGIA","address":"Zona Industrial da Adua, Lote I-11 ","municipality":"Montemor-o-Novo","district":"Évora","postalCode":"7054-909","fuels":{"gasoline95":1.88,"diesel":1.976,"dieselPremium":1.986,"dieselAgri":1.575},"lastUpdated":"2026-08-10 09:30","extra":{"stationType":"Outro"},"services":["Descanso de pesados","Multibanco","Venda de gasóleo agrícola","WC","WC para deficientes"],"hours":{"weekdays":"07:30-19:30","saturday":"08:00-16:00","sunday":"Fechado","holiday":"Fechado"},"paymentMethods":["Dinheiro"],"otherServices":null,"observations":"Venda de Lubrificantes\nVenda de Depósitos para Combustíveis"}},{"type":"Feature","geometry":{"type":"Point","coordinates":[-7.40944,38.62361]},"properties":{"id":"pt-69923","source":"PT","name":"E.S. TERENA","brand":"REPSOL","address":"Estrada Nacional 255  Km 24,8","municipality":"Alandroal","district":"Évora","postalCode":"7250-065","fuels":{"gasoline95":2.034,"diesel":2.124,"dieselPremium":2.194,"dieselAgri":1.764},"lastUpdated":"2026-08-17 00:00","extra":{"stationType":"Outro"},"services":["Cafetaria","Descanso de pesados","Loja de Conveniência","Venda de carburante de qualidade superior","Venda de gás doméstico em garrafas","Venda de gasóleo agrícola","Venda de gasóleo para aquecimento","WC"],"hours":{"weekdays":"08:00-20:00","saturday":"08:00-20:00","sunday":"08:00-20:00","holiday":"08:00-20:00"},"paymentMethods":["Dinheiro"],"otherServices":null,"observations":null}},{"type":"Feature","geometry":{"type":"Point","coordinates":[-8.225169,38.639347]},"properties":{"id":"pt-70438","source":"PT","name":"Coprapec - Quinta da Ponte (fecha 17:30h)","brand":"REPSOL","address":"Quinta da Ponte","municipality":"Montemor-o-Novo","district":"Évora","postalCode":"7050-200","fuels":{"diesel":2.084,"dieselAgri":1.684},"lastUpdated":"2026-08-10 09:10","extra":{"stationType":"Outro"},"services":["Calibragem de pneus"],"hours":null,"paymentMethods":["Dinheiro"],"otherServices":null,"observations":null}},{"type":"Feature","geometry":{"type":"Point","coordinates":[-7.4509,38.80962]},"properties":{"id":"pt-70639","source":"PT","name":"PD BORBA","brand":"PINGO DOCE","address":"EN 255","municipality":"Borba","district":"Évora","postalCode":"7150-000","fuels":{"gasoline95":1.846,"gasoline98Plus":2.199,"diesel":1.931,"dieselPremium":2.229},"lastUpdated":"2026-08-11 00:00","extra":{"stationType":"Outro"},"services":[],"hours":{"weekdays":"09:00-20:00","saturday":"09:00-20:00","sunday":"09:00-20:00","holiday":"09:00-20:00"},"paymentMethods":["Dinheiro"],"otherServices":null,"observations":null}},{"type":"Feature","geometry":{"type":"Point","coordinates":[-7.41838,38.76804]},"properties":{"id":"pt-70643","source":"PT","name":"BP Vila Viçosa","brand":"Genérico","address":"Zona Industrial, Lote 231","municipality":"Vila Viçosa","district":"Évora","postalCode":"7160-000","fuels":{"gasoline95":2.089,"diesel":2.189,"dieselAgri":1.744},"lastUpdated":"2026-08-17 00:00","extra":{"stationType":"Outro"},"services":["Multibanco","Venda de gás doméstico em garrafas","WC"],"hours":{"weekdays":"08:00-20:00","saturday":"08:00-18:00","sunday":"Fechado","holiday":"Fechado"},"paymentMethods":["Dinheiro"],"otherServices":null,"observations":"Mudanças de Óleo\r\nEntrega de Gásoleos ao domicíclio"}},{"type":"Feature","geometry":{"type":"Point","coordinates":[-7.58474,38.84237]},"properties":{"id":"pt-70799","source":"PT","name":"Samor-Sociedade de Combustíveis e Acessórios para Automóveis,Lda","brand":"REDE ENERGIA","address":"Rossio Marquês de Pombal nº63","municipality":"Estremoz","district":"Évora","postalCode":"7100-513","fuels":{"gasoline95":1.979,"gasoline95Plus":1.999,"diesel":2.039,"dieselPremium":2.059,"dieselAgri":1.609},"lastUpdated":"2026-08-12 10:05","extra":{"stationType":"Outro"},"services":["Calibragem de pneus","Venda de gás doméstico em garrafas","Venda de gasóleo agrícola"],"hours":{"weekdays":"06:30-20:00","saturday":"06:30-20:00","sunday":"Fechado","holiday":"Fechado"},"paymentMethods":["Dinheiro"],"otherServices":null,"observations":"Venda de Peças e Acessórios para Automóveis"}},{"type":"Feature","geometry":{"type":"Point","coordinates":[-8.159623,38.94655]},"properties":{"id":"pt-71092","source":"PT","name":"Cooperativa Agricola Mora","brand":"CEPSA","address":"Rua Caminho Ferro n;7","municipality":"Mora","district":"Évora","postalCode":"7490-242","fuels":{"diesel":1.94,"dieselAgri":1.48},"lastUpdated":"2026-08-11 07:55","extra":{"stationType":"Outro"},"services":["Calibragem de pneus"],"hours":null,"paymentMethods":["Dinheiro"],"otherServices":null,"observations":null}},{"type":"Feature","geometry":{"type":"Point","coordinates":[-7.582332,38.848517]},"properties":{"id":"pt-72039","source":"PT","name":"E.S. ESTREMOZ  ZI","brand":"REPSOL","address":"Zona Industrial, Lotes 122, 123 124","municipality":"Estremoz","district":"Évora","postalCode":"7100-147","fuels":{"gasoline95":2.054,"gasoline95Plus":2.124,"gasoline98Plus":2.254,"diesel":2.144,"dieselPremium":2.214},"lastUpdated":"2026-08-17 00:00","extra":{"stationType":"Outro"},"services":["Cafetaria","Lavagem","Loja de Conveniência","Multibanco","Venda de carburante de qualidade superior","Venda de gás doméstico em garrafas","WC"],"hours":{"weekdays":"07:00-23:00","saturday":"07:00-23:00","sunday":"07:00-23:00","holiday":"07:00-23:00"},"paymentMethods":["Dinheiro"],"otherServices":null,"observations":null}},{"type":"Feature","geometry":{"type":"Point","coordinates":[-7.579075,38.838344]},"properties":{"id":"pt-76870","source":"PT","name":"PD ESTREMOZ","brand":"PINGO DOCE","address":"Courela ao Bairro de Stº António","municipality":"Estremoz","district":"Évora","postalCode":"7100-106","fuels":{"gasoline95":1.846,"gasoline98Plus":2.199,"diesel":1.931,"dieselPremium":2.229},"lastUpdated":"2026-08-11 00:00","extra":{"stationType":"Outro"},"services":[],"hours":{"weekdays":"08:30-21:00","saturday":"08:30-21:00","sunday":"08:30-21:00","holiday":"08:30-21:00"},"paymentMethods":["Dinheiro"],"otherServices":null,"observations":null}},{"type":"Feature","geometry":{"type":"Point","coordinates":[-8.3214,38.72329]},"properties":{"id":"pt-76899","source":"PT","name":"Posto de Foros de Vale Figueira","brand":"REDE ENERGIA","address":"EN 114, nº 18 (Km 147,7)\r\n","municipality":"Montemor-o-Novo","district":"Évora","postalCode":"7050-704","fuels":{"gasoline95":1.91,"gasoline95Plus":1.94,"diesel":2.006,"dieselPremium":2.036,"dieselAgri":1.565},"lastUpdated":"2026-08-10 09:35","extra":{"stationType":"Outro"},"services":["Cafetaria","Multibanco","Venda de gás doméstico em garrafas","Venda de gasóleo agrícola","WC"],"hours":{"weekdays":"07:00-20:00","saturday":"07:00-20:00","sunday":"Fechado","holiday":"Fechado"},"paymentMethods":["Dinheiro"],"otherServices":null,"observations":null}},{"type":"Feature","geometry":{"type":"Point","coordinates":[-7.426288,38.787412]},"properties":{"id":"pt-76993","source":"PT","name":"Intermarche de Vila Viçosa","brand":"INTERMARCHÉ","address":"Madre d'Agua","municipality":"Vila Viçosa","district":"Évora","postalCode":"7160-204","fuels":{"gasoline95":1.839,"gasoline98":2.049,"diesel":1.942,"dieselPremium":1.992},"lastUpdated":"2026-08-10 09:30","extra":{"stationType":"Outro"},"services":[],"hours":{"weekdays":"Aberto 24 horas","saturday":"Aberto 24 horas","sunday":"Aberto 24 horas","holiday":"Aberto 24 horas"},"paymentMethods":["Dinheiro"],"otherServices":null,"observations":null}},{"type":"Feature","geometry":{"type":"Point","coordinates":[-8.16566,38.38746]},"properties":{"id":"pt-78131","source":"PT","name":"REDE ENERGIA Alcáçovas","brand":"REDE ENERGIA","address":"Casas Novas - E. N.2 , Nº 2","municipality":"Viana do Alentejo","district":"Évora","postalCode":"7090-022","fuels":{"gasoline95":1.869,"diesel":1.965,"dieselPremium":2.005,"dieselAgri":1.545},"lastUpdated":"2026-08-10 12:10","extra":{"stationType":"Outro"},"services":["Multibanco","Venda de gás doméstico em garrafas","Venda de gasóleo agrícola","WC"],"hours":{"weekdays":"07:00-21:00","saturday":"07:00-21:00","sunday":"08:00-20:00","holiday":"08:00-20:00"},"paymentMethods":["Dinheiro"],"otherServices":null,"observations":"Venda de Lubrificantes"}},{"type":"Feature","geometry":{"type":"Point","coordinates":[-7.54801,38.65349]},"properties":{"id":"pt-79175","source":"PT","name":"INTERMARCHÉ REDONDO","brand":"INTERMARCHÉ","address":"Rua do Almagre","municipality":"Redondo","district":"Évora","postalCode":"7170-072","fuels":{"gasoline95":1.839,"gasoline98":2.049,"diesel":1.942,"dieselPremium":1.992},"lastUpdated":"2026-08-10 09:35","extra":{"stationType":"Outro"},"services":[],"hours":{"weekdays":"08:00-20:00","saturday":"08:00-20:00","sunday":"08:00-20:00","holiday":"08:00-20:00"},"paymentMethods":["Dinheiro"],"otherServices":null,"observations":null}},{"type":"Feature","geometry":{"type":"Point","coordinates":[-7.5442,38.42353]},"properties":{"id":"pt-85011","source":"PT","name":"PA Reguengos de Monsaraz","brand":"PRIO","address":"Zona industrial, nº 22","municipality":"Reguengos de Monsaraz","district":"Évora","postalCode":"7200-200","fuels":{"gasoline95":1.924,"gasoline95Plus":1.894,"dieselPremium":1.999,"dieselAgri":1.514,"bioDiesel":1.969},"lastUpdated":"2026-08-10 10:20","extra":{"stationType":"Outro"},"services":["Cafetaria","Venda de gás doméstico em garrafas","WC"],"hours":{"weekdays":"06:00-22:00","saturday":"06:00-22:00","sunday":"06:00-22:00","holiday":"06:00-22:00"},"paymentMethods":["Dinheiro"],"otherServices":null,"observations":null}},{"type":"Feature","geometry":{"type":"Point","coordinates":[-7.905527,38.551273]},"properties":{"id":"pt-88279","source":"PT","name":"AUCHAN Évora","brand":"AUCHAN","address":"Rua Werner Siemens, Lote 9 - Zona Industrial","municipality":"Évora","district":"Évora","postalCode":"7005-345","fuels":{"gasoline95":1.869,"diesel":1.959,"dieselPremium":1.979,"lpg":0.899},"lastUpdated":"2026-08-13 00:00","extra":{"stationType":"Outro"},"services":["Calibragem de pneus"],"hours":{"weekdays":"Aberto 24 horas","saturday":"Aberto 24 horas","sunday":"Aberto 24 horas","holiday":"Aberto 24 horas"},"paymentMethods":["Dinheiro"],"otherServices":null,"observations":null}},{"type":"Feature","geometry":{"type":"Point","coordinates":[-7.54008,38.21371]},"properties":{"id":"pt-88293","source":"PT","name":"ALVES BANDEIRA Alqueva","brand":"ALVES BANDEIRA","address":"Estrada Regional 255, S/N","municipality":"Portel","district":"Évora","postalCode":"7220-021","fuels":{"gasoline95":1.989,"diesel":2.082},"lastUpdated":"2026-08-10 14:55","extra":{"stationType":"Outro"},"services":[],"hours":{"weekdays":"07:00-23:00","saturday":"07:00-23:00","sunday":"07:00-23:00","holiday":"07:00-23:00"},"paymentMethods":["Dinheiro"],"otherServices":null,"observations":null}},{"type":"Feature","geometry":{"type":"Point","coordinates":[-8.412094,38.805016]},"properties":{"id":"pt-89553","source":"PT","name":"TFUEL - CORTIÇADAS DE LAVRE","brand":"TFUEL","address":"Courela do Moinho de Vento, 64","municipality":"Montemor-o-Novo","district":"Évora","postalCode":"7050-636","fuels":{"gasoline95":1.999,"gasoline98":2.319,"diesel":2.149,"dieselPremium":2.119,"dieselAgri":1.659},"lastUpdated":"2026-08-17 00:00","extra":{"stationType":"Outro"},"services":["Multibanco","WC"],"hours":null,"paymentMethods":["Dinheiro"],"otherServices":null,"observations":null}},{"type":"Feature","geometry":{"type":"Point","coordinates":[-8.15629,38.39222]},"properties":{"id":"pt-92854","source":"PT","name":"PA OZ Alcáçovas","brand":"OZ Energia","address":"Rua da Esperança, junto ao Jardim publico","municipality":"Viana do Alentejo","district":"Évora","postalCode":"7090-014","fuels":{"gasoline95":1.95,"gasoline98":1.996,"diesel":2.038,"dieselPremium":2.043,"dieselAgri":1.576},"lastUpdated":"2026-08-14 08:25","extra":{"stationType":"Outro"},"services":["Calibragem de pneus"],"hours":{"weekdays":"Aberto 24 horas","saturday":"Aberto 24 horas","sunday":"Aberto 24 horas","holiday":"Aberto 24 horas"},"paymentMethods":["Dinheiro"],"otherServices":null,"observations":null}},{"type":"Feature","geometry":{"type":"Point","coordinates":[-7.91277,38.55155]},"properties":{"id":"pt-93032","source":"PT","name":"Intermarché de Évora","brand":"INTERMARCHÉ","address":"Quinta do Alcântara, Lote 1Horta das Figueiras","municipality":"Évora","district":"Évora","postalCode":"7005-345","fuels":{"gasoline95":1.869,"gasoline98":2.02,"diesel":1.959,"dieselPremium":1.979},"lastUpdated":"2026-08-10 09:00","extra":{"stationType":"Outro"},"services":[],"hours":{"weekdays":"Aberto 24 horas","saturday":"Aberto 24 horas","sunday":"Aberto 24 horas","holiday":"Aberto 24 horas"},"paymentMethods":["Dinheiro"],"otherServices":null,"observations":"Cafetaria\r\n"}},{"type":"Feature","geometry":{"type":"Point","coordinates":[-7.549048,38.644962]},"properties":{"id":"pt-93067","source":"PT","name":"GALP Redondo (19122)","brand":"GALP","address":"E.N. 254, Km 20","municipality":"Redondo","district":"Évora","postalCode":"7170-000","fuels":{"gasoline95":1.929,"gasoline95Plus":1.979,"diesel":2.032,"dieselPremium":2.082,"dieselAgri":1.594},"lastUpdated":"2026-08-12 09:20","extra":{"stationType":"Outro"},"services":["Multibanco","WC"],"hours":null,"paymentMethods":["Dinheiro"],"otherServices":null,"observations":null}},{"type":"Feature","geometry":{"type":"Point","coordinates":[-7.912168,38.548195]},"properties":{"id":"pt-93131","source":"PT","name":"PRIO Évora ZI","brand":"PRIO","address":"Rua Circular Norte Parque Industrial nº 37","municipality":"Évora","district":"Évora","postalCode":"7005-841","fuels":{"gasoline95":1.964,"dieselPremium":2.074,"bioDiesel":2.044},"lastUpdated":"2026-08-17 00:25","extra":{"stationType":"Outro"},"services":["Cafetaria","Calibragem de pneus","Loja de Conveniência","Venda de carburante de qualidade superior","Venda de gás doméstico em garrafas","WC","WC para deficientes","AUTOvoucher"],"hours":{"weekdays":"07:00-21:00","saturday":"07:00-21:00","sunday":"07:00-21:00","holiday":"07:00-21:00"},"paymentMethods":["Dinheiro","MbWay","Multibanco","Outros"],"otherServices":null,"observations":null}},{"type":"Feature","geometry":{"type":"Point","coordinates":[-7.48465,38.77577]},"properties":{"id":"pt-93304","source":"PT","name":"ALVES BANDEIRA Rio de Moinhos","brand":"ALVES BANDEIRA","address":"Sítio da Salgada - E.M. 256, Km 10","municipality":"Borba","district":"Évora","postalCode":"7150-322","fuels":{"gasoline95":1.989,"gasoline98":2.139,"diesel":2.082,"dieselPremium":2.102,"dieselAgri":1.639},"lastUpdated":"2026-08-10 11:45","extra":{"stationType":"Outro"},"services":["Cafetaria","Descanso de pesados","Loja de Conveniência","Venda de gasóleo agrícola","WC"],"hours":{"weekdays":"07:00-20:00","saturday":"07:00-20:00","sunday":"07:00-20:00","holiday":"07:00-20:00"},"paymentMethods":["Dinheiro","MbWay","Multibanco","Outros"],"otherServices":null,"observations":null}},{"type":"Feature","geometry":{"type":"Point","coordinates":[-7.839074,38.4098]},"properties":{"id":"pt-93323","source":"PT","name":" Prio Evora - Torre de Coelheiros","brand":"PRIO","address":"ESTRADA MUNICIPAL 521 - RUA A LOTE 1 - ZONA INDUSTRIAL","municipality":"Évora","district":"Évora","postalCode":"7005-789","fuels":{"gasoline95":1.989,"gasoline95Plus":1.979,"diesel":2.089,"dieselPremium":2.079},"lastUpdated":"2026-08-11 10:40","extra":{"stationType":"Outro"},"services":["Cafetaria","Multibanco","Venda de gás doméstico em garrafas"],"hours":{"weekdays":"06:30-22:00","saturday":"06:30-22:00","sunday":"08:00-22:00","holiday":"08:00-22:00"},"paymentMethods":["Dinheiro","Multibanco"],"otherServices":null,"observations":"Encerrado temporariamente ás 2ªf\r\n\r\nGasoleo Colorido- Equipamento fora de serviço / não comercializado"}},{"type":"Feature","geometry":{"type":"Point","coordinates":[-8.445581,38.67433]},"properties":{"id":"pt-93512","source":"PT","name":"TFUEL - VENDAS NOVAS","brand":"TFUEL","address":"Rua São João de Deus","municipality":"Vendas Novas","district":"Évora","postalCode":"7080-031","fuels":{"gasoline95":1.879,"gasoline98":2.149,"diesel":1.969,"dieselPremium":2.109,"lpg":1.089},"lastUpdated":"2026-08-17 00:00","extra":{"stationType":"Outro"},"services":["Loja de Conveniência","Multibanco","WC"],"hours":null,"paymentMethods":["Dinheiro"],"otherServices":null,"observations":null}},{"type":"Feature","geometry":{"type":"Point","coordinates":[-8.262158,38.64908]},"properties":{"id":"pt-93666","source":"PT","name":"ALVES BANDEIRA Montemor-o-Novo","brand":"ALVES BANDEIRA","address":"Quinta de São Pedro, Rosenta, Nossa Senhora do Bispo","municipality":"Montemor-o-Novo","district":"Évora","postalCode":"7050-346","fuels":{"diesel":2.082,"dieselPremium":2.102},"lastUpdated":"2026-08-10 11:40","extra":{"stationType":"Outro"},"services":["Calibragem de pneus"],"hours":{"weekdays":"09:00-18:00","saturday":null,"sunday":null,"holiday":null},"paymentMethods":["Dinheiro"],"otherServices":null,"observations":null}},{"type":"Feature","geometry":{"type":"Point","coordinates":[-7.829419,38.829983]},"properties":{"id":"pt-93675","source":"PT","name":"PRIO Vimieiro Norte (Estremoz-Arraiolos)","brand":"PRIO","address":"Estrada Nacional nº 4  KM 96.6","municipality":"Arraiolos","district":"Évora","postalCode":"7040-613","fuels":{"gasoline95":1.934,"gasoline95Plus":1.904,"dieselPremium":2.004,"bioDiesel":1.974},"lastUpdated":"2026-08-10 11:40","extra":{"stationType":"Outro"},"services":["Calibragem de pneus"],"hours":{"weekdays":"00:01-00:00","saturday":"00:01-00:00","sunday":"00:01-00:00","holiday":"00:01-00:00"},"paymentMethods":["Multibanco"],"otherServices":null,"observations":null}},{"type":"Feature","geometry":{"type":"Point","coordinates":[-7.829324,38.82955]},"properties":{"id":"pt-93676","source":"PT","name":"PRIO Vimieiro Sul (Arraiolos-Estremoz)","brand":"PRIO","address":"EN 4, Km 96,6","municipality":"Arraiolos","district":"Évora","postalCode":"7040-613","fuels":{"gasoline95":1.934,"gasoline95Plus":1.904,"dieselPremium":2.004,"dieselAgri":1.534,"bioDiesel":1.974},"lastUpdated":"2026-08-10 11:40","extra":{"stationType":"Outro"},"services":["Cafetaria"],"hours":{"weekdays":"06:00-00:00","saturday":"06:00-00:00","sunday":"06:00-00:00","holiday":"00:01-00:00"},"paymentMethods":["Dinheiro"],"otherServices":null,"observations":null}},{"type":"Feature","geometry":{"type":"Point","coordinates":[-8.313759,38.497955]},"properties":{"id":"pt-93730","source":"PT","name":"Repsol - BURGOJANOTA (São  Cristóvão)","brand":"REPSOL","address":"EN 253 Km 50,500","municipality":"Montemor-o-Novo","district":"Évora","postalCode":"7050-600","fuels":{"gasoline95":1.969,"diesel":2.084,"dieselAgri":1.684},"lastUpdated":"2026-08-14 08:55","extra":{"stationType":"Outro"},"services":["Calibragem de pneus"],"hours":{"weekdays":"07:00-22:00","saturday":"07:00-22:00","sunday":"07:00-22:00","holiday":"00:00-00:00"},"paymentMethods":["Dinheiro"],"otherServices":null,"observations":null}},{"type":"Feature","geometry":{"type":"Point","coordinates":[-7.897712,38.70443]},"properties":{"id":"pt-93794","source":"PT","name":"PA Igrejinha -  J A Sandes da Silva","brand":"Genérico","address":"Courela - Vale Couvo","municipality":"Arraiolos","district":"Évora","postalCode":"7040-221","fuels":{"gasoline95":2.019,"diesel":2.019,"dieselPremium":2.099,"dieselAgri":1.599},"lastUpdated":"2026-08-10 08:45","extra":{"stationType":"Outro"},"services":["Calibragem de pneus"],"hours":{"weekdays":"08:00-20:30","saturday":"09:00-20:30","sunday":"10:00-20:30","holiday":null},"paymentMethods":["Dinheiro"],"otherServices":null,"observations":null}},{"type":"Feature","geometry":{"type":"Point","coordinates":[-7.474255,38.543545]},"properties":{"id":"pt-93804","source":"PT","name":"GALP - Aldeia da Venda","brand":"GALP","address":"Rua das Eirinhas, N.º 1","municipality":"Alandroal","district":"Évora","postalCode":"7200-011","fuels":{"gasoline95":1.97,"diesel":2.076,"dieselPremium":2.096,"dieselAgri":1.635},"lastUpdated":"2026-08-10 12:40","extra":{"stationType":"Outro"},"services":["Cafetaria"],"hours":{"weekdays":"06:00-22:00","saturday":"06:00-22:00","sunday":"06:00-22:00","holiday":null},"paymentMethods":["Dinheiro"],"otherServices":null,"observations":null}},{"type":"Feature","geometry":{"type":"Point","coordinates":[-8.170981,38.545216]},"properties":{"id":"pt-93840","source":"PT","name":"Escoucomb-Combustiveis Alentejanos,Lda - PA Repsol Santiago do Escoural","brand":"REPSOL","address":"Bairro dos Mouzinhos - Escoural 7","municipality":"Montemor-o-Novo","district":"Évora","postalCode":"7050-556","fuels":{"gasoline95":2.069,"gasoline98":2.232,"diesel":2.169,"dieselPremium":2.204,"dieselAgri":1.784},"lastUpdated":"2026-08-16 23:35","extra":{"stationType":"Outro"},"services":["Calibragem de pneus"],"hours":{"weekdays":"06:00-22:30","saturday":"06:00-22:30","sunday":"06:00-22:30","holiday":null},"paymentMethods":["Dinheiro"],"otherServices":null,"observations":null}},{"type":"Feature","geometry":{"type":"Point","coordinates":[-7.614514,38.84511]},"properties":{"id":"pt-94310","source":"PT","name":"GALP Estremoz EN4 (19096)","brand":"GALP","address":"P.Galp - E.N.4 ao Km.141,350 (Sentido Elvas-Lisboa)","municipality":"Estremoz","district":"Évora","postalCode":"7100-052","fuels":{"gasoline95":1.939,"gasoline95Plus":1.989,"diesel":2.042,"dieselPremium":2.092},"lastUpdated":"2026-08-15 11:05","extra":{"stationType":"Outro"},"services":["Cafetaria","Loja de Conveniência","WC"],"hours":null,"paymentMethods":["Dinheiro"],"otherServices":null,"observations":null}},{"type":"Feature","geometry":{"type":"Point","coordinates":[-7.614463,38.844765]},"properties":{"id":"pt-94311","source":"PT","name":"GALP Estremoz EN4 (11417)","brand":"GALP","address":"EN 4 ao Km 141,350 (Sentido Lisboa-Elvas)","municipality":"Estremoz","district":"Évora","postalCode":"7100-052","fuels":{"gasoline95":1.939,"gasoline95Plus":1.989,"diesel":2.042,"dieselPremium":2.092},"lastUpdated":"2026-08-15 10:55","extra":{"stationType":"Outro"},"services":["Calibragem de pneus"],"hours":null,"paymentMethods":["Dinheiro"],"otherServices":null,"observations":null}},{"type":"Feature","geometry":{"type":"Point","coordinates":[-7.706178,38.30448]},"properties":{"id":"pt-94416","source":"PT","name":"INTERMARCHÉ Portel","brand":"INTERMARCHÉ","address":"Tapada dos Arcos (Distriportel)","municipality":"Portel","district":"Évora","postalCode":"7220-413","fuels":{"gasoline95":1.867,"diesel":1.961},"lastUpdated":"2026-08-11 20:10","extra":{"stationType":"Outro"},"services":["Calibragem de pneus"],"hours":{"weekdays":"Aberto 24 horas","saturday":"Aberto 24 horas","sunday":"Aberto 24 horas","holiday":"Aberto 24 horas"},"paymentMethods":["Dinheiro"],"otherServices":null,"observations":"Funciona 24 horas através de OPT depois do fecho da loja"}},{"type":"Feature","geometry":{"type":"Point","coordinates":[-7.917911,38.553825]},"properties":{"id":"pt-94493","source":"PT","name":"Galp- SOUSA & MARQUÊZ  (Horta das Figueiras- Évora)","brand":"GALP","address":"Variante Ao Parque Industrial","municipality":"Évora","district":"Évora","postalCode":"7005-872","fuels":{"gasoline95":1.919,"gasoline95Plus":1.969,"diesel":2.022,"dieselPremium":2.072,"lpg":0.969},"lastUpdated":"2026-08-15 18:25","extra":{"stationType":"Outro"},"services":["Calibragem de pneus"],"hours":null,"paymentMethods":["Dinheiro"],"otherServices":null,"observations":null}},{"type":"Feature","geometry":{"type":"Point","coordinates":[-7.986492,38.578465]},"properties":{"id":"pt-94607","source":"PT","name":"Auto Julio Évora","brand":"AUTO JULIO","address":"EN 114, Km 182,5 (sentido Norte-Sul)","municipality":"Évora","district":"Évora","postalCode":"7000-019","fuels":{"gasoline95":1.91,"gasoline95Plus":1.93,"diesel":2.007,"dieselPremium":2.027,"dieselAgri":1.595},"lastUpdated":"2026-08-17 00:15","extra":{"stationType":"Outro"},"services":["Cafetaria","Loja de Conveniência","Multibanco","Venda de gás doméstico em garrafas","Venda de gasóleo agrícola","WC"],"hours":{"weekdays":"Aberto 24 horas","saturday":"Aberto 24 horas","sunday":"Aberto 24 horas","holiday":"Aberto 24 horas"},"paymentMethods":["Dinheiro","MbWay","Multibanco"],"otherServices":null,"observations":"Diariamente a loja do posto abre ás 07:00 e encerra ás 22:00. \nO abastecimento de combustivel é viável 24 Horas"}},{"type":"Feature","geometry":{"type":"Point","coordinates":[-8.185489,38.655468]},"properties":{"id":"pt-95262","source":"PT","name":"PRIO Montemor-o-Novo","brand":"PRIO","address":"Ferragial do Rico, Estrada Nacional 114","municipality":"Montemor-o-Novo","district":"Évora","postalCode":"7050-909","fuels":{"gasoline95":1.999,"gasoline95Plus":1.939,"dieselPremium":2.059,"bioDiesel":2.029},"lastUpdated":"2026-08-17 00:30","extra":{"stationType":"Outro"},"services":["Calibragem de pneus","WC"],"hours":{"weekdays":"Aberto 24 horas","saturday":"Aberto 24 horas","sunday":"Aberto 24 horas","holiday":"Aberto 24 horas"},"paymentMethods":["Dinheiro","MbWay","Multibanco","Outros"],"otherServices":null,"observations":null}}]}