{"type":"FeatureCollection","features":[{"type":"Feature","geometry":{"type":"Point","coordinates":[-8.41658,41.83608]},"properties":{"id":"pt-65125","source":"PT","name":"Teixeira & Loureiro, Ldª","brand":"GALP","address":"EN 101, Km 53,7","municipality":"Arcos de Valdevez","district":"Viana do Castelo","postalCode":"4970-231","fuels":{"gasoline95":2.009,"gasoline95Plus":2.064,"diesel":2.104,"dieselPremium":2.159,"dieselAgri":1.724},"lastUpdated":"2026-08-03 00:05","extra":{"stationType":"Outro"},"services":[],"hours":{"weekdays":"07:00-23:00","saturday":"07:00-23:00","sunday":"07:00-23:00","holiday":"07:00-23:00"},"paymentMethods":["Dinheiro"],"otherServices":null,"observations":null}},{"type":"Feature","geometry":{"type":"Point","coordinates":[-8.8541,41.86046]},"properties":{"id":"pt-65196","source":"PT","name":"Maxiposto - Gestão P. A. de Combustíveis, Lda.","brand":"GALP","address":"EN 13, Km 89,02","municipality":"Caminha","district":"Viana do Castelo","postalCode":"4910-180","fuels":{"gasoline95":2.029,"gasoline95Plus":2.079,"diesel":2.124,"dieselPremium":2.174,"dieselAgri":1.724},"lastUpdated":"2026-08-03 00:05","extra":{"stationType":"Outro"},"services":[],"hours":{"weekdays":"07:00-23:00","saturday":"07:00-23:00","sunday":"07:00-23:00","holiday":"07:00-23:00"},"paymentMethods":["Dinheiro"],"otherServices":null,"observations":null}},{"type":"Feature","geometry":{"type":"Point","coordinates":[-8.488212,42.062589]},"properties":{"id":"pt-65450","source":"PT","name":"Teixeira e Loureiro, lda","brand":"GALP","address":"EN 101, Km 19,600","municipality":"Monção","district":"Viana do Castelo","postalCode":"4950-288","fuels":{"gasoline95":2.009,"gasoline95Plus":2.059,"diesel":2.104,"dieselPremium":2.154,"dieselAgri":1.724},"lastUpdated":"2026-08-03 00:05","extra":{"stationType":"Outro"},"services":[],"hours":{"weekdays":"06:00-23:59","saturday":"06:00-23:59","sunday":"06:00-23:59","holiday":"06:00-23:59"},"paymentMethods":["Dinheiro"],"otherServices":null,"observations":null}},{"type":"Feature","geometry":{"type":"Point","coordinates":[-8.41523,41.80509]},"properties":{"id":"pt-65552","source":"PT","name":"Gonçalo Bouças & Fernandes, Lda.","brand":"GALP","address":"EN 101, Km 57,599 - Rua António José Pereira","municipality":"Ponte da Barca","district":"Viana do Castelo","postalCode":"4980-634","fuels":{"gasoline95":2.049,"gasoline95Plus":2.099,"gasoline98Plus":2.259,"diesel":2.144,"dieselPremium":2.194,"dieselAgri":1.724},"lastUpdated":"2026-08-03 14:45","extra":{"stationType":"Outro"},"services":[],"hours":{"weekdays":"07:00-23:00","saturday":"07:00-23:00","sunday":"07:00-23:00","holiday":"07:00-23:00"},"paymentMethods":["Dinheiro"],"otherServices":null,"observations":null}},{"type":"Feature","geometry":{"type":"Point","coordinates":[-8.58063,41.75301]},"properties":{"id":"pt-65553","source":"PT","name":"J. Pimenta & Filhos, Lda.","brand":"GALP","address":"EN 201 Km 36,46 - Sernados","municipality":"Ponte de Lima","district":"Viana do Castelo","postalCode":"4990-351","fuels":{"gasoline95":2.049,"gasoline95Plus":2.099,"gasoline98Plus":2.259,"diesel":2.144,"dieselPremium":2.194},"lastUpdated":"2026-08-03 00:05","extra":{"stationType":"Outro"},"services":[],"hours":{"weekdays":"06:00-23:00","saturday":"06:00-23:00","sunday":"06:00-23:00","holiday":"06:00-23:00"},"paymentMethods":["Dinheiro"],"otherServices":null,"observations":null}},{"type":"Feature","geometry":{"type":"Point","coordinates":[-8.581007,41.752982]},"properties":{"id":"pt-65554","source":"PT","name":"J Pimenta & Filhos, Ldª","brand":"GALP","address":"EN 201 Km 36,4 - Sernados","municipality":"Ponte de Lima","district":"Viana do Castelo","postalCode":"4990-351","fuels":{"gasoline95":2.049,"gasoline95Plus":2.099,"diesel":2.144,"dieselPremium":2.194,"dieselAgri":1.724},"lastUpdated":"2026-08-03 00:05","extra":{"stationType":"Outro"},"services":[],"hours":{"weekdays":"06:00-23:00","saturday":"06:00-23:00","sunday":"06:00-23:00","holiday":"06:00-23:00"},"paymentMethods":["Dinheiro"],"otherServices":null,"observations":null}},{"type":"Feature","geometry":{"type":"Point","coordinates":[-8.50292,41.78087]},"properties":{"id":"pt-65555","source":"PT","name":"Santos da Cunha 6 - Logística e Transportes, Lda","brand":"GALP","address":"Largo do Terreiro","municipality":"Ponte de Lima","district":"Viana do Castelo","postalCode":"4990-000","fuels":{"gasoline95":2.049,"gasoline95Plus":2.099,"diesel":2.144,"dieselPremium":2.194,"dieselAgri":1.724},"lastUpdated":"2026-08-03 11:40","extra":{"stationType":"Outro"},"services":[],"hours":{"weekdays":"07:00-21:00","saturday":"07:00-21:00","sunday":"07:00-21:00","holiday":"07:00-21:00"},"paymentMethods":["Dinheiro"],"otherServices":null,"observations":null}},{"type":"Feature","geometry":{"type":"Point","coordinates":[-8.64279,42.03276]},"properties":{"id":"pt-65702","source":"PT","name":"Domingos & Júlia Tristão, Lda.","brand":"GALP","address":"Avenida de Espanha - EN 13, Km130.92","municipality":"Valença","district":"Viana do Castelo","postalCode":"4930-677","fuels":{"gasoline95":2.024,"gasoline95Plus":2.074,"diesel":2.114,"dieselPremium":2.164,"dieselAgri":1.724},"lastUpdated":"2026-08-03 06:30","extra":{"stationType":"Outro"},"services":[],"hours":{"weekdays":"07:00-23:00","saturday":"07:00-23:00","sunday":"07:00-23:00","holiday":"07:00-23:00"},"paymentMethods":["Dinheiro"],"otherServices":null,"observations":null}},{"type":"Feature","geometry":{"type":"Point","coordinates":[-8.63926,42.01794]},"properties":{"id":"pt-65703","source":"PT","name":"Costa & Silva, Lda.","brand":"GALP","address":"Troias - EN 13, Km 117,400","municipality":"Valença","district":"Viana do Castelo","postalCode":"4930-000","fuels":{"gasoline95":2.024,"gasoline95Plus":2.074,"diesel":2.114,"dieselPremium":2.164,"dieselAgri":1.724},"lastUpdated":"2026-08-03 00:05","extra":{"stationType":"Outro"},"services":[],"hours":{"weekdays":"07:00-23:00","saturday":"07:00-23:00","sunday":"07:00-23:00","holiday":"07:00-23:00"},"paymentMethods":["Dinheiro"],"otherServices":null,"observations":null}},{"type":"Feature","geometry":{"type":"Point","coordinates":[-8.838212,41.694361]},"properties":{"id":"pt-65713","source":"PT","name":"Sociedade Combustiveis Silva do Vale, Ldª","brand":"GALP","address":"Av. 25 de Abril","municipality":"Viana do Castelo","district":"Viana do Castelo","postalCode":"4900-496","fuels":{"gasoline95":2.024,"gasoline95Plus":2.074,"diesel":2.114,"dieselPremium":2.164,"lpg":0.984},"lastUpdated":"2026-08-03 07:10","extra":{"stationType":"Outro"},"services":[],"hours":{"weekdays":"Aberto 24 horas","saturday":"Aberto 24 horas","sunday":"Aberto 24 horas","holiday":"Aberto 24 horas"},"paymentMethods":["Dinheiro"],"otherServices":null,"observations":null}},{"type":"Feature","geometry":{"type":"Point","coordinates":[-8.71766,41.65249]},"properties":{"id":"pt-65714","source":"PT","name":"António R. O. Amaral & Fº, Ldº ","brand":"GALP","address":"EN 306, Km 32,700","municipality":"Viana do Castelo","district":"Viana do Castelo","postalCode":"4905-515","fuels":{"gasoline95":2.009,"gasoline95Plus":2.059,"diesel":2.104,"dieselPremium":2.154,"dieselAgri":1.724},"lastUpdated":"2026-08-03 07:10","extra":{"stationType":"Outro"},"services":[],"hours":{"weekdays":"07:00-22:00","saturday":"07:00-22:00","sunday":"07:00-22:00","holiday":"07:00-22:00"},"paymentMethods":["Dinheiro"],"otherServices":null,"observations":null}},{"type":"Feature","geometry":{"type":"Point","coordinates":[-8.843521,41.696661]},"properties":{"id":"pt-65716","source":"PT","name":"ANTONIO R. OLIVEIRA AMARAL & FILHO, LDA","brand":"GALP","address":"EN 13, Km 68,926","municipality":"Viana do Castelo","district":"Viana do Castelo","postalCode":"4900-000","fuels":{"gasoline95":2.024,"gasoline95Plus":2.074,"diesel":2.114,"dieselPremium":2.164,"dieselAgri":1.724},"lastUpdated":"2026-08-03 00:05","extra":{"stationType":"Outro"},"services":[],"hours":{"weekdays":"06:00-23:59","saturday":"06:00-23:59","sunday":"06:00-23:59","holiday":"06:00-23:59"},"paymentMethods":["Dinheiro"],"otherServices":null,"observations":null}},{"type":"Feature","geometry":{"type":"Point","coordinates":[-8.71169,41.70589]},"properties":{"id":"pt-65717","source":"PT","name":"ROCHA E COSTA LDA","brand":"GALP","address":"EN 203 - Km 7,200 ","municipality":"Viana do Castelo","district":"Viana do Castelo","postalCode":"4905-254","fuels":{"gasoline95":2.024,"gasoline95Plus":2.074,"diesel":2.114,"dieselPremium":2.164,"dieselAgri":1.724},"lastUpdated":"2026-08-03 00:05","extra":{"stationType":"Outro"},"services":[],"hours":{"weekdays":"07:00-23:00","saturday":"07:00-23:00","sunday":"07:00-23:00","holiday":"07:00-23:00"},"paymentMethods":["Dinheiro"],"otherServices":null,"observations":null}},{"type":"Feature","geometry":{"type":"Point","coordinates":[-8.410305,41.794224]},"properties":{"id":"pt-66007","source":"PT","name":"PA BP Ponte da Barca","brand":"BP","address":"Variante EN 203","municipality":"Ponte da Barca","district":"Viana do Castelo","postalCode":"4980-553","fuels":{"gasoline95":2.099,"gasoline98Plus":2.299,"diesel":2.199,"dieselPremium":2.319,"dieselAgri":1.744},"lastUpdated":"2026-08-03 00:00","extra":{"stationType":"Outro"},"services":["Cafetaria","Loja de Conveniência","Multibanco","WC"],"hours":null,"paymentMethods":["Dinheiro"],"otherServices":null,"observations":null}},{"type":"Feature","geometry":{"type":"Point","coordinates":[-8.821972,41.70718]},"properties":{"id":"pt-66072","source":"PT","name":"PA BP Viana do Castelo","brand":"BP","address":"Av. Abelheira nº 156","municipality":"Viana do Castelo","district":"Viana do Castelo","postalCode":"4900-926","fuels":{"gasoline95":2.059,"gasoline98Plus":2.299,"gasolineMix":2.53,"diesel":2.159,"dieselPremium":2.319},"lastUpdated":"2026-08-04 00:00","extra":{"stationType":"Outro"},"services":["Cafetaria","Loja de Conveniência","Multibanco","WC"],"hours":null,"paymentMethods":["Dinheiro"],"otherServices":null,"observations":null}},{"type":"Feature","geometry":{"type":"Point","coordinates":[-8.586331,41.783]},"properties":{"id":"pt-66101","source":"PT","name":"BP Ponte de Lima - Arcozelo","brand":"BP","address":"EN 306","municipality":"Ponte de Lima","district":"Viana do Castelo","postalCode":"4990-240","fuels":{"gasoline95":2.079,"gasoline98Plus":2.299,"diesel":2.179,"dieselPremium":2.319,"dieselAgri":1.744},"lastUpdated":"2026-08-04 00:00","extra":{"stationType":"Outro"},"services":["Calibragem de pneus"],"hours":{"weekdays":"06:00-22:00","saturday":"06:00-22:00","sunday":"06:00-22:00","holiday":"06:00-22:00"},"paymentMethods":["Dinheiro"],"otherServices":null,"observations":null}},{"type":"Feature","geometry":{"type":"Point","coordinates":[-8.564675,41.912867]},"properties":{"id":"pt-66351","source":"PT","name":"PAREDES DE COURA","brand":"CEPSA","address":"EN 303 (Rua Conselheiro Miguel Dantas)","municipality":"Paredes de Coura","district":"Viana do Castelo","postalCode":"4940-540","fuels":{"gasoline95":2.033,"gasoline98Plus":2.245,"diesel":2.109,"dieselPremium":2.159,"dieselAgri":1.654},"lastUpdated":"2026-07-28 10:30","extra":{"stationType":"Outro"},"services":["Venda de gás doméstico em garrafas","WC"],"hours":{"weekdays":"07:00-23:00","saturday":"07:00-23:00","sunday":"07:00-23:00","holiday":"07:00-23:00"},"paymentMethods":["Dinheiro","MbWay","Multibanco"],"otherServices":null,"observations":null}},{"type":"Feature","geometry":{"type":"Point","coordinates":[-8.584361,41.654131]},"properties":{"id":"pt-66363","source":"PT","name":"CEPSA S. Julião do Freixo","brand":"CEPSA","address":"Largo Domingos Pereira de Araújo","municipality":"Ponte de Lima","district":"Viana do Castelo","postalCode":"4990-445","fuels":{"gasoline95":2.023,"gasoline95Plus":2.073,"diesel":2.119,"dieselPremium":2.169,"dieselAgri":1.664},"lastUpdated":"2026-08-03 11:40","extra":{"stationType":"Outro"},"services":[],"hours":{"weekdays":"07:00-23:00","saturday":"07:00-23:00","sunday":"07:00-23:00","holiday":"07:00-23:00"},"paymentMethods":["Dinheiro"],"otherServices":null,"observations":null}},{"type":"Feature","geometry":{"type":"Point","coordinates":[-8.85879,41.81052]},"properties":{"id":"pt-66806","source":"PT","name":"E.S. V. PRAIA ANCORA","brand":"REPSOL","address":"Rua 31 de Janeiro","municipality":"Caminha","district":"Viana do Castelo","postalCode":"4910-000","fuels":{"gasoline95":2.029,"gasoline95Plus":2.089,"gasoline98Plus":2.219,"diesel":2.119,"dieselPremium":2.179,"dieselAgri":1.734},"lastUpdated":"2026-08-03 00:00","extra":{"stationType":"Outro"},"services":["Assistência auto","Lavagem","Loja de Conveniência","Venda de carburante de qualidade superior","Venda de gás doméstico em garrafas","Venda de gasóleo agrícola","WC"],"hours":{"weekdays":"07:00-00:00","saturday":"07:00-00:00","sunday":"07:00-00:00","holiday":"07:00-00:00"},"paymentMethods":["Dinheiro"],"otherServices":null,"observations":null}},{"type":"Feature","geometry":{"type":"Point","coordinates":[-8.42124,41.85088]},"properties":{"id":"pt-66809","source":"PT","name":"E.S. ARCOS VALDEVEZ","brand":"REPSOL","address":"EN 101 Vila Fonche - Silvares","municipality":"Arcos de Valdevez","district":"Viana do Castelo","postalCode":"4970-483","fuels":{"gasoline95":2.014,"gasoline95Plus":2.079,"gasoline98Plus":2.199,"diesel":2.104,"dieselPremium":2.159},"lastUpdated":"2026-08-03 00:00","extra":{"stationType":"Outro"},"services":["Lavagem","Loja de Conveniência","Venda de carburante de qualidade superior","Venda de gás doméstico em garrafas","WC"],"hours":{"weekdays":"07:00-23:00","saturday":"07:00-23:00","sunday":"07:00-23:00","holiday":"07:00-23:00"},"paymentMethods":["Dinheiro"],"otherServices":null,"observations":null}},{"type":"Feature","geometry":{"type":"Point","coordinates":[-8.59445,41.76644]},"properties":{"id":"pt-66810","source":"PT","name":"E.S. PONTE DE LIMA A","brand":"REPSOL","address":"EN 201 Km 0,76/0,826","municipality":"Ponte de Lima","district":"Viana do Castelo","postalCode":"4990-000","fuels":{"gasoline95":2.079,"gasoline95Plus":2.149,"gasoline98Plus":2.279,"diesel":2.169,"dieselPremium":2.239},"lastUpdated":"2026-08-04 00:00","extra":{"stationType":"Outro"},"services":["Cafetaria","Loja de Conveniência","Venda de carburante de qualidade superior","Venda de gás doméstico em garrafas","WC"],"hours":{"weekdays":"07:00-22:00","saturday":"07:00-22:00","sunday":"07:00-22:00","holiday":"07:00-22:00"},"paymentMethods":["Dinheiro"],"otherServices":null,"observations":null}},{"type":"Feature","geometry":{"type":"Point","coordinates":[-8.5945,41.76622]},"properties":{"id":"pt-66811","source":"PT","name":"E.S. PONTE DE LIMA B","brand":"REPSOL","address":"EN 201 Km 0,76/0,826","municipality":"Ponte de Lima","district":"Viana do Castelo","postalCode":"4990-120","fuels":{"gasoline95":2.079,"gasoline95Plus":2.149,"diesel":2.169,"dieselPremium":2.239,"lpg":0.964},"lastUpdated":"2026-08-04 00:00","extra":{"stationType":"Outro"},"services":["Lavagem","Loja de Conveniência","Multibanco","Venda de carburante de qualidade superior","Venda de gás doméstico em garrafas","WC"],"hours":{"weekdays":"07:00-23:00","saturday":"07:00-23:00","sunday":"07:00-23:00","holiday":"07:00-23:00"},"paymentMethods":["Dinheiro"],"otherServices":null,"observations":null}},{"type":"Feature","geometry":{"type":"Point","coordinates":[-8.58296,41.75936]},"properties":{"id":"pt-66813","source":"PT","name":"E.S. PONTE LIMA CENTRO","brand":"REPSOL","address":"EN 203 Km 400","municipality":"Ponte de Lima","district":"Viana do Castelo","postalCode":"4990-000","fuels":{"gasoline95":2.079,"gasoline95Plus":2.149,"gasoline98Plus":2.279,"diesel":2.169,"dieselPremium":2.239},"lastUpdated":"2026-08-04 00:00","extra":{"stationType":"Outro"},"services":["Lavagem","Loja de Conveniência","Venda de carburante de qualidade superior","Venda de gás doméstico em garrafas","WC"],"hours":{"weekdays":"07:00-00:00","saturday":"07:00-00:00","sunday":"07:00-00:00","holiday":"07:00-00:00"},"paymentMethods":["Dinheiro"],"otherServices":null,"observations":null}},{"type":"Feature","geometry":{"type":"Point","coordinates":[-8.638627,42.015051]},"properties":{"id":"pt-66814","source":"PT","name":"E.S. VALENCA","brand":"REPSOL","address":"EN 13 Km 117 FAVAIS - ARÃO","municipality":"Valença","district":"Viana do Castelo","postalCode":"4930-002","fuels":{"gasoline95":2.029,"gasoline95Plus":2.089,"gasoline98Plus":2.219,"diesel":2.119,"dieselPremium":2.179,"dieselAgri":1.724,"lpg":0.964},"lastUpdated":"2026-08-03 00:00","extra":{"stationType":"Outro"},"services":["Cafetaria","Lavagem","Loja de Conveniência","Venda de carburante de qualidade superior","Venda de gás doméstico em garrafas","Venda de gasóleo agrícola","WC"],"hours":{"weekdays":"Aberto 24 horas","saturday":"Aberto 24 horas","sunday":"Aberto 24 horas","holiday":"Aberto 24 horas"},"paymentMethods":["Dinheiro"],"otherServices":null,"observations":null}},{"type":"Feature","geometry":{"type":"Point","coordinates":[-8.85725,41.80161]},"properties":{"id":"pt-67027","source":"PT","name":"INTERMARCHE ÂNCORA","brand":"INTERMARCHÉ","address":"POÇO LINHO - EN 13","municipality":"Caminha","district":"Viana do Castelo","postalCode":"4910-011","fuels":{"gasoline95":1.929,"gasoline98":2.029,"diesel":2.009,"dieselPremium":2.049},"lastUpdated":"2026-08-03 17:55","extra":{"stationType":"Área comercial (Hipermercados)"},"services":["Cafetaria","Calibragem de pneus","Lavagem","Multibanco","Venda de gás doméstico em garrafas","WC"],"hours":{"weekdays":"07:30-20:00","saturday":"07:30-20:00","sunday":"09:00-20:00","holiday":"09:00-20:00"},"paymentMethods":["Dinheiro"],"otherServices":null,"observations":"O posto po"}},{"type":"Feature","geometry":{"type":"Point","coordinates":[-8.534441,41.793465]},"properties":{"id":"pt-67055","source":"PT","name":"P18 - PRIO Refoios do Lima","brand":"PRIO","address":"Lugar de Bairro, N202 - Refoios do Lima","municipality":"Ponte de Lima","district":"Viana do Castelo","postalCode":"4990-036","fuels":{"gasoline95":2.009,"gasoline95Plus":1.974,"dieselPremium":2.064,"dieselAgri":1.624,"bioDiesel":2.034},"lastUpdated":"2026-08-03 00:00","extra":{"stationType":"Outro"},"services":["Calibragem de pneus"],"hours":{"weekdays":"07:00-23:00","saturday":"07:00-23:00","sunday":"07:00-23:00","holiday":"07:00-23:00"},"paymentMethods":["Dinheiro","MbWay","Multibanco","Outros"],"otherServices":null,"observations":null}},{"type":"Feature","geometry":{"type":"Point","coordinates":[-8.609926,41.744167]},"properties":{"id":"pt-67056","source":"PT","name":"P16 - PRIO Correlhã","brand":"PRIO","address":"Rua Vila Corneliana","municipality":"Ponte de Lima","district":"Viana do Castelo","postalCode":"4990-107","fuels":{"gasoline95":2.009,"gasoline95Plus":1.949,"dieselPremium":2.039,"dieselAgri":1.624,"bioDiesel":2.009},"lastUpdated":"2026-08-03 00:00","extra":{"stationType":"Outro"},"services":["Calibragem de pneus"],"hours":{"weekdays":"07:00-23:00","saturday":"07:00-23:00","sunday":"07:00-23:00","holiday":"07:00-23:00"},"paymentMethods":["Dinheiro","MbWay","Multibanco","Outros"],"otherServices":null,"observations":null}},{"type":"Feature","geometry":{"type":"Point","coordinates":[-8.802695,41.707028]},"properties":{"id":"pt-67069","source":"PT","name":"Teixeira & Martins - Automóveis, Ldª","brand":"GALP","address":"Avenida da Igreja ","municipality":"Viana do Castelo","district":"Viana do Castelo","postalCode":"4900-717","fuels":{"gasoline95":2.024,"gasoline95Plus":2.074,"diesel":2.114,"dieselPremium":2.164},"lastUpdated":"2026-08-03 06:15","extra":{"stationType":"Outro"},"services":["Cafetaria","Lavagem","Loja de Conveniência","Venda de gás doméstico em garrafas","WC","WC com fraldário","WC para deficientes"],"hours":{"weekdays":"07:00-00:00","saturday":"07:00-00:00","sunday":"07:00-00:00","holiday":"07:00-00:00"},"paymentMethods":["Dinheiro"],"otherServices":null,"observations":null}},{"type":"Feature","geometry":{"type":"Point","coordinates":[-8.78236,41.70695]},"properties":{"id":"pt-67762","source":"PT","name":"PA BP Portuzelo (Viana do Castelo)","brand":"BP","address":"Rua da Forneira, nº 1","municipality":"Viana do Castelo","district":"Viana do Castelo","postalCode":"4925-059","fuels":{"gasoline95":2.059,"gasoline98Plus":2.299,"diesel":2.159,"dieselPremium":2.319,"dieselAgri":1.744},"lastUpdated":"2026-08-04 00:00","extra":{"stationType":"Outro"},"services":["Cafetaria","Loja de Conveniência","Multibanco","WC"],"hours":null,"paymentMethods":["Dinheiro"],"otherServices":null,"observations":null}},{"type":"Feature","geometry":{"type":"Point","coordinates":[-8.675111,41.734606]},"properties":{"id":"pt-67829","source":"PT","name":"ALVES BANDEIRA Lanheses","brand":"ALVES BANDEIRA","address":"Largo da Feira - E.N. 202","municipality":"Viana do Castelo","district":"Viana do Castelo","postalCode":"4925-411","fuels":{"gasoline95":2.039,"gasoline98":2.189,"diesel":2.124,"dieselPremium":2.144,"dieselAgri":1.699},"lastUpdated":"2026-08-03 11:25","extra":{"stationType":"Outro"},"services":["Cafetaria","Loja de Conveniência","Venda de gás doméstico em garrafas","Venda de gasóleo agrícola","WC"],"hours":{"weekdays":"07:00-22:00","saturday":"07:00-22:00","sunday":"07:00-22:00","holiday":"07:00-22:00"},"paymentMethods":["Dinheiro","MbWay","Multibanco","Outros"],"otherServices":null,"observations":null}},{"type":"Feature","geometry":{"type":"Point","coordinates":[-8.742193,41.94719]},"properties":{"id":"pt-68015","source":"PT","name":"JBR Vila Nova Cerveira  (Centro) - Pronto","brand":"Genérico","address":"Av. das Comunidades Portuguesas","municipality":"Vila Nova de Cerveira","district":"Viana do Castelo","postalCode":"4920-075","fuels":{"gasoline95":2.003,"gasoline98Plus":2.209,"diesel":2.098,"dieselPremium":2.198},"lastUpdated":"2026-07-27 16:15","extra":{"stationType":"Outro"},"services":["Calibragem de pneus"],"hours":null,"paymentMethods":["Dinheiro"],"otherServices":null,"observations":null}},{"type":"Feature","geometry":{"type":"Point","coordinates":[-8.746082,41.937122]},"properties":{"id":"pt-68321","source":"PT","name":"JBR V. N. Cerveira ( E. N. 13 Km 103, Oeste) - Pronto","brand":"Genérico","address":"E.N. 13 Km 103,20","municipality":"Vila Nova de Cerveira","district":"Viana do Castelo","postalCode":"4920-222","fuels":{"gasoline95":2.003,"gasoline98Plus":2.209,"diesel":2.098,"dieselPremium":2.198},"lastUpdated":"2026-07-27 16:15","extra":{"stationType":"Outro"},"services":["Calibragem de pneus"],"hours":null,"paymentMethods":["Dinheiro"],"otherServices":null,"observations":null}},{"type":"Feature","geometry":{"type":"Point","coordinates":[-8.74687,41.93599]},"properties":{"id":"pt-68322","source":"PT","name":"JBR Vila Nova Cerveira II - Pronto","brand":"PRONTO","address":"EN 13 Km 102,88","municipality":"Vila Nova de Cerveira","district":"Viana do Castelo","postalCode":"4920-222","fuels":{"gasoline95":2.003,"gasoline98Plus":2.209,"diesel":2.098,"dieselPremium":2.198},"lastUpdated":"2026-07-27 16:20","extra":{"stationType":"Outro"},"services":[],"hours":{"weekdays":"Fechado","saturday":"Fechado","sunday":"Fechado","holiday":"Fechado"},"paymentMethods":["Dinheiro"],"otherServices":null,"observations":null}},{"type":"Feature","geometry":{"type":"Point","coordinates":[-8.68424,41.88033]},"properties":{"id":"pt-68339","source":"PT","name":"JBR Covas - Pronto","brand":"PRONTO","address":"Ponte Nova","municipality":"Vila Nova de Cerveira","district":"Viana do Castelo","postalCode":"4920-042","fuels":{"gasoline95":2.029,"diesel":2.161,"dieselPremium":2.193,"dieselAgri":1.791},"lastUpdated":"2026-07-27 16:15","extra":{"stationType":"Outro"},"services":["Venda de gasóleo agrícola"],"hours":{"weekdays":"Fechado","saturday":"Fechado","sunday":"Fechado","holiday":"Fechado"},"paymentMethods":["Dinheiro"],"otherServices":null,"observations":null}},{"type":"Feature","geometry":{"type":"Point","coordinates":[-8.55911,41.90978]},"properties":{"id":"pt-68597","source":"PT","name":"BP Paredes de Coura","brand":"BP","address":"Rua Dr. Narciso Alves da Cunha","municipality":"Paredes de Coura","district":"Viana do Castelo","postalCode":"4940-538","fuels":{"gasoline95":1.999,"gasoline98Plus":2.299,"diesel":2.099,"dieselPremium":2.319,"dieselAgri":1.644},"lastUpdated":"2026-08-04 00:00","extra":{"stationType":"Outro"},"services":["Multibanco","Venda de gás doméstico em garrafas","Venda de gasóleo agrícola","Venda de gasóleo para aquecimento","WC"],"hours":{"weekdays":"07:30-22:30","saturday":"07:30-22:30","sunday":"07:30-22:30","holiday":"07:30-22:30"},"paymentMethods":["Dinheiro"],"otherServices":null,"observations":"Venda de gasóleo de aquecimento ao domicilio."}},{"type":"Feature","geometry":{"type":"Point","coordinates":[-8.775702,41.660305]},"properties":{"id":"pt-69063","source":"PT","name":"A28 VIANA DO CASTELO (POR/VNC)","brand":"CEPSA","address":"A28 (ANTIGO IC 1), KM 372, VILA NOVA DE ANHA, APT. 52","municipality":"Viana do Castelo","district":"Viana do Castelo","postalCode":"4905-999","fuels":{"gasoline95":2.104,"gasoline98Plus":2.316,"diesel":2.189,"dieselPremium":2.239,"lpg":0.976},"lastUpdated":"2026-08-03 00:00","extra":{"stationType":"Auto-estrada"},"services":["Loja de Conveniência","Multibanco","Restaurante","WC"],"hours":null,"paymentMethods":["Dinheiro"],"otherServices":null,"observations":null}},{"type":"Feature","geometry":{"type":"Point","coordinates":[-8.777017,41.660038]},"properties":{"id":"pt-69065","source":"PT","name":"A28 VIANA DO CASTELO (VNC/POR)","brand":"CEPSA","address":"A28 (ANTIGO IC 1), KM 372, VILA NOVA DE ANHA, APT. 52","municipality":"Viana do Castelo","district":"Viana do Castelo","postalCode":"4905-999","fuels":{"gasoline95":2.104,"gasoline98Plus":2.316,"diesel":2.189,"dieselPremium":2.239,"lpg":0.976},"lastUpdated":"2026-08-03 00:00","extra":{"stationType":"Auto-estrada"},"services":["Loja de Conveniência","Multibanco","Restaurante","WC"],"hours":null,"paymentMethods":["Dinheiro"],"otherServices":null,"observations":null}},{"type":"Feature","geometry":{"type":"Point","coordinates":[-8.25743,42.10533]},"properties":{"id":"pt-69153","source":"PT","name":"Manuel Artur Rodrigues","brand":"BEQ","address":"Prazos-Roussas","municipality":"Melgaço","district":"Viana do Castelo","postalCode":"4960-380","fuels":{"gasoline95":2.06,"gasoline98":2.25,"diesel":2.12,"dieselPremium":2.18,"dieselHeating":2.03,"dieselAgri":1.69},"lastUpdated":"2026-07-28 07:35","extra":{"stationType":"Outro"},"services":[],"hours":{"weekdays":"07:00-23:00","saturday":"07:00-23:00","sunday":"07:00-23:00","holiday":"07:00-23:00"},"paymentMethods":["Dinheiro"],"otherServices":null,"observations":null}},{"type":"Feature","geometry":{"type":"Point","coordinates":[-8.194456,42.05189]},"properties":{"id":"pt-69228","source":"PT","name":"PETRO  LAMAS","brand":"FREITAS","address":"Lugar da Igreja","municipality":"Melgaço","district":"Viana do Castelo","postalCode":"4960-170","fuels":{"gasoline95":2.06,"gasoline98":2.24,"gasolineMix":2.7,"diesel":2.138,"dieselPremium":2.168,"dieselHeating":2.08,"dieselAgri":1.715},"lastUpdated":"2026-08-03 13:25","extra":{"stationType":"Outro"},"services":["Lavagem","Venda de gás doméstico em garrafas"],"hours":{"weekdays":"07:00-23:00","saturday":"07:00-23:00","sunday":"07:00-23:00","holiday":"07:00-23:00"},"paymentMethods":["Dinheiro","Multibanco"],"otherServices":null,"observations":null}},{"type":"Feature","geometry":{"type":"Point","coordinates":[-8.640773,41.972065]},"properties":{"id":"pt-69357","source":"PT","name":"TF GEST Cerdal_Viana do Castelo","brand":"FREITAS","address":"Rua da Povoença Passos","municipality":"Valença","district":"Viana do Castelo","postalCode":"4930-106","fuels":{"gasoline95":2.019,"gasoline98Plus":2.249,"diesel":2.079,"dieselPremium":2.109,"dieselAgri":1.649},"lastUpdated":"2026-07-28 07:00","extra":{"stationType":"Outro"},"services":["Calibragem de pneus"],"hours":null,"paymentMethods":["Dinheiro"],"otherServices":null,"observations":null}},{"type":"Feature","geometry":{"type":"Point","coordinates":[-8.62991,41.93138]},"properties":{"id":"pt-69398","source":"PT","name":"Gepoil | Prio Paredes de Coura ","brand":"PRIO","address":"EN 201 km 8,600 Cossourado - S. Bento da Porta Aberta","municipality":"Paredes de Coura","district":"Viana do Castelo","postalCode":"4940-132","fuels":{"gasoline95":2.009,"gasoline95Plus":1.979,"diesel":2.119,"dieselPremium":2.079,"dieselHeating":2.079,"dieselAgri":1.674},"lastUpdated":"2026-08-03 12:10","extra":{"stationType":"Outro"},"services":["Calibragem de pneus"],"hours":null,"paymentMethods":["Dinheiro"],"otherServices":null,"observations":null}},{"type":"Feature","geometry":{"type":"Point","coordinates":[-8.25716,42.10617]},"properties":{"id":"pt-69583","source":"PT","name":"CEPSA Melgaço (Roussas)","brand":"CEPSA","address":"Rua de Corsães nº 599","municipality":"Melgaço","district":"Viana do Castelo","postalCode":"4960-364","fuels":{"gasoline95":2.083,"gasoline98Plus":2.295,"diesel":2.159,"dieselPremium":2.209,"dieselHeating":2.0,"dieselAgri":1.704},"lastUpdated":"2026-07-28 10:35","extra":{"stationType":"Outro"},"services":["Calibragem de pneus"],"hours":null,"paymentMethods":["Dinheiro"],"otherServices":null,"observations":null}},{"type":"Feature","geometry":{"type":"Point","coordinates":[-8.70257,41.64753]},"properties":{"id":"pt-70202","source":"PT","name":"PRIO Barroselas","brand":"PRIO","address":"Rua da Estação","municipality":"Viana do Castelo","district":"Viana do Castelo","postalCode":"4905-311","fuels":{"gasoline95":1.924,"dieselPremium":2.039,"bioDiesel":2.009},"lastUpdated":"2026-08-03 00:00","extra":{"stationType":"Outro"},"services":["Cafetaria","Loja de Conveniência","Venda de carburante de qualidade superior","Venda de gás doméstico em garrafas","WC","WC para deficientes"],"hours":{"weekdays":"07:00-23:00","saturday":"07:00-23:00","sunday":"07:00-23:00","holiday":"07:00-23:00"},"paymentMethods":["Dinheiro","MbWay","Multibanco","Outros"],"otherServices":null,"observations":null}},{"type":"Feature","geometry":{"type":"Point","coordinates":[-8.86244,41.76837]},"properties":{"id":"pt-71584","source":"PT","name":"E.S. AFIFE","brand":"REPSOL","address":"Estrada Nacional 13, Km 91","municipality":"Viana do Castelo","district":"Viana do Castelo","postalCode":"4900-058","fuels":{"gasoline95":2.029,"gasoline95Plus":2.089,"diesel":2.119,"dieselPremium":2.179,"dieselAgri":1.734},"lastUpdated":"2026-08-03 00:00","extra":{"stationType":"Outro"},"services":["Assistência auto","Lavagem","Loja de Conveniência","Venda de carburante de qualidade superior","Venda de gás doméstico em garrafas","WC"],"hours":{"weekdays":"07:00-23:00","saturday":"07:00-23:00","sunday":"07:00-23:00","holiday":"07:00-23:00"},"paymentMethods":["Dinheiro"],"otherServices":null,"observations":null}},{"type":"Feature","geometry":{"type":"Point","coordinates":[-8.60884,41.74476]},"properties":{"id":"pt-71800","source":"PT","name":"BP CORRELHÃ","brand":"BP","address":"EN 203","municipality":"Ponte de Lima","district":"Viana do Castelo","postalCode":"4990-297","fuels":{"gasoline95":2.099,"gasoline98Plus":2.299,"diesel":2.199,"dieselPremium":2.319,"dieselAgri":1.744},"lastUpdated":"2026-08-03 00:05","extra":{"stationType":"Outro"},"services":["Cafetaria","Lavagem","Loja de Conveniência","Venda de gás doméstico em garrafas","Venda de gasóleo agrícola","Venda de gasóleo para aquecimento"],"hours":{"weekdays":"06:00-00:00","saturday":"06:00-00:00","sunday":"06:00-00:00","holiday":"06:00-00:00"},"paymentMethods":["Dinheiro"],"otherServices":null,"observations":null}},{"type":"Feature","geometry":{"type":"Point","coordinates":[-8.7667,41.68043]},"properties":{"id":"pt-71986","source":"PT","name":"INTERMARCHÉ   MAZAREFES","brand":"INTERMARCHÉ","address":"Mazarefes (EN 203)","municipality":"Viana do Castelo","district":"Viana do Castelo","postalCode":"4935-443","fuels":{"gasoline95":1.919,"gasoline98":2.019,"diesel":1.979,"dieselPremium":2.009},"lastUpdated":"2026-07-28 09:10","extra":{"stationType":"Outro"},"services":["Cafetaria","Calibragem de pneus","Multibanco","Venda de gás doméstico em garrafas","WC","WC com fraldário","WC para deficientes"],"hours":{"weekdays":"Aberto 24 horas","saturday":"Aberto 24 horas","sunday":"Aberto 24 horas","holiday":"Aberto 24 horas"},"paymentMethods":["Dinheiro","MbWay","Multibanco","Outros"],"otherServices":null,"observations":null}},{"type":"Feature","geometry":{"type":"Point","coordinates":[-8.804821,41.64216]},"properties":{"id":"pt-76167","source":"PT","name":"ALVES BANDEIRA Chafé","brand":"ALVES BANDEIRA","address":"Estrada da Amorosa","municipality":"Viana do Castelo","district":"Viana do Castelo","postalCode":"4935-580","fuels":{"gasoline95":2.039,"gasoline98":2.189,"diesel":2.124,"dieselPremium":2.144,"dieselAgri":1.699},"lastUpdated":"2026-08-03 11:20","extra":{"stationType":"Outro"},"services":["Calibragem de pneus"],"hours":null,"paymentMethods":["Dinheiro","MbWay","Multibanco","Outros"],"otherServices":null,"observations":null}},{"type":"Feature","geometry":{"type":"Point","coordinates":[-8.50755,42.06306]},"properties":{"id":"pt-76323","source":"PT","name":"PD MONÇÃO","brand":"PINGO DOCE","address":"EN 101","municipality":"Monção","district":"Viana do Castelo","postalCode":"4950-298","fuels":{"gasoline95":1.943,"gasoline98Plus":2.299,"diesel":2.001,"dieselPremium":2.319},"lastUpdated":"2026-08-04 00:00","extra":{"stationType":"Outro"},"services":[],"hours":{"weekdays":"Aberto 24 horas","saturday":"Aberto 24 horas","sunday":"Aberto 24 horas","holiday":"Aberto 24 horas"},"paymentMethods":["Dinheiro"],"otherServices":null,"observations":null}},{"type":"Feature","geometry":{"type":"Point","coordinates":[-8.85911,41.72409]},"properties":{"id":"pt-76462","source":"PT","name":"INTERMARCHE AREOSA","brand":"INTERMARCHÉ","address":"Av. Além Rio","municipality":"Viana do Castelo","district":"Viana do Castelo","postalCode":"4900-580","fuels":{"gasoline95":1.929,"gasoline98":2.029,"diesel":2.009,"dieselPremium":2.049},"lastUpdated":"2026-08-03 20:00","extra":{"stationType":"Outro"},"services":["Cafetaria","Calibragem de pneus","Lavagem","Multibanco","Venda de gás doméstico em garrafas","WC"],"hours":{"weekdays":"07:30-20:00","saturday":"07:30-20:00","sunday":"09:00-20:00","holiday":"07:30-20:00"},"paymentMethods":["Dinheiro","Multibanco"],"otherServices":null,"observations":"terminal abastecimento 24 horas"}},{"type":"Feature","geometry":{"type":"Point","coordinates":[-8.821651,41.695625]},"properties":{"id":"pt-79292","source":"PT","name":"JBR Viana do Castelo ( Av. Camões) - Pronto","brand":"Genérico","address":"Praça Galiza","municipality":"Viana do Castelo","district":"Viana do Castelo","postalCode":"4900-000","fuels":{"gasoline95":1.969,"gasoline95Plus":1.929,"diesel":2.057,"dieselPremium":2.004},"lastUpdated":"2026-07-27 16:05","extra":{"stationType":"Outro"},"services":["Calibragem de pneus"],"hours":null,"paymentMethods":["Dinheiro","Multibanco"],"otherServices":null,"observations":null}},{"type":"Feature","geometry":{"type":"Point","coordinates":[-8.418253,41.81428]},"properties":{"id":"pt-87393","source":"PT","name":"ARCOS DE VALDEVEZ INTERMARCHE","brand":"INTERMARCHÉ","address":"LUGAR DE ATAÚDE FREGUESIA DE PAÇÔ","municipality":"Arcos de Valdevez","district":"Viana do Castelo","postalCode":"4970-235","fuels":{"gasoline95":1.909,"gasoline98":2.006,"diesel":1.989,"dieselPremium":2.019},"lastUpdated":"2026-07-28 07:30","extra":{"stationType":"Área comercial (Hipermercados)"},"services":["Calibragem de pneus"],"hours":{"weekdays":"07:30-21:00","saturday":"07:30-21:00","sunday":"07:30-21:00","holiday":"07:30-21:00"},"paymentMethods":["Dinheiro","Multibanco"],"otherServices":null,"observations":null}},{"type":"Feature","geometry":{"type":"Point","coordinates":[-8.42645,41.859408]},"properties":{"id":"pt-90884","source":"PT","name":"bp ribeirinho","brand":"BP","address":"Rua Ponte Velha, n 25Ribeirinho","municipality":"Arcos de Valdevez","district":"Viana do Castelo","postalCode":"4970-272","fuels":{"gasoline95":2.099,"gasoline98Plus":2.299,"diesel":2.199,"dieselPremium":2.319,"dieselAgri":1.744,"lpg":0.999},"lastUpdated":"2026-08-02 20:00","extra":{"stationType":"Outro"},"services":["Cafetaria","Loja de Conveniência","Venda de gás doméstico em garrafas","WC","WC com fraldário","WC para deficientes"],"hours":{"weekdays":"07:00-23:00","saturday":"07:00-23:00","sunday":"07:00-23:00","holiday":"07:00-23:00"},"paymentMethods":["Dinheiro","Multibanco"],"otherServices":null,"observations":null}},{"type":"Feature","geometry":{"type":"Point","coordinates":[-8.574915,41.771694]},"properties":{"id":"pt-91465","source":"PT","name":"RAPEL - PONTE DE LIMA","brand":"Genérico","address":"R. Lebre, Nº 5 ","municipality":"Ponte de Lima","district":"Viana do Castelo","postalCode":"4990-374","fuels":{"gasoline95":1.93,"gasoline95Plus":1.94,"diesel":1.989,"dieselPremium":1.999},"lastUpdated":"2026-08-03 15:35","extra":{"stationType":"Outro"},"services":["Cafetaria","Loja de Conveniência","Multibanco","Venda de gás doméstico em garrafas","WC"],"hours":{"weekdays":"07:00-23:00","saturday":"07:00-23:00","sunday":"07:00-23:00","holiday":"07:00-23:00"},"paymentMethods":["Dinheiro"],"otherServices":null,"observations":null}},{"type":"Feature","geometry":{"type":"Point","coordinates":[-8.8084,41.68177]},"properties":{"id":"pt-92158","source":"PT","name":"BP Darque","brand":"BP","address":"Av. 1º Maio, EN 13, Km 64\nDarque","municipality":"Viana do Castelo","district":"Viana do Castelo","postalCode":"4935-129","fuels":{"gasoline95":2.049,"gasoline98Plus":2.299,"diesel":2.149,"dieselPremium":2.319},"lastUpdated":"2026-08-03 09:05","extra":{"stationType":"Outro"},"services":["Cafetaria","Loja de Conveniência","Multibanco","Venda de gás doméstico em garrafas","WC"],"hours":{"weekdays":"07:00-23:00","saturday":"07:00-23:00","sunday":"07:00-23:00","holiday":"07:00-23:00"},"paymentMethods":["Dinheiro"],"otherServices":null,"observations":null}},{"type":"Feature","geometry":{"type":"Point","coordinates":[-8.80188,41.70683]},"properties":{"id":"pt-92322","source":"PT","name":"ECOBRENT - Viana do Castelo","brand":"ECOBRENT","address":"Rua dos Carregais, 106","municipality":"Viana do Castelo","district":"Viana do Castelo","postalCode":"4900-665","fuels":{"gasoline95":1.929,"gasoline95Plus":1.959,"diesel":2.014,"dieselPremium":2.044,"lpg":0.949},"lastUpdated":"2026-08-03 15:40","extra":{"stationType":"Outro"},"services":["Calibragem de pneus"],"hours":null,"paymentMethods":["Dinheiro"],"otherServices":null,"observations":null}},{"type":"Feature","geometry":{"type":"Point","coordinates":[-8.42205,41.83436]},"properties":{"id":"pt-92406","source":"PT","name":"Galp Guilhadeses","brand":"GALP","address":"EN 202 - Quinta Carvalhas, Lt 18","municipality":"Arcos de Valdevez","district":"Viana do Castelo","postalCode":"4970-786","fuels":{"gasoline95":2.009,"gasoline95Plus":2.064,"gasoline98Plus":2.219,"diesel":2.104,"dieselPremium":2.159,"dieselAgri":1.724},"lastUpdated":"2026-08-03 06:25","extra":{"stationType":"Outro"},"services":[],"hours":{"weekdays":"06:00-22:00","saturday":"06:00-22:00","sunday":"06:00-22:00","holiday":"06:00-22:00"},"paymentMethods":["Dinheiro"],"otherServices":null,"observations":null}},{"type":"Feature","geometry":{"type":"Point","coordinates":[-8.530998,42.056812]},"properties":{"id":"pt-93129","source":"PT","name":"P45 - PRIO Monção","brand":"PRIO","address":"Tornada - União de Freguesias de Troporiz e Lapela","municipality":"Monção","district":"Viana do Castelo","postalCode":"4950-142","fuels":{"gasoline95":2.009,"gasoline95Plus":1.904,"dieselPremium":2.014,"dieselAgri":1.624,"bioDiesel":1.984},"lastUpdated":"2026-08-03 00:00","extra":{"stationType":"Outro"},"services":["Cafetaria","Calibragem de pneus","Lavagem","Venda de gás doméstico em garrafas","WC"],"hours":{"weekdays":"06:00-22:00","saturday":"06:00-22:00","sunday":"06:00-22:00","holiday":"06:00-22:00"},"paymentMethods":["Dinheiro","MbWay","Multibanco","Outros"],"otherServices":null,"observations":null}},{"type":"Feature","geometry":{"type":"Point","coordinates":[-8.820441,41.893284]},"properties":{"id":"pt-93361","source":"PT","name":"BP Seixas","brand":"BP","address":"Avenida Joaquim Maria Portela - EN 13 (IC1), Km 94,060","municipality":"Caminha","district":"Viana do Castelo","postalCode":"4910-348","fuels":{"gasoline95":2.099,"gasoline98Plus":2.299,"diesel":2.199,"dieselPremium":2.319},"lastUpdated":"2026-08-03 11:55","extra":{"stationType":"Outro"},"services":["Calibragem de pneus"],"hours":null,"paymentMethods":["Dinheiro"],"otherServices":null,"observations":null}},{"type":"Feature","geometry":{"type":"Point","coordinates":[-8.783506,41.677635]},"properties":{"id":"pt-93396","source":"PT","name":"E.LECLERC VIANA DO CASTELO (COMBUSTIVEIS)","brand":"LECLERC","address":"Lugar de Santoinho – Quinta de São Brás","municipality":"Viana do Castelo","district":"Viana do Castelo","postalCode":"4935-052","fuels":{"gasoline95":1.909,"gasoline95Plus":1.939,"diesel":1.994,"dieselPremium":2.024},"lastUpdated":"2026-08-03 21:30","extra":{"stationType":"Outro"},"services":["Cafetaria","Lavagem","Loja de Conveniência","Multibanco","Restaurante","Venda de gás doméstico em garrafas"],"hours":{"weekdays":"00:00-00:00","saturday":"00:00-00:00","sunday":"00:00-00:00","holiday":"00:00-00:00"},"paymentMethods":["Dinheiro","MbWay","Multibanco","Outros"],"otherServices":"venda de ADBLUE","observations":null}},{"type":"Feature","geometry":{"type":"Point","coordinates":[-8.50528,42.06463]},"properties":{"id":"pt-93430","source":"PT","name":"GASOLAR-MONÇÃO","brand":"GASOLAR","address":"EN 101","municipality":"Monção","district":"Viana do Castelo","postalCode":"4950-000","fuels":{"gasoline95":1.969,"diesel":1.949,"dieselPremium":1.979,"dieselAgri":1.559},"lastUpdated":"2026-08-04 00:00","extra":{"stationType":"Outro"},"services":[],"hours":{"weekdays":"07:00-21:00","saturday":"07:00-21:00","sunday":"08:00-21:00","holiday":"08:00-21:00"},"paymentMethods":["Dinheiro"],"otherServices":null,"observations":null}},{"type":"Feature","geometry":{"type":"Point","coordinates":[-8.79339,41.90873]},"properties":{"id":"pt-93431","source":"PT","name":"GASOLAR - CAMINHA","brand":"GASOLAR","address":"Estrada Nacional 13 , 1248","municipality":"Caminha","district":"Viana do Castelo","postalCode":"4910-204","fuels":{"gasoline95":1.969,"diesel":2.039,"dieselPremium":2.069,"dieselAgri":1.689,"lpg":0.999},"lastUpdated":"2026-08-04 00:00","extra":{"stationType":"Outro"},"services":[],"hours":{"weekdays":"07:00-21:00","saturday":"07:00-21:00","sunday":"08:00-21:00","holiday":"08:00-21:00"},"paymentMethods":["Dinheiro"],"otherServices":null,"observations":null}},{"type":"Feature","geometry":{"type":"Point","coordinates":[-8.742154,41.71166]},"properties":{"id":"pt-93572","source":"PT","name":"MOEVE Viana do Castelo - Cardielos","brand":"MOEVE","address":"EN 202, Km 7550 - Lugar do Porto","municipality":"Viana do Castelo","district":"Viana do Castelo","postalCode":"4925-347","fuels":{"gasoline95":1.993,"gasoline95Plus":2.088,"gasoline98Plus":2.25,"diesel":2.089,"dieselPremium":2.194,"dieselAgri":1.714,"lpg":0.986},"lastUpdated":"2026-08-03 00:05","extra":{"stationType":"Outro"},"services":["Calibragem de pneus"],"hours":{"weekdays":"06:00-21:00","saturday":"06:00-21:00","sunday":"06:00-21:00","holiday":"00:00-00:00"},"paymentMethods":["Dinheiro"],"otherServices":null,"observations":null}},{"type":"Feature","geometry":{"type":"Point","coordinates":[-8.779241,41.68191]},"properties":{"id":"pt-93586","source":"PT","name":"PLENERGY Viana do Castelo I","brand":"PLENERGY","address":"Variante à N203","municipality":"Viana do Castelo","district":"Viana do Castelo","postalCode":"4935-238","fuels":{"gasoline95":1.919,"gasoline95Plus":1.949,"diesel":1.979,"dieselPremium":2.009},"lastUpdated":"2026-07-29 11:00","extra":{"stationType":"Outro"},"services":["Calibragem de pneus"],"hours":{"weekdays":"Aberto 24 horas","saturday":"Aberto 24 horas","sunday":"Aberto 24 horas","holiday":"Aberto 24 horas"},"paymentMethods":["Dinheiro","Multibanco"],"otherServices":null,"observations":null}},{"type":"Feature","geometry":{"type":"Point","coordinates":[-8.42791,41.87246]},"properties":{"id":"pt-93590","source":"PT","name":"Moeve - Prozelo","brand":"MOEVE","address":"Lugar de Estanque - Prozelo","municipality":"Arcos de Valdevez","district":"Viana do Castelo","postalCode":"4970-285","fuels":{"gasoline95":2.028,"gasoline95Plus":2.088,"gasoline98Plus":2.25,"diesel":2.119,"dieselPremium":2.194,"dieselAgri":1.714},"lastUpdated":"2026-08-03 00:05","extra":{"stationType":"Outro"},"services":["Calibragem de pneus"],"hours":{"weekdays":"07:00-23:00","saturday":"07:00-23:00","sunday":"07:00-23:00","holiday":"00:00-00:00"},"paymentMethods":["Dinheiro"],"otherServices":null,"observations":null}},{"type":"Feature","geometry":{"type":"Point","coordinates":[-8.414764,41.7865]},"properties":{"id":"pt-93591","source":"PT","name":"Moeve Ponte da Barca","brand":"MOEVE","address":"Rua S. Tomé, 377","municipality":"Ponte da Barca","district":"Viana do Castelo","postalCode":"4980-798","fuels":{"gasoline95":1.993,"gasoline95Plus":2.088,"gasoline98":2.25,"diesel":2.089,"dieselPremium":2.194,"dieselAgri":1.714},"lastUpdated":"2026-08-03 00:05","extra":{"stationType":"Área comercial (Hipermercados)"},"services":["Cafetaria","Loja de Conveniência","WC"],"hours":null,"paymentMethods":["Dinheiro"],"otherServices":null,"observations":null}},{"type":"Feature","geometry":{"type":"Point","coordinates":[-8.8022,41.7101]},"properties":{"id":"pt-93593","source":"PT","name":"E.S. MEADELA - V. CASTELO","brand":"REPSOL","address":"RUA DAS CARAMONAS - MEADELA","municipality":"Viana do Castelo","district":"Viana do Castelo","postalCode":"4900-663","fuels":{"gasoline95":2.039,"gasoline95Plus":2.099,"gasoline98Plus":2.229,"diesel":2.129,"dieselPremium":2.189},"lastUpdated":"2026-08-03 00:00","extra":{"stationType":"Outro"},"services":["Cafetaria","Loja de Conveniência","Multibanco","Venda de gás doméstico em garrafas","WC","WC com fraldário","WC para deficientes"],"hours":{"weekdays":"07:00-23:00","saturday":"07:00-23:00","sunday":"07:00-23:00","holiday":"07:00-23:00"},"paymentMethods":["Dinheiro","Multibanco"],"otherServices":null,"observations":null}},{"type":"Feature","geometry":{"type":"Point","coordinates":[-8.753248,41.68509]},"properties":{"id":"pt-94503","source":"PT","name":"REPSOL Vila Franca - Darque","brand":"REPSOL","address":"EN 203 Km 2,8","municipality":"Viana do Castelo","district":"Viana do Castelo","postalCode":"4935-669","fuels":{"gasoline95":2.029,"gasoline95Plus":2.089,"diesel":2.119,"dieselPremium":2.179,"dieselAgri":1.274},"lastUpdated":"2026-08-03 00:00","extra":{"stationType":"Outro"},"services":["Calibragem de pneus"],"hours":null,"paymentMethods":["Dinheiro"],"otherServices":null,"observations":null}},{"type":"Feature","geometry":{"type":"Point","coordinates":[-8.488322,42.060314]},"properties":{"id":"pt-94512","source":"PT","name":"PA Mazedo - FG Combustíveis","brand":"Genérico","address":"Estrada de Mazedo 2137","municipality":"Monção","district":"Viana do Castelo","postalCode":"4950-276","fuels":{"gasoline95":2.042,"gasoline98":2.199,"diesel":2.059,"dieselPremium":2.089,"dieselHeating":1.96,"dieselAgri":1.655,"lpg":1.159},"lastUpdated":"2026-07-28 15:35","extra":{"stationType":"Outro"},"services":["Calibragem de pneus"],"hours":{"weekdays":"06:30-00:00","saturday":"06:30-00:00","sunday":"06:30-00:00","holiday":"06:30-00:00"},"paymentMethods":["Dinheiro"],"otherServices":null,"observations":null}},{"type":"Feature","geometry":{"type":"Point","coordinates":[-8.602038,41.783924]},"properties":{"id":"pt-94685","source":"PT","name":"BP Ponte de Lima - A27","brand":"BP","address":"Rua Chão de Agueiros, nº114","municipality":"Ponte de Lima","district":"Viana do Castelo","postalCode":"4990-256","fuels":{"gasoline95":2.079,"gasoline98Plus":2.299,"diesel":2.179,"dieselPremium":2.319,"dieselAgri":1.744},"lastUpdated":"2026-08-04 00:00","extra":{"stationType":"Outro"},"services":["Cafetaria","Calibragem de pneus","Loja de Conveniência","Venda de gás doméstico em garrafas","Venda de gasóleo agrícola","WC","WC para deficientes"],"hours":{"weekdays":"07:00-23:00","saturday":"07:00-23:00","sunday":"07:00-23:00","holiday":"07:00-23:00"},"paymentMethods":["Dinheiro","MbWay","Multibanco"],"otherServices":null,"observations":null}},{"type":"Feature","geometry":{"type":"Point","coordinates":[-8.41345,42.07102]},"properties":{"id":"pt-94743","source":"PT","name":"Galp - Barbeita","brand":"GALP","address":"Estrada da Reta de Barbeita nº763","municipality":"Monção","district":"Viana do Castelo","postalCode":"4950-045","fuels":{"gasoline95":2.009,"gasoline95Plus":2.059,"diesel":2.104,"dieselPremium":2.154,"dieselAgri":1.724},"lastUpdated":"2026-08-03 07:10","extra":{"stationType":"Outro"},"services":["WC","WC para deficientes"],"hours":null,"paymentMethods":["Dinheiro","MbWay","Multibanco","Outros"],"otherServices":null,"observations":null}},{"type":"Feature","geometry":{"type":"Point","coordinates":[-8.77214,41.64555]},"properties":{"id":"pt-94751","source":"PT","name":"REPSOL Neiva B (Viana-Porto)","brand":"Genérico","address":"LUGAR DE QUEIMADA","municipality":"Viana do Castelo","district":"Viana do Castelo","postalCode":"4935-585","fuels":{"gasoline95":2.028,"gasoline98Plus":2.219,"diesel":2.119,"dieselPremium":2.179},"lastUpdated":"2026-08-03 18:30","extra":{"stationType":"Outro"},"services":["Calibragem de pneus"],"hours":null,"paymentMethods":["Dinheiro"],"otherServices":null,"observations":null}},{"type":"Feature","geometry":{"type":"Point","coordinates":[-8.77184,41.6457]},"properties":{"id":"pt-94752","source":"PT","name":"REPSOL Neiva A (Porto-Viana)","brand":"Genérico","address":"Lugar da Queimada","municipality":"Viana do Castelo","district":"Viana do Castelo","postalCode":"4935-585","fuels":{"gasoline95":2.029,"gasoline95Plus":2.089,"diesel":2.109,"dieselPremium":2.169},"lastUpdated":"2026-08-03 18:25","extra":{"stationType":"Outro"},"services":["Calibragem de pneus"],"hours":null,"paymentMethods":["Dinheiro"],"otherServices":null,"observations":null}},{"type":"Feature","geometry":{"type":"Point","coordinates":[-8.82319,41.70079]},"properties":{"id":"pt-94753","source":"PT","name":"REPSOL Viana do Castelo - Av. Cap. Gaspar Castro","brand":"Genérico","address":"Av. Capitão Gaspar Castro","municipality":"Viana do Castelo","district":"Viana do Castelo","postalCode":"4900-462","fuels":{"gasoline95":2.039,"gasoline95Plus":2.099,"gasoline98Plus":2.139,"diesel":2.209,"dieselPremium":2.179,"lpg":0.964},"lastUpdated":"2026-08-03 18:25","extra":{"stationType":"Outro"},"services":["Calibragem de pneus"],"hours":null,"paymentMethods":["Dinheiro"],"otherServices":null,"observations":null}},{"type":"Feature","geometry":{"type":"Point","coordinates":[-8.83505,41.87197]},"properties":{"id":"pt-94766","source":"PT","name":"REPSOL Caminha (1660)","brand":"REPSOL","address":"EN 301,Km 0,749/0,812 - Rua do Corga, 854","municipality":"Caminha","district":"Viana do Castelo","postalCode":"4910-141","fuels":{"gasoline95":2.049,"gasoline98Plus":2.249,"diesel":2.109,"dieselPremium":2.179,"dieselAgri":1.704},"lastUpdated":"2026-08-02 00:00","extra":{"stationType":"Outro"},"services":["Loja de Conveniência","Multibanco","WC"],"hours":null,"paymentMethods":["Dinheiro"],"otherServices":null,"observations":null}},{"type":"Feature","geometry":{"type":"Point","coordinates":[-8.808389,41.681774]},"properties":{"id":"pt-94767","source":"PT","name":"GALP Darque","brand":"GALP","address":"Av. Paulo VI, nº 203 - Cais Novo - Darque","municipality":"Viana do Castelo","district":"Viana do Castelo","postalCode":"4935-058","fuels":{"gasoline95":2.024,"gasoline95Plus":2.074,"diesel":2.114,"dieselPremium":2.164,"dieselAgri":1.724},"lastUpdated":"2026-08-03 06:55","extra":{"stationType":"Outro"},"services":["Calibragem de pneus"],"hours":null,"paymentMethods":["Dinheiro","MbWay","Multibanco","Outros"],"otherServices":null,"observations":null}},{"type":"Feature","geometry":{"type":"Point","coordinates":[-8.811367,41.711723]},"properties":{"id":"pt-94879","source":"PT","name":"PRIO Viana do Castelo","brand":"PRIO","address":"Rua Fornelos, Santa Maria Maior e Monserrate e Meadela","municipality":"Viana do Castelo","district":"Viana do Castelo","postalCode":"4900-075","fuels":{"gasoline95":2.009,"gasoline95Plus":1.914,"dieselPremium":2.029,"bioDiesel":1.999},"lastUpdated":"2026-08-03 00:00","extra":{"stationType":"Outro"},"services":["Calibragem de pneus"],"hours":null,"paymentMethods":["Dinheiro"],"otherServices":null,"observations":null}}]}