{"type":"FeatureCollection","features":[{"type":"Feature","geometry":{"type":"Point","coordinates":[-6.834273,41.665543]},"properties":{"id":"pt-65185","source":"PT","name":"AUTO - QUEIROGAL - PA Galp Santa Combas de Rossas","brand":"GALP","address":"Estrada de Rebordainhos (M537)","municipality":"Bragança","district":"Bragança","postalCode":"5300-861","fuels":{"gasoline95":2.045,"gasoline95Plus":2.095,"gasoline98Plus":2.255,"diesel":2.108,"dieselPremium":2.158,"dieselHeating":2.114,"dieselAgri":1.704},"lastUpdated":"2026-08-01 08:00","extra":{"stationType":"Outro"},"services":["Venda de gás doméstico em garrafas","Venda de gasóleo agrícola","Venda de gasóleo para aquecimento","AUTOvoucher"],"hours":{"weekdays":"08:00-20:00","saturday":"08:00-20:00","sunday":"08:00-12:30","holiday":"08:00-12:30"},"paymentMethods":["Dinheiro","Multibanco"],"otherServices":null,"observations":null}},{"type":"Feature","geometry":{"type":"Point","coordinates":[-6.75939,41.80268]},"properties":{"id":"pt-65186","source":"PT","name":"Chamauto Soc. Transmont. Aut. Lda","brand":"GALP","address":"Rua Alexandre Herculano","municipality":"Bragança","district":"Bragança","postalCode":"5300-075","fuels":{"gasoline95":2.085,"gasoline95Plus":2.135,"gasoline98Plus":2.295,"diesel":2.148,"dieselPremium":2.198},"lastUpdated":"2026-07-27 10:45","extra":{"stationType":"Outro"},"services":["WC"],"hours":{"weekdays":"Aberto 24 horas","saturday":"Aberto 24 horas","sunday":"Aberto 24 horas","holiday":"Aberto 24 horas"},"paymentMethods":["Dinheiro"],"otherServices":null,"observations":null}},{"type":"Feature","geometry":{"type":"Point","coordinates":[-6.96248,41.53372]},"properties":{"id":"pt-65394","source":"PT","name":"Chamauto - Sociedade Transmontana de Automóveis, Lda","brand":"GALP","address":"Av. Comendador António Joaquim Ferreira","municipality":"Macedo de Cavaleiros","district":"Bragança","postalCode":"5340-289","fuels":{"gasoline95":2.041,"gasoline95Plus":2.091,"diesel":2.108,"dieselPremium":2.158,"dieselAgri":1.704},"lastUpdated":"2026-07-27 10:50","extra":{"stationType":"Outro"},"services":[],"hours":{"weekdays":"06:00-00:00","saturday":"06:00-00:00","sunday":"06:00-00:00","holiday":"06:00-00:00"},"paymentMethods":["Dinheiro"],"otherServices":null,"observations":null}},{"type":"Feature","geometry":{"type":"Point","coordinates":[-6.328176,41.54472]},"properties":{"id":"pt-65441","source":"PT","name":"Posto Galp Malhadas","brand":"GALP","address":"Rua Vale de Angueira, nº 5","municipality":"Miranda do Douro","district":"Bragança","postalCode":"5210-150","fuels":{"gasoline95":2.061,"diesel":2.128,"dieselPremium":2.183,"dieselHeating":2.098,"dieselAgri":1.704},"lastUpdated":"2026-08-02 00:00","extra":{"stationType":"Outro"},"services":["Calibragem de pneus","Multibanco","Venda de gás doméstico em garrafas","Venda de gasóleo agrícola","Venda de gasóleo para aquecimento","WC"],"hours":{"weekdays":"07:00-21:00","saturday":"07:00-21:00","sunday":"07:00-21:00","holiday":"07:00-21:00"},"paymentMethods":["Dinheiro","MbWay","Multibanco"],"otherServices":null,"observations":null}},{"type":"Feature","geometry":{"type":"Point","coordinates":[-7.187969,41.485954]},"properties":{"id":"pt-65443","source":"PT","name":"Mário & Meireles Lda","brand":"GALP","address":"Rua Eng. José Machado Vaz, s/n","municipality":"Mirandela","district":"Bragança","postalCode":"5370-440","fuels":{"gasoline95":2.041,"gasoline98Plus":2.251,"diesel":2.108,"dieselPremium":2.158,"dieselAgri":1.704},"lastUpdated":"2026-07-27 10:50","extra":{"stationType":"Outro"},"services":["Lavagem","Loja de Conveniência","Multibanco","Venda de gás doméstico em garrafas","Venda de gasóleo agrícola","WC"],"hours":{"weekdays":"07:00-00:00","saturday":"07:00-00:00","sunday":"07:00-00:00","holiday":"07:00-00:00"},"paymentMethods":["Dinheiro"],"otherServices":null,"observations":null}},{"type":"Feature","geometry":{"type":"Point","coordinates":[-7.17704,41.49177]},"properties":{"id":"pt-65444","source":"PT","name":"GALP  Mirandela","brand":"GALP","address":"Av. das Comunidades Europeias ","municipality":"Mirandela","district":"Bragança","postalCode":"5370-205","fuels":{"gasoline95":2.041,"gasoline95Plus":2.091,"diesel":2.108,"dieselPremium":2.158,"dieselAgri":1.704},"lastUpdated":"2026-07-27 00:00","extra":{"stationType":"Outro"},"services":["Cafetaria","Lavagem","Venda de gás doméstico em garrafas","Venda de gasóleo agrícola","WC"],"hours":{"weekdays":"07:00-00:00","saturday":"07:00-00:00","sunday":"07:00-00:00","holiday":"07:00-00:00"},"paymentMethods":["Dinheiro"],"otherServices":null,"observations":null}},{"type":"Feature","geometry":{"type":"Point","coordinates":[-6.71051,41.34261]},"properties":{"id":"pt-65445","source":"PT","name":"VIRLIS - COM. AUTOMOVEIS, LDA","brand":"GALP","address":"Largo do Santo Cristo","municipality":"Mogadouro","district":"Bragança","postalCode":"5200-000","fuels":{"gasoline95":2.061,"gasoline98Plus":2.271,"diesel":2.128,"dieselPremium":2.188,"dieselAgri":1.704},"lastUpdated":"2026-07-27 08:50","extra":{"stationType":"Outro"},"services":[],"hours":{"weekdays":"07:00-00:00","saturday":"07:00-00:00","sunday":"07:00-00:00","holiday":"07:00-00:00"},"paymentMethods":["Dinheiro"],"otherServices":null,"observations":null}},{"type":"Feature","geometry":{"type":"Point","coordinates":[-6.77907,41.78112]},"properties":{"id":"pt-65861","source":"PT","name":"PRIO CANTARIAS","brand":"PRIO","address":"Alto das Cantarias","municipality":"Bragança","district":"Bragança","postalCode":"5300-107","fuels":{"gasoline95":2.019,"gasoline95Plus":2.059,"diesel":2.144,"dieselPremium":2.099,"dieselAgri":1.65},"lastUpdated":"2026-07-28 09:45","extra":{"stationType":"Outro"},"services":["Cafetaria","Descanso de pesados","Lavagem","Loja de Conveniência","Multibanco","Venda de gás doméstico em garrafas","Venda de gasóleo agrícola","Venda de gasóleo para aquecimento","WC"],"hours":{"weekdays":"07:00-23:59","saturday":"07:00-23:59","sunday":"07:00-23:59","holiday":"07:00-23:59"},"paymentMethods":["Dinheiro"],"otherServices":null,"observations":null}},{"type":"Feature","geometry":{"type":"Point","coordinates":[-6.742117,41.812238]},"properties":{"id":"pt-65862","source":"PT","name":"BP SÃO LAZARO","brand":"BP","address":"Av. do Sabor","municipality":"Bragança","district":"Bragança","postalCode":"5300-000","fuels":{"gasoline95":2.114,"gasoline98Plus":2.319,"diesel":2.179,"dieselPremium":2.299,"dieselAgri":1.724},"lastUpdated":"2026-07-28 09:45","extra":{"stationType":"Outro"},"services":["Cafetaria","Lavagem","Loja de Conveniência","Multibanco","Venda de gás doméstico em garrafas","Venda de gasóleo agrícola","Venda de gasóleo para aquecimento","WC","WC para deficientes"],"hours":{"weekdays":"07:00-23:59","saturday":"07:00-23:59","sunday":"07:00-23:59","holiday":"07:00-23:59"},"paymentMethods":["Dinheiro"],"otherServices":null,"observations":null}},{"type":"Feature","geometry":{"type":"Point","coordinates":[-7.303342,41.442681]},"properties":{"id":"pt-65928","source":"PT","name":"IP4 FRANCO (NORTE)","brand":"BP","address":"IP 4 Km 143","municipality":"Mirandela","district":"Bragança","postalCode":"5370-152","fuels":{"gasoline95":2.134,"gasoline98Plus":2.334,"diesel":2.194,"dieselPremium":2.309},"lastUpdated":"2026-07-27 00:00","extra":{"stationType":"Outro"},"services":["Cafetaria","Descanso de pesados","Loja de Conveniência","Venda de carburante de qualidade superior","Venda de gás doméstico em garrafas","WC","WC para deficientes"],"hours":{"weekdays":"Aberto 24 horas","saturday":"Aberto 24 horas","sunday":"Aberto 24 horas","holiday":"Aberto 24 horas"},"paymentMethods":["Dinheiro"],"otherServices":null,"observations":null}},{"type":"Feature","geometry":{"type":"Point","coordinates":[-7.3029,41.442142]},"properties":{"id":"pt-65929","source":"PT","name":"IP4 FRANCO (SUL)","brand":"BP","address":"IP 4 Km 143","municipality":"Mirandela","district":"Bragança","postalCode":"5370-152","fuels":{"gasoline95":2.134,"gasoline98Plus":2.334,"diesel":2.194,"dieselPremium":2.309},"lastUpdated":"2026-07-27 00:00","extra":{"stationType":"Outro"},"services":["Cafetaria","Descanso de pesados","Loja de Conveniência","Multibanco","Restaurante","Venda de carburante de qualidade superior","WC"],"hours":{"weekdays":"Aberto 24 horas","saturday":"Aberto 24 horas","sunday":"Aberto 24 horas","holiday":"Aberto 24 horas"},"paymentMethods":["Dinheiro"],"otherServices":null,"observations":null}},{"type":"Feature","geometry":{"type":"Point","coordinates":[-6.754673,41.807056]},"properties":{"id":"pt-66132","source":"PT","name":"Cepsa- BRAGANÇA II","brand":"CEPSA","address":"Av. Cidade da Zamora","municipality":"Bragança","district":"Bragança","postalCode":"5300-111","fuels":{"gasoline95":2.033,"diesel":2.109,"dieselPremium":2.159,"dieselAgri":1.664},"lastUpdated":"2026-07-27 21:30","extra":{"stationType":"Outro"},"services":["WC"],"hours":{"weekdays":"07:00-23:00","saturday":"07:00-23:00","sunday":"07:00-23:00","holiday":"07:00-23:00"},"paymentMethods":["Dinheiro"],"otherServices":null,"observations":null}},{"type":"Feature","geometry":{"type":"Point","coordinates":[-7.010134,41.83072]},"properties":{"id":"pt-66381","source":"PT","name":"VINHAIS","brand":"CEPSA","address":"Rua dos Frades nº 4","municipality":"Vinhais","district":"Bragança","postalCode":"5320-000","fuels":{"gasoline95":2.083,"gasoline98Plus":2.295,"diesel":2.159,"dieselPremium":2.209,"dieselAgri":1.704},"lastUpdated":"2026-07-27 00:00","extra":{"stationType":"Outro"},"services":["Calibragem de pneus","Venda de gás doméstico em garrafas","Venda de gasóleo agrícola","Venda de gasóleo para aquecimento","WC","WC para deficientes"],"hours":{"weekdays":"07:00-23:00","saturday":"07:00-23:00","sunday":"07:00-23:00","holiday":"07:00-23:00"},"paymentMethods":["Dinheiro","Multibanco"],"otherServices":null,"observations":null}},{"type":"Feature","geometry":{"type":"Point","coordinates":[-6.273413,41.499283]},"properties":{"id":"pt-66391","source":"PT","name":"CEPSA Miranda do Douro","brand":"CEPSA","address":"EN 218, km 84,360","municipality":"Miranda do Douro","district":"Bragança","postalCode":"5210-222","fuels":{"gasoline95":1.961,"gasoline95Plus":2.011,"diesel":1.999,"dieselPremium":2.049,"dieselAgri":1.589},"lastUpdated":"2026-07-30 16:40","extra":{"stationType":"Outro"},"services":["Calibragem de pneus","Lavagem","Multibanco","Venda de gás doméstico em garrafas","Venda de gasóleo agrícola","AUTOvoucher"],"hours":{"weekdays":"08:00-23:00","saturday":"08:00-23:00","sunday":"08:00-23:00","holiday":"08:00-23:00"},"paymentMethods":["Dinheiro","MbWay","Multibanco"],"otherServices":null,"observations":null}},{"type":"Feature","geometry":{"type":"Point","coordinates":[-6.75995,41.81003]},"properties":{"id":"pt-66494","source":"PT","name":"E.S. BRAGANCA","brand":"REPSOL","address":"Av. João Cruz","municipality":"Bragança","district":"Bragança","postalCode":"5300-000","fuels":{"gasoline95":2.049,"gasoline95Plus":2.119,"diesel":2.109,"dieselPremium":2.179,"dieselAgri":1.714},"lastUpdated":"2026-08-01 00:00","extra":{"stationType":"Outro"},"services":["Venda de carburante de qualidade superior","Venda de gás doméstico em garrafas","Venda de gasóleo agrícola","WC"],"hours":{"weekdays":"07:00-20:00","saturday":"07:00-20:00","sunday":"Fechado","holiday":"Fechado"},"paymentMethods":["Dinheiro"],"otherServices":null,"observations":null}},{"type":"Feature","geometry":{"type":"Point","coordinates":[-6.77079,41.79912]},"properties":{"id":"pt-66495","source":"PT","name":"E.S. BRAGANCA 2","brand":"REPSOL","address":"Av. Sá Carneiro","municipality":"Bragança","district":"Bragança","postalCode":"5300-000","fuels":{"gasoline95":2.049,"gasoline98Plus":2.249,"diesel":2.109,"dieselPremium":2.179,"dieselAgri":1.714},"lastUpdated":"2026-08-01 00:00","extra":{"stationType":"Outro"},"services":["Lavagem","Venda de carburante de qualidade superior","Venda de gás doméstico em garrafas","Venda de gasóleo agrícola","WC"],"hours":{"weekdays":"07:00-00:00","saturday":"07:00-00:00","sunday":"07:00-00:00","holiday":"07:00-00:00"},"paymentMethods":["Dinheiro"],"otherServices":null,"observations":null}},{"type":"Feature","geometry":{"type":"Point","coordinates":[-7.17624,41.49318]},"properties":{"id":"pt-66497","source":"PT","name":"E.S. MIRANDELA A","brand":"REPSOL","address":"Av. das Comunidades Europeias","municipality":"Mirandela","district":"Bragança","postalCode":"5370-000","fuels":{"gasoline95":2.049,"gasoline95Plus":2.099,"gasoline98Plus":2.239,"diesel":2.109,"dieselPremium":2.159,"dieselAgri":1.714},"lastUpdated":"2026-07-27 00:25","extra":{"stationType":"Outro"},"services":["Assistência auto","Calibragem de pneus","Lavagem","Venda de carburante de qualidade superior","Venda de gás doméstico em garrafas","Venda de gasóleo agrícola","WC"],"hours":{"weekdays":"07:00-23:00","saturday":"07:00-23:00","sunday":"07:00-23:00","holiday":"07:00-23:00"},"paymentMethods":["Dinheiro"],"otherServices":null,"observations":null}},{"type":"Feature","geometry":{"type":"Point","coordinates":[-7.176502,41.493044]},"properties":{"id":"pt-66498","source":"PT","name":"E.S. MIRANDELA B","brand":"REPSOL","address":"Av. Comunidades Europeias","municipality":"Mirandela","district":"Bragança","postalCode":"5370-000","fuels":{"gasoline95":2.049,"gasoline95Plus":2.099,"gasoline98Plus":2.239,"diesel":2.109,"dieselPremium":2.159},"lastUpdated":"2026-07-27 00:30","extra":{"stationType":"Outro"},"services":["Cafetaria","Lavagem","Venda de carburante de qualidade superior","Venda de gás doméstico em garrafas","Venda de gasóleo agrícola","WC"],"hours":{"weekdays":"07:00-23:00","saturday":"07:00-23:00","sunday":"07:00-23:00","holiday":"07:00-23:00"},"paymentMethods":["Dinheiro"],"otherServices":null,"observations":null}},{"type":"Feature","geometry":{"type":"Point","coordinates":[-7.124381,41.657558]},"properties":{"id":"pt-66499","source":"PT","name":"E.S. TORRE D. CHAMA","brand":"REPSOL","address":"Rua da Mimosa","municipality":"Mirandela","district":"Bragança","postalCode":"5385-000","fuels":{"gasoline95":2.059,"gasoline98Plus":2.239,"diesel":2.119,"dieselPremium":2.169,"dieselAgri":1.714},"lastUpdated":"2026-07-27 17:05","extra":{"stationType":"Outro"},"services":["Lavagem","Venda de carburante de qualidade superior","Venda de gás doméstico em garrafas","Venda de gasóleo agrícola"],"hours":{"weekdays":"07:00-22:00","saturday":"07:00-22:00","sunday":"07:00-22:00","holiday":"07:00-22:00"},"paymentMethods":["Dinheiro"],"otherServices":null,"observations":null}},{"type":"Feature","geometry":{"type":"Point","coordinates":[-7.301582,41.245579]},"properties":{"id":"pt-66500","source":"PT","name":"E.S. CARRAZEDA ANSIAES","brand":"REPSOL","address":"Rua Luis de Camões","municipality":"Carrazeda de Ansiães","district":"Bragança","postalCode":"5140-000","fuels":{"gasoline95":2.078,"gasoline98Plus":2.289,"diesel":2.035,"dieselPremium":2.115,"dieselAgri":1.644},"lastUpdated":"2026-07-27 08:55","extra":{"stationType":"Outro"},"services":["Cafetaria","Lavagem","Restaurante","Venda de carburante de qualidade superior","Venda de gás doméstico em garrafas","Venda de gasóleo agrícola"],"hours":{"weekdays":"07:00-23:00","saturday":"07:00-23:00","sunday":"07:00-23:00","holiday":"07:00-23:00"},"paymentMethods":["Dinheiro"],"otherServices":null,"observations":null}},{"type":"Feature","geometry":{"type":"Point","coordinates":[-7.17842,41.49678]},"properties":{"id":"pt-66865","source":"PT","name":"PD MIRANDELA","brand":"PINGO DOCE","address":"Lugar de Telheiras","municipality":"Mirandela","district":"Bragança","postalCode":"5370-203","fuels":{"gasoline95":1.953,"gasoline98Plus":2.319,"diesel":1.983,"dieselPremium":2.299},"lastUpdated":"2026-07-28 00:00","extra":{"stationType":"Outro"},"services":["Multibanco"],"hours":null,"paymentMethods":["Dinheiro","MbWay","Multibanco"],"otherServices":null,"observations":null}},{"type":"Feature","geometry":{"type":"Point","coordinates":[-6.95185,41.53225]},"properties":{"id":"pt-67582","source":"PT","name":"Intermarché Macedo de Cavaleiros","brand":"INTERMARCHÉ","address":"Lugar do Prado, Rua Camilo Castelo Branco","municipality":"Macedo de Cavaleiros","district":"Bragança","postalCode":"5340-211","fuels":{"gasoline95":1.929,"gasoline98":1.987,"diesel":1.979,"dieselPremium":1.999},"lastUpdated":"2026-07-28 08:40","extra":{"stationType":"Área comercial (Hipermercados)"},"services":["Calibragem de pneus","Multibanco"],"hours":{"weekdays":"Aberto 24 horas","saturday":"Aberto 24 horas","sunday":"Aberto 24 horas","holiday":"Aberto 24 horas"},"paymentMethods":["Dinheiro"],"otherServices":null,"observations":"Cafetaria/Bar, estacionamento, Supermercado"}},{"type":"Feature","geometry":{"type":"Point","coordinates":[-6.75501,41.81918]},"properties":{"id":"pt-67680","source":"PT","name":"GASPE Bragança","brand":"GASPE","address":"Estrada Vale de Álvaro","municipality":"Bragança","district":"Bragança","postalCode":"5300-274","fuels":{"gasoline95":2.072,"gasoline95Plus":2.092,"diesel":2.132,"dieselPremium":2.152,"dieselHeating":2.112,"dieselAgri":1.705,"lpg":1.123},"lastUpdated":"2026-07-27 10:40","extra":{"stationType":"Outro"},"services":[],"hours":{"weekdays":"07:00-23:00","saturday":"07:00-23:00","sunday":"07:00-23:00","holiday":"07:00-23:00"},"paymentMethods":["Dinheiro","Multibanco"],"otherServices":null,"observations":null}},{"type":"Feature","geometry":{"type":"Point","coordinates":[-6.80092,41.5658]},"properties":{"id":"pt-67687","source":"PT","name":"GASPE Bagueixe","brand":"GASPE","address":"Bagueixe","municipality":"Macedo de Cavaleiros","district":"Bragança","postalCode":"5340-040","fuels":{"gasoline95":2.072,"diesel":2.132,"dieselPremium":2.152,"dieselAgri":1.705},"lastUpdated":"2026-07-27 11:00","extra":{"stationType":"Outro"},"services":["Calibragem de pneus"],"hours":{"weekdays":"07:00-22:00","saturday":"07:00-22:00","sunday":"07:00-22:00","holiday":"07:00-22:00"},"paymentMethods":["Dinheiro"],"otherServices":null,"observations":null}},{"type":"Feature","geometry":{"type":"Point","coordinates":[-6.96355,41.52921]},"properties":{"id":"pt-67689","source":"PT","name":"GASPE Macedo de Cavaleiros","brand":"GASPE","address":"Av. Comendador Joaquim António Ferreira","municipality":"Macedo de Cavaleiros","district":"Bragança","postalCode":"5340-289","fuels":{"gasoline95":2.072,"gasoline95Plus":2.012,"diesel":2.132,"dieselPremium":2.072,"dieselAgri":1.725},"lastUpdated":"2026-08-01 00:00","extra":{"stationType":"Outro"},"services":[],"hours":{"weekdays":"07:00-22:00","saturday":"07:00-22:00","sunday":"07:00-22:00","holiday":"07:00-22:00"},"paymentMethods":["Dinheiro"],"otherServices":null,"observations":null}},{"type":"Feature","geometry":{"type":"Point","coordinates":[-7.05505,41.17567]},"properties":{"id":"pt-67703","source":"PT","name":"GASPE Torre de Moncorvo","brand":"GASPE","address":"Largo da Corredoura","municipality":"Torre de Moncorvo","district":"Bragança","postalCode":"5160-235","fuels":{"gasoline95":2.064,"gasoline95Plus":2.072,"diesel":2.124,"dieselPremium":2.132},"lastUpdated":"2026-07-27 16:20","extra":{"stationType":"Outro"},"services":[],"hours":{"weekdays":"07:00-22:00","saturday":"07:00-22:00","sunday":"07:00-22:00","holiday":"07:00-22:00"},"paymentMethods":["Dinheiro"],"otherServices":null,"observations":null}},{"type":"Feature","geometry":{"type":"Point","coordinates":[-6.51953,41.59286]},"properties":{"id":"pt-67716","source":"PT","name":"GASPE Vimioso (Recado Verde)","brand":"GASPE","address":"Estrada de Separicos","municipality":"Vimioso","district":"Bragança","postalCode":"5230-287","fuels":{"gasoline95":2.072,"gasoline98Plus":2.252,"diesel":2.132,"dieselPremium":2.152,"dieselAgri":1.705},"lastUpdated":"2026-07-27 14:10","extra":{"stationType":"Outro"},"services":[],"hours":{"weekdays":"07:00-22:00","saturday":"07:00-22:00","sunday":"07:00-22:00","holiday":"07:00-22:00"},"paymentMethods":["Dinheiro"],"otherServices":null,"observations":null}},{"type":"Feature","geometry":{"type":"Point","coordinates":[-6.9958,41.8373]},"properties":{"id":"pt-67732","source":"PT","name":"GASPE Vinhais","brand":"GASPE","address":"Bairro Souto Covo","municipality":"Vinhais","district":"Bragança","postalCode":"5320-316","fuels":{"gasoline95":2.072,"gasoline95Plus":2.092,"diesel":2.132,"dieselPremium":2.152,"dieselAgri":1.705},"lastUpdated":"2026-07-27 13:00","extra":{"stationType":"Outro"},"services":[],"hours":{"weekdays":"07:00-22:00","saturday":"07:00-22:00","sunday":"07:00-22:00","holiday":"07:00-22:00"},"paymentMethods":["Dinheiro"],"otherServices":null,"observations":null}},{"type":"Feature","geometry":{"type":"Point","coordinates":[-6.96046,41.34926]},"properties":{"id":"pt-67735","source":"PT","name":"GASPE Alfândega da Fé","brand":"GASPE","address":"Rua  Flores,  ","municipality":"Alfândega da Fé","district":"Bragança","postalCode":"5350-005","fuels":{"gasoline95":2.012,"gasoline98Plus":2.192,"diesel":2.072,"dieselPremium":2.092,"dieselAgri":1.665},"lastUpdated":"2026-07-27 10:40","extra":{"stationType":"Outro"},"services":[],"hours":{"weekdays":"07:00-22:00","saturday":"07:00-22:00","sunday":"07:00-22:00","holiday":"07:00-22:00"},"paymentMethods":["Dinheiro"],"otherServices":null,"observations":null}},{"type":"Feature","geometry":{"type":"Point","coordinates":[-7.25504,41.26413]},"properties":{"id":"pt-67772","source":"PT","name":"GASPE Mogo de Ansiães","brand":"GASPE","address":"Belver","municipality":"Carrazeda de Ansiães","district":"Bragança","postalCode":"5140-031","fuels":{"gasoline95":2.072,"gasoline98Plus":2.252,"diesel":2.132,"dieselPremium":2.152,"dieselAgri":1.705},"lastUpdated":"2026-07-28 16:50","extra":{"stationType":"Outro"},"services":[],"hours":{"weekdays":"07:00-22:00","saturday":"07:00-22:00","sunday":"07:00-22:00","holiday":"07:00-22:00"},"paymentMethods":["Dinheiro"],"otherServices":null,"observations":null}},{"type":"Feature","geometry":{"type":"Point","coordinates":[-6.80857,41.09042]},"properties":{"id":"pt-67774","source":"PT","name":"GASPE Freixo de Espada à Cinta","brand":"GASPE","address":"Av. Guerra Junqueiro, 19","municipality":"Freixo de Espada à Cinta","district":"Bragança","postalCode":"5180-104","fuels":{"gasoline95":2.072,"gasoline95Plus":2.092,"diesel":2.132,"dieselPremium":2.152,"dieselAgri":1.725},"lastUpdated":"2026-07-27 06:25","extra":{"stationType":"Outro"},"services":[],"hours":{"weekdays":"07:00-22:00","saturday":"07:00-22:00","sunday":"07:00-22:00","holiday":"07:00-22:00"},"paymentMethods":["Dinheiro"],"otherServices":null,"observations":null}},{"type":"Feature","geometry":{"type":"Point","coordinates":[-6.425022,41.392117]},"properties":{"id":"pt-67785","source":"PT","name":"José Domingos Vaz Carvalho / GALP Sendim","brand":"GALP","address":"Estrada Nacional, 221","municipality":"Miranda do Douro","district":"Bragança","postalCode":"5225-103","fuels":{"gasoline95":2.061,"gasoline95Plus":2.116,"gasolineMix":2.5,"diesel":2.128,"dieselPremium":2.183,"dieselAgri":1.504},"lastUpdated":"2026-08-02 00:00","extra":{"stationType":"Outro"},"services":["Cafetaria","Descanso de pesados","Loja de Conveniência","Multibanco","Venda de carburante de qualidade superior","Venda de gás doméstico em garrafas","Venda de gasóleo agrícola","WC"],"hours":{"weekdays":"07:00-23:00","saturday":"07:00-23:00","sunday":"07:00-23:00","holiday":"07:00-23:00"},"paymentMethods":["Dinheiro","MbWay","Multibanco","Outros"],"otherServices":"Parque Est","observations":null}},{"type":"Feature","geometry":{"type":"Point","coordinates":[-6.6044,41.65287]},"properties":{"id":"pt-67788","source":"PT","name":"GASPE Argozelo","brand":"GASPE","address":"Rua São Bartolomeu","municipality":"Vimioso","district":"Bragança","postalCode":"5230-048","fuels":{"gasoline95":2.072,"diesel":2.132,"dieselPremium":2.152,"dieselAgri":1.705},"lastUpdated":"2026-07-27 11:55","extra":{"stationType":"Outro"},"services":[],"hours":{"weekdays":"07:00-22:00","saturday":"07:00-22:00","sunday":"07:00-22:00","holiday":"07:00-22:00"},"paymentMethods":["Dinheiro"],"otherServices":null,"observations":null}},{"type":"Feature","geometry":{"type":"Point","coordinates":[-6.71055,41.34324]},"properties":{"id":"pt-68934","source":"PT","name":"COOPERATIVA AGRICOLA SABODOURO CRL","brand":"REPSOL","address":"Av. Sabor","municipality":"Mogadouro","district":"Bragança","postalCode":"5200-204","fuels":{"diesel":2.128,"dieselAgri":1.704},"lastUpdated":"2026-08-02 00:00","extra":{"stationType":"Outro"},"services":[],"hours":{"weekdays":"08:00-18:00","saturday":"Fechado","sunday":"Fechado","holiday":"Fechado"},"paymentMethods":["Dinheiro","Multibanco"],"otherServices":null,"observations":null}},{"type":"Feature","geometry":{"type":"Point","coordinates":[-6.96372,41.33605]},"properties":{"id":"pt-69568","source":"PT","name":"Tuacar - Posto Alfandega da Fé","brand":"TUACAR","address":"Av. Dr. Francisco Sá Carneiro, Lugar do Sobreiro","municipality":"Alfândega da Fé","district":"Bragança","postalCode":"5350-005","fuels":{"gasoline95":2.009,"gasoline95Plus":2.029,"diesel":2.079,"dieselPremium":2.104,"dieselAgri":1.644},"lastUpdated":"2026-07-27 07:00","extra":{"stationType":"Outro"},"services":["Calibragem de pneus"],"hours":null,"paymentMethods":["Dinheiro"],"otherServices":" Terminal  24 Horas","observations":null}},{"type":"Feature","geometry":{"type":"Point","coordinates":[-6.80836,41.08595]},"properties":{"id":"pt-69605","source":"PT","name":"Tuacar - Posto Freixo de Espada à Cinta","brand":"TUACAR","address":"Av.Guerra Junqueiro (EN 221), Lugar da Faceira","municipality":"Freixo de Espada à Cinta","district":"Bragança","postalCode":"5180-104","fuels":{"gasoline95":2.009,"diesel":2.079,"dieselPremium":2.104,"dieselAgri":1.644},"lastUpdated":"2026-07-27 07:00","extra":{"stationType":"Outro"},"services":["Calibragem de pneus"],"hours":null,"paymentMethods":["Dinheiro"],"otherServices":" Terminal de pagamento 24 Horas","observations":null}},{"type":"Feature","geometry":{"type":"Point","coordinates":[-6.71085,41.34197]},"properties":{"id":"pt-69606","source":"PT","name":"Tuacar - Posto Mogadouro","brand":"TUACAR","address":"Largo do Santo Cristo (EN 221)","municipality":"Mogadouro","district":"Bragança","postalCode":"5200-208","fuels":{"gasoline95":2.009,"gasoline95Plus":2.029,"diesel":2.079,"dieselPremium":2.104,"dieselAgri":1.644},"lastUpdated":"2026-07-27 07:00","extra":{"stationType":"Outro"},"services":["Calibragem de pneus"],"hours":null,"paymentMethods":["Dinheiro"],"otherServices":" Terminal de pagamento 24 Horas","observations":null}},{"type":"Feature","geometry":{"type":"Point","coordinates":[-7.20499,41.47887]},"properties":{"id":"pt-69749","source":"PT","name":"GASPE-Eduardo A Gonçalves Lda","brand":"GASPE","address":"EN15 - Lugar do Espinheiral - Saida Mirandela Oeste","municipality":"Mirandela","district":"Bragança","postalCode":"5370-552","fuels":{"gasoline95":2.032,"gasoline95Plus":2.052,"gasoline98Plus":2.212,"diesel":2.092,"dieselPremium":2.117,"dieselAgri":1.665},"lastUpdated":"2026-07-27 17:35","extra":{"stationType":"Outro"},"services":["Assistência auto","Cafetaria","Loja de Conveniência","Multibanco","Restaurante","Venda de gás doméstico em garrafas","Venda de gasóleo agrícola","Venda de gasóleo para aquecimento"],"hours":{"weekdays":"06:30-23:30","saturday":"06:30-23:30","sunday":"06:30-23:30","holiday":"06:30-23:30"},"paymentMethods":["Dinheiro"],"otherServices":null,"observations":null}},{"type":"Feature","geometry":{"type":"Point","coordinates":[-6.424159,41.392876]},"properties":{"id":"pt-69752","source":"PT","name":"SANDRINA & MÁRIO, LDA / GASPE Sendim","brand":"GASPE","address":"ESTRADA NACIONAL 221","municipality":"Miranda do Douro","district":"Bragança","postalCode":"5225-103","fuels":{"gasoline95":2.051,"diesel":2.112,"dieselPremium":2.132,"dieselAgri":1.685},"lastUpdated":"2026-08-02 07:00","extra":{"stationType":"Outro"},"services":["Descanso de pesados","Lavagem","Multibanco","Venda de carburante de qualidade superior","Venda de gás doméstico em garrafas","Venda de gasóleo agrícola","WC","WC para deficientes"],"hours":{"weekdays":"07:00-22:00","saturday":"07:00-22:00","sunday":"07:00-22:00","holiday":"07:00-22:00"},"paymentMethods":["Dinheiro","MbWay","Multibanco","Outros"],"otherServices":null,"observations":null}},{"type":"Feature","geometry":{"type":"Point","coordinates":[-6.707939,41.353201]},"properties":{"id":"pt-70138","source":"PT","name":"BP MOGADOURO","brand":"BP","address":"Recta de Vale da Madre","municipality":"Mogadouro","district":"Bragança","postalCode":"5200-216","fuels":{"gasoline95":2.079,"gasoline98Plus":2.319,"diesel":2.129,"dieselPremium":2.299,"dieselAgri":1.729},"lastUpdated":"2026-07-27 00:20","extra":{"stationType":"Outro"},"services":["Assistência auto","Cafetaria","Calibragem de pneus","Descanso de pesados","Lavagem","Loja de Conveniência","Venda de carburante de qualidade superior","Venda de gás doméstico em garrafas","Venda de gasóleo agrícola","WC","AUTOvoucher"],"hours":{"weekdays":"07:00-23:00","saturday":"07:00-23:00","sunday":"07:00-23:00","holiday":"07:00-23:00"},"paymentMethods":["Dinheiro","MbWay","Multibanco","Outros"],"otherServices":null,"observations":null}},{"type":"Feature","geometry":{"type":"Point","coordinates":[-6.952464,41.551348]},"properties":{"id":"pt-70523","source":"PT","name":"ALVES BANDEIRA Macedo de Cavaleiros","brand":"ALVES BANDEIRA","address":"EN 102 Km 3,85","municipality":"Macedo de Cavaleiros","district":"Bragança","postalCode":"5340-292","fuels":{"gasoline95":2.09,"gasoline98":2.24,"diesel":2.148,"dieselPremium":2.168,"dieselAgri":1.719},"lastUpdated":"2026-07-27 12:20","extra":{"stationType":"Outro"},"services":["Cafetaria","Loja de Conveniência","Venda de gás doméstico em garrafas","Venda de gasóleo agrícola","WC","WC para deficientes"],"hours":{"weekdays":"06:30-22:30","saturday":"06:30-22:30","sunday":"06:30-22:30","holiday":"06:30-22:30"},"paymentMethods":["Dinheiro","MbWay","Multibanco","Outros"],"otherServices":null,"observations":null}},{"type":"Feature","geometry":{"type":"Point","coordinates":[-6.59719,41.59052]},"properties":{"id":"pt-70931","source":"PT","name":"Auto Petro Diz & Diz Lda ","brand":"BP","address":"EN 317","municipality":"Vimioso","district":"Bragança","postalCode":"5230-125","fuels":{"gasoline95":2.119,"gasoline98":2.179,"diesel":2.109,"dieselAgri":1.679},"lastUpdated":"2026-07-27 09:20","extra":{"stationType":"Outro"},"services":["Assistência auto","Multibanco","Venda de gasóleo agrícola","WC"],"hours":{"weekdays":"07:00-22:00","saturday":"07:00-22:00","sunday":"07:00-22:00","holiday":"07:00-22:00"},"paymentMethods":["Dinheiro"],"otherServices":null,"observations":"Oficina, Estação de Serviço"}},{"type":"Feature","geometry":{"type":"Point","coordinates":[-7.16277,41.73914]},"properties":{"id":"pt-71158","source":"PT","name":"Combustiveis Rabaçal","brand":"Genérico","address":"Av. São Venâncio","municipality":"Vinhais","district":"Bragança","postalCode":"5335-101","fuels":{"gasoline95":2.08,"gasoline98":2.25,"diesel":2.09,"dieselAgri":1.7},"lastUpdated":"2026-07-27 23:10","extra":{"stationType":"Outro"},"services":["Multibanco","WC"],"hours":{"weekdays":"07:00-23:00","saturday":"07:00-23:00","sunday":"07:00-23:00","holiday":"07:00-23:00"},"paymentMethods":["Dinheiro"],"otherServices":null,"observations":null}},{"type":"Feature","geometry":{"type":"Point","coordinates":[-6.8994,41.46851]},"properties":{"id":"pt-72981","source":"PT","name":"Almerindo Fernando Silva, Lda.","brand":"GASPE","address":"Av. António Maria da Costa nº14 (EN 216)","municipality":"Macedo de Cavaleiros","district":"Bragança","postalCode":"5340-092","fuels":{"gasoline95":2.072,"gasoline95Plus":2.092,"diesel":2.132,"dieselPremium":2.152,"dieselAgri":1.705},"lastUpdated":"2026-07-27 11:55","extra":{"stationType":"Outro"},"services":[],"hours":{"weekdays":"07:30-20:00","saturday":"07:30-20:00","sunday":"07:30-20:00","holiday":"07:30-20:00"},"paymentMethods":["Dinheiro"],"otherServices":null,"observations":null}},{"type":"Feature","geometry":{"type":"Point","coordinates":[-7.06187,41.35335]},"properties":{"id":"pt-74065","source":"PT","name":"GASPE VILARIÇA","brand":"GASPE","address":"Av. Lucinda Oliveira","municipality":"Vila Flor","district":"Bragança","postalCode":"5360-170","fuels":{"gasoline95":2.115,"gasoline98":2.006,"diesel":2.187,"dieselAgri":1.732},"lastUpdated":"2026-07-27 17:00","extra":{"stationType":"Outro"},"services":[],"hours":{"weekdays":"07:00-00:00","saturday":"07:00-00:00","sunday":"07:00-00:00","holiday":"07:00-00:00"},"paymentMethods":["Dinheiro"],"otherServices":null,"observations":null}},{"type":"Feature","geometry":{"type":"Point","coordinates":[-7.031832,41.697856]},"properties":{"id":"pt-75228","source":"PT","name":"Adília Pires & Gilberto Borges - Combustíveis, Lda.","brand":"FREITAS","address":"Rua do Outeiro N2","municipality":"Vinhais","district":"Bragança","postalCode":"5335-011","fuels":{"gasoline95":2.069,"gasoline98Plus":2.259,"diesel":2.129,"dieselPremium":2.149,"dieselAgri":1.699},"lastUpdated":"2026-07-27 08:25","extra":{"stationType":"Outro"},"services":["Cafetaria","Calibragem de pneus","Multibanco","Venda de gás doméstico em garrafas","Venda de gasóleo agrícola","WC"],"hours":{"weekdays":"07:00-23:00","saturday":"07:00-23:00","sunday":"07:00-23:00","holiday":"07:00-23:00"},"paymentMethods":["Dinheiro","MbWay","Multibanco","Outros"],"otherServices":null,"observations":null}},{"type":"Feature","geometry":{"type":"Point","coordinates":[-7.19477,41.4828]},"properties":{"id":"pt-77558","source":"PT","name":"Intermarche Mirandela","brand":"INTERMARCHÉ","address":"Lugar de Vale de Cerdeira - Golfeiras","municipality":"Mirandela","district":"Bragança","postalCode":"5370-520","fuels":{"gasoline95":1.909,"gasoline98":1.985,"diesel":1.979,"dieselPremium":1.999},"lastUpdated":"2026-07-27 14:40","extra":{"stationType":"Outro"},"services":["Lavagem"],"hours":{"weekdays":"Aberto 24 horas","saturday":"Aberto 24 horas","sunday":"Aberto 24 horas","holiday":"Aberto 24 horas"},"paymentMethods":["Dinheiro"],"otherServices":null,"observations":null}},{"type":"Feature","geometry":{"type":"Point","coordinates":[-6.70552,41.33873]},"properties":{"id":"pt-77747","source":"PT","name":"GASPE Mogadouro","brand":"GASPE","address":"Av. de Espanha 80","municipality":"Mogadouro","district":"Bragança","postalCode":"5200-203","fuels":{"gasoline95":2.047,"gasoline95Plus":2.067,"diesel":2.107,"dieselPremium":2.127,"dieselAgri":1.705},"lastUpdated":"2026-07-27 16:20","extra":{"stationType":"Outro"},"services":[],"hours":{"weekdays":"07:00-22:00","saturday":"07:00-22:00","sunday":"07:00-22:00","holiday":"07:00-22:00"},"paymentMethods":["Dinheiro"],"otherServices":null,"observations":null}},{"type":"Feature","geometry":{"type":"Point","coordinates":[-7.163259,41.310218]},"properties":{"id":"pt-78588","source":"PT","name":"Intermarché Vila Flor","brand":"INTERMARCHÉ","address":"Lugar dos Caseirões","municipality":"Vila Flor","district":"Bragança","postalCode":"5360-305","fuels":{"gasoline95":1.909,"gasoline98":1.989,"diesel":1.981},"lastUpdated":"2026-07-27 09:15","extra":{"stationType":"Outro"},"services":["Multibanco"],"hours":{"weekdays":"Aberto 24 horas","saturday":"Aberto 24 horas","sunday":"Aberto 24 horas","holiday":"Aberto 24 horas"},"paymentMethods":["Dinheiro"],"otherServices":null,"observations":null}},{"type":"Feature","geometry":{"type":"Point","coordinates":[-6.96885,41.33214]},"properties":{"id":"pt-81192","source":"PT","name":"S.R Combustiveis do Nordeste LDA","brand":"ALVES BANDEIRA","address":"Zona Industrial, Lote 27","municipality":"Alfândega da Fé","district":"Bragança","postalCode":"5350-051","fuels":{"gasoline95":2.07,"gasoline95Plus":2.105,"diesel":2.128,"dieselPremium":2.148,"dieselAgri":1.699},"lastUpdated":"2026-07-28 20:00","extra":{"stationType":"Outro"},"services":["Cafetaria","Calibragem de pneus","Descanso de pesados","Lavagem","Loja de Conveniência","Multibanco","Venda de gás doméstico em garrafas","Venda de gasóleo agrícola","Venda de gasóleo para aquecimento","WC","WC para deficientes","AUTOvoucher"],"hours":{"weekdays":"06:30-23:00","saturday":"06:30-23:00","sunday":"06:30-23:00","holiday":"06:30-23:00"},"paymentMethods":["Dinheiro","Multibanco"],"otherServices":null,"observations":null}},{"type":"Feature","geometry":{"type":"Point","coordinates":[-7.143388,41.37413]},"properties":{"id":"pt-85718","source":"PT","name":"Posto GNV Dourogás - Mirandela","brand":"DOUROGAS NATURAL","address":"Lugar de Urjais 5370-132 Frechas – Mirandela","municipality":"Mirandela","district":"Bragança","postalCode":"5370-132","fuels":{"cngm3":3.081},"lastUpdated":"2026-07-31 12:00","extra":{"stationType":"Outro"},"services":["Calibragem de pneus"],"hours":null,"paymentMethods":["Dinheiro"],"otherServices":null,"observations":null}},{"type":"Feature","geometry":{"type":"Point","coordinates":[-6.792596,41.8082]},"properties":{"id":"pt-86173","source":"PT","name":"BP Bragança (Petrograndais)","brand":"BP","address":"Avenida Abade de Baçal (EN103) Estrada de Vinhais, Cruzamento de Donai","municipality":"Bragança","district":"Bragança","postalCode":"5300-484","fuels":{"gasoline95":2.119,"gasoline98":2.319,"diesel":2.184,"dieselPremium":2.299,"dieselAgri":1.729},"lastUpdated":"2026-07-27 09:20","extra":{"stationType":"Outro"},"services":["Loja de Conveniência","Multibanco","WC"],"hours":{"weekdays":"07:00-20:00","saturday":"07:00-20:00","sunday":"07:00-20:00","holiday":"00:00-00:00"},"paymentMethods":["Dinheiro"],"otherServices":null,"observations":null}},{"type":"Feature","geometry":{"type":"Point","coordinates":[-6.4435,41.45514]},"properties":{"id":"pt-86940","source":"PT","name":"Cooperativa Agricola de Palaçoulo CRL","brand":"ALVES BANDEIRA","address":"R. da Indústria","municipality":"Miranda do Douro","district":"Bragança","postalCode":"5225-032","fuels":{"gasoline95":2.09,"diesel":2.148,"dieselAgri":1.719},"lastUpdated":"2026-07-27 10:00","extra":{"stationType":"Outro"},"services":[],"hours":{"weekdays":"08:00-18:00","saturday":"08:00-13:00","sunday":"Fechado","holiday":"Fechado"},"paymentMethods":["Dinheiro"],"otherServices":null,"observations":null}},{"type":"Feature","geometry":{"type":"Point","coordinates":[-6.99394,41.57081]},"properties":{"id":"pt-88270","source":"PT","name":"TroviEnergy - Combustiveis, lda","brand":"CEPSA","address":"Zona Industrial da Amendoeira, Rotunda IP2.M15 (A4)","municipality":"Macedo de Cavaleiros","district":"Bragança","postalCode":"5340-296","fuels":{"gasoline95":2.053,"gasoline95Plus":2.103,"diesel":2.129,"dieselPremium":2.179,"dieselAgri":1.704,"lpg":0.976},"lastUpdated":"2026-07-27 00:00","extra":{"stationType":"Outro"},"services":["Cafetaria","Descanso de pesados","Lavagem","Loja de Conveniência","Multibanco","Restaurante","Venda de carburante de qualidade superior","Venda de gás doméstico em garrafas","Venda de gasóleo agrícola","WC","WC com fraldário","WC para deficientes"],"hours":{"weekdays":"06:30-21:00","saturday":"06:30-21:00","sunday":"06:30-21:00","holiday":"06:30-21:00"},"paymentMethods":["Dinheiro","Multibanco","Outros"],"otherServices":null,"observations":null}},{"type":"Feature","geometry":{"type":"Point","coordinates":[-6.966334,41.540478]},"properties":{"id":"pt-92154","source":"PT","name":"P29 - PRIO Macedo de Cavaleiros","brand":"PRIO","address":"Rua Damião de Gois","municipality":"Macedo de Cavaleiros","district":"Bragança","postalCode":"5340-244","fuels":{"gasoline95":2.029,"gasoline95Plus":1.964,"dieselPremium":2.029,"dieselAgri":1.589,"bioDiesel":1.999},"lastUpdated":"2026-07-27 00:05","extra":{"stationType":"Outro"},"services":["Calibragem de pneus"],"hours":{"weekdays":"07:00-22:00","saturday":"07:00-22:00","sunday":"07:00-22:00","holiday":"07:00-22:00"},"paymentMethods":["Dinheiro","MbWay","Multibanco","Outros"],"otherServices":null,"observations":null}},{"type":"Feature","geometry":{"type":"Point","coordinates":[-6.503364,41.366333]},"properties":{"id":"pt-93069","source":"PT","name":"GASPE URRÓS","brand":"GASPE","address":"Estrada Nacional 221, KM 26.635","municipality":"Mogadouro","district":"Bragança","postalCode":"5200-464","fuels":{"gasoline95":2.072,"diesel":2.072,"dieselPremium":2.092,"dieselAgri":1.705},"lastUpdated":"2026-07-27 16:15","extra":{"stationType":"Outro"},"services":["WC"],"hours":{"weekdays":"08:00-20:00","saturday":"08:00-20:00","sunday":"08:00-20:00","holiday":"08:00-20:00"},"paymentMethods":["Dinheiro","Multibanco"],"otherServices":null,"observations":null}},{"type":"Feature","geometry":{"type":"Point","coordinates":[-7.169556,41.49203]},"properties":{"id":"pt-93076","source":"PT","name":"MOEVE Mirandela ZI ","brand":"CEPSA","address":"Avª São João (Variante dos Castanheiros) Lugar do Prado - Zona Industrial","municipality":"Mirandela","district":"Bragança","postalCode":"5370-179","fuels":{"gasoline95":2.033,"gasoline98Plus":2.245,"diesel":2.109,"dieselPremium":2.159,"dieselAgri":1.654},"lastUpdated":"2026-07-27 07:55","extra":{"stationType":"Outro"},"services":["Loja de Conveniência"],"hours":{"weekdays":"07:00-23:00","saturday":"07:00-23:00","sunday":"07:00-23:00","holiday":"07:00-23:00"},"paymentMethods":["Dinheiro","MbWay","Multibanco"],"otherServices":null,"observations":null}},{"type":"Feature","geometry":{"type":"Point","coordinates":[-7.010283,41.836697]},"properties":{"id":"pt-93110","source":"PT","name":"PA BP Vinhais","brand":"BP","address":"Rua da Gasparona - Portela da Vila","municipality":"Vinhais","district":"Bragança","postalCode":"5320-302","fuels":{"diesel":2.158,"dieselAgri":1.703},"lastUpdated":"2026-07-27 14:30","extra":{"stationType":"Outro"},"services":["Calibragem de pneus"],"hours":{"weekdays":"09:00-18:30","saturday":"09:00-13:00","sunday":"Fechado","holiday":"Fechado"},"paymentMethods":["Dinheiro","Multibanco"],"otherServices":null,"observations":null}},{"type":"Feature","geometry":{"type":"Point","coordinates":[-6.705865,41.34525]},"properties":{"id":"pt-93114","source":"PT","name":"MARCOSCAR COMBUSTIVEIS ","brand":"SHELL","address":"AVENIDA DO SABOR ","municipality":"Mogadouro","district":"Bragança","postalCode":"5200-204","fuels":{"gasoline95":2.074,"gasoline98Plus":2.264,"diesel":2.109,"dieselPremium":2.139,"dieselAgri":1.694},"lastUpdated":"2026-08-02 00:55","extra":{"stationType":"Outro"},"services":["Multibanco","Venda de gás doméstico em garrafas","Venda de gasóleo agrícola","WC","WC para deficientes"],"hours":{"weekdays":"Aberto 24 horas","saturday":"Aberto 24 horas","sunday":"Aberto 24 horas","holiday":"Aberto 24 horas"},"paymentMethods":["Dinheiro","MbWay","Multibanco","Outros"],"otherServices":null,"observations":null}},{"type":"Feature","geometry":{"type":"Point","coordinates":[-6.774001,41.786457]},"properties":{"id":"pt-93125","source":"PT","name":"Moeve Bragança I - Cantarias","brand":"Genérico","address":"Av. das Cantarias, n.º 97","municipality":"Bragança","district":"Bragança","postalCode":"5300-107","fuels":{"gasoline95":2.033,"gasoline98Plus":2.245,"diesel":2.109,"dieselPremium":2.159,"dieselAgri":1.654},"lastUpdated":"2026-07-27 07:55","extra":{"stationType":"Outro"},"services":["Cafetaria","Loja de Conveniência","Multibanco"],"hours":null,"paymentMethods":["Dinheiro"],"otherServices":null,"observations":null}},{"type":"Feature","geometry":{"type":"Point","coordinates":[-6.285527,41.505103]},"properties":{"id":"pt-93163","source":"PT","name":"Intermarché Miranda do Douro","brand":"INTERMARCHÉ","address":"Estrada  Nacional 218, Choupo","municipality":"Miranda do Douro","district":"Bragança","postalCode":"5210-206","fuels":{"gasoline95":1.939,"gasoline95Plus":1.949,"gasoline98":1.969,"diesel":1.929,"dieselPremium":1.949},"lastUpdated":"2026-07-28 10:30","extra":{"stationType":"Área comercial (Hipermercados)"},"services":["Calibragem de pneus","Multibanco"],"hours":{"weekdays":"Aberto 24 horas","saturday":"Aberto 24 horas","sunday":"Aberto 24 horas","holiday":"Aberto 24 horas"},"paymentMethods":["Dinheiro","MbWay","Multibanco","Outros"],"otherServices":null,"observations":null}},{"type":"Feature","geometry":{"type":"Point","coordinates":[-6.602628,41.634796]},"properties":{"id":"pt-93168","source":"PT","name":"Machado & Veiga Combustiveis","brand":"Genérico","address":"Estrada Nacional 218 Km 37,700","municipality":"Vimioso","district":"Bragança","postalCode":"5230-072","fuels":{"gasoline95":2.129,"gasoline98":2.189,"diesel":2.169,"dieselAgri":1.739},"lastUpdated":"2026-07-27 11:30","extra":{"stationType":"Outro"},"services":["Venda de gás doméstico em garrafas","Venda de gasóleo agrícola"],"hours":{"weekdays":"08:00-00:00","saturday":"08:00-00:00","sunday":"08:00-00:00","holiday":"08:00-00:00"},"paymentMethods":["Dinheiro","Multibanco"],"otherServices":null,"observations":null}},{"type":"Feature","geometry":{"type":"Point","coordinates":[-6.28645,41.506668]},"properties":{"id":"pt-93197","source":"PT","name":"MIRANDA DO DOURO","brand":"BP","address":"Zona Industrial (EN 218)","municipality":"Miranda do Douro","district":"Bragança","postalCode":"5210-175","fuels":{"gasoline95":2.114,"diesel":2.179,"dieselPremium":2.299,"dieselAgri":1.724},"lastUpdated":"2026-08-02 10:20","extra":{"stationType":"Outro"},"services":["Lavagem","Loja de Conveniência","Venda de gás doméstico em garrafas","Venda de gasóleo agrícola","WC"],"hours":{"weekdays":"08:00-20:00","saturday":"08:00-20:00","sunday":"08:00-20:00","holiday":"08:00-20:00"},"paymentMethods":["Dinheiro","MbWay","Multibanco"],"otherServices":null,"observations":null}},{"type":"Feature","geometry":{"type":"Point","coordinates":[-6.366352,41.470486]},"properties":{"id":"pt-93213","source":"PT","name":"ÉMARCA","brand":"Genérico","address":"ESTRADA NACIONAL 221","municipality":"Miranda do Douro","district":"Bragança","postalCode":"5210-065","fuels":{"gasoline95":1.959,"diesel":1.989,"dieselPremium":2.019,"dieselAgri":1.579},"lastUpdated":"2026-07-28 09:35","extra":{"stationType":"Outro"},"services":["Calibragem de pneus","Lavagem","Loja de Conveniência","Multibanco","Venda de carburante de qualidade superior","Venda de gás doméstico em garrafas","Venda de gasóleo agrícola","Venda de gasóleo para aquecimento","WC","WC para deficientes"],"hours":{"weekdays":"Aberto 24 horas","saturday":"Aberto 24 horas","sunday":"Aberto 24 horas","holiday":"Aberto 24 horas"},"paymentMethods":["Dinheiro","MbWay","Multibanco","Outros"],"otherServices":null,"observations":null}},{"type":"Feature","geometry":{"type":"Point","coordinates":[-6.72663,41.56198]},"properties":{"id":"pt-93307","source":"PT","name":"PETROIZEDA","brand":"CEPSA","address":"R. Central S/N","municipality":"Bragança","district":"Bragança","postalCode":"5300-598","fuels":{"gasoline95":2.089,"diesel":2.139,"dieselPremium":2.159,"dieselHeating":1.85,"dieselAgri":1.74},"lastUpdated":"2026-07-27 11:30","extra":{"stationType":"Outro"},"services":["Cafetaria","Loja de Conveniência","Multibanco","Venda de gasóleo agrícola","Venda de gasóleo para aquecimento","WC"],"hours":{"weekdays":"08:00-19:30","saturday":"08:00-19:30","sunday":"08:00-19:30","holiday":"08:00-19:30"},"paymentMethods":["Dinheiro","Multibanco"],"otherServices":null,"observations":null}},{"type":"Feature","geometry":{"type":"Point","coordinates":[-6.77449,41.786639]},"properties":{"id":"pt-93326","source":"PT","name":"CHAMAGEST,LDA","brand":"GALP","address":"Alto das Cantarias","municipality":"Bragança","district":"Bragança","postalCode":"5300-851","fuels":{"gasoline95":2.085,"gasoline95Plus":2.135,"diesel":2.148,"dieselPremium":2.198,"dieselAgri":1.704},"lastUpdated":"2026-07-27 10:45","extra":{"stationType":"Outro"},"services":["Venda de gasóleo agrícola","WC"],"hours":{"weekdays":"07:00-23:00","saturday":"07:00-23:00","sunday":"07:00-23:00","holiday":"07:00-23:00"},"paymentMethods":["Dinheiro","MbWay","Multibanco"],"otherServices":null,"observations":null}},{"type":"Feature","geometry":{"type":"Point","coordinates":[-6.98249,41.182906]},"properties":{"id":"pt-93355","source":"PT","name":"Moncorvimov, Lda","brand":"GASPE","address":"EN 220","municipality":"Torre de Moncorvo","district":"Bragança","postalCode":"5160-000","fuels":{"gasoline95":2.072,"diesel":2.132,"dieselPremium":2.152,"dieselAgri":1.725},"lastUpdated":"2026-07-27 06:25","extra":{"stationType":"Outro"},"services":["Cafetaria","Venda de gás doméstico em garrafas","Venda de gasóleo agrícola"],"hours":{"weekdays":"06:00-23:00","saturday":"06:00-23:00","sunday":"06:00-23:00","holiday":"06:00-23:00"},"paymentMethods":["Dinheiro","MbWay","Multibanco"],"otherServices":null,"observations":null}},{"type":"Feature","geometry":{"type":"Point","coordinates":[-7.205275,41.479393]},"properties":{"id":"pt-93471","source":"PT","name":"OZ ENERGIA  -  MIRANDELA","brand":"OZ Energia","address":"Lugar do Espinheiral, EN15, Saída Mirandela Oeste","municipality":"Mirandela","district":"Bragança","postalCode":"5370-552","fuels":{"lpg":0.984},"lastUpdated":"2026-07-28 10:20","extra":{"stationType":"Outro"},"services":["Calibragem de pneus"],"hours":{"weekdays":"07:00-21:00","saturday":"07:00-21:00","sunday":"07:00-21:00","holiday":"07:00-21:00"},"paymentMethods":["Dinheiro"],"otherServices":null,"observations":null}},{"type":"Feature","geometry":{"type":"Point","coordinates":[-7.004531,41.18806]},"properties":{"id":"pt-93490","source":"PT","name":"INTERMARCHÉ Torre de Moncorvo","brand":"INTERMARCHÉ","address":"Rua Tomé Rodrigues Sobral","municipality":"Torre de Moncorvo","district":"Bragança","postalCode":"5160-310","fuels":{"gasoline95":1.919,"gasoline95Plus":1.959,"gasoline98":1.999,"diesel":1.989,"dieselPremium":2.029},"lastUpdated":"2026-07-29 16:55","extra":{"stationType":"Outro"},"services":["Calibragem de pneus"],"hours":null,"paymentMethods":["Dinheiro"],"otherServices":null,"observations":null}},{"type":"Feature","geometry":{"type":"Point","coordinates":[-7.177532,41.47586]},"properties":{"id":"pt-93491","source":"PT","name":"Tuacar - Posto Mirandela Sul","brand":"TUACAR","address":"AV 25 de Abril","municipality":"Mirandela","district":"Bragança","postalCode":"5370-223","fuels":{"gasoline95":2.009,"gasoline95Plus":2.029,"diesel":2.079,"dieselPremium":2.104,"dieselAgri":1.644},"lastUpdated":"2026-07-27 07:00","extra":{"stationType":"Outro"},"services":["Cafetaria","Loja de Conveniência","WC para deficientes"],"hours":null,"paymentMethods":["Dinheiro","MbWay","Multibanco"],"otherServices":"Terminal 24 Horas","observations":"Com um terminal 24 horas"}},{"type":"Feature","geometry":{"type":"Point","coordinates":[-6.564434,41.32577]},"properties":{"id":"pt-93690","source":"PT","name":"PA Coop. Agrícola Sabodouro - TÓ","brand":"REPSOL","address":"RUA DO FUNDO","municipality":"Mogadouro","district":"Bragança","postalCode":"5200-422","fuels":{"dieselAgri":1.664},"lastUpdated":"2026-08-02 00:00","extra":{"stationType":"Outro"},"services":[],"hours":{"weekdays":"08:00-18:00","saturday":"Fechado","sunday":"Fechado","holiday":"Fechado"},"paymentMethods":["Dinheiro"],"otherServices":null,"observations":null}},{"type":"Feature","geometry":{"type":"Point","coordinates":[-7.048856,41.174347]},"properties":{"id":"pt-94855","source":"PT","name":"ALVES BANDEIRA Torre de Moncorvo","brand":"ALVES BANDEIRA","address":"Avenida das Amendoeiras, Nº 20","municipality":"Torre de Moncorvo","district":"Bragança","postalCode":"5160-226","fuels":{"gasoline95":2.03,"gasoline95Plus":2.045,"diesel":2.088,"dieselPremium":2.108,"dieselAgri":1.659},"lastUpdated":"2026-07-27 11:40","extra":{"stationType":"Outro"},"services":["Loja de Conveniência","Multibanco","Venda de gasóleo agrícola","WC","WC para deficientes"],"hours":null,"paymentMethods":["Dinheiro","MbWay","Multibanco"],"otherServices":null,"observations":null}},{"type":"Feature","geometry":{"type":"Point","coordinates":[-7.341855,41.30137]},"properties":{"id":"pt-94857","source":"PT","name":"ALVES BANDEIRA Pinhal do Norte","brand":"ALVES BANDEIRA","address":"Lugar de Queda d'Asna - EN 314","municipality":"Carrazeda de Ansiães","district":"Bragança","postalCode":"5140-205","fuels":{"gasoline95":2.03,"diesel":2.088,"dieselAgri":1.659},"lastUpdated":"2026-07-27 12:05","extra":{"stationType":"Outro"},"services":["WC","WC para deficientes"],"hours":null,"paymentMethods":["Dinheiro","MbWay","Multibanco"],"otherServices":null,"observations":null}},{"type":"Feature","geometry":{"type":"Point","coordinates":[-6.470283,41.354706]},"properties":{"id":"pt-94890","source":"PT","name":"PA Urrós","brand":"Genérico","address":"Avenida de São Sebastião, nº 67","municipality":"Mogadouro","district":"Bragança","postalCode":"5200-461","fuels":{"diesel":2.058,"dieselAgri":1.658},"lastUpdated":"2026-07-29 12:00","extra":{"stationType":"Outro"},"services":["Calibragem de pneus"],"hours":null,"paymentMethods":["Dinheiro"],"otherServices":null,"observations":null}},{"type":"Feature","geometry":{"type":"Point","coordinates":[-7.205275,41.479393]},"properties":{"id":"pt-95146","source":"PT","name":"Tuacar - Posto Mirandela","brand":"TUACAR","address":"Lugar do Espinheiral, EN15, Saída Mirandela Oeste","municipality":"Mirandela","district":"Bragança","postalCode":"5370-552","fuels":{"gasoline95":2.009,"gasoline95Plus":2.029,"diesel":2.079,"dieselPremium":2.104,"dieselAgri":1.644},"lastUpdated":"2026-07-27 07:00","extra":{"stationType":"Outro"},"services":["Calibragem de pneus"],"hours":{"weekdays":"07:00-21:00","saturday":"07:00-21:00","sunday":"07:00-21:00","holiday":"07:00-21:00"},"paymentMethods":["Dinheiro"],"otherServices":" Terminal ","observations":null}}]}