{"type":"FeatureCollection","features":[{"type":"Feature","geometry":{"type":"Point","coordinates":[-7.476558,41.27311]},"properties":{"id":"pt-65062","source":"PT","name":"António L. Magalhães & Sobrs. Lda","brand":"GALP","address":"EN 212 - Av. 25 de Abril","municipality":"Alijó","district":"Vila Real","postalCode":"5070-000","fuels":{"gasoline95":1.999,"gasoline95Plus":2.049,"gasoline98Plus":2.209,"diesel":2.093,"dieselPremium":2.143,"dieselAgri":1.714},"lastUpdated":"2026-08-18 11:00","extra":{"stationType":"Outro"},"services":[],"hours":{"weekdays":"07:00-22:00","saturday":"07:00-22:00","sunday":"07:00-22:00","holiday":"07:00-22:00"},"paymentMethods":["Dinheiro"],"otherServices":null,"observations":null}},{"type":"Feature","geometry":{"type":"Point","coordinates":[-7.47115,41.72866]},"properties":{"id":"pt-65236","source":"PT","name":"Chamauto -  Sociedade Transmontana de  Automóveis, Lda (1)","brand":"GALP","address":"EN 2","municipality":"Chaves","district":"Vila Real","postalCode":"5400-000","fuels":{"gasoline95":1.999,"gasoline95Plus":2.049,"diesel":2.098,"dieselPremium":2.148,"dieselAgri":1.714,"lpg":0.999},"lastUpdated":"2026-08-18 11:00","extra":{"stationType":"Outro"},"services":[],"hours":{"weekdays":"07:00-22:00","saturday":"07:00-22:00","sunday":"07:00-22:00","holiday":"07:00-22:00"},"paymentMethods":["Dinheiro"],"otherServices":null,"observations":null}},{"type":"Feature","geometry":{"type":"Point","coordinates":[-7.570125,41.639015]},"properties":{"id":"pt-65238","source":"PT","name":"Pneus Vidago, Lda.","brand":"GALP","address":"EN 2","municipality":"Chaves","district":"Vila Real","postalCode":"5425-000","fuels":{"gasoline95":1.999,"gasoline95Plus":2.049,"diesel":2.098,"dieselPremium":2.148},"lastUpdated":"2026-08-18 11:00","extra":{"stationType":"Outro"},"services":[],"hours":{"weekdays":"07:00-00:00","saturday":"07:00-00:00","sunday":"07:00-00:00","holiday":"07:00-00:00"},"paymentMethods":["Dinheiro"],"otherServices":null,"observations":null}},{"type":"Feature","geometry":{"type":"Point","coordinates":[-7.890389,41.159167]},"properties":{"id":"pt-65436","source":"PT","name":"GALP Mesão Frio","brand":"GALP","address":"Rua dos Abraços","municipality":"Mesão Frio","district":"Vila Real","postalCode":"5040-289","fuels":{"gasoline95":2.059,"gasoline95Plus":2.109,"gasoline98Plus":2.269,"diesel":2.155,"dieselPremium":2.205,"dieselAgri":1.714},"lastUpdated":"2026-08-17 09:35","extra":{"stationType":"Outro"},"services":["Calibragem de pneus","Lavagem","Multibanco","Venda de gás doméstico em garrafas","Venda de gasóleo agrícola","Venda de gasóleo para aquecimento"],"hours":{"weekdays":"06:00-00:00","saturday":"06:00-00:00","sunday":"06:00-00:00","holiday":"06:00-00:00"},"paymentMethods":["Dinheiro"],"otherServices":null,"observations":null}},{"type":"Feature","geometry":{"type":"Point","coordinates":[-7.95585,41.41156]},"properties":{"id":"pt-65452","source":"PT","name":"M J Vendeiro,lda","brand":"GALP","address":"Av. Dr. Augusto Brito","municipality":"Mondim de Basto","district":"Vila Real","postalCode":"4880-232","fuels":{"gasoline95":2.059,"gasoline95Plus":2.059,"diesel":2.155,"dieselPremium":2.155,"dieselAgri":1.714},"lastUpdated":"2026-08-19 00:05","extra":{"stationType":"Outro"},"services":[],"hours":{"weekdays":"06:00-22:00","saturday":"06:00-22:00","sunday":"06:00-22:00","holiday":"06:00-22:00"},"paymentMethods":["Dinheiro"],"otherServices":null,"observations":null}},{"type":"Feature","geometry":{"type":"Point","coordinates":[-7.96095,41.67315]},"properties":{"id":"pt-65454","source":"PT","name":"Sergio Barreira Azevedo, lda","brand":"GALP","address":"EN 103-Venda Nova","municipality":"Montalegre","district":"Vila Real","postalCode":"5495-000","fuels":{"gasoline95":2.049,"gasoline95Plus":2.099,"diesel":2.143,"dieselPremium":2.193,"dieselAgri":1.714},"lastUpdated":"2026-08-18 11:00","extra":{"stationType":"Outro"},"services":[],"hours":{"weekdays":"07:00-22:00","saturday":"07:00-22:00","sunday":"07:00-22:00","holiday":"07:00-22:00"},"paymentMethods":["Dinheiro"],"otherServices":null,"observations":null}},{"type":"Feature","geometry":{"type":"Point","coordinates":[-7.446909,41.401507]},"properties":{"id":"pt-65464","source":"PT","name":"Chamauto  Murça","brand":"GALP","address":"Saída do IP4","municipality":"Murça","district":"Vila Real","postalCode":"5090-102","fuels":{"gasoline95":2.059,"gasoline95Plus":2.119,"gasoline98Plus":2.269,"diesel":2.155,"dieselPremium":2.215,"dieselAgri":1.714},"lastUpdated":"2026-08-18 11:00","extra":{"stationType":"Outro"},"services":["Loja de Conveniência","Multibanco","Venda de gás doméstico em garrafas","Venda de gasóleo agrícola","WC para deficientes"],"hours":{"weekdays":"06:00-23:00","saturday":"06:00-23:00","sunday":"06:00-23:00","holiday":"06:00-23:00"},"paymentMethods":["Dinheiro"],"otherServices":null,"observations":"LOJA-VENDA DE GÁS GALP"}},{"type":"Feature","geometry":{"type":"Point","coordinates":[-7.79733,41.167633]},"properties":{"id":"pt-65542","source":"PT","name":"GALP TOMEIFEL","brand":"GALP","address":"Av. Tondela","municipality":"Peso da Régua","district":"Vila Real","postalCode":"5050-059","fuels":{"gasoline95":2.059,"gasoline95Plus":2.109,"diesel":2.155,"dieselPremium":2.205},"lastUpdated":"2026-08-17 09:15","extra":{"stationType":"Outro"},"services":[],"hours":{"weekdays":"07:00-21:00","saturday":"07:00-17:00","sunday":"00:00-00:00","holiday":"00:00-00:00"},"paymentMethods":["Dinheiro"],"otherServices":null,"observations":null}},{"type":"Feature","geometry":{"type":"Point","coordinates":[-7.79401,41.16477]},"properties":{"id":"pt-65543","source":"PT","name":"TOMEIFEL, LDA","brand":"GALP","address":"Rua da Ferreirinha","municipality":"Peso da Régua","district":"Vila Real","postalCode":"5050-261","fuels":{"gasoline95":2.059,"gasoline95Plus":2.109,"diesel":2.155,"dieselPremium":2.205,"dieselAgri":1.714},"lastUpdated":"2026-08-18 11:00","extra":{"stationType":"Outro"},"services":[],"hours":{"weekdays":"Aberto 24 horas","saturday":"Aberto 24 horas","sunday":"Aberto 24 horas","holiday":"Aberto 24 horas"},"paymentMethods":["Dinheiro"],"otherServices":null,"observations":null}},{"type":"Feature","geometry":{"type":"Point","coordinates":[-7.80282,41.51646]},"properties":{"id":"pt-65585","source":"PT","name":"Petropenense - Unipessoal, Ldª","brand":"GALP","address":"EN 206","municipality":"Ribeira de Pena","district":"Vila Real","postalCode":"4870-000","fuels":{"gasoline95":2.039,"gasoline98Plus":2.249,"diesel":2.133,"dieselPremium":2.183,"dieselAgri":1.714},"lastUpdated":"2026-08-18 11:00","extra":{"stationType":"Outro"},"services":[],"hours":{"weekdays":"06:00-23:59","saturday":"06:00-23:59","sunday":"06:00-23:59","holiday":"06:00-23:59"},"paymentMethods":["Dinheiro"],"otherServices":null,"observations":null}},{"type":"Feature","geometry":{"type":"Point","coordinates":[-7.57667,41.2658]},"properties":{"id":"pt-65588","source":"PT","name":"Deleite do Viajante, Lda.","brand":"GALP","address":"Av. dos Combatentes da Grande Guerra, 17","municipality":"Sabrosa","district":"Vila Real","postalCode":"5060-302","fuels":{"gasoline95":2.039,"diesel":2.133,"dieselPremium":2.193,"dieselAgri":1.714},"lastUpdated":"2026-08-18 11:00","extra":{"stationType":"Outro"},"services":[],"hours":{"weekdays":"07:00-22:00","saturday":"07:00-22:00","sunday":"07:00-22:00","holiday":"07:00-22:00"},"paymentMethods":["Dinheiro"],"otherServices":null,"observations":null}},{"type":"Feature","geometry":{"type":"Point","coordinates":[-7.78446,41.21288]},"properties":{"id":"pt-65598","source":"PT","name":"José Cardoso Oliveira Dolores","brand":"GALP","address":"Rua dos Combatentes, 82","municipality":"Santa Marta de Penaguião","district":"Vila Real","postalCode":"5030-477","fuels":{"gasoline95":2.059,"gasoline95Plus":2.109,"diesel":2.155,"dieselPremium":2.205,"dieselAgri":1.714},"lastUpdated":"2026-08-18 11:00","extra":{"stationType":"Outro"},"services":[],"hours":{"weekdays":"07:00-22:00","saturday":"07:00-22:00","sunday":"07:00-22:00","holiday":"07:00-22:00"},"paymentMethods":["Dinheiro"],"otherServices":null,"observations":null}},{"type":"Feature","geometry":{"type":"Point","coordinates":[-7.42686,41.56462]},"properties":{"id":"pt-65708","source":"PT","name":"Morais, Lda.","brand":"GALP","address":"EN 206","municipality":"Valpaços","district":"Vila Real","postalCode":"5445-000","fuels":{"gasoline95":2.039,"gasoline95Plus":2.089,"diesel":2.133,"dieselPremium":2.183,"dieselAgri":1.714},"lastUpdated":"2026-08-18 11:00","extra":{"stationType":"Outro"},"services":[],"hours":{"weekdays":"07:00-22:00","saturday":"07:00-22:00","sunday":"07:00-22:00","holiday":"07:00-22:00"},"paymentMethods":["Dinheiro"],"otherServices":null,"observations":null}},{"type":"Feature","geometry":{"type":"Point","coordinates":[-7.60493,41.53989]},"properties":{"id":"pt-65757","source":"PT","name":"Pneus Vidago, Lda","brand":"GALP","address":"Rua Henrique Maia","municipality":"Vila Pouca de Aguiar","district":"Vila Real","postalCode":"5450-000","fuels":{"gasoline95":2.039,"gasoline95Plus":2.089,"diesel":2.133,"dieselPremium":2.183,"dieselAgri":1.714},"lastUpdated":"2026-08-18 11:00","extra":{"stationType":"Outro"},"services":[],"hours":{"weekdays":"07:00-23:59","saturday":"07:00-23:59","sunday":"07:00-23:59","holiday":"07:00-23:59"},"paymentMethods":["Dinheiro"],"otherServices":null,"observations":null}},{"type":"Feature","geometry":{"type":"Point","coordinates":[-7.643409,41.501088]},"properties":{"id":"pt-65758","source":"PT","name":"João Moisés Vital da Silva","brand":"GALP","address":"EN 206 - Rua António José D'Ávila","municipality":"Vila Pouca de Aguiar","district":"Vila Real","postalCode":"5450-000","fuels":{"gasoline95":2.039,"gasoline95Plus":2.089,"diesel":2.133,"dieselPremium":2.183,"dieselAgri":1.714},"lastUpdated":"2026-08-18 11:00","extra":{"stationType":"Outro"},"services":[],"hours":{"weekdays":"07:00-23:00","saturday":"07:00-23:00","sunday":"07:00-23:00","holiday":"07:00-23:00"},"paymentMethods":["Dinheiro"],"otherServices":null,"observations":null}},{"type":"Feature","geometry":{"type":"Point","coordinates":[-7.74066,41.30092]},"properties":{"id":"pt-65759","source":"PT","name":"Chamauto, Lda","brand":"GALP","address":"Praceta da Carreira","municipality":"Vila Real","district":"Vila Real","postalCode":"5000-560","fuels":{"gasoline95":1.999,"gasoline95Plus":2.049,"gasoline98Plus":2.209,"diesel":2.098,"dieselPremium":2.148},"lastUpdated":"2026-08-18 11:00","extra":{"stationType":"Outro"},"services":["Venda de carburante de qualidade superior","Venda de gás doméstico em garrafas"],"hours":{"weekdays":"07:00-00:00","saturday":"07:00-00:00","sunday":"07:00-00:00","holiday":"07:00-00:00"},"paymentMethods":["Dinheiro"],"otherServices":null,"observations":null}},{"type":"Feature","geometry":{"type":"Point","coordinates":[-7.73606,41.29383]},"properties":{"id":"pt-65760","source":"PT","name":"Petrolourerio, Lda","brand":"GALP","address":"Rua Visconde Carnaxide nº 26","municipality":"Vila Real","district":"Vila Real","postalCode":"5000-556","fuels":{"gasoline95":1.999,"gasoline95Plus":2.049,"diesel":2.098,"dieselPremium":2.148},"lastUpdated":"2026-08-18 11:00","extra":{"stationType":"Outro"},"services":["Venda de carburante de qualidade superior","Venda de gás doméstico em garrafas"],"hours":{"weekdays":"07:00-22:00","saturday":"08:00-21:00","sunday":"09:00-19:00","holiday":"09:00-19:00"},"paymentMethods":["Dinheiro"],"otherServices":null,"observations":null}},{"type":"Feature","geometry":{"type":"Point","coordinates":[-7.734071,41.308872]},"properties":{"id":"pt-66075","source":"PT","name":"BP VILA REAL - TIMPEIRA","brand":"BP","address":"Av. 25 de Abril","municipality":"Vila Real","district":"Vila Real","postalCode":"5000-424","fuels":{"gasoline95":2.084,"gasoline98Plus":2.284,"diesel":2.184,"dieselPremium":2.299},"lastUpdated":"2026-08-18 14:15","extra":{"stationType":"Outro"},"services":["Loja de Conveniência","Venda de gás doméstico em garrafas","WC"],"hours":{"weekdays":"06:30-23:30","saturday":"06:30-23:30","sunday":"06:30-23:30","holiday":"06:30-23:30"},"paymentMethods":["Dinheiro","MbWay","Multibanco"],"otherServices":null,"observations":null}},{"type":"Feature","geometry":{"type":"Point","coordinates":[-7.716888,41.276123]},"properties":{"id":"pt-66076","source":"PT","name":"BP Vila Real - Z.I. Constantim","brand":"BP","address":"Zona Industrial de Constantim - Fte ao Aeródromo Constantim","municipality":"Vila Real","district":"Vila Real","postalCode":"5000-082","fuels":{"gasoline95":2.084,"gasoline98Plus":2.284,"diesel":2.184,"dieselPremium":2.299},"lastUpdated":"2026-08-18 00:00","extra":{"stationType":"Outro"},"services":["Lavagem","Loja de Conveniência","Multibanco","Venda de gás doméstico em garrafas","WC"],"hours":{"weekdays":"07:00-22:00","saturday":"08:00-22:00","sunday":"08:00-22:00","holiday":"08:00-22:00"},"paymentMethods":["Dinheiro","MbWay","Multibanco"],"otherServices":null,"observations":null}},{"type":"Feature","geometry":{"type":"Point","coordinates":[-7.720668,41.503796]},"properties":{"id":"pt-66090","source":"PT","name":"Rodáreas Alvão Norte","brand":"OZ Energia","address":"A7 Sentido V. P. Aguiar – Ribeira de Pena","municipality":"Vila Pouca de Aguiar","district":"Vila Real","postalCode":"5450-266","fuels":{"gasoline95":2.077,"gasoline95Plus":1.985,"diesel":2.164,"dieselPremium":2.064},"lastUpdated":"2026-08-11 17:25","extra":{"stationType":"Auto-estrada"},"services":["Cafetaria","Loja de Conveniência","WC"],"hours":{"weekdays":"Aberto 24 horas","saturday":"Aberto 24 horas","sunday":"Aberto 24 horas","holiday":"Aberto 24 horas"},"paymentMethods":["Dinheiro"],"otherServices":null,"observations":null}},{"type":"Feature","geometry":{"type":"Point","coordinates":[-7.720227,41.50301]},"properties":{"id":"pt-66091","source":"PT","name":"Rodáreas Alvão Sul","brand":"OZ Energia","address":"A7 Sentido Ribeira de Pena – V. P. Aguiar","municipality":"Vila Pouca de Aguiar","district":"Vila Real","postalCode":"5450-266","fuels":{"gasoline95":2.077,"gasoline95Plus":1.985,"diesel":2.164,"dieselPremium":2.064},"lastUpdated":"2026-08-11 17:25","extra":{"stationType":"Auto-estrada"},"services":["Cafetaria","Loja de Conveniência","Multibanco"],"hours":{"weekdays":"Aberto 24 horas","saturday":"Aberto 24 horas","sunday":"Aberto 24 horas","holiday":"Aberto 24 horas"},"paymentMethods":["Dinheiro"],"otherServices":null,"observations":null}},{"type":"Feature","geometry":{"type":"Point","coordinates":[-7.756435,41.307814]},"properties":{"id":"pt-66103","source":"PT","name":"BP - Vila Real - Hospital","brand":"BP","address":"Rua dos Lagoeiros Lt. 10","municipality":"Vila Real","district":"Vila Real","postalCode":"5000-185","fuels":{"gasoline95":2.084,"gasoline98Plus":2.284,"diesel":2.184,"dieselPremium":2.299,"dieselAgri":1.729},"lastUpdated":"2026-08-18 14:15","extra":{"stationType":"Outro"},"services":["Cafetaria","Loja de Conveniência","Multibanco","Restaurante","Venda de gás doméstico em garrafas","Venda de gasóleo agrícola","WC"],"hours":{"weekdays":"07:00-23:00","saturday":"07:00-23:00","sunday":"07:00-23:00","holiday":"07:00-23:00"},"paymentMethods":["Dinheiro","MbWay","Multibanco"],"otherServices":null,"observations":null}},{"type":"Feature","geometry":{"type":"Point","coordinates":[-7.336807,41.668867]},"properties":{"id":"pt-66244","source":"PT","name":"PETRO VILARANDELO - PA Cepsa Ervões","brand":"CEPSA","address":"EN 213, Nº2","municipality":"Valpaços","district":"Vila Real","postalCode":"5430-075","fuels":{"gasoline95":1.998,"diesel":2.099,"dieselPremium":2.149,"dieselAgri":1.644},"lastUpdated":"2026-08-17 00:00","extra":{"stationType":"Outro"},"services":["Cafetaria","Calibragem de pneus","Lavagem","Loja de Conveniência","Multibanco","Venda de carburante de qualidade superior","Venda de gás doméstico em garrafas","Venda de gasóleo agrícola","Venda de gasóleo para aquecimento","WC","AUTOvoucher"],"hours":{"weekdays":"07:00-23:00","saturday":"07:00-23:00","sunday":"07:00-23:00","holiday":"07:00-23:00"},"paymentMethods":["Dinheiro","MbWay","Multibanco","Outros"],"otherServices":null,"observations":null}},{"type":"Feature","geometry":{"type":"Point","coordinates":[-7.78453,41.15877]},"properties":{"id":"pt-66816","source":"PT","name":"E.S. REGUA-CP","brand":"REPSOL","address":"Rua da Ferreirinha","municipality":"Peso da Régua","district":"Vila Real","postalCode":"5050-000","fuels":{"gasoline95":2.059,"gasoline98Plus":2.259,"diesel":2.154,"dieselPremium":2.224},"lastUpdated":"2026-08-18 10:30","extra":{"stationType":"Outro"},"services":["Venda de carburante de qualidade superior","Venda de gás doméstico em garrafas"],"hours":{"weekdays":"06:00-23:00","saturday":"06:00-23:00","sunday":"06:00-23:00","holiday":"06:00-23:00"},"paymentMethods":["Dinheiro"],"otherServices":null,"observations":null}},{"type":"Feature","geometry":{"type":"Point","coordinates":[-7.74116,41.30255]},"properties":{"id":"pt-66817","source":"PT","name":"E.S. VILA REAL","brand":"REPSOL","address":"Av. Aureliano Barrigas","municipality":"Vila Real","district":"Vila Real","postalCode":"5000-000","fuels":{"gasoline95":1.999,"gasoline95Plus":2.059,"gasoline98Plus":2.179,"diesel":2.094,"dieselPremium":2.154},"lastUpdated":"2026-08-18 12:40","extra":{"stationType":"Outro"},"services":["Lavagem","Loja de Conveniência","Multibanco","Venda de carburante de qualidade superior","Venda de gás doméstico em garrafas","WC"],"hours":{"weekdays":"07:00-00:00","saturday":"07:00-00:00","sunday":"07:00-00:00","holiday":"07:00-00:00"},"paymentMethods":["Dinheiro"],"otherServices":null,"observations":null}},{"type":"Feature","geometry":{"type":"Point","coordinates":[-7.4761,41.7395]},"properties":{"id":"pt-66818","source":"PT","name":"E.S. CHAVES II","brand":"REPSOL","address":"Av. Santo Amaro, S/N","municipality":"Chaves","district":"Vila Real","postalCode":"5400-000","fuels":{"gasoline95":1.999,"gasoline95Plus":2.049,"gasoline98Plus":2.179,"diesel":2.094,"dieselPremium":2.154,"dieselAgri":1.714,"lpg":1.004},"lastUpdated":"2026-08-18 16:00","extra":{"stationType":"Outro"},"services":["Lavagem","Loja de Conveniência","Venda de carburante de qualidade superior","Venda de gás doméstico em garrafas","Venda de gasóleo agrícola","WC"],"hours":{"weekdays":"07:00-23:00","saturday":"07:00-23:00","sunday":"07:00-23:00","holiday":"07:00-23:00"},"paymentMethods":["Dinheiro"],"otherServices":null,"observations":null}},{"type":"Feature","geometry":{"type":"Point","coordinates":[-7.45023,41.40636]},"properties":{"id":"pt-66819","source":"PT","name":"E.S. MURÇA","brand":"REPSOL","address":"Variante à EN 15","municipality":"Murça","district":"Vila Real","postalCode":"5090-000","fuels":{"gasoline95":2.059,"gasoline98Plus":2.259,"diesel":2.154,"dieselPremium":2.224,"dieselAgri":1.774,"lpg":1.024},"lastUpdated":"2026-08-18 00:00","extra":{"stationType":"Outro"},"services":["Cafetaria","Lavagem","Loja de Conveniência","Restaurante","Venda de carburante de qualidade superior","Venda de gás doméstico em garrafas","Venda de gasóleo agrícola","WC"],"hours":{"weekdays":"06:00-00:00","saturday":"06:00-00:00","sunday":"06:00-00:00","holiday":"06:00-00:00"},"paymentMethods":["Dinheiro"],"otherServices":null,"observations":null}},{"type":"Feature","geometry":{"type":"Point","coordinates":[-7.79425,41.16459]},"properties":{"id":"pt-66820","source":"PT","name":"E.S. REGUA-CENTRO","brand":"REPSOL","address":"Largo da Estação","municipality":"Peso da Régua","district":"Vila Real","postalCode":"5050-000","fuels":{"gasoline95":2.059,"gasoline95Plus":2.129,"diesel":2.154,"dieselPremium":2.224,"dieselAgri":1.774},"lastUpdated":"2026-08-18 10:30","extra":{"stationType":"Outro"},"services":["Loja de Conveniência","Venda de carburante de qualidade superior","Venda de gás doméstico em garrafas","Venda de gasóleo agrícola","WC"],"hours":{"weekdays":"07:00-00:00","saturday":"07:00-00:00","sunday":"07:00-00:00","holiday":"07:00-00:00"},"paymentMethods":["Dinheiro"],"otherServices":null,"observations":null}},{"type":"Feature","geometry":{"type":"Point","coordinates":[-7.31303,41.61162]},"properties":{"id":"pt-66821","source":"PT","name":"E.S. VALPACOS","brand":"REPSOL","address":"Bairro do Barreiro","municipality":"Valpaços","district":"Vila Real","postalCode":"5430-000","fuels":{"gasoline95":2.009,"gasoline98Plus":2.199,"diesel":2.104,"dieselPremium":2.164,"dieselAgri":1.724},"lastUpdated":"2026-08-18 00:00","extra":{"stationType":"Outro"},"services":["Venda de carburante de qualidade superior","Venda de gás doméstico em garrafas","Venda de gasóleo agrícola","WC"],"hours":{"weekdays":"07:30-22:00","saturday":"07:30-22:00","sunday":"07:30-22:00","holiday":"07:30-22:00"},"paymentMethods":["Dinheiro"],"otherServices":null,"observations":null}},{"type":"Feature","geometry":{"type":"Point","coordinates":[-7.46683,41.74178]},"properties":{"id":"pt-66822","source":"PT","name":"E.S. CHAVES","brand":"REPSOL","address":"Av. 5 de Outubro nº 16","municipality":"Chaves","district":"Vila Real","postalCode":"5400-000","fuels":{"gasoline95":1.999,"gasoline95Plus":2.049,"diesel":2.094,"dieselPremium":2.154,"dieselAgri":1.714},"lastUpdated":"2026-08-18 15:55","extra":{"stationType":"Outro"},"services":["Venda de carburante de qualidade superior","Venda de gás doméstico em garrafas","Venda de gasóleo agrícola"],"hours":{"weekdays":"07:00-23:00","saturday":"07:00-23:00","sunday":"09:00-19:00","holiday":"09:00-19:00"},"paymentMethods":["Dinheiro"],"otherServices":null,"observations":null}},{"type":"Feature","geometry":{"type":"Point","coordinates":[-7.63833,41.50276]},"properties":{"id":"pt-66823","source":"PT","name":"E.S. V. POUCA AGUIAR NOVO","brand":"REPSOL","address":"EN 2","municipality":"Vila Pouca de Aguiar","district":"Vila Real","postalCode":"5450-000","fuels":{"gasoline95":2.034,"gasoline95Plus":2.069,"gasoline98Plus":2.199,"diesel":2.124,"dieselPremium":2.224,"dieselAgri":1.744},"lastUpdated":"2026-08-18 00:00","extra":{"stationType":"Outro"},"services":["Cafetaria","Venda de carburante de qualidade superior","Venda de gás doméstico em garrafas","Venda de gasóleo agrícola","WC"],"hours":{"weekdays":"06:00-23:00","saturday":"06:00-23:00","sunday":"06:00-23:00","holiday":"06:00-23:00"},"paymentMethods":["Dinheiro"],"otherServices":null,"observations":null}},{"type":"Feature","geometry":{"type":"Point","coordinates":[-7.461865,41.320072]},"properties":{"id":"pt-66954","source":"PT","name":"PA Chã - Alijó","brand":"Genérico","address":"EN 212 Km 36,900 - Vila Chã","municipality":"Alijó","district":"Vila Real","postalCode":"5070-533","fuels":{"gasoline95":2.05,"gasoline98":2.21,"diesel":2.137,"dieselAgri":1.715},"lastUpdated":"2026-08-18 07:25","extra":{"stationType":"Outro"},"services":["Calibragem de pneus"],"hours":{"weekdays":"07:00-22:00","saturday":"07:00-22:00","sunday":"07:00-22:00","holiday":"07:00-22:00"},"paymentMethods":["Dinheiro","MbWay","Multibanco"],"otherServices":null,"observations":null}},{"type":"Feature","geometry":{"type":"Point","coordinates":[-7.67793,41.43512]},"properties":{"id":"pt-66974","source":"PT","name":"BP VILA POUCA DE AGUIAR","brand":"BP","address":"EN 2 Km 44,8","municipality":"Vila Pouca de Aguiar","district":"Vila Real","postalCode":"5450-280","fuels":{"gasoline95":2.054,"gasoline98Plus":2.284,"diesel":2.154,"dieselPremium":2.299,"dieselAgri":1.729},"lastUpdated":"2026-08-18 00:05","extra":{"stationType":"Outro"},"services":["Venda de gasóleo agrícola"],"hours":{"weekdays":"06:00-22:00","saturday":"06:00-22:00","sunday":"06:00-22:00","holiday":"06:00-22:00"},"paymentMethods":["Dinheiro"],"otherServices":null,"observations":null}},{"type":"Feature","geometry":{"type":"Point","coordinates":[-7.64557,41.49274]},"properties":{"id":"pt-67033","source":"PT","name":"Intermarche Vila Pouca de Aguiar","brand":"INTERMARCHÉ","address":"Av. Abílio Ribeiro","municipality":"Vila Pouca de Aguiar","district":"Vila Real","postalCode":"5450-036","fuels":{"gasoline95":1.899,"gasoline95Plus":1.949,"diesel":1.993,"dieselPremium":2.043},"lastUpdated":"2026-08-17 16:35","extra":{"stationType":"Outro"},"services":[],"hours":{"weekdays":"Aberto 24 horas","saturday":"Aberto 24 horas","sunday":"Aberto 24 horas","holiday":"Aberto 24 horas"},"paymentMethods":["Dinheiro"],"otherServices":null,"observations":null}},{"type":"Feature","geometry":{"type":"Point","coordinates":[-7.74708,41.89314]},"properties":{"id":"pt-67171","source":"PT","name":"BP Montalegre","brand":"BP","address":"Lugar de Poços\r\nPadornelos\r\nApartado 46","municipality":"Montalegre","district":"Vila Real","postalCode":"5470-341","fuels":{"gasoline95":2.034,"gasoline98":2.284,"gasoline98Plus":2.284,"diesel":2.134,"dieselPremium":2.299,"dieselAgri":1.729},"lastUpdated":"2026-08-18 10:50","extra":{"stationType":"Outro"},"services":["Cafetaria","Lavagem","Loja de Conveniência","Multibanco","Restaurante","Venda de gás doméstico em garrafas","Venda de gasóleo agrícola","Venda de gasóleo para aquecimento","WC","WC com fraldário","WC para deficientes"],"hours":{"weekdays":"Aberto 24 horas","saturday":"Aberto 24 horas","sunday":"Aberto 24 horas","holiday":"Aberto 24 horas"},"paymentMethods":["Dinheiro"],"otherServices":null,"observations":"Loja de Conveniência\r\nCafetaria\r\nRestaurante\r\nLavagens (Ligeiros, Pesados)"}},{"type":"Feature","geometry":{"type":"Point","coordinates":[-7.304635,41.60636]},"properties":{"id":"pt-67254","source":"PT","name":"INTERMARCHE VALPAÇOS","brand":"INTERMARCHÉ","address":"Rua do Freixo, nº 6","municipality":"Valpaços","district":"Vila Real","postalCode":"5430-424","fuels":{"gasoline95":1.895,"gasoline98":2.069,"diesel":1.995,"dieselPremium":2.025},"lastUpdated":"2026-08-18 11:00","extra":{"stationType":"Outro"},"services":["Lavagem","Multibanco","Venda de gás doméstico em garrafas"],"hours":{"weekdays":"Aberto 24 horas","saturday":"Aberto 24 horas","sunday":"Aberto 24 horas","holiday":"Aberto 24 horas"},"paymentMethods":["Dinheiro"],"otherServices":null,"observations":null}},{"type":"Feature","geometry":{"type":"Point","coordinates":[-7.47572,41.2694]},"properties":{"id":"pt-67271","source":"PT","name":"INTERMARCHÉ DE ALIJÓ","brand":"INTERMARCHÉ","address":"Lugar da Tapada - Apartado 22","municipality":"Alijó","district":"Vila Real","postalCode":"5070-050","fuels":{"gasoline95":1.909,"gasoline98":2.099,"diesel":1.999,"dieselPremium":2.029},"lastUpdated":"2026-08-17 17:00","extra":{"stationType":"Outro"},"services":["Cafetaria","Calibragem de pneus","Loja de Conveniência","Multibanco","Restaurante","Venda de gás doméstico em garrafas","WC"],"hours":{"weekdays":"08:00-20:00","saturday":"08:00-20:00","sunday":"08:00-20:00","holiday":"08:00-20:00"},"paymentMethods":["Dinheiro"],"otherServices":null,"observations":"CCR - Multibanco Nocturno."}},{"type":"Feature","geometry":{"type":"Point","coordinates":[-7.58986,41.26371]},"properties":{"id":"pt-67766","source":"PT","name":"GASPE Sabrosa","brand":"GASPE","address":"Rua Ermo\r\n","municipality":"Sabrosa","district":"Vila Real","postalCode":"5060-209","fuels":{"gasoline95":2.05,"gasoline95Plus":2.07,"diesel":2.137,"dieselPremium":2.157,"dieselAgri":1.715},"lastUpdated":"2026-08-17 09:45","extra":{"stationType":"Outro"},"services":[],"hours":{"weekdays":"07:00-22:00","saturday":"07:00-22:00","sunday":"07:00-22:00","holiday":"07:00-22:00"},"paymentMethods":["Dinheiro"],"otherServices":null,"observations":null}},{"type":"Feature","geometry":{"type":"Point","coordinates":[-7.735555,41.30915]},"properties":{"id":"pt-69190","source":"PT","name":"VILA REAL III","brand":"MOEVE","address":"QUINTA DO ENTRONCAMENTO, LOTE 16","municipality":"Vila Real","district":"Vila Real","postalCode":"5000-047","fuels":{"gasoline95":1.978,"gasoline95Plus":2.028,"diesel":2.079,"dieselPremium":2.129},"lastUpdated":"2026-08-18 00:00","extra":{"stationType":"Outro"},"services":["Cafetaria","Loja de Conveniência","Multibanco","WC","WC para deficientes"],"hours":{"weekdays":"Aberto 24 horas","saturday":"Aberto 24 horas","sunday":"Aberto 24 horas","holiday":"Aberto 24 horas"},"paymentMethods":["Dinheiro"],"otherServices":null,"observations":null}},{"type":"Feature","geometry":{"type":"Point","coordinates":[-7.82812,41.22844]},"properties":{"id":"pt-69379","source":"PT","name":"TF GEST MARÃO","brand":"FREITAS","address":"Santa Quitéria - Fontes","municipality":"Santa Marta de Penaguião","district":"Vila Real","postalCode":"5030-452","fuels":{"gasoline95":2.06,"diesel":2.15,"dieselPremium":2.196,"dieselHeating":2.1,"dieselAgri":1.729},"lastUpdated":"2026-08-18 21:50","extra":{"stationType":"Outro"},"services":[],"hours":{"weekdays":"07:00-20:00","saturday":"07:00-20:00","sunday":"10:00-14:00","holiday":"10:00-14:00"},"paymentMethods":["Dinheiro"],"otherServices":null,"observations":null}},{"type":"Feature","geometry":{"type":"Point","coordinates":[-7.428046,41.56014]},"properties":{"id":"pt-69381","source":"PT","name":"Galp/Freitas Carrazedo de Montenegro","brand":"FREITAS","address":"Av. Dom Dinis, Nº1","municipality":"Valpaços","district":"Vila Real","postalCode":"5445-110","fuels":{"gasoline95":2.05,"gasoline98Plus":2.23,"diesel":2.137,"dieselPremium":2.157,"dieselAgri":1.715},"lastUpdated":"2026-08-17 10:45","extra":{"stationType":"Outro"},"services":["Lavagem","Loja de Conveniência","Multibanco","Venda de gás doméstico em garrafas","WC"],"hours":{"weekdays":"07:00-22:00","saturday":"07:00-22:00","sunday":"07:00-22:00","holiday":"07:00-22:00"},"paymentMethods":["Dinheiro"],"otherServices":null,"observations":null}},{"type":"Feature","geometry":{"type":"Point","coordinates":[-7.66123,41.69014]},"properties":{"id":"pt-69402","source":"PT","name":"GASPE","brand":"GASPE","address":"Av. de Chaves, 30","municipality":"Boticas","district":"Vila Real","postalCode":"5460-301","fuels":{"gasoline95":2.027,"gasoline95Plus":2.077,"diesel":2.119,"dieselPremium":2.169,"dieselAgri":1.705},"lastUpdated":"2026-08-17 11:25","extra":{"stationType":"Outro"},"services":["Cafetaria","Venda de gás doméstico em garrafas","Venda de gasóleo agrícola","WC"],"hours":{"weekdays":"07:00-22:00","saturday":"07:00-22:00","sunday":"07:00-22:00","holiday":"07:00-22:00"},"paymentMethods":["Dinheiro","Multibanco"],"otherServices":null,"observations":null}},{"type":"Feature","geometry":{"type":"Point","coordinates":[-7.505522,41.716297]},"properties":{"id":"pt-69446","source":"PT","name":"GALP MONTE FAISCA","brand":"GALP","address":"EN 103","municipality":"Chaves","district":"Vila Real","postalCode":"5400-620","fuels":{"gasoline95":1.979,"gasolineMix":2.4,"diesel":2.069,"dieselPremium":2.089,"dieselHeating":2.05,"dieselAgri":1.599},"lastUpdated":"2026-08-17 10:05","extra":{"stationType":"Outro"},"services":[],"hours":{"weekdays":"07:00-22:00","saturday":"07:00-22:00","sunday":"07:00-22:00","holiday":"07:00-22:00"},"paymentMethods":["Dinheiro"],"otherServices":null,"observations":null}},{"type":"Feature","geometry":{"type":"Point","coordinates":[-7.467495,41.767975]},"properties":{"id":"pt-69548","source":"PT","name":"P03 - PRIO Chaves I","brand":"PRIO","address":"Av. da Cocanha","municipality":"Chaves","district":"Vila Real","postalCode":"5400-672","fuels":{"gasoline95":1.999,"gasoline95Plus":1.944,"dieselPremium":2.039,"dieselAgri":1.554,"bioDiesel":2.009},"lastUpdated":"2026-08-19 00:30","extra":{"stationType":"Outro"},"services":["Calibragem de pneus","Loja de Conveniência"],"hours":{"weekdays":"06:00-22:00","saturday":"06:00-22:00","sunday":"06:00-22:00","holiday":"06:00-22:00"},"paymentMethods":["Dinheiro","MbWay","Multibanco","Outros"],"otherServices":null,"observations":null}},{"type":"Feature","geometry":{"type":"Point","coordinates":[-7.87209,41.75012]},"properties":{"id":"pt-69549","source":"PT","name":"BP Pisoes","brand":"BP","address":"Lugar de Fernamouro\r\n","municipality":"Montalegre","district":"Vila Real","postalCode":"5470-000","fuels":{"gasoline95":2.084,"gasoline98Plus":2.284,"diesel":2.184,"dieselPremium":2.299,"dieselAgri":1.729},"lastUpdated":"2026-08-18 10:40","extra":{"stationType":"Outro"},"services":["Assistência auto","Calibragem de pneus","Loja de Conveniência","Venda de gás doméstico em garrafas","WC"],"hours":{"weekdays":"07:00-23:00","saturday":"07:00-23:00","sunday":"07:00-23:00","holiday":"07:00-23:00"},"paymentMethods":["Dinheiro"],"otherServices":null,"observations":null}},{"type":"Feature","geometry":{"type":"Point","coordinates":[-7.63188,41.26789]},"properties":{"id":"pt-69557","source":"PT","name":"FHS COMBUSTÍVEIS, LDA.","brand":"Genérico","address":"ESTRADA NACIONAL 322","municipality":"Sabrosa","district":"Vila Real","postalCode":"5060-432","fuels":{"gasoline95":2.064,"gasoline98":2.275,"gasolineMix":2.5,"diesel":2.149,"dieselPremium":2.189,"dieselHeating":2.08,"dieselAgri":1.72},"lastUpdated":"2026-08-17 09:05","extra":{"stationType":"Outro"},"services":["Cafetaria","Lavagem","Multibanco","Venda de gás doméstico em garrafas","Venda de gasóleo agrícola","WC"],"hours":{"weekdays":"06:45-22:45","saturday":"06:45-22:45","sunday":"06:45-22:45","holiday":"06:45-22:45"},"paymentMethods":["Dinheiro"],"otherServices":null,"observations":null}},{"type":"Feature","geometry":{"type":"Point","coordinates":[-7.31207,41.61273]},"properties":{"id":"pt-69740","source":"PT","name":"TFGEST VALPAÇOS","brand":"FREITAS","address":"Av. D. Maria do Carmo Carmona, Estrada Nº213","municipality":"Valpaços","district":"Vila Real","postalCode":"5430-472","fuels":{"gasoline95":1.999,"diesel":2.089,"dieselPremium":2.109,"dieselAgri":1.689},"lastUpdated":"2026-08-17 23:30","extra":{"stationType":"Outro"},"services":["Cafetaria","Lavagem","Venda de gás doméstico em garrafas","Venda de gasóleo agrícola","Venda de gasóleo para aquecimento","WC"],"hours":{"weekdays":"07:00-22:00","saturday":"07:00-22:00","sunday":"07:00-22:00","holiday":"07:00-22:00"},"paymentMethods":["Dinheiro","MbWay","Multibanco"],"otherServices":null,"observations":"Cafetaria-"}},{"type":"Feature","geometry":{"type":"Point","coordinates":[-7.37995,41.36199]},"properties":{"id":"pt-69910","source":"PT","name":"Prio Candedo","brand":"PRIO","address":"Bairro de S.José","municipality":"Murça","district":"Vila Real","postalCode":"5090-000","fuels":{"gasoline95":2.001,"gasoline95Plus":1.964,"diesel":2.109,"dieselPremium":2.069,"dieselAgri":1.709},"lastUpdated":"2026-08-17 14:55","extra":{"stationType":"Outro"},"services":["Cafetaria","Loja de Conveniência","Multibanco","Venda de gás doméstico em garrafas","Venda de gasóleo agrícola","WC"],"hours":{"weekdays":"07:00-21:00","saturday":"07:00-21:00","sunday":"07:00-21:00","holiday":"07:00-21:00"},"paymentMethods":["Dinheiro","Multibanco"],"otherServices":null,"observations":null}},{"type":"Feature","geometry":{"type":"Point","coordinates":[-7.77362,41.83501]},"properties":{"id":"pt-70073","source":"PT","name":"P A Zona Industrial","brand":"Genérico","address":"Loteamento Industrial , lote 14","municipality":"Montalegre","district":"Vila Real","postalCode":"5470-201","fuels":{"gasoline95":1.949,"gasoline98":2.109,"diesel":2.029,"dieselPremium":2.059,"dieselAgri":1.689},"lastUpdated":"2026-08-18 23:35","extra":{"stationType":"Outro"},"services":["Venda de gás doméstico em garrafas","Venda de gasóleo agrícola","Venda de gasóleo para aquecimento","AUTOvoucher"],"hours":{"weekdays":"07:30-21:00","saturday":"07:30-21:00","sunday":"07:30-21:00","holiday":"07:30-21:00"},"paymentMethods":["Dinheiro","Multibanco"],"otherServices":null,"observations":null}},{"type":"Feature","geometry":{"type":"Point","coordinates":[-7.875211,41.29141]},"properties":{"id":"pt-70303","source":"PT","name":"Associação dos Agricultores do Concelho de Vila Real","brand":"Genérico","address":"Largo da Feira","municipality":"Vila Real","district":"Vila Real","postalCode":"5000-071","fuels":{"gasoline95":2.009,"gasoline98Plus":2.189,"diesel":2.095,"dieselPremium":2.115,"dieselAgri":1.665},"lastUpdated":"2026-08-17 13:00","extra":{"stationType":"Outro"},"services":["Calibragem de pneus","Multibanco","Venda de gás doméstico em garrafas","Venda de gasóleo agrícola","AUTOvoucher"],"hours":{"weekdays":"07:00-21:00","saturday":"07:00-21:00","sunday":"09:00-21:00","holiday":"09:00-21:00"},"paymentMethods":["Dinheiro","Multibanco"],"otherServices":null,"observations":"Entregas ao domicílio"}},{"type":"Feature","geometry":{"type":"Point","coordinates":[-7.95699,41.40387]},"properties":{"id":"pt-70732","source":"PT","name":"BP Mondim de Basto","brand":"BP","address":"EN 304 - Lapinha","municipality":"Mondim de Basto","district":"Vila Real","postalCode":"4880-183","fuels":{"gasoline95":1.999,"gasoline98Plus":2.199,"diesel":2.109,"dieselPremium":2.229,"dieselAgri":1.639},"lastUpdated":"2026-08-10 14:30","extra":{"stationType":"Outro"},"services":["Lavagem","Venda de gás doméstico em garrafas","Venda de gasóleo agrícola"],"hours":{"weekdays":"07:00-22:00","saturday":"07:00-22:00","sunday":"07:00-22:00","holiday":"07:00-22:00"},"paymentMethods":["Dinheiro"],"otherServices":null,"observations":null}},{"type":"Feature","geometry":{"type":"Point","coordinates":[-7.76024,41.28516]},"properties":{"id":"pt-73351","source":"PT","name":"Tuacar - Posto Vila Real","brand":"TUACAR","address":"EN 15 km 107,5/EN 2 km 67,0, Parada de Cunhos","municipality":"Vila Real","district":"Vila Real","postalCode":"5000-471","fuels":{"gasoline95":1.979,"gasoline95Plus":1.999,"diesel":2.084,"dieselPremium":2.109,"dieselAgri":1.654},"lastUpdated":"2026-08-18 08:00","extra":{"stationType":"Outro"},"services":["Calibragem de pneus"],"hours":null,"paymentMethods":["Dinheiro"],"otherServices":" Terminal de pagamento 24 Horas","observations":null}},{"type":"Feature","geometry":{"type":"Point","coordinates":[-7.398284,41.694223]},"properties":{"id":"pt-74778","source":"PT","name":"Batista & Sobreira, lda","brand":"Genérico","address":"EN 213 Km13","municipality":"Valpaços","district":"Vila Real","postalCode":"5430-000","fuels":{"gasoline95":2.07,"gasoline98":2.21,"diesel":2.157,"dieselAgri":1.715},"lastUpdated":"2026-08-18 07:25","extra":{"stationType":"Outro"},"services":["Cafetaria","Calibragem de pneus","Descanso de pesados","Multibanco","Restaurante","Venda de gás doméstico em garrafas","Venda de gasóleo agrícola","WC","WC para deficientes"],"hours":{"weekdays":"07:00-22:00","saturday":"07:00-22:00","sunday":"07:00-22:00","holiday":"07:00-22:00"},"paymentMethods":["Dinheiro","MbWay","Multibanco"],"otherServices":null,"observations":null}},{"type":"Feature","geometry":{"type":"Point","coordinates":[-7.851048,41.469032]},"properties":{"id":"pt-74835","source":"PT","name":"PETROCERVA, LDA","brand":"Genérico","address":"Rua Central da Fateca, 18","municipality":"Ribeira de Pena","district":"Vila Real","postalCode":"4870-042","fuels":{"gasoline95":1.99,"gasoline98":2.09,"gasolineMix":2.7,"diesel":2.14,"dieselPremium":2.17,"dieselHeating":2.01,"dieselAgri":1.69},"lastUpdated":"2026-08-17 10:50","extra":{"stationType":"Outro"},"services":["Cafetaria","Multibanco","Venda de gás doméstico em garrafas","Venda de gasóleo agrícola","Venda de gasóleo para aquecimento"],"hours":{"weekdays":"07:00-20:00","saturday":"07:00-20:00","sunday":"07:30-13:00","holiday":"07:30-20:00"},"paymentMethods":["Dinheiro","Multibanco","Outros"],"otherServices":"Terminal de pagamento automático 24 Horas","observations":null}},{"type":"Feature","geometry":{"type":"Point","coordinates":[-7.70339,41.27658]},"properties":{"id":"pt-75011","source":"PT","name":"RECHEIO VILA REAL","brand":"RECHEIO","address":"Zona Industrial Constantim","municipality":"Vila Real","district":"Vila Real","postalCode":"5000-081","fuels":{"diesel":2.039},"lastUpdated":"2026-08-18 06:00","extra":{"stationType":"Outro"},"services":[],"hours":{"weekdays":"08:00-18:30","saturday":"08:00-13:00","sunday":"Fechado","holiday":"Fechado"},"paymentMethods":["Dinheiro"],"otherServices":null,"observations":null}},{"type":"Feature","geometry":{"type":"Point","coordinates":[-7.664512,41.6872]},"properties":{"id":"pt-75137","source":"PT","name":"GALP Boticas","brand":"GALP","address":"Avenida do Noro, nº 4","municipality":"Boticas","district":"Vila Real","postalCode":"5460-331","fuels":{"gasoline95":2.039,"gasoline95Plus":2.099,"diesel":2.133,"dieselPremium":2.193,"dieselHeating":2.124,"dieselAgri":1.714},"lastUpdated":"2026-08-17 07:00","extra":{"stationType":"Outro"},"services":["WC","WC para deficientes"],"hours":{"weekdays":"07:00-23:00","saturday":"07:00-23:00","sunday":"07:00-23:00","holiday":"07:00-23:00"},"paymentMethods":["Dinheiro","MbWay","Multibanco","Outros"],"otherServices":null,"observations":null}},{"type":"Feature","geometry":{"type":"Point","coordinates":[-7.79829,41.82368]},"properties":{"id":"pt-75148","source":"PT","name":"Intermarché Montalegre","brand":"INTERMARCHÉ","address":"Av. Povo de Timor","municipality":"Montalegre","district":"Vila Real","postalCode":"5470-257","fuels":{"gasoline95":1.939,"gasoline98":2.099,"diesel":2.049,"dieselPremium":2.049},"lastUpdated":"2026-08-17 13:00","extra":{"stationType":"Outro"},"services":[],"hours":{"weekdays":"08:00-20:00","saturday":"08:00-20:00","sunday":"08:00-20:00","holiday":"08:00-20:00"},"paymentMethods":["Dinheiro"],"otherServices":null,"observations":"Agua/Ar\r\nSupermercado\r\nW.C.(Supermercado)"}},{"type":"Feature","geometry":{"type":"Point","coordinates":[-7.325851,41.663982]},"properties":{"id":"pt-76057","source":"PT","name":"GASPE Vilarandelo","brand":"GASPE","address":"Rua Professora Amélia Castelo,196","municipality":"Valpaços","district":"Vila Real","postalCode":"5430-659","fuels":{"gasoline95":1.97,"diesel":2.066,"dieselAgri":1.625},"lastUpdated":"2026-08-14 19:00","extra":{"stationType":"Outro"},"services":["Assistência auto","Multibanco"],"hours":{"weekdays":"07:30-19:00","saturday":"07:30-19:00","sunday":"Fechado","holiday":"Fechado"},"paymentMethods":["Dinheiro"],"otherServices":null,"observations":null}},{"type":"Feature","geometry":{"type":"Point","coordinates":[-7.736542,41.29717]},"properties":{"id":"pt-76106","source":"PT","name":"AUCHAN Vila Real","brand":"AUCHAN","address":"Rua Dr. Otílio Figueiredo","municipality":"Vila Real","district":"Vila Real","postalCode":"5000-587","fuels":{"gasoline95":1.949,"diesel":2.059,"dieselPremium":2.079,"lpg":0.899},"lastUpdated":"2026-08-17 09:25","extra":{"stationType":"Outro"},"services":["Calibragem de pneus"],"hours":{"weekdays":"Aberto 24 horas","saturday":"Aberto 24 horas","sunday":"Aberto 24 horas","holiday":"Aberto 24 horas"},"paymentMethods":["Dinheiro"],"otherServices":null,"observations":null}},{"type":"Feature","geometry":{"type":"Point","coordinates":[-7.45758,41.7221]},"properties":{"id":"pt-76316","source":"PT","name":"PRIO Chaves - Fernando M. Portugal","brand":"PRIO","address":"Rua 25 de Março de 1809  n.º 4  (Lombo)","municipality":"Chaves","district":"Vila Real","postalCode":"5400-016","fuels":{"gasoline95":1.949,"gasoline95Plus":1.959,"diesel":2.039,"dieselPremium":2.049,"dieselAgri":1.624},"lastUpdated":"2026-08-18 18:40","extra":{"stationType":"Outro"},"services":["Cafetaria","Lavagem","Venda de gás doméstico em garrafas","Venda de gasóleo agrícola","Venda de gasóleo para aquecimento","WC"],"hours":{"weekdays":"07:00-23:00","saturday":"07:00-23:00","sunday":"07:00-23:00","holiday":"07:00-23:00"},"paymentMethods":["Dinheiro","Multibanco"],"otherServices":null,"observations":null}},{"type":"Feature","geometry":{"type":"Point","coordinates":[-7.51977,41.29553]},"properties":{"id":"pt-77095","source":"PT","name":"CEPSA SANFINS DO DOURO","brand":"CEPSA","address":"Estrada Nacional 323-1","municipality":"Alijó","district":"Vila Real","postalCode":"5070-351","fuels":{"gasoline95":1.998,"gasoline98Plus":2.21,"diesel":2.099,"dieselPremium":2.149,"dieselAgri":1.644},"lastUpdated":"2026-08-17 00:00","extra":{"stationType":"Outro"},"services":["Cafetaria","Multibanco","Venda de gás doméstico em garrafas","Venda de gasóleo agrícola","WC"],"hours":{"weekdays":"07:00-00:00","saturday":"07:00-00:00","sunday":"07:00-00:00","holiday":"07:00-00:00"},"paymentMethods":["Dinheiro","MbWay","Multibanco","Outros"],"otherServices":null,"observations":"Bar"}},{"type":"Feature","geometry":{"type":"Point","coordinates":[-7.80291,41.16836]},"properties":{"id":"pt-77515","source":"PT","name":"PD PESO DA RÉGUA","brand":"PINGO DOCE","address":"Quinta das Forcas","municipality":"Peso da Régua","district":"Vila Real","postalCode":"5050-063","fuels":{"gasoline95":1.932,"gasoline98Plus":2.284,"diesel":1.99,"dieselPremium":2.299},"lastUpdated":"2026-08-18 00:00","extra":{"stationType":"Outro"},"services":[],"hours":{"weekdays":"Aberto 24 horas","saturday":"Aberto 24 horas","sunday":"Aberto 24 horas","holiday":"Aberto 24 horas"},"paymentMethods":["Dinheiro"],"otherServices":null,"observations":null}},{"type":"Feature","geometry":{"type":"Point","coordinates":[-7.8797,41.41532]},"properties":{"id":"pt-79225","source":"PT","name":"ATEI COMBUSTIVEIS E LUBRIFICANTES UNIPESSOAL LDA","brand":"GASPE","address":"Lugar do Meirão","municipality":"Mondim de Basto","district":"Vila Real","postalCode":"4880-318","fuels":{"gasoline95":2.169,"gasoline98Plus":2.369,"diesel":2.309,"dieselPremium":2.319,"dieselAgri":1.719},"lastUpdated":"2026-08-17 10:55","extra":{"stationType":"Outro"},"services":[],"hours":{"weekdays":"07:00-22:00","saturday":"07:00-22:00","sunday":"07:00-22:00","holiday":"07:00-22:00"},"paymentMethods":["Dinheiro"],"otherServices":null,"observations":null}},{"type":"Feature","geometry":{"type":"Point","coordinates":[-7.64438,41.49443]},"properties":{"id":"pt-80260","source":"PT","name":"Coopaguirense ","brand":"GASPE","address":"Largo do Toural","municipality":"Vila Pouca de Aguiar","district":"Vila Real","postalCode":"5450-005","fuels":{"gasoline95":1.959,"gasoline95Plus":1.979,"diesel":2.045,"dieselPremium":2.065,"dieselHeating":2.029,"dieselAgri":1.609},"lastUpdated":"2026-08-17 14:50","extra":{"stationType":"Outro"},"services":[],"hours":{"weekdays":"07:00-21:00","saturday":"07:00-21:00","sunday":"Fechado","holiday":"Fechado"},"paymentMethods":["Dinheiro"],"otherServices":null,"observations":null}},{"type":"Feature","geometry":{"type":"Point","coordinates":[-7.70284,41.389]},"properties":{"id":"pt-80777","source":"PT","name":"E.S. VILARINHO DE SAMARDÃ","brand":"REPSOL","address":"EN 2, Vilarinho da Samardã","municipality":"Vila Real","district":"Vila Real","postalCode":"5000-781","fuels":{"gasoline95":1.999,"gasoline98Plus":2.179,"diesel":2.094,"dieselPremium":2.154},"lastUpdated":"2026-08-18 12:40","extra":{"stationType":"Outro"},"services":["Venda de carburante de qualidade superior","Venda de gás doméstico em garrafas","WC"],"hours":{"weekdays":"07:00-22:00","saturday":"07:00-22:00","sunday":"07:00-22:00","holiday":"07:00-22:00"},"paymentMethods":["Dinheiro"],"otherServices":null,"observations":null}},{"type":"Feature","geometry":{"type":"Point","coordinates":[-7.73154,41.29635]},"properties":{"id":"pt-80925","source":"PT","name":"Petroeuropa","brand":"Genérico","address":"Av. da Europa","municipality":"Vila Real","district":"Vila Real","postalCode":"5000-557","fuels":{"gasoline95":2.069,"gasoline95Plus":2.084,"gasoline98":2.219,"diesel":2.154,"dieselPremium":2.174,"dieselAgri":1.729},"lastUpdated":"2026-08-18 00:00","extra":{"stationType":"Outro"},"services":["Cafetaria","Lavagem","Venda de gás doméstico em garrafas","Venda de gasóleo agrícola","Venda de gasóleo para aquecimento","WC","WC para deficientes"],"hours":{"weekdays":"05:00-02:00","saturday":"05:00-02:00","sunday":"05:00-02:00","holiday":"05:00-02:00"},"paymentMethods":["Dinheiro"],"otherServices":null,"observations":null}},{"type":"Feature","geometry":{"type":"Point","coordinates":[-7.485171,41.769276]},"properties":{"id":"pt-81644","source":"PT","name":"P04 - SHELL Chaves II - Seara","brand":"SHELL","address":"Recta da Seara, Sanjurge","municipality":"Chaves","district":"Vila Real","postalCode":"5400-577","fuels":{"gasoline95":1.994,"gasoline98Plus":2.144,"diesel":2.099,"dieselPremium":2.179,"dieselAgri":1.689},"lastUpdated":"2026-08-19 00:30","extra":{"stationType":"Outro"},"services":["Calibragem de pneus"],"hours":{"weekdays":"06:00-22:00","saturday":"06:00-22:00","sunday":"06:00-22:00","holiday":"06:00-22:00"},"paymentMethods":["Dinheiro","MbWay","Multibanco","Outros"],"otherServices":null,"observations":null}},{"type":"Feature","geometry":{"type":"Point","coordinates":[-7.64109,41.32436]},"properties":{"id":"pt-84943","source":"PT","name":"BP A4 Vila Real Norte","brand":"BP","address":"A4 KM 101.5 Lamares","municipality":"Vila Real","district":"Vila Real","postalCode":"5000-132","fuels":{"gasoline95":2.084,"gasoline98Plus":2.284,"diesel":2.199,"dieselPremium":2.309},"lastUpdated":"2026-08-17 00:00","extra":{"stationType":"Auto-estrada"},"services":["Cafetaria","Loja de Conveniência","Multibanco","WC"],"hours":null,"paymentMethods":["Dinheiro"],"otherServices":null,"observations":null}},{"type":"Feature","geometry":{"type":"Point","coordinates":[-7.641089,41.32373]},"properties":{"id":"pt-84944","source":"PT","name":"BP A4 Vila Real Sul Lamares","brand":"BP","address":"A4 KM 101.5 Lamares","municipality":"Vila Real","district":"Vila Real","postalCode":"5000-132","fuels":{"gasoline95":2.084,"gasoline98Plus":2.284,"diesel":2.199,"dieselPremium":2.309},"lastUpdated":"2026-08-17 00:00","extra":{"stationType":"Auto-estrada"},"services":["Cafetaria","Loja de Conveniência","Multibanco","WC"],"hours":null,"paymentMethods":["Dinheiro"],"otherServices":null,"observations":null}},{"type":"Feature","geometry":{"type":"Point","coordinates":[-7.47852,41.26983]},"properties":{"id":"pt-85949","source":"PT","name":"Tuacar - Posto Alijo","brand":"TUACAR","address":"Avenida 25 de Abril (EN 322, km 35,805)","municipality":"Alijó","district":"Vila Real","postalCode":"5070-011","fuels":{"gasoline95":1.979,"gasoline95Plus":1.999,"diesel":2.084,"dieselPremium":2.109,"dieselAgri":1.654},"lastUpdated":"2026-08-18 08:00","extra":{"stationType":"Outro"},"services":["Calibragem de pneus"],"hours":null,"paymentMethods":["Dinheiro"],"otherServices":" Terminal de pagamento 24 Horas","observations":"Terminal 24 Horas"}},{"type":"Feature","geometry":{"type":"Point","coordinates":[-7.72441,41.3102]},"properties":{"id":"pt-86711","source":"PT","name":"PA INTERMARCHÉ Vila Real","brand":"INTERMARCHÉ","address":"Quinta do Lameirão","municipality":"Vila Real","district":"Vila Real","postalCode":"5000-046","fuels":{"gasoline95":1.949,"gasoline98":2.089,"diesel":2.059,"dieselPremium":2.079},"lastUpdated":"2026-08-17 07:00","extra":{"stationType":"Outro"},"services":["Loja de Conveniência","Multibanco","WC"],"hours":{"weekdays":"Aberto 24 horas","saturday":"Aberto 24 horas","sunday":"Aberto 24 horas","holiday":"Aberto 24 horas"},"paymentMethods":["Dinheiro"],"otherServices":null,"observations":null}},{"type":"Feature","geometry":{"type":"Point","coordinates":[-7.32943,41.77574]},"properties":{"id":"pt-87198","source":"PT","name":"VALDEMAR MORAIS DE MELO","brand":"ILÍDIO MOTA","address":"EN 503, KM 182.25","municipality":"Chaves","district":"Vila Real","postalCode":"5400-601","fuels":{"gasoline95":1.94,"diesel":2.0,"dieselPremium":2.02,"dieselAgri":1.56},"lastUpdated":"2026-08-12 23:15","extra":{"stationType":"Outro"},"services":[],"hours":{"weekdays":"07:00-23:59","saturday":"07:00-23:59","sunday":"07:00-23:59","holiday":"07:00-23:59"},"paymentMethods":["Dinheiro"],"otherServices":null,"observations":null}},{"type":"Feature","geometry":{"type":"Point","coordinates":[-7.95689,41.40662]},"properties":{"id":"pt-87726","source":"PT","name":"INTERMARCHE MONDIM DE BASTO","brand":"INTERMARCHÉ","address":"R. da Quinta da Igreja nº 183S. Cristóvão","municipality":"Mondim de Basto","district":"Vila Real","postalCode":"4880-258","fuels":{"gasoline95":1.932,"gasoline98":2.089,"diesel":1.999,"dieselPremium":2.039},"lastUpdated":"2026-08-18 09:30","extra":{"stationType":"Outro"},"services":["Lavagem","Venda de carburante de qualidade superior","Venda de gás doméstico em garrafas"],"hours":{"weekdays":"Aberto 24 horas","saturday":"Aberto 24 horas","sunday":"Aberto 24 horas","holiday":"Aberto 24 horas"},"paymentMethods":["Dinheiro","Multibanco"],"otherServices":null,"observations":null}},{"type":"Feature","geometry":{"type":"Point","coordinates":[-7.80365,41.16222]},"properties":{"id":"pt-88674","source":"PT","name":"INTERMARCHE PESO DA REGUA","brand":"INTERMARCHÉ","address":"Lugar da Salgueiral - Godim","municipality":"Peso da Régua","district":"Vila Real","postalCode":"5050-102","fuels":{"gasoline95":1.925,"gasoline98":2.165,"diesel":1.985,"dieselPremium":2.085},"lastUpdated":"2026-08-18 10:00","extra":{"stationType":"Outro"},"services":["Lavagem"],"hours":{"weekdays":"Aberto 24 horas","saturday":"Aberto 24 horas","sunday":"Aberto 24 horas","holiday":"Aberto 24 horas"},"paymentMethods":["Dinheiro"],"otherServices":null,"observations":"Venda de gás doméstico em garrafas\nLavagem \n"}},{"type":"Feature","geometry":{"type":"Point","coordinates":[-7.796516,41.519969]},"properties":{"id":"pt-88939","source":"PT","name":"Bombas Maxi-Tem","brand":"Genérico","address":"R. das Figueirinhas, 2","municipality":"Ribeira de Pena","district":"Vila Real","postalCode":"4870-159","fuels":{"gasoline95":1.919,"gasoline98":1.999,"diesel":1.969,"dieselPremium":1.999,"dieselAgri":1.499},"lastUpdated":"2026-08-18 07:30","extra":{"stationType":"Outro"},"services":["Calibragem de pneus","Lavagem","Venda de carburante de qualidade superior","Venda de gasóleo agrícola"],"hours":{"weekdays":"Aberto 24 horas","saturday":"Aberto 24 horas","sunday":"Aberto 24 horas","holiday":"Aberto 24 horas"},"paymentMethods":["Dinheiro","MbWay","Multibanco"],"otherServices":null,"observations":null}},{"type":"Feature","geometry":{"type":"Point","coordinates":[-7.589908,41.26472]},"properties":{"id":"pt-89848","source":"PT","name":"BP Sabrosa - Zona Industrial (Paços)","brand":"BP","address":"Zona Industrial de Sabrosa, Lote 20B","municipality":"Sabrosa","district":"Vila Real","postalCode":"5060-193","fuels":{"gasoline95":2.084,"diesel":2.189,"dieselPremium":2.299},"lastUpdated":"2026-08-18 16:40","extra":{"stationType":"Outro"},"services":["Cafetaria","Multibanco","WC"],"hours":{"weekdays":"07:00-22:00","saturday":"07:00-22:00","sunday":"07:00-22:00","holiday":"00:00-00:00"},"paymentMethods":["Dinheiro"],"otherServices":null,"observations":null}},{"type":"Feature","geometry":{"type":"Point","coordinates":[-7.715013,41.27549]},"properties":{"id":"pt-90541","source":"PT","name":"PA INPAR  SELECT- Constantim VILA REAL ZI","brand":"PRIO","address":"Lugar da Mata do Ramalhão - Zona Industrial - Constantim","municipality":"Vila Real","district":"Vila Real","postalCode":"5000-081","fuels":{"gasoline95":1.999,"gasoline95Plus":1.999,"diesel":2.099,"dieselPremium":2.099,"dieselAgri":1.709},"lastUpdated":"2026-08-18 18:00","extra":{"stationType":"Outro"},"services":["Calibragem de pneus"],"hours":{"weekdays":"07:00-21:00","saturday":"07:00-21:00","sunday":"08:00-21:00","holiday":"08:00-21:00"},"paymentMethods":["Dinheiro"],"otherServices":null,"observations":null}},{"type":"Feature","geometry":{"type":"Point","coordinates":[-7.466804,41.724545]},"properties":{"id":"pt-90891","source":"PT","name":"P23 - PRIO Samaiões ","brand":"PRIO","address":"Rua Dom Gualdim Pais, Lugar do Campo da Roda","municipality":"Chaves","district":"Vila Real","postalCode":"5400-574","fuels":{"gasoline95":1.999,"gasoline95Plus":1.944,"dieselPremium":2.039,"dieselAgri":1.604,"bioDiesel":2.009},"lastUpdated":"2026-08-19 00:30","extra":{"stationType":"Outro"},"services":["Calibragem de pneus"],"hours":{"weekdays":"07:00-22:00","saturday":"07:00-22:00","sunday":"07:00-22:00","holiday":"00:00-00:00"},"paymentMethods":["Dinheiro","MbWay","Multibanco","Outros"],"otherServices":null,"observations":null}},{"type":"Feature","geometry":{"type":"Point","coordinates":[-7.72257,41.30531]},"properties":{"id":"pt-91424","source":"PT","name":"E.S. VILA REAL ABAMBRES","brand":"REPSOL","address":"R. Gaspar Sameiro,  N 920 ","municipality":"Vila Real","district":"Vila Real","postalCode":"5000-261","fuels":{"gasoline95":1.999,"gasoline95Plus":2.059,"gasoline98Plus":2.179,"diesel":2.094,"dieselPremium":2.154,"dieselAgri":1.714,"lpg":0.984},"lastUpdated":"2026-08-18 06:30","extra":{"stationType":"Outro"},"services":["Cafetaria","Lavagem","Loja de Conveniência","Multibanco","Restaurante","Venda de carburante de qualidade superior","Venda de gás doméstico em garrafas","WC","WC para deficientes"],"hours":{"weekdays":"Aberto 24 horas","saturday":"Aberto 24 horas","sunday":"Aberto 24 horas","holiday":"Aberto 24 horas"},"paymentMethods":["Dinheiro"],"otherServices":null,"observations":null}},{"type":"Feature","geometry":{"type":"Point","coordinates":[-7.731374,41.300516]},"properties":{"id":"pt-93111","source":"PT","name":"BP Vila Real Europa","brand":"BP","address":"Av. da Europa, 4","municipality":"Vila Real","district":"Vila Real","postalCode":"5000-557","fuels":{"gasoline95":2.084,"gasoline98Plus":2.284,"diesel":2.184,"dieselPremium":2.299},"lastUpdated":"2026-08-18 00:05","extra":{"stationType":"Outro"},"services":["Loja de Conveniência","Venda de gás doméstico em garrafas","WC"],"hours":{"weekdays":"07:00-23:00","saturday":"07:00-23:00","sunday":"07:00-23:00","holiday":"07:00-23:00"},"paymentMethods":["Dinheiro","MbWay","Multibanco"],"otherServices":null,"observations":null}},{"type":"Feature","geometry":{"type":"Point","coordinates":[-7.262693,41.757376]},"properties":{"id":"pt-93258","source":"PT","name":"VALCARCE Lebução","brand":"VALCARCE","address":"Avenida do Estádio,01","municipality":"Valpaços","district":"Vila Real","postalCode":"5430-163","fuels":{"gasoline95":1.905,"gasoline98":2.05,"diesel":1.989,"dieselAgri":1.549},"lastUpdated":"2026-08-11 08:30","extra":{"stationType":"Outro"},"services":["Cafetaria","Loja de Conveniência","Venda de carburante de qualidade superior","Venda de gasóleo agrícola","WC","WC para deficientes"],"hours":{"weekdays":"06:30-23:30","saturday":"06:30-23:30","sunday":"06:30-23:30","holiday":"06:30-23:30"},"paymentMethods":["Dinheiro","MbWay","Multibanco","Outros"],"otherServices":null,"observations":null}},{"type":"Feature","geometry":{"type":"Point","coordinates":[-7.85166,41.28176]},"properties":{"id":"pt-93303","source":"PT","name":"ALVES BANDEIRA Sardoeira","brand":"ALVES BANDEIRA","address":"Estrada Nacional 304 - Lugar da Sardoeira","municipality":"Vila Real","district":"Vila Real","postalCode":"5000-742","fuels":{"gasoline95":2.029,"diesel":2.114,"dieselPremium":2.134,"dieselHeating":2.154,"dieselAgri":1.689},"lastUpdated":"2026-08-17 13:45","extra":{"stationType":"Outro"},"services":["Cafetaria","Loja de Conveniência","Venda de gás doméstico em garrafas","Venda de gasóleo agrícola","WC"],"hours":{"weekdays":"07:00-21:00","saturday":"07:00-21:00","sunday":"07:00-21:00","holiday":"07:00-21:00"},"paymentMethods":["Dinheiro","MbWay","Multibanco","Outros"],"otherServices":null,"observations":null}},{"type":"Feature","geometry":{"type":"Point","coordinates":[-7.46877,41.7332]},"properties":{"id":"pt-93381","source":"PT","name":"E.LECLERC Chaves","brand":"LECLERC","address":"Rotunda Raio X","municipality":"Chaves","district":"Vila Real","postalCode":"5400-011","fuels":{"gasoline95":1.934,"gasoline95Plus":1.989,"gasoline98":2.059,"diesel":2.024,"dieselPremium":2.079},"lastUpdated":"2026-08-17 07:35","extra":{"stationType":"Outro"},"services":["Venda de gás doméstico em garrafas"],"hours":{"weekdays":"08:00-21:30","saturday":"08:00-21:30","sunday":"08:00-21:30","holiday":"08:00-21:30"},"paymentMethods":["Dinheiro"],"otherServices":null,"observations":null}},{"type":"Feature","geometry":{"type":"Point","coordinates":[-7.469065,41.731667]},"properties":{"id":"pt-93408","source":"PT","name":"CEPSA Chaves - ( Raio X )","brand":"CEPSA","address":"Av. D. João I (Rotunda Raio X)","municipality":"Chaves","district":"Vila Real","postalCode":"5100-011","fuels":{"gasoline95":1.913,"gasoline95Plus":1.963,"diesel":2.019,"dieselPremium":2.069,"dieselAgri":1.564},"lastUpdated":"2026-08-10 00:00","extra":{"stationType":"Outro"},"services":["Calibragem de pneus","Loja de Conveniência","Multibanco","Venda de carburante de qualidade superior","Venda de gás doméstico em garrafas","Venda de gasóleo agrícola","WC"],"hours":{"weekdays":"07:00-23:00","saturday":"07:00-23:00","sunday":"07:00-23:00","holiday":"07:00-23:00"},"paymentMethods":["Dinheiro","MbWay","Multibanco"],"otherServices":null,"observations":null}},{"type":"Feature","geometry":{"type":"Point","coordinates":[-7.790686,41.8233]},"properties":{"id":"pt-93702","source":"PT","name":"PRIO  Montalegre","brand":"PRIO","address":"Av. Nuno Álvares Pereira","municipality":"Montalegre","district":"Vila Real","postalCode":"5470-203","fuels":{"gasoline95":1.954,"dieselPremium":2.049,"bioDiesel":2.019},"lastUpdated":"2026-08-18 23:35","extra":{"stationType":"Outro"},"services":["Calibragem de pneus"],"hours":{"weekdays":"00:00-23:59","saturday":"00:00-23:59","sunday":"00:00-23:59","holiday":null},"paymentMethods":["Dinheiro"],"otherServices":null,"observations":null}},{"type":"Feature","geometry":{"type":"Point","coordinates":[-7.926569,41.45755]},"properties":{"id":"pt-93728","source":"PT","name":"PRIO Atei","brand":"PRIO","address":"EN 312 - Lugar da Praça","municipality":"Mondim de Basto","district":"Vila Real","postalCode":"4880-030","fuels":{"gasoline95":2.049,"dieselPremium":2.179,"dieselAgri":1.699,"bioDiesel":2.149},"lastUpdated":"2026-08-18 08:05","extra":{"stationType":"Outro"},"services":["Cafetaria","Loja de Conveniência","Multibanco","Venda de gás doméstico em garrafas","WC"],"hours":{"weekdays":"07:00-20:00","saturday":"07:00-20:00","sunday":"07:00-20:00","holiday":"07:00-20:00"},"paymentMethods":["Dinheiro","MbWay","Multibanco"],"otherServices":null,"observations":null}},{"type":"Feature","geometry":{"type":"Point","coordinates":[-7.804109,41.76412]},"properties":{"id":"pt-93795","source":"PT","name":"PA Chã / GASPE Penedones","brand":"Genérico","address":"EN 103 Penedones - Montalegre","municipality":"Montalegre","district":"Vila Real","postalCode":"5470-069","fuels":{"gasoline95":1.97,"diesel":2.066,"dieselPremium":2.086,"dieselHeating":2.017,"dieselAgri":1.715},"lastUpdated":"2026-08-17 18:25","extra":{"stationType":"Outro"},"services":["Calibragem de pneus"],"hours":{"weekdays":"07:00-23:00","saturday":"07:00-23:00","sunday":"07:00-07:00","holiday":null},"paymentMethods":["Dinheiro"],"otherServices":null,"observations":null}},{"type":"Feature","geometry":{"type":"Point","coordinates":[-7.702161,41.67929]},"properties":{"id":"pt-94179","source":"PT","name":"REPSOL Beça (Boticas)","brand":"REPSOL","address":"EN 312 - Beça","municipality":"Boticas","district":"Vila Real","postalCode":"5460-125","fuels":{"gasoline95":2.054,"diesel":2.144,"dieselPremium":2.214,"dieselAgri":1.764},"lastUpdated":"2026-08-17 10:45","extra":{"stationType":"Outro"},"services":["Calibragem de pneus"],"hours":null,"paymentMethods":["Dinheiro"],"otherServices":null,"observations":null}},{"type":"Feature","geometry":{"type":"Point","coordinates":[-7.314413,41.604973]},"properties":{"id":"pt-94289","source":"PT","name":"Manuel Frederico Chaves & Filhos., Lda / GALP Valpaços","brand":"GALP","address":"Rua Prof. Dr. Amândio Tavares, Nº 37","municipality":"Valpaços","district":"Vila Real","postalCode":"5430-487","fuels":{"gasoline95":2.039,"gasoline95Plus":2.089,"diesel":2.133,"dieselPremium":2.183,"dieselAgri":1.714},"lastUpdated":"2026-08-17 00:00","extra":{"stationType":"Outro"},"services":["Calibragem de pneus"],"hours":null,"paymentMethods":["Dinheiro","MbWay","Multibanco"],"otherServices":null,"observations":null}},{"type":"Feature","geometry":{"type":"Point","coordinates":[-7.937484,41.421528]},"properties":{"id":"pt-94672","source":"PT","name":"GASPE Pedra Vedra","brand":"GASPE","address":"EN 312 - Vale do Conde - Pedra Vedra","municipality":"Mondim de Basto","district":"Vila Real","postalCode":"4880-191","fuels":{"gasoline95":2.169,"gasoline98Plus":2.369,"diesel":2.309,"dieselPremium":2.319,"dieselAgri":1.719},"lastUpdated":"2026-08-17 10:55","extra":{"stationType":"Outro"},"services":["Cafetaria","Loja de Conveniência"],"hours":{"weekdays":"07:00-22:00","saturday":"07:00-22:00","sunday":"07:00-22:00","holiday":"07:00-22:00"},"paymentMethods":["Dinheiro","Multibanco"],"otherServices":null,"observations":null}}]}