{"type":"FeatureCollection","features":[{"type":"Feature","geometry":{"type":"Point","coordinates":[-7.865718,38.004242]},"properties":{"id":"pt-65035","source":"PT","name":"Intermarché de Beja","brand":"INTERMARCHÉ","address":"Av. Fialho de Almeida nº 78","municipality":"Beja","district":"Beja","postalCode":"7800-395","fuels":{"gasoline95":1.909,"gasoline95Plus":1.979,"diesel":1.989,"dieselPremium":2.059},"lastUpdated":"2026-08-18 07:00","extra":{"stationType":"Outro"},"services":["Calibragem de pneus"],"hours":{"weekdays":"Aberto 24 horas","saturday":"Aberto 24 horas","sunday":"Aberto 24 horas","holiday":"Aberto 24 horas"},"paymentMethods":["Dinheiro","Multibanco"],"otherServices":null,"observations":null}},{"type":"Feature","geometry":{"type":"Point","coordinates":[-8.241723,37.92348]},"properties":{"id":"pt-65065","source":"PT","name":"GALP A.S. A2 Aljustrel (S/N)","brand":"GALP","address":"A2 - Km 148 (S/N)","municipality":"Aljustrel","district":"Beja","postalCode":"7600-000","fuels":{"gasoline95":2.119,"gasoline95Plus":2.179,"gasoline98Plus":2.304,"diesel":2.224,"dieselPremium":2.284,"lpg":0.999},"lastUpdated":"2026-08-25 03:50","extra":{"stationType":"Auto-estrada"},"services":["Cafetaria","Loja de Conveniência","Multibanco","Via verde","WC","WC com fraldário","WC para deficientes"],"hours":{"weekdays":"Aberto 24 horas","saturday":"Aberto 24 horas","sunday":"Aberto 24 horas","holiday":"Aberto 24 horas"},"paymentMethods":["Dinheiro","MbWay","Multibanco","Outros"],"otherServices":null,"observations":null}},{"type":"Feature","geometry":{"type":"Point","coordinates":[-8.243193,37.923733]},"properties":{"id":"pt-65066","source":"PT","name":"GALP A.S. A2 Aljustrel (N/S)","brand":"GALP","address":"A.E.2 Km 148","municipality":"Aljustrel","district":"Beja","postalCode":"7600-000","fuels":{"gasoline95":2.119,"gasoline95Plus":2.179,"gasoline98Plus":2.024,"diesel":2.224,"dieselPremium":2.284,"lpg":0.999},"lastUpdated":"2026-08-25 03:50","extra":{"stationType":"Auto-estrada"},"services":["Cafetaria","Loja de Conveniência","Multibanco","Via verde","WC","WC com fraldário","WC para deficientes"],"hours":{"weekdays":"Aberto 24 horas","saturday":"Aberto 24 horas","sunday":"Aberto 24 horas","holiday":"Aberto 24 horas"},"paymentMethods":["Dinheiro","MbWay","Multibanco","Outros"],"otherServices":null,"observations":null}},{"type":"Feature","geometry":{"type":"Point","coordinates":[-8.148942,37.87229]},"properties":{"id":"pt-65067","source":"PT","name":"TFUEL - BP ALJUSTREL","brand":"BP","address":"ESTRADA NACIONAL 2, km 622.700","municipality":"Aljustrel","district":"Beja","postalCode":"7600-173","fuels":{"gasoline95":2.109,"gasoline98Plus":2.309,"diesel":2.219,"dieselPremium":2.329,"dieselAgri":1.769},"lastUpdated":"2026-08-24 00:00","extra":{"stationType":"Outro"},"services":["Cafetaria","Multibanco","WC"],"hours":null,"paymentMethods":["Dinheiro"],"otherServices":null,"observations":null}},{"type":"Feature","geometry":{"type":"Point","coordinates":[-8.08174,37.96508]},"properties":{"id":"pt-65068","source":"PT","name":"SOUSA & MADEIRA, LDA.","brand":"GALP","address":"EN 2 Km 606,465","municipality":"Aljustrel","district":"Beja","postalCode":"7600-204","fuels":{"gasoline95":2.039,"diesel":2.133,"dieselPremium":2.183,"dieselAgri":1.714},"lastUpdated":"2026-08-18 11:00","extra":{"stationType":"Outro"},"services":["Descanso de pesados","Venda de carburante de qualidade superior","Venda de gás doméstico em garrafas","Venda de gasóleo agrícola","WC"],"hours":{"weekdays":"07:00-21:00","saturday":"07:00-21:00","sunday":"07:00-21:00","holiday":"07:00-21:00"},"paymentMethods":["Dinheiro"],"otherServices":null,"observations":"Full Service"}},{"type":"Feature","geometry":{"type":"Point","coordinates":[-8.06111,37.51856]},"properties":{"id":"pt-65078","source":"PT","name":"ANTÓNIO MANUEL GUERREIRO","brand":"GALP","address":"EN 2 (Rua Comendador Carrilho, nº6) Km 664","municipality":"Almodôvar","district":"Beja","postalCode":"7700-016","fuels":{"gasoline95":2.074,"gasoline95Plus":2.134,"diesel":2.187,"dieselPremium":2.247,"dieselAgri":1.749},"lastUpdated":"2026-08-24 15:30","extra":{"stationType":"Outro"},"services":["Assistência auto","Cafetaria","Calibragem de pneus","Lavagem","Loja de Conveniência","Multibanco","Venda de carburante de qualidade superior","Venda de gás doméstico em garrafas","Venda de gasóleo agrícola","WC"],"hours":{"weekdays":"07:00-23:00","saturday":"07:00-23:00","sunday":"07:00-23:00","holiday":"07:00-23:00"},"paymentMethods":["Dinheiro"],"otherServices":null,"observations":"Aspiração\r\nEstação de Serviço"}},{"type":"Feature","geometry":{"type":"Point","coordinates":[-7.86542,38.00534]},"properties":{"id":"pt-65172","source":"PT","name":"L. A. CAMEIRINHA, LDA","brand":"GALP","address":"Av. Fialho de Almeida","municipality":"Beja","district":"Beja","postalCode":"7800-395","fuels":{"gasoline95":2.064,"gasoline95Plus":2.114,"gasoline98Plus":2.274,"diesel":2.167,"dieselPremium":2.217},"lastUpdated":"2026-08-24 09:20","extra":{"stationType":"Outro"},"services":["Venda de carburante de qualidade superior","Venda de gás doméstico em garrafas"],"hours":{"weekdays":"06:00-22:00","saturday":"06:00-22:00","sunday":"06:00-22:00","holiday":"06:00-22:00"},"paymentMethods":["Dinheiro"],"otherServices":null,"observations":"Full Service"}},{"type":"Feature","geometry":{"type":"Point","coordinates":[-8.085287,37.701307]},"properties":{"id":"pt-65226","source":"PT","name":"RAPOSO & LUZIA - COMB. LUB., LDA.","brand":"GALP","address":"Rua da Seara Nova 30 (E.N.2 - Km 641,1)","municipality":"Castro Verde","district":"Beja","postalCode":"7780-163","fuels":{"gasoline95":2.064,"gasoline95Plus":2.114,"diesel":2.167,"dieselPremium":2.217,"dieselAgri":1.749},"lastUpdated":"2026-08-24 08:45","extra":{"stationType":"Outro"},"services":["Assistência auto","Calibragem de pneus","Lavagem","Loja de Conveniência","Multibanco","Venda de carburante de qualidade superior","Venda de gás doméstico em garrafas","Venda de gasóleo agrícola","WC","WC para deficientes"],"hours":{"weekdays":"Aberto 24 horas","saturday":"Aberto 24 horas","sunday":"Aberto 24 horas","holiday":"Aberto 24 horas"},"paymentMethods":["Dinheiro"],"otherServices":null,"observations":"Aspiração\r\nFull Service"}},{"type":"Feature","geometry":{"type":"Point","coordinates":[-7.89119,38.16204]},"properties":{"id":"pt-65257","source":"PT","name":"VARSUL - Comércio Produtos Agricolas, Lda ","brand":"GALP","address":"EN 258 Km 10,2","municipality":"Cuba","district":"Beja","postalCode":"7940-028","fuels":{"gasoline95":2.039,"gasoline95Plus":2.099,"diesel":2.133,"dieselPremium":2.193},"lastUpdated":"2026-08-18 11:00","extra":{"stationType":"Outro"},"services":["Cafetaria","Venda de carburante de qualidade superior","Venda de gás doméstico em garrafas","WC"],"hours":{"weekdays":"07:00-23:00","saturday":"07:00-23:00","sunday":"07:00-23:00","holiday":"07:00-23:00"},"paymentMethods":["Dinheiro"],"otherServices":null,"observations":"Full Service"}},{"type":"Feature","geometry":{"type":"Point","coordinates":[-7.658937,37.643336]},"properties":{"id":"pt-65435","source":"PT","name":"RAPOSO & LUZIA - COMB. LUB., LDA.","brand":"GALP","address":"EN 122 Km 51,45","municipality":"Mértola","district":"Beja","postalCode":"7750-909","fuels":{"gasoline95":2.074,"gasoline95Plus":2.134,"diesel":2.177,"dieselPremium":2.237,"dieselAgri":1.749},"lastUpdated":"2026-08-24 12:25","extra":{"stationType":"Outro"},"services":["Cafetaria","Loja de Conveniência","Venda de carburante de qualidade superior","Venda de gás doméstico em garrafas","Venda de gasóleo agrícola","WC"],"hours":{"weekdays":"07:00-23:00","saturday":"07:00-23:00","sunday":"07:00-23:00","holiday":"07:00-23:00"},"paymentMethods":["Dinheiro"],"otherServices":null,"observations":"Full Service"}},{"type":"Feature","geometry":{"type":"Point","coordinates":[-7.447143,38.13757]},"properties":{"id":"pt-65462","source":"PT","name":"MANUEL GREGÓRIO DOS SANTOS P. COUTINHO","brand":"GALP","address":"Largo José Maria Santos nº 42","municipality":"Moura","district":"Beja","postalCode":"7860-008","fuels":{"gasoline95":2.064,"gasoline95Plus":2.144,"diesel":2.167,"dieselPremium":2.217,"dieselAgri":1.749},"lastUpdated":"2026-08-24 08:20","extra":{"stationType":"Outro"},"services":["Multibanco","Venda de carburante de qualidade superior","Venda de gás doméstico em garrafas","Venda de gasóleo agrícola"],"hours":{"weekdays":"Aberto 24 horas","saturday":"Aberto 24 horas","sunday":"Aberto 24 horas","holiday":"Aberto 24 horas"},"paymentMethods":["Dinheiro"],"otherServices":null,"observations":"Full Service"}},{"type":"Feature","geometry":{"type":"Point","coordinates":[-8.710743,37.515121]},"properties":{"id":"pt-65471","source":"PT","name":"MARIA ESPERANÇA C. JACOB HERDEIROS","brand":"GALP","address":"EN 120 Km 115,4","municipality":"Odemira","district":"Beja","postalCode":"7630-000","fuels":{"gasoline95":2.074,"gasoline95Plus":2.134,"diesel":2.177,"dieselPremium":2.237,"dieselAgri":1.749},"lastUpdated":"2026-08-24 09:55","extra":{"stationType":"Outro"},"services":["Cafetaria","Loja de Conveniência","Venda de carburante de qualidade superior","Venda de gás doméstico em garrafas","Venda de gasóleo agrícola","WC","WC para deficientes"],"hours":{"weekdays":"07:00-23:00","saturday":"07:00-23:00","sunday":"07:00-23:00","holiday":"07:00-23:00"},"paymentMethods":["Dinheiro"],"otherServices":null,"observations":null}},{"type":"Feature","geometry":{"type":"Point","coordinates":[-8.64541,37.5982]},"properties":{"id":"pt-65472","source":"PT","name":"MARIA ESPERANÇA C. JACOB, HERD","brand":"GALP","address":"EN 120 (Av. Poole da Costa) Km 102,845","municipality":"Odemira","district":"Beja","postalCode":"7630-122","fuels":{"gasoline95":2.064,"diesel":2.167,"dieselPremium":2.217,"dieselAgri":1.749},"lastUpdated":"2026-08-24 09:55","extra":{"stationType":"Outro"},"services":["Venda de carburante de qualidade superior","Venda de gás doméstico em garrafas","Venda de gasóleo agrícola","WC"],"hours":{"weekdays":"08:00-22:00","saturday":"08:00-22:00","sunday":"08:00-22:00","holiday":"08:00-22:00"},"paymentMethods":["Dinheiro"],"otherServices":null,"observations":"Full Service"}},{"type":"Feature","geometry":{"type":"Point","coordinates":[-8.767119,37.738866]},"properties":{"id":"pt-65473","source":"PT","name":"BOTELHOS II, LDA.","brand":"GALP","address":"EN 390 Km 39,4","municipality":"Odemira","district":"Beja","postalCode":"7645-000","fuels":{"gasoline95":2.059,"gasoline95Plus":2.109,"diesel":2.153,"dieselPremium":2.203},"lastUpdated":"2026-08-18 11:00","extra":{"stationType":"Outro"},"services":["Cafetaria","Calibragem de pneus","Lavagem","Loja de Conveniência","Venda de carburante de qualidade superior","Venda de gás doméstico em garrafas","WC","WC com fraldário","WC para deficientes"],"hours":{"weekdays":"06:00-23:00","saturday":"06:00-23:00","sunday":"06:00-23:00","holiday":"06:00-23:00"},"paymentMethods":["Dinheiro"],"otherServices":null,"observations":null}},{"type":"Feature","geometry":{"type":"Point","coordinates":[-8.246112,37.612423]},"properties":{"id":"pt-65515","source":"PT","name":"PETROMESTRE - UNIPESSOAL, LDA","brand":"GALP","address":"EN 264 (IC 1 Km 674) Km 43,9","municipality":"Ourique","district":"Beja","postalCode":"7670-202","fuels":{"gasoline95":2.064,"gasoline95Plus":2.124,"diesel":2.167,"dieselPremium":2.227},"lastUpdated":"2026-08-24 06:55","extra":{"stationType":"Outro"},"services":["Cafetaria","Descanso de pesados","Venda de carburante de qualidade superior","Venda de gás doméstico em garrafas","WC"],"hours":{"weekdays":"06:00-00:00","saturday":"06:00-00:00","sunday":"06:00-00:00","holiday":"06:00-00:00"},"paymentMethods":["Dinheiro"],"otherServices":null,"observations":"Full Service"}},{"type":"Feature","geometry":{"type":"Point","coordinates":[-7.60284,37.95297]},"properties":{"id":"pt-65627","source":"PT","name":"RAPOSO & LUZIA - COMB. LUB., LDA.","brand":"GALP","address":"EN 260 Km 26,66","municipality":"Serpa","district":"Beja","postalCode":"7830-299","fuels":{"gasoline95":2.064,"gasoline95Plus":2.114,"diesel":2.167,"dieselPremium":2.217,"dieselAgri":1.719},"lastUpdated":"2026-08-24 10:15","extra":{"stationType":"Outro"},"services":["Cafetaria","Descanso de pesados","Lavagem","Venda de carburante de qualidade superior","Venda de gás doméstico em garrafas","Venda de gasóleo agrícola","WC"],"hours":{"weekdays":"Aberto 24 horas","saturday":"Aberto 24 horas","sunday":"Aberto 24 horas","holiday":"Aberto 24 horas"},"paymentMethods":["Dinheiro"],"otherServices":null,"observations":"Aspiração\r\nFull Service"}},{"type":"Feature","geometry":{"type":"Point","coordinates":[-7.87145,38.02075]},"properties":{"id":"pt-65803","source":"PT","name":"L. A. CAMEIRINHA , LDA","brand":"GALP","address":"Rua de Lisboa","municipality":"Beja","district":"Beja","postalCode":"7800-000","fuels":{"gasoline95":2.039,"gasoline95Plus":2.089,"gasoline98Plus":2.249,"diesel":2.133,"dieselPremium":2.183,"lpg":0.954},"lastUpdated":"2026-08-18 11:00","extra":{"stationType":"Outro"},"services":["Cafetaria","Lavagem","Loja de Conveniência","Multibanco","Venda de carburante de qualidade superior","Venda de gás doméstico em garrafas","WC","WC para deficientes"],"hours":{"weekdays":"Aberto 24 horas","saturday":"Aberto 24 horas","sunday":"Aberto 24 horas","holiday":"Aberto 24 horas"},"paymentMethods":["Dinheiro"],"otherServices":null,"observations":"Aspiração"}},{"type":"Feature","geometry":{"type":"Point","coordinates":[-7.864335,38.010277]},"properties":{"id":"pt-65850","source":"PT","name":"BP Beja Centro (Castilho).","brand":"BP","address":"Av. Fialho de Almeida ","municipality":"Beja","district":"Beja","postalCode":"7800-395","fuels":{"gasoline95":2.109,"gasoline98Plus":2.299,"diesel":2.219,"dieselPremium":2.334},"lastUpdated":"2026-08-24 14:00","extra":{"stationType":"Outro"},"services":["Loja de Conveniência","Multibanco","Venda de gás doméstico em garrafas","WC","WC para deficientes"],"hours":{"weekdays":"06:30-22:00","saturday":"06:30-22:00","sunday":"06:30-22:00","holiday":"06:30-22:00"},"paymentMethods":["Dinheiro","Multibanco","Outros"],"otherServices":null,"observations":null}},{"type":"Feature","geometry":{"type":"Point","coordinates":[-7.8532,38.01913]},"properties":{"id":"pt-65851","source":"PT","name":"BEJA - LUZIAS","brand":"BP","address":"Rua D. Afonso III nº 43","municipality":"Beja","district":"Beja","postalCode":"7800-000","fuels":{"gasoline95":2.109,"gasoline98Plus":2.299,"diesel":2.219,"dieselPremium":2.334},"lastUpdated":"2026-08-24 00:05","extra":{"stationType":"Outro"},"services":["Cafetaria","Loja de Conveniência","Multibanco","Venda de carburante de qualidade superior","Venda de gás doméstico em garrafas","WC"],"hours":{"weekdays":"07:00-23:00","saturday":"07:00-23:00","sunday":"07:00-23:00","holiday":"07:00-23:00"},"paymentMethods":["Dinheiro"],"otherServices":null,"observations":null}},{"type":"Feature","geometry":{"type":"Point","coordinates":[-7.87449,38.00986]},"properties":{"id":"pt-65852","source":"PT","name":"BP  Beja (Variante)","brand":"BP","address":"Rua António Sardinha","municipality":"Beja","district":"Beja","postalCode":"7800-403","fuels":{"gasoline95":2.109,"gasoline98Plus":2.299,"diesel":2.219,"dieselPremium":2.334,"dieselAgri":1.764,"lpg":0.999},"lastUpdated":"2026-08-24 12:00","extra":{"stationType":"Outro"},"services":["Cafetaria","Loja de Conveniência","Multibanco","WC"],"hours":{"weekdays":"Aberto 24 horas","saturday":"Aberto 24 horas","sunday":"Aberto 24 horas","holiday":"Aberto 24 horas"},"paymentMethods":["Dinheiro","MbWay","Multibanco","Outros"],"otherServices":null,"observations":null}},{"type":"Feature","geometry":{"type":"Point","coordinates":[-8.16287,37.88193]},"properties":{"id":"pt-66114","source":"PT","name":"ES-ALJUSTREL","brand":"REPSOL","address":"EN 383 Km 64,35 (Rua dos Montes Velhos nº 16)","municipality":"Aljustrel","district":"Beja","postalCode":"7600-091","fuels":{"gasoline95":2.054,"gasoline95Plus":2.124,"gasoline98Plus":2.244,"diesel":2.159,"dieselPremium":2.229},"lastUpdated":"2026-08-24 09:05","extra":{"stationType":"Outro"},"services":["Venda de carburante de qualidade superior"],"hours":{"weekdays":"07:00-22:00","saturday":"07:00-22:00","sunday":"07:00-22:00","holiday":"07:00-22:00"},"paymentMethods":["Dinheiro"],"otherServices":null,"observations":"Venda de Óleos e Lubrificantes"}},{"type":"Feature","geometry":{"type":"Point","coordinates":[-8.46329,37.73454]},"properties":{"id":"pt-66304","source":"PT","name":"Cepsa- Jesuíno Felisberto Guerreiro","brand":"CEPSA","address":"Rua Nova, nº.2","municipality":"Odemira","district":"Beja","postalCode":"7630-329","fuels":{"gasoline95":2.068,"diesel":2.179,"dieselPremium":2.229,"dieselAgri":1.724},"lastUpdated":"2026-08-24 18:15","extra":{"stationType":"Outro"},"services":["Multibanco","WC"],"hours":{"weekdays":"08:00-21:00","saturday":"08:00-21:00","sunday":"Fechado","holiday":"08:00-21:00"},"paymentMethods":["Dinheiro","Multibanco"],"otherServices":null,"observations":null}},{"type":"Feature","geometry":{"type":"Point","coordinates":[-7.849986,37.79028]},"properties":{"id":"pt-66434","source":"PT","name":"TFUEL - BP VALE DE AÇOR","brand":"BP","address":"EN 122 - KM 26,040 - VALE DE AÇOR DE CIMA","municipality":"Mértola","district":"Beja","postalCode":"7750-056","fuels":{"gasoline95":2.109,"gasoline98Plus":2.309,"diesel":2.219,"dieselPremium":2.329,"dieselAgri":1.769},"lastUpdated":"2026-08-24 00:00","extra":{"stationType":"Outro"},"services":["Cafetaria","Multibanco","WC"],"hours":null,"paymentMethods":["Dinheiro"],"otherServices":null,"observations":null}},{"type":"Feature","geometry":{"type":"Point","coordinates":[-7.86404,38.01159]},"properties":{"id":"pt-66472","source":"PT","name":"E.S. BEJA","brand":"REPSOL","address":"Largo Escritor Manuel Ribeiro nº 12","municipality":"Beja","district":"Beja","postalCode":"7800-421","fuels":{"gasoline95":2.054,"gasoline95Plus":2.124,"diesel":2.149,"dieselPremium":2.219},"lastUpdated":"2026-08-25 00:00","extra":{"stationType":"Outro"},"services":["Venda de carburante de qualidade superior","Venda de gás doméstico em garrafas","Venda de gasóleo agrícola","WC"],"hours":{"weekdays":"08:00-22:00","saturday":"08:00-22:00","sunday":"08:00-22:00","holiday":"08:00-22:00"},"paymentMethods":["Dinheiro"],"otherServices":null,"observations":null}},{"type":"Feature","geometry":{"type":"Point","coordinates":[-8.0103,37.77887]},"properties":{"id":"pt-66473","source":"PT","name":"E.S. ENTRADAS-IP2","brand":"REPSOL","address":"Rua da Lavoura","municipality":"Castro Verde","district":"Beja","postalCode":"7780-323","fuels":{"gasoline95":2.079,"gasoline95Plus":2.149,"diesel":2.164,"dieselPremium":2.234,"dieselAgri":1.749},"lastUpdated":"2026-08-25 00:00","extra":{"stationType":"Outro"},"services":["Descanso de pesados","Loja de Conveniência","Venda de carburante de qualidade superior","Venda de gás doméstico em garrafas","Venda de gasóleo agrícola","WC"],"hours":{"weekdays":"07:00-22:00","saturday":"07:00-22:00","sunday":"07:00-22:00","holiday":"07:00-22:00"},"paymentMethods":["Dinheiro"],"otherServices":null,"observations":null}},{"type":"Feature","geometry":{"type":"Point","coordinates":[-8.64547,37.59879]},"properties":{"id":"pt-66474","source":"PT","name":"E.S. ODEMIRA","brand":"REPSOL","address":"Av. Poole da Costa nº 49","municipality":"Odemira","district":"Beja","postalCode":"7630-000","fuels":{"gasoline95":2.069,"gasoline95Plus":2.139,"gasoline98Plus":2.269,"diesel":2.184,"dieselPremium":2.254,"dieselAgri":1.749,"lpg":1.024},"lastUpdated":"2026-08-25 00:00","extra":{"stationType":"Outro"},"services":["Assistência auto","Calibragem de pneus","Lavagem","Loja de Conveniência","Multibanco","Venda de carburante de qualidade superior","Venda de gás doméstico em garrafas","Venda de gasóleo agrícola","WC"],"hours":{"weekdays":"07:30-22:00","saturday":"07:30-22:00","sunday":"07:30-22:00","holiday":"07:30-22:00"},"paymentMethods":["Dinheiro"],"otherServices":null,"observations":null}},{"type":"Feature","geometry":{"type":"Point","coordinates":[-8.4768,37.5134]},"properties":{"id":"pt-66905","source":"PT","name":"PETRIN Freguesia de Santa Clara-a-Velha","brand":"PETRIN","address":"Largo de Gôa, n.º 1 - 1.º","municipality":"Odemira","district":"Beja","postalCode":"7665-880","fuels":{"gasoline95":2.109,"diesel":2.219,"dieselPremium":2.334,"dieselAgri":1.764},"lastUpdated":"2026-08-24 14:00","extra":{"stationType":"Outro"},"services":["Multibanco","Venda de gasóleo agrícola","WC para deficientes","AUTOvoucher"],"hours":{"weekdays":"07:00-21:00","saturday":"07:00-21:00","sunday":"07:00-21:00","holiday":"07:00-21:00"},"paymentMethods":["Dinheiro","Multibanco"],"otherServices":null,"observations":null}},{"type":"Feature","geometry":{"type":"Point","coordinates":[-8.1591,37.87905]},"properties":{"id":"pt-67106","source":"PT","name":"CLA","brand":"BEQ","address":"Rua de Olivença","municipality":"Aljustrel","district":"Beja","postalCode":"7600-077","fuels":{"gasoline95":1.904,"gasoline95Plus":1.924,"gasoline98Plus":2.269,"diesel":1.999,"dieselPremium":2.019},"lastUpdated":"2026-08-25 00:00","extra":{"stationType":"Outro"},"services":["Cafetaria","Lavagem","Loja de Conveniência","Multibanco","Venda de gás doméstico em garrafas","WC"],"hours":{"weekdays":"07:00-23:00","saturday":"07:00-23:00","sunday":"07:00-23:00","holiday":"07:00-23:00"},"paymentMethods":["Dinheiro"],"otherServices":null,"observations":null}},{"type":"Feature","geometry":{"type":"Point","coordinates":[-8.0849901,37.70544]},"properties":{"id":"pt-67471","source":"PT","name":"Intermarché Castro Verde Contact","brand":"INTERMARCHÉ","address":"Estrada Serrana, apartado 121","municipality":"Castro Verde","district":"Beja","postalCode":"7780-909","fuels":{"gasoline95":1.989,"gasoline95Plus":2.019,"diesel":2.079,"dieselPremium":2.109},"lastUpdated":"2026-08-24 10:45","extra":{"stationType":"Outro"},"services":["Loja de Conveniência","Multibanco","Venda de carburante de qualidade superior","Venda de gás doméstico em garrafas","AUTOvoucher"],"hours":{"weekdays":"08:00-20:30","saturday":"08:00-20:30","sunday":"08:00-20:30","holiday":"08:00-20:30"},"paymentMethods":["Dinheiro","MbWay","Multibanco","Outros"],"otherServices":"GPL Auto, Adblue","observations":"Lubrifican"}},{"type":"Feature","geometry":{"type":"Point","coordinates":[-7.603837,37.938972]},"properties":{"id":"pt-67663","source":"PT","name":"Intermarché de Serpa","brand":"INTERMARCHÉ","address":"HORTINHA","municipality":"Serpa","district":"Beja","postalCode":"7830-389","fuels":{"gasoline95":2.005,"gasoline98":2.165,"diesel":2.101,"dieselPremium":2.151},"lastUpdated":"2026-08-24 20:45","extra":{"stationType":"Outro"},"services":["Venda de gás doméstico em garrafas"],"hours":{"weekdays":"08:00-20:00","saturday":"08:00-20:00","sunday":"08:00-20:00","holiday":"08:00-20:00"},"paymentMethods":["Dinheiro"],"otherServices":null,"observations":null}},{"type":"Feature","geometry":{"type":"Point","coordinates":[-8.182937,37.53582]},"properties":{"id":"pt-69048","source":"PT","name":"A2 ALMODÔVAR (ALG/LIS)","brand":"MOEVE","address":"A2, KM 193, SUB-LANÇO CASTRO VERDE/ALMODÔVAR, APARTADO 93","municipality":"Almodôvar","district":"Beja","postalCode":"7700-000","fuels":{"gasoline95":2.024,"gasoline98Plus":2.311,"diesel":2.199,"dieselPremium":2.249,"lpg":0.976},"lastUpdated":"2026-08-18 16:00","extra":{"stationType":"Auto-estrada"},"services":["Loja de Conveniência","Multibanco","Restaurante","WC"],"hours":null,"paymentMethods":["Dinheiro"],"otherServices":null,"observations":null}},{"type":"Feature","geometry":{"type":"Point","coordinates":[-8.184828,37.536385]},"properties":{"id":"pt-69050","source":"PT","name":"A2 ALMODÔVAR (LIS/ALG)","brand":"MOEVE","address":"A2, KM 193, SUB-LANÇO CASTRO VERDE/ALMODÔVAR","municipality":"Almodôvar","district":"Beja","postalCode":"7700-000","fuels":{"gasoline95":2.099,"gasoline98Plus":2.311,"diesel":2.199,"dieselPremium":2.249,"lpg":0.976},"lastUpdated":"2026-08-18 16:00","extra":{"stationType":"Auto-estrada"},"services":["Loja de Conveniência","Multibanco","Restaurante","WC"],"hours":null,"paymentMethods":["Dinheiro"],"otherServices":null,"observations":null}},{"type":"Feature","geometry":{"type":"Point","coordinates":[-7.445416,38.138897]},"properties":{"id":"pt-69490","source":"PT","name":"Petromoura","brand":"Genérico","address":"RUA ENG. ALMEIDA MANSOS, LOTE 1","municipality":"Moura","district":"Beja","postalCode":"7860-004","fuels":{"gasoline95":2.079,"gasoline98":2.279,"diesel":2.184,"dieselPremium":2.244,"dieselAgri":1.749},"lastUpdated":"2026-08-25 00:00","extra":{"stationType":"Outro"},"services":["Calibragem de pneus","Lavagem","Venda de gás doméstico em garrafas","Venda de gasóleo para aquecimento","WC para deficientes"],"hours":{"weekdays":"Aberto 24 horas","saturday":"Aberto 24 horas","sunday":"Aberto 24 horas","holiday":"Aberto 24 horas"},"paymentMethods":["Dinheiro"],"otherServices":null,"observations":null}},{"type":"Feature","geometry":{"type":"Point","coordinates":[-8.49809,37.81323]},"properties":{"id":"pt-70387","source":"PT","name":"Flor de Campilhas","brand":"Genérico","address":"Estrada Nacional 262 nº 5Apartado 3243 - Bicos","municipality":"Odemira","district":"Beja","postalCode":"7630-711","fuels":{"gasoline95":1.989,"diesel":2.068,"dieselPremium":2.078,"dieselHeating":2.086,"dieselAgri":1.736},"lastUpdated":"2026-08-24 20:25","extra":{"stationType":"Outro"},"services":[],"hours":{"weekdays":"07:00-22:00","saturday":"07:00-22:00","sunday":"07:00-22:00","holiday":"07:00-22:00"},"paymentMethods":["Dinheiro"],"otherServices":null,"observations":"Transporte de Combustiveis ao Domicilio\r\nLoja de Conveniência\r\nRestaurante\r\nVenda de Gasóleo Verde\r\nVenda de Gasóleo de Aquecimento\r\nVenda de Gás doméstico em garrafas\r\nWC\r\nEstacionamento com cobertura\r\nMultibanco"}},{"type":"Feature","geometry":{"type":"Point","coordinates":[-7.77632,37.93674]},"properties":{"id":"pt-70436","source":"PT","name":"OS PALMAS","brand":"GALP","address":"Av. 25 de Abril","municipality":"Beja","district":"Beja","postalCode":"7800-671","fuels":{"gasoline95":1.979,"gasoline98":2.025,"diesel":2.063,"dieselAgri":1.619},"lastUpdated":"2026-08-17 16:30","extra":{"stationType":"Outro"},"services":["Cafetaria","Multibanco","Venda de gás doméstico em garrafas","Venda de gasóleo agrícola","WC"],"hours":{"weekdays":"08:00-22:00","saturday":"08:00-22:00","sunday":"08:00-22:00","holiday":"08:00-22:00"},"paymentMethods":["Dinheiro"],"otherServices":null,"observations":null}},{"type":"Feature","geometry":{"type":"Point","coordinates":[-8.084354,37.686544]},"properties":{"id":"pt-70928","source":"PT","name":"ARRANHA FONTINHAS, LDA","brand":"ALVES BANDEIRA","address":"EN 2","municipality":"Castro Verde","district":"Beja","postalCode":"7780-171","fuels":{"gasoline95":2.094,"gasoline98":2.244,"diesel":2.189,"dieselPremium":2.209,"dieselAgri":1.764},"lastUpdated":"2026-08-24 15:00","extra":{"stationType":"Outro"},"services":["Cafetaria","Loja de Conveniência","Multibanco","Venda de gás doméstico em garrafas","Venda de gasóleo agrícola","WC"],"hours":{"weekdays":"Aberto 24 horas","saturday":"Aberto 24 horas","sunday":"Aberto 24 horas","holiday":"Aberto 24 horas"},"paymentMethods":["Dinheiro","MbWay","Multibanco"],"otherServices":null,"observations":null}},{"type":"Feature","geometry":{"type":"Point","coordinates":[-8.223362,37.661766]},"properties":{"id":"pt-71507","source":"PT","name":"TFUEL - OURIQUE","brand":"TFUEL","address":"CRUZAMENTO DO MONTE DA VOLTA","municipality":"Ourique","district":"Beja","postalCode":"7670-216","fuels":{"gasoline95":1.989,"diesel":2.079,"dieselPremium":2.129,"dieselAgri":1.689},"lastUpdated":"2026-08-24 00:00","extra":{"stationType":"Outro"},"services":["Cafetaria"],"hours":null,"paymentMethods":["Dinheiro"],"otherServices":null,"observations":null}},{"type":"Feature","geometry":{"type":"Point","coordinates":[-8.23355,37.65317]},"properties":{"id":"pt-72432","source":"PT","name":"J.B.SILVA LDA","brand":"BP","address":"Loteamento Rosal Sul - Lote 1","municipality":"Ourique","district":"Beja","postalCode":"7670-368","fuels":{"gasoline95":2.109,"gasoline98Plus":2.299,"diesel":2.219,"dieselPremium":2.334,"dieselAgri":1.724},"lastUpdated":"2026-08-24 06:00","extra":{"stationType":"Outro"},"services":["Loja de Conveniência","Multibanco","Venda de gás doméstico em garrafas","Venda de gasóleo agrícola","WC"],"hours":{"weekdays":"08:00-21:00","saturday":"08:00-21:00","sunday":"08:00-21:00","holiday":"08:00-21:00"},"paymentMethods":["Dinheiro"],"otherServices":null,"observations":null}},{"type":"Feature","geometry":{"type":"Point","coordinates":[-7.84903,38.02016]},"properties":{"id":"pt-72519","source":"PT","name":"Prio Beja","brand":"PRIO","address":"Rua D.Afonso III","municipality":"Beja","district":"Beja","postalCode":"7800-050","fuels":{"gasoline95":2.088,"gasoline95Plus":2.048,"dieselPremium":2.164,"bioDiesel":2.144},"lastUpdated":"2026-08-24 09:15","extra":{"stationType":"Outro"},"services":["Cafetaria","Calibragem de pneus","Loja de Conveniência","Venda de carburante de qualidade superior","Venda de gás doméstico em garrafas","WC","WC para deficientes"],"hours":{"weekdays":"Aberto 24 horas","saturday":"Aberto 24 horas","sunday":"Aberto 24 horas","holiday":"Aberto 24 horas"},"paymentMethods":["Dinheiro","MbWay","Multibanco"],"otherServices":null,"observations":null}},{"type":"Feature","geometry":{"type":"Point","coordinates":[-7.40571,37.92147]},"properties":{"id":"pt-73550","source":"PT","name":"TFUEL - VILA NOVA DE S. BENTO","brand":"TFUEL","address":"Rua de Paimogo","municipality":"Serpa","district":"Beja","postalCode":"7830-100","fuels":{"gasoline95":2.089,"diesel":2.179,"dieselAgri":1.769},"lastUpdated":"2026-08-24 00:00","extra":{"stationType":"Outro"},"services":["Loja de Conveniência","Venda de carburante de qualidade superior","Venda de gás doméstico em garrafas","Venda de gasóleo agrícola","Venda de gasóleo para aquecimento","WC"],"hours":{"weekdays":"07:00-22:00","saturday":"07:00-22:00","sunday":"07:00-22:00","holiday":"07:00-22:00"},"paymentMethods":["Dinheiro"],"otherServices":null,"observations":null}},{"type":"Feature","geometry":{"type":"Point","coordinates":[-8.037483,38.289394]},"properties":{"id":"pt-74642","source":"PT","name":"Manuel & José de Carvalho,Lda","brand":"GALP","address":"Largo Francisco Manuel Fialho,1","municipality":"Alvito","district":"Beja","postalCode":"7920-355","fuels":{"gasoline95":2.089,"diesel":2.185,"dieselPremium":2.205,"dieselHeating":2.167,"dieselAgri":1.765},"lastUpdated":"2026-08-24 12:25","extra":{"stationType":"Outro"},"services":["Venda de gás doméstico em garrafas","AUTOvoucher"],"hours":{"weekdays":"08:00-19:00","saturday":"08:00-13:00","sunday":"Fechado","holiday":"Fechado"},"paymentMethods":["Dinheiro","Multibanco"],"otherServices":null,"observations":null}},{"type":"Feature","geometry":{"type":"Point","coordinates":[-7.98713,37.63712]},"properties":{"id":"pt-75097","source":"PT","name":"Auto Combustiveis Santa Barbara, Lda.","brand":"Genérico","address":"Largo 1ª de Maio  Nº10","municipality":"Castro Verde","district":"Beja","postalCode":"7780-486","fuels":{"gasoline95":2.039,"diesel":2.133,"dieselPremium":2.173,"dieselAgri":1.714},"lastUpdated":"2026-08-17 14:30","extra":{"stationType":"Outro"},"services":["Assistência auto","Calibragem de pneus","Lavagem","Multibanco","Venda de gás doméstico em garrafas","WC"],"hours":{"weekdays":"07:00-21:00","saturday":"07:00-21:00","sunday":"Fechado","holiday":"07:00-21:00"},"paymentMethods":["Dinheiro","Multibanco"],"otherServices":null,"observations":null}},{"type":"Feature","geometry":{"type":"Point","coordinates":[-7.44427,38.14576]},"properties":{"id":"pt-77675","source":"PT","name":"TFUEL - BP MOURA","brand":"BP","address":"E.N. 255 KM 95-96","municipality":"Moura","district":"Beja","postalCode":"7860-355","fuels":{"gasoline95":2.109,"gasoline98Plus":2.309,"diesel":2.219,"dieselPremium":2.329,"dieselAgri":1.769},"lastUpdated":"2026-08-24 00:00","extra":{"stationType":"Outro"},"services":["Cafetaria","Multibanco","WC"],"hours":null,"paymentMethods":["Dinheiro"],"otherServices":null,"observations":null}},{"type":"Feature","geometry":{"type":"Point","coordinates":[-8.631363,37.599804]},"properties":{"id":"pt-79153","source":"PT","name":"PA INTERMARCHE ODEMIRA","brand":"INTERMARCHÉ","address":"Horta dos Reis, Vale Passos","municipality":"Odemira","district":"Beja","postalCode":"7630-244","fuels":{"gasoline95":1.959,"gasoline95Plus":1.999,"diesel":2.063,"dieselPremium":2.113},"lastUpdated":"2026-08-24 07:00","extra":{"stationType":"Outro"},"services":["Calibragem de pneus"],"hours":{"weekdays":"08:00-20:00","saturday":"08:00-20:00","sunday":"08:00-20:00","holiday":"08:00-20:00"},"paymentMethods":["Dinheiro"],"otherServices":null,"observations":null}},{"type":"Feature","geometry":{"type":"Point","coordinates":[-8.15134,37.88466]},"properties":{"id":"pt-85800","source":"PT","name":"SUPERALJUSTREL-SUPERMERCADOS LDA","brand":"INTERMARCHÉ","address":"Ramal de Beja","municipality":"Aljustrel","district":"Beja","postalCode":"7600-073","fuels":{"gasoline95":1.889,"gasoline95Plus":1.919,"diesel":1.989,"dieselPremium":2.009},"lastUpdated":"2026-08-18 13:00","extra":{"stationType":"Outro"},"services":["Venda de gás doméstico em garrafas","AUTOvoucher"],"hours":{"weekdays":"Aberto 24 horas","saturday":"Aberto 24 horas","sunday":"Aberto 24 horas","holiday":"Aberto 24 horas"},"paymentMethods":["Dinheiro","Multibanco"],"otherServices":null,"observations":null}},{"type":"Feature","geometry":{"type":"Point","coordinates":[-7.8493,38.0226]},"properties":{"id":"pt-85869","source":"PT","name":"E.S. BEJA II","brand":"REPSOL","address":"Estrada de Acesso ao Bairro da Esperança S/N","municipality":"Beja","district":"Beja","postalCode":"7800-103","fuels":{"gasoline95":2.054,"diesel":2.149,"dieselPremium":2.219,"dieselAgri":1.749},"lastUpdated":"2026-08-25 00:00","extra":{"stationType":"Outro"},"services":["Lavagem","Loja de Conveniência","Venda de carburante de qualidade superior","Venda de gasóleo agrícola"],"hours":{"weekdays":"07:00-22:00","saturday":"07:00-22:00","sunday":"07:00-22:00","holiday":"07:00-22:00"},"paymentMethods":["Dinheiro"],"otherServices":null,"observations":null}},{"type":"Feature","geometry":{"type":"Point","coordinates":[-8.18283,37.93585]},"properties":{"id":"pt-86482","source":"PT","name":"CAMPOS DO ROXO, LDA","brand":"Genérico","address":"Estrada Nacional 383","municipality":"Aljustrel","district":"Beja","postalCode":"7600-411","fuels":{"diesel":2.094,"dieselAgri":1.634},"lastUpdated":"2026-08-18 08:00","extra":{"stationType":"Outro"},"services":["Venda de gás doméstico em garrafas"],"hours":{"weekdays":"08:00-17:00","saturday":"Fechado","sunday":"Fechado","holiday":"Fechado"},"paymentMethods":["Dinheiro","MbWay","Multibanco"],"otherServices":null,"observations":null}},{"type":"Feature","geometry":{"type":"Point","coordinates":[-7.460113,38.139748]},"properties":{"id":"pt-88872","source":"PT","name":"INTERMARCHÉ Moura","brand":"INTERMARCHÉ","address":"Av. dos Bombeiros Voluntários - apartado 136","municipality":"Moura","district":"Beja","postalCode":"7860-107","fuels":{"gasoline95":2.005,"gasoline95Plus":2.045,"diesel":2.101,"dieselPremium":2.151},"lastUpdated":"2026-08-24 09:30","extra":{"stationType":"Outro"},"services":["Cafetaria","Multibanco","WC","WC para deficientes"],"hours":{"weekdays":"08:00-20:00","saturday":"08:00-20:00","sunday":"08:00-20:00","holiday":"08:00-20:00"},"paymentMethods":["Dinheiro","Multibanco","Outros"],"otherServices":null,"observations":null}},{"type":"Feature","geometry":{"type":"Point","coordinates":[-7.79868,38.20628]},"properties":{"id":"pt-89545","source":"PT","name":"TFUEL - VIDIGUEIRA","brand":"TFUEL","address":"BAIRRO INDUSTRIAL","municipality":"Vidigueira","district":"Beja","postalCode":"7960-305","fuels":{"diesel":2.079,"dieselAgri":1.619},"lastUpdated":"2026-08-24 00:00","extra":{"stationType":"Outro"},"services":["Calibragem de pneus","Loja de Conveniência","Multibanco","Venda de gás doméstico em garrafas","Venda de gasóleo agrícola","WC"],"hours":{"weekdays":"07:00-18:00","saturday":"Fechado","sunday":"Fechado","holiday":"Fechado"},"paymentMethods":["Dinheiro"],"otherServices":null,"observations":null}},{"type":"Feature","geometry":{"type":"Point","coordinates":[-7.847322,38.020836]},"properties":{"id":"pt-89780","source":"PT","name":"Posto de Abastecimento CEPSA - Beja","brand":"CEPSA","address":"Estrada das Apolinárias/EN260; União das Freguesias de Salvador e Santa Maria da Feira","municipality":"Beja","district":"Beja","postalCode":"7800-098","fuels":{"gasoline95":2.108,"gasoline95Plus":2.068,"diesel":2.129,"dieselPremium":2.179},"lastUpdated":"2026-08-24 00:00","extra":{"stationType":"Outro"},"services":["Loja de Conveniência","Multibanco","WC"],"hours":null,"paymentMethods":["Dinheiro"],"otherServices":null,"observations":null}},{"type":"Feature","geometry":{"type":"Point","coordinates":[-8.125965,38.06914]},"properties":{"id":"pt-90101","source":"PT","name":"PRIO Ferreira do Alentejo - EN 259 (Norte)","brand":"PRIO","address":"EN 259 Km 42,000","municipality":"Ferreira do Alentejo","district":"Beja","postalCode":"7900-199","fuels":{"gasoline95":2.024,"gasoline95Plus":1.979,"dieselPremium":2.084,"bioDiesel":2.054},"lastUpdated":"2026-08-24 09:15","extra":{"stationType":"Outro"},"services":["Calibragem de pneus"],"hours":{"weekdays":"Aberto 24 horas","saturday":"Aberto 24 horas","sunday":"Aberto 24 horas","holiday":"Aberto 24 horas"},"paymentMethods":["Multibanco"],"otherServices":null,"observations":null}},{"type":"Feature","geometry":{"type":"Point","coordinates":[-8.126368,38.06871]},"properties":{"id":"pt-90102","source":"PT","name":"PRIO Ferreira do Alentejo - EN 259 (Sul)","brand":"PRIO","address":"EN 259 Km 42, Lado Sul","municipality":"Ferreira do Alentejo","district":"Beja","postalCode":"7900-199","fuels":{"gasoline95":2.024,"dieselPremium":2.084,"bioDiesel":2.054},"lastUpdated":"2026-08-24 09:15","extra":{"stationType":"Outro"},"services":["Loja de Conveniência","WC"],"hours":{"weekdays":"Aberto 24 horas","saturday":"Aberto 24 horas","sunday":"Aberto 24 horas","holiday":"Aberto 24 horas"},"paymentMethods":["Dinheiro","Multibanco"],"otherServices":null,"observations":null}},{"type":"Feature","geometry":{"type":"Point","coordinates":[-7.606757,37.938505]},"properties":{"id":"pt-93036","source":"PT","name":"BP Serpa","brand":"BP","address":"Rua da Eira de S. Pedro 7830-348 Serpa","municipality":"Serpa","district":"Beja","postalCode":"7830-348","fuels":{"gasoline95":2.084,"gasoline98Plus":2.284,"diesel":2.189,"dieselPremium":2.299,"dieselAgri":1.734},"lastUpdated":"2026-08-24 00:00","extra":{"stationType":"Outro"},"services":["Calibragem de pneus","Venda de gás doméstico em garrafas","Venda de gasóleo agrícola","WC"],"hours":{"weekdays":"Aberto 24 horas","saturday":"Aberto 24 horas","sunday":"Aberto 24 horas","holiday":"Aberto 24 horas"},"paymentMethods":["Dinheiro","Multibanco"],"otherServices":"Entre as 21h e as 7h, o posto funciona em regime de self-service através de pagamento com cartão multibanco","observations":null}},{"type":"Feature","geometry":{"type":"Point","coordinates":[-8.045855,37.515926]},"properties":{"id":"pt-93081","source":"PT","name":"BP - Almodôvar","brand":"BP","address":"Cerca da Junqueira, Apartado 89","municipality":"Almodôvar","district":"Beja","postalCode":"7700-094","fuels":{"gasoline95":2.109,"gasoline98Plus":2.299,"diesel":2.219,"dieselPremium":2.334,"dieselAgri":1.764},"lastUpdated":"2026-08-24 10:00","extra":{"stationType":"Outro"},"services":["Calibragem de pneus"],"hours":null,"paymentMethods":["Dinheiro"],"otherServices":null,"observations":null}},{"type":"Feature","geometry":{"type":"Point","coordinates":[-7.894024,38.17056]},"properties":{"id":"pt-93105","source":"PT","name":"INTERMARCHE Cuba","brand":"INTERMARCHÉ","address":"Estrada Nacional 258-1, Edifício Intermarché","municipality":"Cuba","district":"Beja","postalCode":"7940-148","fuels":{"gasoline95":1.916,"gasoline98":2.141,"diesel":2.003,"dieselPremium":2.063},"lastUpdated":"2026-08-18 21:40","extra":{"stationType":"Área comercial (Hipermercados)"},"services":["Multibanco","Venda de gás doméstico em garrafas"],"hours":{"weekdays":"Aberto 24 horas","saturday":"Aberto 24 horas","sunday":"Aberto 24 horas","holiday":"Aberto 24 horas"},"paymentMethods":["Dinheiro","Multibanco"],"otherServices":null,"observations":null}},{"type":"Feature","geometry":{"type":"Point","coordinates":[-8.069771,37.41683]},"properties":{"id":"pt-93149","source":"PT","name":"PA Fontes Ferrenhas","brand":"Genérico","address":"FONTES FERRENHAS","municipality":"Almodôvar","district":"Beja","postalCode":"7700-207","fuels":{"gasoline95":2.121,"gasoline98":2.251,"diesel":2.187,"dieselAgri":1.748},"lastUpdated":"2026-08-25 00:00","extra":{"stationType":"Outro"},"services":["Cafetaria","Multibanco","Venda de gás doméstico em garrafas","Venda de gasóleo agrícola","WC"],"hours":{"weekdays":"07:00-22:00","saturday":"09:00-22:00","sunday":"09:00-22:00","holiday":"Fechado"},"paymentMethods":["Dinheiro","MbWay","Multibanco","Outros"],"otherServices":null,"observations":null}},{"type":"Feature","geometry":{"type":"Point","coordinates":[-8.12096,38.06354]},"properties":{"id":"pt-93192","source":"PT","name":" Quinta da Balança, cereais e combustíveis Ldª","brand":"Genérico","address":"Espada e Espada, Lda","municipality":"Ferreira do Alentejo","district":"Beja","postalCode":"7900-116","fuels":{"diesel":2.102,"dieselAgri":1.669},"lastUpdated":"2026-08-24 18:10","extra":{"stationType":"Outro"},"services":["Multibanco","Venda de gasóleo agrícola","WC"],"hours":{"weekdays":"08:00-18:00","saturday":"08:00-12:00","sunday":"Fechado","holiday":"Fechado"},"paymentMethods":["Dinheiro","MbWay","Multibanco"],"otherServices":null,"observations":null}},{"type":"Feature","geometry":{"type":"Point","coordinates":[-8.08499,37.70544]},"properties":{"id":"pt-93467","source":"PT","name":"OZ ENERGIA - CASTRO VERDE(Intermarché)","brand":"OZ Energia","address":"R. Seara Nova","municipality":"Castro Verde","district":"Beja","postalCode":"7780-163","fuels":{"lpg":0.984},"lastUpdated":"2026-08-23 23:50","extra":{"stationType":"Outro"},"services":[],"hours":{"weekdays":"08:00-20:30","saturday":"08:00-20:30","sunday":"08:00-20:30","holiday":"08:00-20:30"},"paymentMethods":["Dinheiro","Multibanco","Outros"],"otherServices":null,"observations":null}},{"type":"Feature","geometry":{"type":"Point","coordinates":[-7.23104,38.21192]},"properties":{"id":"pt-93534","source":"PT","name":"ALFABRENT Amareleja","brand":"BP","address":"EN 386","municipality":"Moura","district":"Beja","postalCode":"7885-013","fuels":{"gasoline95":2.069,"diesel":2.179,"dieselPremium":1.799,"dieselAgri":1.744},"lastUpdated":"2026-08-24 05:15","extra":{"stationType":"Outro"},"services":["Cafetaria","Calibragem de pneus","Descanso de pesados","Lavagem","Loja de Conveniência","Venda de carburante de qualidade superior","Venda de gás doméstico em garrafas","Venda de gasóleo agrícola","WC","WC para deficientes"],"hours":{"weekdays":"07:00-20:00","saturday":"07:00-14:30","sunday":"08:00-15:30","holiday":"07:00-20:00"},"paymentMethods":["Dinheiro","MbWay","Multibanco"],"otherServices":null,"observations":null}},{"type":"Feature","geometry":{"type":"Point","coordinates":[-8.108497,38.059094]},"properties":{"id":"pt-93582","source":"PT","name":"FERREIRA ALENTEJO","brand":"INTERMARCHÉ","address":"EN 121","municipality":"Ferreira do Alentejo","district":"Beja","postalCode":"7900-000","fuels":{"gasoline95":1.97,"diesel":2.055,"dieselPremium":2.105},"lastUpdated":"2026-08-24 12:00","extra":{"stationType":"Outro"},"services":["WC"],"hours":{"weekdays":"07:00-23:00","saturday":"07:00-23:00","sunday":"07:00-23:00","holiday":"07:00-23:00"},"paymentMethods":["Dinheiro","Multibanco"],"otherServices":null,"observations":null}},{"type":"Feature","geometry":{"type":"Point","coordinates":[-7.902474,38.035454]},"properties":{"id":"pt-93660","source":"PT","name":"ALVES BANDEIRA Beja","brand":"ALVES BANDEIRA","address":"Estrada Nacional 121, km 71,100, Monte Olival do Outeiro","municipality":"Beja","district":"Beja","postalCode":"7800-006","fuels":{"diesel":2.189},"lastUpdated":"2026-08-24 13:20","extra":{"stationType":"Outro"},"services":["Calibragem de pneus"],"hours":{"weekdays":"09:00-18:00","saturday":null,"sunday":null,"holiday":null},"paymentMethods":["Dinheiro"],"otherServices":null,"observations":null}},{"type":"Feature","geometry":{"type":"Point","coordinates":[-7.982961,38.06249]},"properties":{"id":"pt-93810","source":"PT","name":"PA Cooperativa Agrícola de Beringel","brand":"Genérico","address":"EM Beringel - Trigaches","municipality":"Beja","district":"Beja","postalCode":"7800-847","fuels":{"diesel":2.099,"dieselAgri":1.639},"lastUpdated":"2026-08-25 00:00","extra":{"stationType":"Outro"},"services":["Calibragem de pneus"],"hours":{"weekdays":"08:00-17:30","saturday":"Fechado","sunday":"Fechado","holiday":"Fechado"},"paymentMethods":["Dinheiro"],"otherServices":null,"observations":"Em dias úteis, o posto de abastecimento de combustível, da Cooperativa Agrícola de Beringel, CRL., funciona no seguinte horário:\r\n8h00min - 12h30min\r\n16h00min - 17h30min"}},{"type":"Feature","geometry":{"type":"Point","coordinates":[-7.479854,38.02342]},"properties":{"id":"pt-93812","source":"PT","name":"Repsol- Jaime Coelho- Pias (Serpa)","brand":"REPSOL","address":"Rua João Tiago Coelho n. 176","municipality":"Serpa","district":"Beja","postalCode":"7830-257","fuels":{"gasoline95":2.049,"diesel":2.154,"dieselPremium":2.189,"dieselAgri":1.775},"lastUpdated":"2026-08-18 14:35","extra":{"stationType":"Outro"},"services":["Loja de Conveniência","Multibanco","WC"],"hours":{"weekdays":"07:00-22:00","saturday":"07:00-22:00","sunday":"09:00-22:00","holiday":null},"paymentMethods":["Dinheiro"],"otherServices":null,"observations":null}},{"type":"Feature","geometry":{"type":"Point","coordinates":[-7.307253,37.946495]},"properties":{"id":"pt-93824","source":"PT","name":"PA Vila Verde de Ficalho","brand":"ALVES BANDEIRA","address":" Rua do Outeiro nº 54  ","municipality":"Serpa","district":"Beja","postalCode":"7830-654","fuels":{"gasoline95":2.069,"diesel":2.154,"dieselPremium":2.174,"dieselAgri":1.729},"lastUpdated":"2026-08-17 17:50","extra":{"stationType":"Outro"},"services":["Cafetaria","Multibanco","Restaurante","WC"],"hours":{"weekdays":"07:00-22:00","saturday":"07:00-22:00","sunday":"Fechado","holiday":"Fechado"},"paymentMethods":["Dinheiro"],"otherServices":null,"observations":null}},{"type":"Feature","geometry":{"type":"Point","coordinates":[-8.665181,37.576244]},"properties":{"id":"pt-93828","source":"PT","name":"ASCOL Boavista dos Pinheiros","brand":"Genérico","address":"ZONA INDUSTRIAL LOTE 24/25","municipality":"Odemira","district":"Beja","postalCode":"7630-033","fuels":{"gasoline95":2.079,"gasoline98":2.149,"diesel":2.179,"dieselPremium":2.229,"dieselAgri":1.734},"lastUpdated":"2026-08-17 10:15","extra":{"stationType":"Outro"},"services":["Multibanco"],"hours":{"weekdays":"07:00-00:00","saturday":"07:00-00:00","sunday":"07:00-00:00","holiday":null},"paymentMethods":["Dinheiro"],"otherServices":null,"observations":null}},{"type":"Feature","geometry":{"type":"Point","coordinates":[-7.523446,37.77302]},"properties":{"id":"pt-93836","source":"PT","name":"Repsol Vale do Poço - O Gasolinas","brand":"BP","address":"O Gasolinas","municipality":"Serpa","district":"Beja","postalCode":"7830-500","fuels":{"gasoline95":2.104,"diesel":2.214,"dieselPremium":2.264,"dieselAgri":1.764},"lastUpdated":"2026-08-24 09:55","extra":{"stationType":"Outro"},"services":["Loja de Conveniência","WC"],"hours":{"weekdays":"07:30-21:00","saturday":"07:30-21:00","sunday":"07:30-21:00","holiday":"07:30-21:00"},"paymentMethods":["Dinheiro"],"otherServices":null,"observations":null}},{"type":"Feature","geometry":{"type":"Point","coordinates":[-8.494673,37.813126]},"properties":{"id":"pt-94105","source":"PT","name":"PA Velomobil Combustíveis","brand":"Genérico","address":"Rua 4 de Outubro","municipality":"Odemira","district":"Beja","postalCode":"7630-711","fuels":{"gasoline95":2.153,"gasolineMix":2.5,"diesel":2.153,"dieselPremium":2.153,"dieselAgri":1.727},"lastUpdated":"2026-08-19 00:15","extra":{"stationType":"Outro"},"services":["Cafetaria","Loja de Conveniência","WC"],"hours":{"weekdays":"07:00-23:00","saturday":"07:00-23:00","sunday":"07:00-23:00","holiday":null},"paymentMethods":["Dinheiro"],"otherServices":null,"observations":null}},{"type":"Feature","geometry":{"type":"Point","coordinates":[-6.979896,38.13432]},"properties":{"id":"pt-94180","source":"PT","name":"3216 GALP Barrancos","brand":"GALP","address":"Estrada Nacional 258","municipality":"Barrancos","district":"Beja","postalCode":"7230-003","fuels":{"gasoline95":2.039,"diesel":2.133,"dieselAgri":1.714},"lastUpdated":"2026-08-17 22:10","extra":{"stationType":"Outro"},"services":["Calibragem de pneus"],"hours":null,"paymentMethods":["Dinheiro"],"otherServices":null,"observations":null}},{"type":"Feature","geometry":{"type":"Point","coordinates":[-7.221868,38.108067]},"properties":{"id":"pt-94492","source":"PT","name":"PA Safara","brand":"Genérico","address":"Largo das Ameias s/n","municipality":"Moura","district":"Beja","postalCode":"7875-064","fuels":{"gasoline95":2.029,"diesel":2.129,"dieselAgri":1.719},"lastUpdated":"2026-08-19 22:20","extra":{"stationType":"Outro"},"services":["Calibragem de pneus"],"hours":{"weekdays":"07:00-20:00","saturday":"07:00-20:00","sunday":"07:00-20:00","holiday":null},"paymentMethods":["Dinheiro"],"otherServices":null,"observations":null}},{"type":"Feature","geometry":{"type":"Point","coordinates":[-7.802411,38.211456]},"properties":{"id":"pt-94629","source":"PT","name":"CEPSA Vidigueira  (Centro)","brand":"CEPSA","address":"Largo Frei Antonio das Chagas, S/N","municipality":"Vidigueira","district":"Beja","postalCode":"7960-220","fuels":{"gasoline95":2.018,"gasoline98Plus":2.23,"diesel":2.129,"dieselPremium":2.179,"dieselAgri":1.674},"lastUpdated":"2026-08-24 00:00","extra":{"stationType":"Outro"},"services":["Cafetaria","Loja de Conveniência","Multibanco","WC"],"hours":{"weekdays":"07:00-23:00","saturday":"07:00-23:00","sunday":"07:00-23:00","holiday":"07:00-23:00"},"paymentMethods":["Dinheiro"],"otherServices":null,"observations":null}},{"type":"Feature","geometry":{"type":"Point","coordinates":[-7.221854,38.10837]},"properties":{"id":"pt-94720","source":"PT","name":"ALFABRENT - ALFA SAFARA","brand":"Genérico","address":"Estrada Nacional 258 KM 77","municipality":"Moura","district":"Beja","postalCode":"7875-018","fuels":{"gasoline95":2.049,"diesel":2.159,"dieselPremium":2.219,"dieselAgri":1.744},"lastUpdated":"2026-08-24 05:45","extra":{"stationType":"Outro"},"services":["Cafetaria","Loja de Conveniência","Venda de gás doméstico em garrafas","WC"],"hours":{"weekdays":"07:00-19:30","saturday":"07:00-19:30","sunday":"07:00-19:30","holiday":"07:00-19:30"},"paymentMethods":["Dinheiro","MbWay","Multibanco"],"otherServices":null,"observations":null}},{"type":"Feature","geometry":{"type":"Point","coordinates":[-8.66728,37.71869]},"properties":{"id":"pt-94790","source":"PT","name":"PA São Luís - Odemira","brand":"MOEVE","address":"Estrada Municipal 532 - Corte Pinheiro","municipality":"Odemira","district":"Beja","postalCode":"7630-496","fuels":{"gasoline95":2.018,"diesel":2.129,"dieselPremium":2.179,"dieselAgri":1.674},"lastUpdated":"2026-08-24 18:15","extra":{"stationType":"Outro"},"services":["Loja de Conveniência","Multibanco","Venda de gás doméstico em garrafas","Venda de gasóleo agrícola","WC"],"hours":{"weekdays":"07:00-22:00","saturday":"07:00-22:00","sunday":"07:00-22:00","holiday":"07:00-22:00"},"paymentMethods":["Dinheiro","Multibanco"],"otherServices":null,"observations":"Horário de"}},{"type":"Feature","geometry":{"type":"Point","coordinates":[-8.71566,37.50998]},"properties":{"id":"pt-95263","source":"PT","name":"PA CEPSA SÃO TEOTÓNIO","brand":"CEPSA","address":"LOTEAMENTO INDUSTRIAL DA BEMPOSTA, LOTE 7","municipality":"Odemira","district":"Beja","postalCode":"7630-614","fuels":{"gasoline95":2.018,"gasoline98Plus":2.23,"diesel":2.129,"dieselPremium":2.179,"dieselAgri":1.674},"lastUpdated":"2026-08-25 00:00","extra":{"stationType":"Outro"},"services":["Cafetaria","WC"],"hours":{"weekdays":"07:00-21:00","saturday":"07:00-21:00","sunday":"07:00-21:00","holiday":"07:00-21:00"},"paymentMethods":["Dinheiro"],"otherServices":null,"observations":null}}]}